{"type":"FeatureCollection","crs":{"type":"name","properties":{"name":"EPSG:25833"}},"features":[{"type":"Feature","id":152,"geometry":{"type":"Polygon","coordinates":[[[138194.83000000007,6832236.4899999984],[138065.8200000003,6832255.4499999993],[137902.75,6832232.2899999991],[137753.79000000004,6832253.0899999999],[137475.28000000026,6832167.1600000001],[137415.41999999993,6832096.25],[137321.33000000007,6832057.6600000001],[137234.15000000037,6832028.5],[137194.16000000015,6831965.8099999987],[137014.33000000007,6831772.1900000013],[136961.69000000041,6831735.8099999987],[136901.29000000004,6831669.9800000004],[136903.66000000015,6831554.0799999982],[136824.75999999978,6831364.2199999988],[136827.25,6831195.0100000016],[136781.16999999993,6831186.1900000013],[136670.25999999978,6831183.3599999994],[136548.09999999963,6831232.8599999994],[136390.9299999997,6831284.5899999999],[136267.37000000011,6831308.0700000003],[136144.65000000037,6831286.2199999988],[136027.91999999993,6831274.870000001],[135940.28000000026,6831240.7100000009],[135854.40000000037,6831236.5799999982],[135792.75,6831309.6600000001],[135816.73000000045,6831209.879999999],[135823.62999999989,6831088.5399999991],[135796.83000000007,6830994.4499999993],[135730.59999999963,6830909.0300000012],[135614.33999999985,6830837.3000000007],[135601.20000000019,6830716.7899999991],[135611.79000000004,6830581.0300000012],[135615.46999999974,6830424.7899999991],[135616.84999999963,6830374.3599999994],[135613.24000000022,6830324.3999999985],[135703.25999999978,6830242.6600000001],[135821.36000000034,6830138.2100000009],[135930.94000000041,6830016.2399999984],[135956.34999999963,6829987.9400000013],[136105,6829811.2600000016],[136160.83000000007,6829795.0399999991],[136196.83999999985,6829757.7899999991],[136235.66000000015,6829732.4100000001],[136272.4299999997,6829698.0899999999],[136338.61000000034,6829673.5799999982],[136375.37999999989,6829649.0700000003],[136399.88999999966,6829627.0100000016],[136424.40000000037,6829595.1400000006],[136448.91999999993,6829570.629999999],[136497.94000000041,6829521.6000000015],[136517.54999999981,6829472.5799999982],[136534.70999999996,6829396.5899999999],[136556.76999999955,6829345.1099999994],[136600.88999999966,6829264.2199999988],[136589.70999999996,6829221.3599999994],[136590.45999999996,6829208.1799999997],[136587.30999999959,6829097.8299999982],[136588.48000000045,6829092.9299999997],[136578.83000000007,6829080.3900000006],[136576.37999999989,6829026.4499999993],[136615.59999999963,6828950.4600000009],[136652.36000000034,6828830.3500000015],[136718.54999999981,6828764.1700000018],[136750.28000000026,6828748.8500000015],[136789.63999999966,6828729.8500000015],[136811.70000000019,6828700.4400000013],[136833.12999999989,6828672.1099999994],[136880.33000000007,6828609.7399999984],[136939.16000000015,6828536.1999999993],[137016.55999999959,6828510.8999999985],[137066.62999999989,6828494.5300000012],[137099.63999999966,6828448.0199999996],[137137.71999999974,6828386.6799999997],[137194.08999999985,6828310.6900000013],[137260.29000000004,6828227.3500000015],[137289.70000000019,6828166.0700000003],[137336.26999999955,6828102.3399999999],[137414.70999999996,6828018.9899999984],[137475.99000000022,6827940.5500000007],[137515.20999999996,6827859.6600000001],[137542.16999999993,6827744.4499999993],[137542.16999999993,6827719.9400000013],[137614.80999999959,6827556.5399999991],[137657.37999999989,6827506.6799999997],[137677.5,6827451.1799999997],[137708.4299999997,6827394],[137756.62999999989,6827360.379999999],[137814.79999999981,6827325.8500000015],[137897.53000000026,6827219.629999999],[137963.78000000026,6827158.6099999994],[138014.78000000026,6827095.1499999985],[138061.98000000045,6827061.620000001],[138154.98000000045,6826991.9299999997],[138165.20000000019,6826883.1099999994],[138218.9299999997,6826789.6400000006],[138210.3200000003,6826663.6999999993],[138257.12999999989,6826549.7399999984],[138320.83999999985,6826455.3399999999],[138355.91000000015,6826377.6700000018],[138387.84999999963,6826325.1900000013],[138400.11000000034,6826273.7100000009],[138381.71999999974,6826221.3999999985],[138432.25999999978,6826180.5199999996],[138486.8200000003,6826096.0199999996],[138540.8200000003,6826016.6000000015],[138599.08000000007,6825917.6799999997],[138660.01999999955,6825847.6900000013],[138729.53000000026,6825761.8099999987],[138797.75,6825661.9600000009],[138790.08999999985,6825557.0599999987],[138827.84999999963,6825454],[138846.03000000026,6825356.7600000016],[138935.12999999989,6825265.0500000007],[138952.38999999966,6825157.8500000015],[138987.41999999993,6825112.370000001],[139031.51999999955,6825067.0599999987],[139072.5,6824998.8999999985],[139095.6799999997,6824901.2100000009],[139115.79000000004,6824824.9200000018],[139083.94000000041,6824741.3599999994],[139033.58999999985,6824664.5399999991],[139070.88999999966,6824556.4899999984],[139049.08999999985,6824461.9400000013],[139010.58000000007,6824349.8200000003],[139022.9299999997,6824233.0100000016],[139041.58000000007,6824140.7600000016],[139114.79999999981,6824105.8399999999],[139068.51999999955,6823953.1999999993],[139112.65000000037,6823864.6400000006],[139156.24000000022,6823781.1600000001],[139270.36000000034,6823611.6999999993],[139294.54000000004,6823524.9800000004],[139328.99000000022,6823451.3900000006],[139331.75,6823350.5599999987],[139391.38999999966,6823266.6000000015],[139465.90000000037,6823180.2600000016],[139527.38999999966,6823050.870000001],[139511.03000000026,6822960.8500000015],[139540.20000000019,6822873.6700000018],[139596.99000000022,6822758.7899999991],[139671.96999999974,6822688.5],[139746.94000000041,6822672.5300000012],[139805.95999999996,6822658.0300000012],[139852.84999999963,6822534.0100000016],[139898.28000000026,6822470.4699999988],[139932.44000000041,6822382.8299999982],[140065.04999999981,6822479.2199999988],[140135.49000000022,6822403.3200000003],[140232.65000000037,6822366.1900000013],[140325.8200000003,6822329.4299999997],[140429.96999999974,6822302.7199999988],[140506.24000000022,6822246.4100000001],[140614.36000000034,6822208.2600000016],[140683.05999999959,6822178.7800000012],[140770.3200000003,6822001.75],[140829.27950000018,6821975.5658],[140869.3814000003,6822003.7454999983],[140906.01730000041,6822029.1088999994],[140920.81269999966,6822048.1314000003],[140963.78940000013,6822064.3357999995],[140999.01630000025,6822060.1086000018],[141077.21999999974,6822013.6090999991],[141105.40160000045,6821991.0637999997],[141108.82940000016,6821988.1772000007],[141120.19689999986,6821965.7005000003],[141141.33299999963,6821933.2917000018],[141144.15110000037,6821915.6783000007],[141158.94639999978,6821874.815200001],[141157.53729999997,6821856.497200001],[141152.84470000025,6821822.9904999994],[141149.08279999997,6821814.9294000007],[141139.92389999982,6821769.1343999989],[141169.51439999975,6821716.2941000015],[141205.4458999997,6821638.0905000009],[141222.95000000019,6821576.7699999996],[141258.49000000022,6821504.1000000015],[141303.91999999993,6821440.5500000007],[141367.54000000004,6821345.1600000001],[141364.60059999954,6821303.1295000017],[141323.80829999968,6821249.1856000014],[141272.16050000023,6821147.8040999994],[141297.29590000026,6820993.0223000012],[141343.59810000006,6820805.1680000015],[141376.67109999992,6820739.0218999982],[141450.75449999981,6820699.3343999982],[141589.89549999963,6820606.8977999985],[141591.58000000007,6820524.870000001],[141636.54999999981,6820456.3500000015],[141673.86000000034,6820348.3000000007],[141718.45000000019,6820264.7300000004],[141767.5700000003,6820175.6999999993],[141802.5700000003,6820108.1099999994],[141876.16000000015,6820077.1799999997],[141918.8200000003,6820114.4800000004],[141988.73000000045,6820174.4100000001],[142050.12999999989,6820185.8500000015],[142136.37000000011,6820193.9800000004],[142222.1799999997,6820273.5700000003],[142235.34119999968,6820281.4884000011],[142276.43030000012,6820282.2221999988],[142334.73720000032,6820258.0023000017],[142374.20660000015,6820215.8418999985],[142394.1409,6820162.2602000013],[142394.83829999994,6820048.0973000005],[142431.18499999959,6819981.4151999988],[142441.48379999958,6819890.2201999985],[142441.48379999958,6819854.3388999999],[142462.11550000031,6819765.5329999998],[142497.09970000014,6819691.0795000009],[142521.31940000039,6819636.3605999984],[142559.89169999957,6819510.7765999995],[142602.0521999998,6819421.0736000016],[142626.27190000005,6819382.5012999997],[142695.62999999989,6819354.8399999999],[142754.1799999997,6819335.3599999994],[142828.70000000019,6819325.4600000009],[142898.6799999997,6819309.9499999993],[143016.41000000015,6819266.9100000001],[143129.88999999966,6819243.3599999994],[143261.29000000004,6819173.9100000001],[143374.40000000037,6819135.3099999987],[143428.55999999959,6819152.0700000003],[143458.58000000007,6819143.3599999994],[143500.78000000026,6819128.4600000009],[143543.03639999963,6819134.0240999982],[143595.06410000008,6819098.1427999996],[143663.23840000015,6819049.7030999996],[143734.89300000016,6819025.1972000003],[143752.94139999989,6818942.059700001],[143790.6166000003,6818872.9882999994],[143813.04229999986,6818828.1369000003],[143832,6818786.3299999982],[143825.60080000013,6818744.7131000012],[143787.5493999999,6818700.3295000009],[143771.40000000037,6818659.2199999988],[143756.50999999978,6818587.2199999988],[143714.29999999981,6818477.9800000004],[143714.29999999981,6818401.0100000016],[143704.62999999989,6818336.5199999996],[143699.40000000037,6818301.6999999993],[143689.46999999974,6818224.7399999984],[143705.70000000019,6818186.879999999],[143726.70999999996,6818137.8399999999],[143811.12999999989,6818090.6700000018],[143867.87999999989,6818085],[143930.29999999981,6818043.5],[143962.58000000007,6817996.3200000003],[143991.87999999989,6817990.0799999982],[144004.78000000026,6817941.6999999993],[144054.50999999978,6817919.8200000003],[144066.84999999963,6817914.3900000006],[144126.44000000041,6817884.6000000015],[144148.78000000026,6817864.7399999984],[144183.54000000004,6817837.4299999997],[144277.75,6817763.5500000007],[144297.75,6817745.5700000003],[144415.57770000026,6817721.1469999999],[144519.6054999996,6817531.5841000006],[144474.68410000019,6817446.4699999988],[144429.64690000005,6817386.063000001],[144347.62579999957,6817249.8022999987],[144300.58609999996,6817110.3960999995],[144278.82519999985,6817030.6059000008],[144216.3870000001,6816990.0056000017],[144129.34420000017,6816934.9475000016],[144087.75189999957,6816863.2338000014],[144089.20000000019,6816839.3599999994],[144086.70999999996,6816784.7399999984],[144066.84999999963,6816682.9400000013],[144120.6799999997,6816649.5500000007],[144198.44000000041,6816638.2600000016],[144331.29999999981,6816632.129999999],[144414.44000000041,6816628.3200000003],[144513.75,6816665.5700000003],[144543.20000000019,6816686.8399999999],[144663.49000000022,6816667.870000001],[144764.50999999978,6816620.879999999],[144794.29999999981,6816598.5300000012],[144829.05999999959,6816521.5700000003],[144856.37000000011,6816457.0100000016],[144928.37000000011,6816385.0100000016],[144963.12999999989,6816315.5],[145027.6799999997,6816260.879999999],[145046.71999999974,6816228.5],[145016.24000000022,6816141.5],[145040.40000000037,6816032.6600000001],[145059.19000000041,6815970.5799999982],[145065.86000000034,6815948.8399999999],[145039.78000000026,6815840.6099999994],[145055.44000000041,6815748.629999999],[145011.5700000003,6815621.9400000013],[145091.34999999963,6815472.7699999996],[145103.16000000015,6815349.9800000004],[145131.01999999955,6815226.7100000009],[145169.15000000037,6815116.5899999999],[145145.04999999981,6815073.5500000007],[145162.30999999959,6814955.2899999991],[145194.49000000022,6814894.2300000004],[145233.04999999981,6814826.0100000016],[145295.33999999985,6814751.8500000015],[145372.45999999996,6814680.6600000001],[145425.86000000034,6814609.4699999988],[145485.1799999997,6814553.1099999994],[145505.36000000034,6814465.6900000013],[145560.98579999991,6814359.2221999988],[145609.04000000004,6814313.6400000006],[145600.87000000011,6814209.0199999996],[145639.4299999997,6814117.0700000003],[145669.08999999985,6814054.7800000012],[145743.25,6813980.620000001],[145802.5700000003,6813933.1600000001],[145850.03000000026,6813903.5],[145964.51999999955,6813903.5],[145992.70999999996,6813838.7300000004],[146089.58000000007,6813798.620000001],[146282.16000000015,6813662.1799999997],[146353.87999999989,6813578.120000001],[146414.09999999963,6813380.4699999988],[146401.6799999997,6813311.2100000009],[146462.19000000041,6813269.4200000018],[146512.8200000003,6813218.4899999984],[146529.83999999985,6813141.4800000004],[146605.01999999955,6813138.5799999982],[146767.54999999981,6813101.4600000009],[146893.48000000045,6813092.870000001],[146989.80999999959,6813046.7699999996],[147161.84999999963,6813003.75],[147451.24000000022,6812979.0799999982],[147512.5700000003,6813077.0100000016],[147789.90000000037,6813259.6400000006],[147811.83999999985,6813322.9899999984],[147871.41999999993,6813401.9800000004],[147962.21999999974,6813503.2300000004],[148080.5700000003,6813521.4899999984],[148119.61000000034,6813552.0799999982],[148148.66999999993,6813594.6600000001],[148216.70000000019,6813612.5300000012],[148276.45000000019,6813606.0199999996],[148377.38999999966,6813555.4699999988],[148461.45999999996,6813496.4200000018],[148495.5,6813527.4800000004],[148815.48000000045,6813594.5199999996],[148837.87000000011,6813662.8599999994],[148880.8200000003,6813779.5899999999],[148901.74000000022,6813831.9699999988],[148962.1799999997,6813876.6799999997],[149062.19000000041,6813870.4800000004],[149100.86000000034,6813897.0899999999],[149138.20000000019,6813964.0399999991],[149236.8200000003,6813942.879999999],[149328.46999999974,6813998.8000000007],[149444.28000000026,6813945.879999999],[149545.91000000015,6814000.870000001],[149709.19000000041,6814059.2300000004],[149765.48000000045,6814113.379999999],[149783.79999999981,6814192.1499999985],[149844.46999999974,6814337.4200000018],[149911.79999999981,6814445.8599999994],[149957.28000000026,6814491.9600000009],[150017.1799999997,6814530.6900000013],[150102.30999999959,6814526.8599999994],[150197.11000000034,6814562.3599999994],[150378.71999999974,6814557.6900000013],[150339.45000000019,6814622.6600000001],[150345.51999999955,6814677.4200000018],[150385.08999999985,6814714],[150459.70000000019,6814705.1000000015],[150555.54999999981,6814784.7699999996],[150601.55999999959,6814814.7199999988],[150654.78000000026,6814813.8399999999],[150716.83000000007,6814766.879999999],[150781.19000000041,6814755.9100000001],[150949.95000000019,6814775.5500000007],[150970.04000000004,6814884.3299999982],[150988.37999999989,6814974.1600000001],[150953.24000000022,6815072.9400000013],[150990.98000000045,6815154.9499999993],[151100.44000000041,6815240.3999999985],[151171.62000000011,6815248.9200000018],[151277.79000000004,6815244.1600000001],[151305.54999999981,6815327.0899999999],[151398.37999999989,6815243.0899999999],[151461.73000000045,6815221.1600000001],[151507.21999999974,6815267.2600000016],[151504.69000000041,6815348.9499999993],[151548.09999999963,6815328.8399999999],[151618.83000000007,6815332.3900000006],[151673.8200000003,6815372.5700000003],[151734.19000000041,6815427.3500000015],[151874.25999999978,6815626.6400000006],[151882.75999999978,6815816.9400000013],[151871.12000000011,6815854.2199999988],[151790.49000000022,6815906.9200000018],[151774.23000000045,6815948.6499999985],[152013.40000000037,6816284.629999999],[152055.12999999989,6816300.8900000006],[152089.33000000007,6816388.25],[152149.24000000022,6816438.0399999991],[152182.91000000015,6816530.4800000004],[152306.71999999974,6816706.120000001],[152389.41000000015,6816566.75],[152540.20999999996,6816511.6000000015],[152550.11000000034,6816662.5500000007],[152562.45999999996,6816741.870000001],[152583.40000000037,6816805.3200000003],[152635.25,6816865.8999999985],[152731.13999999966,6816978.75],[152799.55999999959,6816946.2899999991],[152842.51999999955,6816866.8999999985],[152879.95999999996,6816793.0500000007],[152951.51999999955,6816740.1799999997],[153025.84999999963,6816728.3000000007],[153127.33999999985,6816683.7399999984],[153156.55999999959,6816564.379999999],[153218.62000000011,6816528.4800000004],[153426.25999999978,6816533.4699999988],[153497.51999999955,6816531.9200000018],[153594.01999999955,6816487.8200000003],[153712.61000000034,6816410.5100000016],[153690.29000000004,6816332.1099999994],[153680.70999999996,6816282.7100000009],[153695.58999999985,6816226.0199999996],[153718.61000000034,6816148.4699999988],[153746.58999999985,6816124.7699999996],[153803.66999999993,6816089.3299999982],[153855.29999999981,6816049.370000001],[153916.96999999974,6816063.7899999991],[154038.38999999966,6816006.3299999982],[154130.37000000011,6815967.6799999997],[154219.34999999963,6815994.6700000018],[154306.33999999985,6815956.4800000004],[154419.70999999996,6815844.4400000013],[154452.15000000037,6815901.7899999991],[154565.21999999974,6815971.8200000003],[154716.40000000037,6816073.5300000012],[154748.99000000022,6816045.379999999],[154810.21999999974,6816054.8200000003],[154892.20999999996,6816006.0300000012],[154992,6816052.1400000006],[155065.55999999959,6816075.5199999996],[155322.75999999978,6815920.0500000007],[155524.96999999974,6815866.2100000009],[155598.33999999985,6815833.2899999991],[155717.08000000007,6815812.2800000012],[155820.09999999963,6815827.9200000018],[155854.69000000041,6815930.3299999982],[155966.75999999978,6815935.0799999982],[156027.50999999978,6815939.5199999996],[156089.01999999955,6815897.6499999985],[156139.36000000034,6815845.2100000009],[156191.96999999974,6815789.9800000004],[156236.6799999997,6815740],[156276.13999999966,6815711.0700000003],[156315.58999999985,6815718.9600000009],[156360.30999999959,6815771.5599999987],[156357.6799999997,6815861],[156323.48000000045,6815955.6900000013],[156297.1799999997,6816008.2899999991],[156286.66000000015,6816029.3399999999],[156254.87000000011,6816049.3000000007],[156155.13999999966,6816092.4600000009],[156134.09999999963,6816129.2899999991],[156114.6799999997,6816219.120000001],[156134.09999999963,6816289.7399999984],[156170.91999999993,6816289.7399999984],[156228.91000000015,6816297.6600000001],[156251.66000000015,6816275.8900000006],[156301.03000000026,6816266.3000000007],[156374.04999999981,6816294.7600000016],[156396.70999999996,6816327.5199999996],[156444.48000000045,6816381.8000000007],[156518.12999999989,6816400.2100000009],[156568.09999999963,6816450.1900000013],[156623.33999999985,6816484.379999999],[156656.28000000026,6816504.1499999985],[156745.83999999985,6816476.6900000013],[156926.41000000015,6816515.3500000015],[156986.99000000022,6816463.5],[157083.95999999996,6816424.3900000006],[157175.70999999996,6816410.7300000004],[157301.95999999996,6816363.3900000006],[157354.5700000003,6816387.0599999987],[157362.45999999996,6816442.3000000007],[157336.16000000015,6816576.4400000013],[157333.53000000026,6816657.9800000004],[157341.41999999993,6816771.0899999999],[157338.79000000004,6816857.8900000006],[157338.79000000004,6816891.6900000013],[157420.33000000007,6816942.0599999987],[157490.23000000045,6816971.3099999987],[157635.45999999996,6816962.8500000015],[157745.59999999963,6816946.6600000001],[157837.11000000034,6816903.0100000016],[157861.96999999974,6816845.4100000001],[157865.95999999996,6816779.6700000018],[157846.54999999981,6816634.629999999],[157874.54999999981,6816556.629999999],[157988.75,6816530],[158069.44000000041,6816532.6099999994],[158119.30999999959,6816528.0199999996],[158190.04000000004,6816466.1799999997],[158307.70000000019,6816378.8999999985],[158395.13999999966,6816345.6900000013],[158444.00999999978,6816275.8099999987],[158480.51999999955,6816180.9299999997],[158503.99000000022,6816108.370000001],[158608.0700000003,6816037.4200000018],[158661.46999999974,6815962.0899999999],[158730.28000000026,6815890.379999999],[158739.54999999981,6815772.870000001],[158990.59999999963,6815703.4499999993],[159025.36000000034,6815589.620000001],[159083.74000000022,6815513.8399999999],[159166.11000000034,6815480.1000000015],[159222.25999999978,6815434.6900000013],[159233.21860000025,6815401.6790999994],[159249.6353000002,6815385.7707999982],[159283.70629999973,6815277.8627999984],[159356.1799999997,6815240.3099999987],[159447.63999999966,6815141.370000001],[159489.4299999997,6815005.7699999996],[159522.5700000003,6814972.5500000007],[159617.29999999981,6814963.8000000007],[159680.58000000007,6815093.7399999984],[159749.99000000022,6815137.620000001],[159815.71999999974,6815141.620000001],[159924.48000000045,6815110.4699999988],[160001.1799999997,6815178.8200000003],[160061.54999999981,6815168.2199999988],[160112.71999999974,6815123.2800000012],[160146.37999999989,6815215.6999999993],[160209.12000000011,6815285.3500000015],[160277.54999999981,6815263.9499999993],[160348.73000000045,6815272.4699999988],[160430.80999999959,6815224.6799999997],[160454.12000000011,6815161.1799999997],[160487.25999999978,6815127.9600000009],[160546.62999999989,6815117.4499999993],[160596.55999999959,6815168.1600000001],[160659.0700000003,6815137.25],[160721.20999999996,6815091.3000000007],[160775.28000000026,6814979.7100000009],[160892.25999999978,6814928.6900000013],[160993.65000000037,6814883.1499999985],[161073.5,6814865.7199999988],[161121.59999999963,6814896.4800000004],[161258.66000000015,6814954.2399999984],[161354.76999999955,6814960.4499999993],[161619.08000000007,6814980.3299999982],[161680.37000000011,6814979.7100000009],[161744.25999999978,6814963.7600000016],[161843.36000000034,6814893.2699999996],[161892.6799999997,6814828.3999999985],[161929.74000000022,6814739.4899999984],[162023.54000000004,6814709.7300000004],[162202.41999999993,6814577.5700000003],[162217.84119999968,6814497.7908999994],[162245.33029999956,6814496.6763999984],[162321.43360000011,6814480.1169999987],[162358.80470000021,6814486.1068999991],[162381.85720000044,6814568.0910999998],[162410.88889999967,6814611.7419000007],[162464.15720000025,6814640.9871999994],[162504.67949999962,6814636.1823000014],[162518.76109999977,6814604.6928000003],[162541.35859999992,6814570.3445000015],[162560.71729999967,6814569.5089000016],[162585.19799999986,6814560.4015999995],[162604.17980000004,6814547.7470000014],[162596.49670000002,6814515.2063999996],[162601.01630000025,6814470.4633000009],[162611.00129999965,6814421.3827],[162638.07629999984,6814418.0368999988],[162694.11830000021,6814445.1541000009],[162731.65000000037,6814470.5390999988],[162817.95000000019,6814458.4600000009],[162907.0700000003,6814388.8999999985],[163015.37999999989,6814363.8200000003],[163068.76999999955,6814288.5100000016],[163141.71999999974,6814250.6099999994],[163254.96160000004,6814185.1013999991],[163278.82019999996,6814173.0593999997],[163285.96389999986,6814125.4343999997],[163290.98190000001,6814027.1526999995],[163365.74480000045,6814059.1292000003],[163373.0027999999,6814061.5485999994],[163399.6026999997,6814048.2008999996],[163437.98479999974,6814038.5218999982],[163485.3786000004,6814020.8326999992],[163511.16189999972,6814030.9274999984],[163569.72190000024,6814050.4501999989],[163600.28949999996,6814053.2030000016],[163665.90089999977,6814000.4035999998],[163683.79000000004,6813987.1799999997],[163728.54000000004,6813940.0700000003],[163764.17019999959,6813900.4219999984],[163817.08690000046,6813881.9010999985],[163860.08169999998,6813846.8438000008],[163920.27450000029,6813832.2917000018],[163952.68609999958,6813819.7239000015],[163917.62880000006,6813797.8957999982],[163854.79000000004,6813769.4530000016],[163833.62330000009,6813742.3330999985],[163800.36000000034,6813694.0899999999],[163795.25879999995,6813683.4631000012],[163837.86089999974,6813640.7291000001],[163875.9299999997,6813586.5599999987],[163890.45999999996,6813579.2600000016],[163893.4299999997,6813574.9699999988],[163916.98000000045,6813551.4100000001],[163947.59999999963,6813523.1499999985],[163975.87000000011,6813471.3200000003],[163971.16000000015,6813426.5700000003],[163905.20999999996,6813391.2399999984],[163858.08999999985,6813370.0399999991],[163785.0700000003,6813344.129999999],[163719.12000000011,6813306.4400000013],[163693.92300000042,6813285.5291000009],[163658.20419999957,6813213.2976999991],[163645.50420000032,6813162.4976999983],[163639.94799999986,6813078.3599999994],[163656.61670000013,6813032.3222999983],[163676.46050000004,6812945.8033999987],[163719.32309999969,6812864.0469999984],[163733.61060000025,6812779.9094000012],[163789.96700000018,6812693.3905000016],[163811,6812587.9100000001],[163843.29999999981,6812469.2899999991],[163857.03000000026,6812432.8299999982],[163962.41999999993,6812321.5500000007],[163984.98000000045,6812239.0100000016],[163944.87000000011,6812142.1499999985],[163970.09999999963,6812088.5399999991],[164005,6812085.3200000003],[164058.54000000004,6812055.2399999984],[164082.94000000041,6811992.6499999985],[164106.25,6811929.1600000001],[164138.3200000003,6811840.7300000004],[164137.79000000004,6811780.4400000013],[164171.24000000022,6811706.9600000009],[164225.38999999966,6811585.3099999987],[164228.9299999997,6811514.5899999999],[164326.5700000003,6811373.8599999994],[164377.28000000026,6811323.9299999997],[164412.11000000034,6811265.4100000001],[164424.13999999966,6811177.8099999987],[164504.69000000041,6811069.8200000003],[164525.21999999974,6810911.0500000007],[164589.96999999974,6810849.7800000012],[164633.76999999955,6810779.370000001],[164636.6799999997,6810658.4200000018],[164674.5,6810523.1999999993],[164744.23000000045,6810461.4600000009],[164836.73000000045,6810417.7399999984],[164935.88999999966,6810402.5599999987],[165003.86000000034,6810376.1900000013],[165059.70000000019,6810371.0399999991],[165154.04000000004,6810412.620000001],[165214.79000000004,6810417.0799999982],[165324.54999999981,6810396.8999999985],[165410.59999999963,6810403.0500000007],[165474.1799999997,6810427.3599999994],[165558.48000000045,6810414.5599999987],[165673.75999999978,6810454.2100000009],[165776.69000000041,6810479.9200000018],[165842.5,6810473.8500000015],[165919.58000000007,6810491.879999999],[166016.29999999981,6810548.3299999982],[166097.05999999959,6810606.25],[166137.46999999974,6810662.8599999994],[166203.80999999959,6810717.0799999982],[166260.04000000004,6810726.9899999984],[166392.41000000015,6810733.879999999],[166451.3200000003,6810718.3999999985],[166522.95000000019,6810731.9100000001],[166592.04000000004,6810816.0399999991],[166677.87999999989,6810863.4400000013],[166758.1799999997,6810916.370000001],[166823.45000000019,6810915.379999999],[166901,6810873.0399999991],[166967.49000000022,6810830.7100000009],[167031.37999999989,6810814.7600000016],[167203.26999999955,6810814],[167290.33000000007,6810831.1099999994],[167375.0700000003,6810812.2399999984],[167451.23000000045,6810820.3000000007],[167474.8563000001,6810832.4426999986],[167522.53969999962,6810839.4512999989],[167540.80020000041,6810859.7846999988],[167565.26809999999,6810867.2740999982],[167595.87409999967,6810881.6583999991],[167626.91810000036,6810889.4576999992],[167659.85879999958,6810892.6327],[167709.07129999995,6810924.3827],[167731.69330000039,6810938.6702999994],[167746.77450000029,6810953.3546999991],[167753.33270000014,6810956.0872000009],[167765.8245000001,6810961.2921999991],[167788.84339999966,6810950.5766000003],[167819.79970000032,6810976.373399999],[167860.67800000031,6811026.7767000012],[167866.23419999983,6811082.3394000009],[167888.06230000034,6811114.8830999993],[167899.5717000002,6811133.9331],[167934.89379999973,6811172.0331000015],[167955.68420000002,6811223.7734000012],[167969.81879999954,6811258.9490999989],[167985.69379999954,6811287.5240999982],[168011.09379999992,6811318.4805000015],[168028.15950000007,6811333.5617000014],[168057.52830000035,6811355.7866999991],[168073.99670000002,6811355.6169000007],[168059.8069000002,6811371.2983999997],[168055.84420000017,6811417.5577999987],[168000.8200000003,6811545.9499999993],[167986,6811657.9400000013],[168034.76999999955,6811794.2199999988],[168046.80999999959,6811924.8500000015],[168038.8200000003,6812056.3099999987],[168049.40000000037,6812105.6099999994],[168069.04999999981,6812155.0899999999],[168085.45000000019,6812223.9699999988],[168126.94000000041,6812335.7899999991],[168173.71999999974,6812406.8900000006],[168232.70000000019,6812446.7100000009],[168262.75,6812489.1999999993],[168295.5,6812571.6400000006],[168289.37000000011,6812668.75],[168314.98000000045,6812771.9600000009],[168345.41999999993,6812829.5],[168418.58999999985,6812903.1999999993],[168465.99000000022,6813035.5899999999],[168477.41000000015,6813104.9299999997],[168509.76999999955,6813172.3399999999],[168557.25,6813360.0300000012],[168643.20999999996,6813518.0199999996],[168642.51999999955,6813608.5899999999],[168640.76999999955,6813916.4600000009],[168534.86000000034,6813967.4600000009],[168511.91000000015,6814100.3000000007],[168456.38999999966,6814206.9899999984],[168419.73000000045,6814245.5700000003],[168370.3200000003,6814255.1499999985],[168252.04999999981,6814281.1400000006],[168167.38999999966,6814355.3200000003],[168163.45999999996,6814410.9899999984],[168208.87000000011,6814467.129999999],[168202.19000000041,6814558.2600000016],[168184.25,6814636.3399999999],[168239.3200000003,6814731.8200000003],[168358.95999999996,6814720.7800000012],[168509.88999999966,6814710.879999999],[168610.21999999974,6814751.9100000001],[168623.94000000041,6814846.1799999997],[168679.63999999966,6814948.6400000006],[168677.0700000003,6814953.5100000016],[168670.84999999963,6814954.3099999987],[168648.66999999993,6814976.4899999984],[168600.61000000034,6814987.5799999982],[168552.54999999981,6815008.8399999999],[168486.94000000041,6815028.2399999984],[168432.41000000015,6815043.9600000009],[168370.49000000022,6815077.2300000004],[168325.20000000019,6815122.5100000016],[168287.30999999959,6815161.3299999982],[168217.0700000003,6815222.3299999982],[168176.41000000015,6815264.8399999999],[168120.03000000026,6815307.3500000015],[168098.16999999993,6815319.6799999997],[168093.91949999984,6815322.628899999],[168072.24000000022,6815337.6700000018],[168060.87999999989,6815350.7899999991],[167958.29999999981,6815449.6799999997],[167911.16000000015,6815535.629999999],[167898.21999999974,6815604.9400000013],[167870.5,6815676.1099999994],[167833.53000000026,6815729.7100000009],[167804.87999999989,6815747.2699999996],[167742.03000000026,6815865.5700000003],[167717.08000000007,6815936.7300000004],[167687.50999999978,6815970.9200000018],[167651.45999999996,6815989.4100000001],[167634.83000000007,6816016.2100000009],[167627.4299999997,6816022.6799999997],[167602.48000000045,6816051.3299999982],[167549.79999999981,6816073.5100000016],[167512.83000000007,6816054.1000000015],[167475.87000000011,6816018.0599999987],[167422.25999999978,6816004.1900000013],[167372.36000000034,6816027.3000000007],[167351.09999999963,6816048.5599999987],[167274.38999999966,6816074.4299999997],[167243.45000000019,6816078.4699999988],[167245.87000000011,6816163.120000001],[167318.62999999989,6816302.0199999996],[167371.54000000004,6816434.3099999987],[167404.62000000011,6816546.7600000016],[167477.37999999989,6816758.4299999997],[167483.99000000022,6816860.9600000009],[167517.05999999959,6816999.8599999994],[167556.75,6817122.2300000004],[167556.75,6817143.6700000018],[167385.59999999963,6817163.6499999985],[167320.70999999996,6817179.6999999993],[167259.66999999993,6817226.5500000007],[167183.11000000034,6817268.8200000003],[167109.3200000003,6817340.9899999984],[166980.16999999993,6817369],[166897.40000000037,6817507.3599999994],[166595.12999999989,6817566.4200000018],[166487.13999999966,6817758.3900000006],[166447.25999999978,6817762.0700000003],[166329.75,6817959.9600000009],[166251.99000000022,6818043.5599999987],[166225.83000000007,6818141.5],[166191.99000000022,6818265.3000000007],[166138.30999999959,6818391.9299999997],[166115.29000000004,6818469.4800000004],[166132.24000000022,6818533.2800000012],[166244.75999999978,6818608.370000001],[166323.08000000007,6818737.9100000001],[166355.45000000019,6818805.3200000003],[166436.98000000045,6819024.0599999987],[166523.26999999955,6819087.5],[166572.04000000004,6819223.7899999991],[166653.26999999955,6819286.6799999997],[166705.95999999996,6819301.9400000013],[166867.63999999966,6819255.8500000015],[167035.99000000022,6819325.8000000007],[166996.73000000045,6819390.75],[166889.04000000004,6819531.4200000018],[166894.55999999959,6819591.25],[166971.79999999981,6819654.5100000016],[167068.88999999966,6819726],[167107.79999999981,6819864.2100000009],[167117.37999999989,6819913.6000000015],[167142.76999999955,6820123.4299999997],[167161.01999999955,6820212.25],[167241.08999999985,6820360.75],[167326.45999999996,6820675.6700000018],[167327.53000000026,6820730.879999999],[167285.20999999996,6820871.5500000007],[167276.23000000045,6820937.7399999984],[167274.70999999996,6821084.6999999993],[167284.12999999989,6821284.9600000009],[167266.26999999955,6821418.3399999999],[167209.8200000003,6821569.3599999994],[167102.20999999996,6821711.0199999996],[167004.88999999966,6821746.1499999985],[166863.25999999978,6821793.25],[166845.86000000034,6821799.0399999991],[166717.95000000019,6821807.8200000003],[166663.21999999974,6821809.9800000004],[166641.79999999981,6821810.8299999982],[166548.53000000026,6821889.8299999982],[166538.59999999963,6821927.9499999993],[166503.98000000045,6822060.870000001],[166437.01999999955,6822152.5300000012],[166379.20000000019,6822234.2899999991],[166302.19000000041,6822271.5700000003],[166211.05999999959,6822264.8900000006],[166164.91000000015,6822229.9600000009],[166074.83999999985,6822161.8000000007],[165980.41999999993,6822130.3000000007],[165923.66999999993,6822060.120000001],[165919.37000000011,6821970.0100000016],[165806.16000000015,6822050.8599999994],[165709.29999999981,6822090.9600000009],[165690.15000000037,6822099.3099999987],[165592.33000000007,6822141.9800000004],[165404.74000000022,6822179.3999999985],[164888.95999999996,6822161.4200000018],[164867.00999999978,6822160.6499999985],[164797.70999999996,6822223.9899999984],[164575.45000000019,6822427.1400000006],[164541.49000000022,6822458.1799999997],[164446.08999999985,6822568.5500000007],[164361.41000000015,6822631.6900000013],[164214.37999999989,6822782.0100000016],[164009.8200000003,6823028.1799999997],[163907.04999999981,6823058.7699999996],[163863.5700000003,6823062.7800000012],[163852.20999999996,6823063.8299999982],[163787.63999999966,6822974.25],[163712.69000000041,6822870.5500000007],[163594.01999999955,6822739.7100000009],[163561.59999999963,6822729.0199999996],[163322.28000000026,6822650.1400000006],[163315.45999999996,6822638.1900000013],[163292.29000000004,6822597.6000000015],[163230.16000000015,6822578.1900000013],[163201.37999999989,6822578.3900000006],[163053.28000000026,6822579.4299999997],[162969.11000000034,6822546.0500000007],[162810.90000000037,6822482.629999999],[162697.99000000022,6822457.8399999999],[162555.1799999997,6822446.8900000006],[162439.20000000019,6822497.8099999987],[162374.30999999959,6822529.1700000018],[162272.08000000007,6822604.75],[162204.91999999993,6822629.6099999994],[162126.96999999974,6822634.1099999994],[162052.62999999989,6822694.3500000015],[161959.50999999978,6822770.3599999994],[161879.53000000026,6822884.3500000015],[161872.13999999966,6823020.8599999994],[161852.65000000037,6823080.8200000003],[161809.1799999997,6823172.2600000016],[161770.03000000026,6823211.1999999993],[161689.62999999989,6823376.5399999991],[161663.94000000041,6823357.9699999988],[161584.76999999955,6823286.4699999988],[161487.73000000045,6823197.0799999982],[161406.49000000022,6823120.0799999982],[161324.34999999963,6823047.2100000009],[161258.45999999996,6822997.9800000004],[161152.86000000034,6822934.0300000012],[161107.21999999974,6822931.4899999984],[161083.65000000037,6822921.7399999984],[161033.16000000015,6822900.8500000015],[161020.5,6822890.9400000013],[160974.41999999993,6822854.879999999],[160956.54999999981,6822801.25],[160918.24000000022,6822739.9600000009],[160859.5,6822678.6700000018],[160846.74000000022,6822659.5199999996],[160823.75,6822625.0500000007],[160793.48000000045,6822623.5399999991],[160649.20999999996,6822596.629999999],[160495.12000000011,6822561.5700000003],[160382.58999999985,6822551.8399999999],[160357.28000000026,6822604.4600000009],[160267.61000000034,6822668.0500000007],[160194.29000000004,6822690.9100000001],[160095.04000000004,6822770.4600000009],[159892.16000000015,6822860.5899999999],[159867.30999999959,6822918.1900000013],[159732.79000000004,6822948.5199999996],[159708.70000000019,6822953.9499999993],[159695.70999999996,6822976.1999999993],[159684.26999999955,6822995.8099999987],[159693.40000000037,6823049.2899999991],[159660.83999999985,6823093.3399999999],[159660.83999999985,6823166.120000001],[159624.34999999963,6823191.6600000001],[159603.37999999989,6823206.3399999999],[159576.5700000003,6823215.9200000018],[159513.36000000034,6823200.6000000015],[159448.24000000022,6823171.870000001],[159346.73000000045,6823146.9699999988],[159178.1799999997,6823160.370000001],[159021.12999999989,6823223.5799999982],[158971.41999999993,6823264.9600000009],[158885.0700000003,6823324.620000001],[158782.66000000015,6823359.2199999988],[158756.08999999985,6823407.6099999994],[158742.58000000007,6823423.4200000018],[158730.00999999978,6823440.0500000007],[158705.41000000015,6823463.0100000016],[158643.74000000022,6823495.4600000009],[158619.66999999993,6823511.0300000012],[158578.48000000045,6823555.0599999987],[158579.25,6823573.4200000018],[158581.86000000034,6823635.1999999993],[158535.73000000045,6823639.1600000001],[158486.75999999978,6823711.9800000004],[158444.62000000011,6823782.8500000015],[158415.88999999966,6823819.2399999984],[158362.80999999959,6824094.8999999985],[158376.16999999993,6824185.1900000013],[158397.66000000015,6824243.5500000007],[158461.62000000011,6824282.8999999985],[158525.94000000041,6824334.9299999997],[158549.75,6824353.7199999988],[158563.12999999989,6824385.0899999999],[158607.50999999978,6824489.1799999997],[158628.38999999966,6824704.4800000004],[158620.41000000015,6824835.9499999993],[158608.54000000004,6824968.7899999991],[158537.80999999959,6825030.6400000006],[158547.25999999978,6825176.5899999999],[158503.38999999966,6825246.0100000016],[158503.91999999993,6825306.3000000007],[158515.80999999959,6825380.629999999],[158589.08000000007,6825455.3299999982],[158641.78000000026,6825535.9499999993],[158660.11000000034,6825614.7100000009],[158668.00999999978,6825613.8599999994],[158705.37999999989,6825609.8599999994],[158712.88999999966,6825609.5100000016],[158775.09999999963,6825634.7800000012],[158794.25999999978,6825642.5599999987],[158897.0700000003,6825706.8200000003],[158912.69000000041,6825761.4800000004],[158933.05999999959,6825832.7699999996],[158935.62999999989,6825974.1400000006],[158961.33000000007,6826084.6600000001],[158997.3200000003,6826151.4899999984],[159010.16999999993,6826184.9100000001],[158974.1799999997,6826220.8900000006],[158963.66000000015,6826252.4400000013],[158945.91000000015,6826305.7100000009],[158920.20999999996,6826382.8299999982],[158915.0700000003,6826441.9400000013],[158891.9299999997,6826490.7800000012],[158881.65000000037,6826519.0500000007],[158545.09999999963,6826427.8599999994],[158484.26999999955,6826368.1099999994],[158399.8200000003,6826335.6600000001],[158353.49000000022,6826269.5500000007],[158326.1799999997,6826191.620000001],[158304.59999999963,6826132.2600000016],[158266.49000000022,6826100.5799999982],[158196.63999999966,6826073.8399999999],[157986.75,6826077.129999999],[157906.34999999963,6826070.1799999997],[157896.66000000015,6826056.9699999988],[157841.15000000037,6826033.6600000001],[157797.86000000034,6826007.0100000016],[157765.66999999993,6825997.0199999996],[157733.48000000045,6826012.5599999987],[157709.05999999959,6826035.879999999],[157691.54000000004,6826054.5300000012],[157674.63999999966,6826072.5100000016],[157651.33000000007,6826094.7100000009],[157623.58000000007,6826131.3399999999],[157592.79999999981,6826134.6099999994],[157573.62999999989,6826159.0899999999],[157546.55999999959,6826176.3399999999],[157532.54999999981,6826199.0599999987],[157511.45999999996,6826215.7100000009],[157500.41999999993,6826217.9800000004],[157473.71999999974,6826223.4800000004],[157444.88999999966,6826230.9600000009],[157434.44000000041,6826231.8000000007],[157408.40000000037,6826256.5700000003],[157365.45999999996,6826297.3999999985],[157328.21999999974,6826300.8399999999],[157260.75,6826307.0700000003],[157237.87999999989,6826343.3900000006],[157186.0700000003,6826384.8399999999],[157121.8200000003,6826463.6000000015],[157080.37000000011,6826500.8999999985],[157011.79000000004,6826567.8000000007],[156987.11000000034,6826633.5399999991],[156974.66999999993,6826664.629999999],[156937.37000000011,6826712.3000000007],[156918.70999999996,6826751.6700000018],[156888.41000000015,6826819.4200000018],[156883.48000000045,6826830.4299999997],[156856.54000000004,6826925.7600000016],[156855.70999999996,6826933.629999999],[156847.54999999981,6827004.1900000013],[156817.16000000015,6826990.0100000016],[156775.70999999996,6826971.3599999994],[156717.6799999997,6826965.1400000006],[156659.65000000037,6826938.1999999993],[156603.69000000041,6826892.6000000015],[156528.16000000015,6826877.5],[156302.66000000015,6826746.5],[156045.50999999978,6826631.25],[155949.15000000037,6826588.0599999987],[155759.66000000015,6826378.1400000006],[155756.41999999993,6826374.5500000007],[155688.20000000019,6826342.629999999],[155639.75,6826319.9499999993],[155576.62000000011,6826235.25],[155567.1799999997,6826089.2899999991],[155521.30999999959,6826028.1499999985],[155511.5,6826019.2100000009],[155360.98000000045,6825882.0399999991],[155303.20000000019,6825668.7100000009],[155266.37999999989,6825532.7399999984],[155289.46999999974,6825374],[155290.99000000022,6825363.5199999996],[155288.48000000045,6825352.870000001],[155258.61000000034,6825226.2800000012],[155248.03000000026,6825181.4200000018],[155188.49000000022,6825088.620000001],[155185.91999999993,6825084.620000001],[155165.79999999981,6825053.25],[155144.33000000007,6824986.6400000006],[155136.51999999955,6824962.3900000006],[155136.51999999955,6824954.3900000006],[155133.04999999981,6824871.2699999996],[155101.58000000007,6824854.0100000016],[155025.6799999997,6824812.379999999],[155002.3200000003,6824720.370000001],[154935.62000000011,6824677.3000000007],[154779.48000000045,6824605.1600000001],[154675.83999999985,6824573.379999999],[154592.62999999989,6824588.7100000009],[154544.21999999974,6824597.629999999],[154461.08999999985,6824576.8500000015],[154409.74000000022,6824594.9699999988],[154402.20000000019,6824597.629999999],[154393.55999999959,6824625.7199999988],[154362.4299999997,6824684.8900000006],[154334.75,6824710.3399999999],[154288.26999999955,6824753.0899999999],[154232.75999999978,6824792.6700000018],[154121.04000000004,6824872.3399999999],[154093.87999999989,6824891.7100000009],[154045.19000000041,6824909.1400000006],[153957.58999999985,6824940.5],[153883.00999999978,6824914.1499999985],[153878.58000000007,6824912.5899999999],[153869.08999999985,6824902.9200000018],[153760.91000000015,6824792.7100000009],[153616.91999999993,6824660.1700000018],[153538.91000000015,6824632.1700000018],[153516.13999999966,6824638.3399999999],[153454.53000000026,6824655.0500000007],[153311.62000000011,6824577.7199999988],[153303.79999999981,6824564.0399999991],[153262.45000000019,6824491.75],[153181.29000000004,6824484.1499999985],[153130.36000000034,6824433.5399999991],[153098.51999999955,6824361.0500000007],[152957.45000000019,6824369.0399999991],[152810.86000000034,6824317.1999999993],[152664.50999999978,6824311.6000000015],[152650.98000000045,6824433.9299999997],[152642.59999999963,6824509.7300000004],[152631.03000000026,6824602.3200000003],[152569.44000000041,6824643.2100000009],[152428.23000000045,6824747.7699999996],[152291.75999999978,6824805.620000001],[152202.38999999966,6824763.5799999982],[152187.76999999955,6824763.8500000015],[152173.33999999985,6824764.120000001],[151874.08999999985,6824769.75],[151712.08000000007,6824714.3000000007],[151601.83999999985,6824664.129999999],[151546,6824603.9100000001],[151419.91999999993,6824501.8999999985],[151356.11000000034,6824518.8500000015],[151327.5700000003,6824539.2300000004],[151299.5,6824559.2800000012],[151260.16000000015,6824568.9499999993],[151195.6799999997,6824564.4100000001],[151087.04999999981,6824556.7600000016],[151005.98000000045,6824550.1700000018],[150949,6824586.6000000015],[150938.99000000022,6824589.5199999996],[150620.91000000015,6824682.2600000016],[150591.62000000011,6824746.3099999987],[150537.37999999989,6824801.6099999994],[150490.37999999989,6824837.120000001],[150469.99000000022,6824975.7899999991],[150418.13999999966,6825057.0100000016],[150364.8200000003,6825041.4100000001],[150329.25,6825031.0100000016],[150268.74000000022,6825072.8000000007],[150234.47130000032,6825117.1944000013],[150164.24469999969,6825229.2192000002],[150149.08270000014,6825253.4054999985],[149930.37469999958,6825283.1119000018],[149745.16590000037,6825324.122299999],[149633.40000000037,6825404.8599999994],[149559.79000000004,6825506.3200000003],[149518.01999999955,6825542.129999999],[149450.37999999989,6825625.6799999997],[149378.75999999978,6825713.2199999988],[149291.21999999974,6825884.3099999987],[149253.41999999993,6825965.870000001],[149211.65000000037,6826109.1099999994],[149187.76999999955,6826174.7600000016],[149157.9299999997,6826190.6799999997],[149152.9299999997,6826191.629999999],[149240.29999999981,6826276.0799999982],[149305.73000000045,6826374.6400000006],[149340.08000000007,6826507.25],[149320.16000000015,6826650.8999999985],[149250.58980000019,6826722.2837999985],[149168.03969999962,6826741.3337000012],[149012.46439999994,6826703.2338000014],[148763.22640000004,6826806.4213999994],[148654.61000000034,6826893.379999999],[148641.62999999989,6826982.1600000001],[148636.73000000045,6827015.7199999988],[148656.63999999966,6827059.0199999996],[148683.29999999981,6827117.0199999996],[148658.58999999985,6827124.0799999982],[148600.00999999978,6827140.8099999987],[148553.79999999981,6827192],[148518.79999999981,6827230.7699999996],[148455.38999999966,6827273.8399999999],[148324.35059999954,6827301.8869000003],[147822.96439999994,6827402.4288000017],[147699.16000000015,6827470.9100000001],[147689.62999999989,6827529.9499999993],[147685.80999999959,6827566.1600000001],[147627.21999999974,6827683.2100000009],[147618.94000000041,6827789.5799999982],[147588.62000000011,6827809.1499999985],[147533.50999999978,6827844.7399999984],[147499.04999999981,6827859.5599999987],[147456.12000000011,6827878.0300000012],[147430.87999999989,6827878.8000000007],[147390.9299999997,6827880.0300000012],[147284.08999999985,6827921.0700000003],[147280.90000000037,6827936.0500000007],[147270.75999999978,6827983.6700000018],[147207.30999999959,6828004.6000000015],[147116.75,6828014.9600000009],[147028.91999999993,6827986.5599999987],[146986.12000000011,6827972.7199999988],[146912.24000000022,6828042.0399999991],[146839.87000000011,6828109.9400000013],[146768.38999999966,6828152.7399999984],[146652.28000000026,6828245.9400000013],[146512.87000000011,6828312.9699999988],[146462.26999999955,6828337.3000000007],[146411.53000000026,6828361.6999999993],[146329.94000000041,6828382.6000000015],[146239.58000000007,6828405.7399999984],[146171.0700000003,6828402.0199999996],[146081.88999999966,6828397.1700000018],[146023.09999999963,6828425.3999999985],[146014.46999999974,6828429.5399999991],[145915.75999999978,6828449.7199999988],[145909.59999999963,6828448.6400000006],[145898.29000000004,6828446.6700000018],[145844.20000000019,6828437.2199999988],[145760.58999999985,6828370.5100000016],[145752.37999999989,6828336.0700000003],[145740.66999999993,6828319.4200000018],[145716.5,6828285.0599999987],[145695.54999999981,6828282.8500000015],[145665.70999999996,6828279.6999999993],[145639.33999999985,6828311.9299999997],[145632.75999999978,6828319.9699999988],[145606.95999999996,6828351.5],[145540.08999999985,6828378.8000000007],[145518.00999999978,6828412.0199999996],[145427.20000000019,6828506.8999999985],[145344.37999999989,6828677.4899999984],[145311.65000000037,6828711.6900000013],[145253.5700000003,6828772.370000001],[145255.23000000045,6828826.7300000004],[145255.55999999959,6828837.5599999987],[145294.30999999959,6828919.4699999988],[145214.16000000015,6828922.8500000015],[145182.11000000034,6828956.9899999984],[145157.79000000004,6829009.5300000012],[145153.79000000004,6829052.2899999991],[145141.08999999985,6829188.0899999999],[145098.05999999959,6829328.0700000003],[145096.23000000045,6829334.0399999991],[144961.78000000026,6829544.6000000015],[144897.66999999993,6829601.8200000003],[144820.26999999955,6829617.9800000004],[144794.05999999959,6829623.4499999993],[144762.76999999955,6829677.9899999984],[144738.61000000034,6829720.1000000015],[144593.15000000037,6829876.3500000015],[144575.91000000015,6829994.620000001],[144505.71999999974,6830024.9400000013],[144487.3200000003,6830032.8900000006],[144433.73000000045,6830056.0300000012],[144395.5,6830053.2800000012],[144378.03000000026,6830058.5599999987],[144345.15000000037,6830067.2100000009],[144251.69000000041,6830067.2100000009],[144151.3200000003,6830067.2100000009],[144076.90000000037,6830075.870000001],[143992.09999999963,6830075.870000001],[143852.80999999959,6830082.5100000016],[143789.61000000034,6830084.5199999996],[143787.86000000034,6830086.9800000004],[143708.26999999955,6830198.7399999984],[143670.20000000019,6830259.3099999987],[143632.12000000011,6830328.5399999991],[143598.75999999978,6830388.1900000013],[143569.8200000003,6830428.9200000018],[143536.45000000019,6830502.3399999999],[143488.48000000045,6830574.2899999991],[143427.91000000015,6830641.7800000012],[143363.87000000011,6830695.4299999997],[143334.61000000034,6830722.7899999991],[143294.65000000037,6830783.6999999993],[143275.61000000034,6830837.3500000015],[143215.04000000004,6830920.4200000018],[143182.16000000015,6830951.5700000003],[143135.4299999997,6830975.8000000007],[143096.95999999996,6830999.0100000016],[143055.51999999955,6831044.2699999996],[142952,6831132.2800000012],[142852.9299999997,6831224.9100000001],[142766.05999999959,6831286.2399999984],[142714.71999999974,6831274.8900000006],[142661.62999999989,6831298.9100000001],[142591.16999999993,6831298.370000001],[142501.6799999997,6831309.6499999985],[142416.28000000026,6831310.5],[142313.58999999985,6831353.1900000013],[142240.00999999978,6831318.7300000004],[142189.20000000019,6831302.3000000007],[142109.61000000034,6831257.3500000015],[142005.62999999989,6831209.620000001],[141920.21999999974,6831210.4699999988],[141782.16000000015,6831240.3200000003],[141704.50999999978,6831216.3000000007],[141602.75,6831203.5799999982],[141516.87000000011,6831199.4400000013],[141413.80999999959,6831161.6900000013],[141314.34999999963,6831108.5100000016],[141240.75,6831063.0100000016],[141164.78000000026,6831039.370000001],[141253.48000000045,6830961.25],[141300.36000000034,6830902.6000000015],[141351.79000000004,6830784.1999999993],[141417.70000000019,6830713.7399999984],[141476.25,6830628.870000001],[141493.20999999996,6830507.6099999994],[141517.6799999997,6830434.9499999993],[141557.28000000026,6830417.2199999988],[141575.91999999993,6830324.9600000009],[141539.16999999993,6830242.8599999994],[141620.5,6830176.0100000016],[141646.45000000019,6830119.2899999991],[141666,6829971.6600000001],[141687.04000000004,6829839.9600000009],[141717.49000000022,6829701.3599999994],[141713.49000000022,6829570.9699999988],[141675.90000000037,6829468.8299999982],[141632.76999999955,6829426.5500000007],[141627.09999999963,6829397.8999999985],[141536.45999999996,6829418.3299999982],[141461.46999999974,6829423.25],[141377.8200000003,6829388.7300000004],[141293.41999999993,6829335.1700000018],[141226.63999999966,6829309.1499999985],[141148.99000000022,6829350.5199999996],[141064.95000000019,6829366.3299999982],[141061.12000000011,6829366.629999999],[140998.24000000022,6829394.879999999],[140896.08999999985,6829416.6700000018],[140823.90000000037,6829442.5500000007],[140743.54000000004,6829471.1499999985],[140672.71999999974,6829477.9600000009],[140649.5700000003,6829445.2699999996],[140623.65000000037,6829395.4100000001],[140615.51999999955,6829377.1700000018],[140589.63999999966,6829356.7399999984],[140580.11000000034,6829351.2899999991],[140524.25999999978,6829317.2399999984],[140501.33999999985,6829315.9200000018],[140453.44000000041,6829313.1600000001],[140362.19000000041,6829310.4299999997],[140281.83000000007,6829306.3500000015],[140129.29000000004,6829302.2600000016],[140027.13999999966,6829315.879999999],[139946.78000000026,6829318.6000000015],[139880.66000000015,6829309.8599999994],[139873.24000000022,6829358.1000000015],[139833.74000000022,6829405.7699999996],[139784.20999999996,6829454.2899999991],[139467.04999999981,6829893.0799999982],[139432.37000000011,6830051.1799999997],[139408.20000000019,6830268.6600000001],[139354.01999999955,6830433.5899999999],[139363.46999999974,6830699.2600000016],[139282.59999999963,6830901.8599999994],[139205.62999999989,6831103.1000000015],[139112.94000000041,6831275.6099999994],[139103.80999999959,6831296.5700000003],[139042.41000000015,6831415.8999999985],[138774.21999999974,6831822.8900000006],[138696.86000000034,6831943.6900000013],[138613.75,6832034.8599999994],[138510.54000000004,6832147.9899999984],[138419.6799999997,6832209.6900000013],[138294.29000000004,6832224.2899999991],[138194.83000000007,6832236.4899999984]]]},"properties":{"OBJECTID":152,"objektType":"Delfelt","delfeltNr":1187,"delfeltNavn":"BYGDIN","delfeltAreal_km2":305.54000000000002,"vannkraftverkNr":523,"vannkraftverkNavn":"Øvre Vinstra","magasinNr":42,"magasinNavn":"BYGDIN","nesteDelfeltNr":2670,"delfeltFormal":"Kraftproduksjon","vassdragsomradeNr":"002","oppstromDelfeltListe":"1187","QNormalDelfelt6190_Mm3Aar":397.98000000000002,"QNormalDelfelt9120_Mm3Aar":418.07999999999998}}]}