{
 "type": "FeatureCollection",
 "crs": {
  "type": "name",
  "properties": {
   "name": "urn:ogc:def:crs:EPSG::4326"
  }
 },
 "features": [
  {
   "type": "Feature",
   "properties": {
    "name": "16b12-acceptance catchment",
    "area_km2_in_25833": 287.3
   },
   "geometry": {
    "type": "Polygon",
    "coordinates": [
     [
      [
       11.602792,
       59.938743
      ],
      [
       11.603563,
       59.95084
      ],
      [
       11.59793,
       59.962609
      ],
      [
       11.589023,
       59.973792
      ],
      [
       11.579021,
       59.984709
      ],
      [
       11.567996,
       59.995604
      ],
      [
       11.554273,
       60.005984
      ],
      [
       11.535985,
       60.014457
      ],
      [
       11.512783,
       60.019277
      ],
      [
       11.486566,
       60.019348
      ],
      [
       11.460706,
       60.015093
      ],
      [
       11.438188,
       60.008618
      ],
      [
       11.41979,
       60.002967
      ],
      [
       11.403458,
       60.00077
      ],
      [
       11.385375,
       60.002962
      ],
      [
       11.362208,
       60.00825
      ],
      [
       11.333298,
       60.013647
      ],
      [
       11.301529,
       60.015803
      ],
      [
       11.272305,
       60.012486
      ],
      [
       11.25113,
       60.003452
      ],
      [
       11.241056,
       59.990339
      ],
      [
       11.241363,
       59.975697
      ],
      [
       11.248151,
       59.961738
      ],
      [
       11.256472,
       59.949494
      ],
      [
       11.262792,
       59.938743
      ],
      [
       11.266472,
       59.928651
      ],
      [
       11.269515,
       59.91861
      ],
      [
       11.274904,
       59.908736
      ],
      [
       11.284572,
       59.899709
      ],
      [
       11.298256,
       59.892115
      ],
      [
       11.313857,
       59.885776
      ],
      [
       11.329006,
       59.879587
      ],
      [
       11.342783,
       59.872053
      ],
      [
       11.356453,
       59.862289
      ],
      [
       11.372708,
       59.850886
      ],
      [
       11.39381,
       59.840072
      ],
      [
       11.41979,
       59.832967
      ],
      [
       11.447837,
       59.832225
      ],
      [
       11.473374,
       59.838755
      ],
      [
       11.492321,
       59.851191
      ],
      [
       11.503298,
       59.866423
      ],
      [
       11.508508,
       59.880933
      ],
      [
       11.512721,
       59.892277
      ],
      [
       11.52087,
       59.899962
      ],
      [
       11.535504,
       59.905339
      ],
      [
       11.555482,
       59.91064
      ],
      [
       11.576566,
       59.917739
      ],
      [
       11.593563,
       59.927304
      ],
      [
       11.602792,
       59.938743
      ]
     ]
    ]
   }
  }
 ]
}
