{"type": "FeatureCollection", "crs": {"type": "name", "properties": {"name": "EPSG:25833"}}, "features": [{"type": "Feature", "properties": {"station": "101.1.0", "name": "Engsetvatn", "series": ["1001.0"], "nodes": 406405, "fine_vertices": 4560, "fine_area_m2": 40640550.0, "reduced_vertices": 176, "reduced_area_m2": 40640550.00000076, "outline_tolerance_m": 20.0, "windows": [[432, 504], [946, 975], [1995, 2174]], "placed_on": "number", "distance_m": 3.3692655740739883, "uncertainty_m": 30.0, "elvid": "101-56-1", "objectid": 12155230, "lake": false, "confluence_near": false, "reach_up_m": 1000.0, "reach_down_m": 130.0, "reach_fork": false, "seeded_by": "river", "lake_rule": null, "lake_number": null, "lake_name": null, "lake_distance_m": null, "node_offset_m": 4.288373741283573, "chain_nodes": 120, "lowered_nodes": 106, "lowered_max_m": 2.5209732055664062, "direction_ok": true, "end_extended_m": 0.0, "end_closed": true, "downstream_checked": "whole", "a0": 40.6405, "area_up": 40.6391, "area_down": 40.641600000000004, "swing": 3.444839507397405e-05, "largest_step": 0.001100000000000989, "largest_step_at_m": 0.0, "checked_up_m": 24.142135623731065, "checked_down_m": 24.142135623731065, "drains": true, "monotone": true, "causes": []}, "geometry": {"type": "Polygon", "coordinates": [[[72985.0, 6963030.0], [73002.3060547225, 6963007.8278033305], [72866.63397866914, 6962889.896000578], [72405.16348371294, 6962787.655909333], [72409.86359008204, 6962720.2640250055], [72221.42857142857, 6962647.857142857], [72140.0, 6962675.0], [72060.35245335176, 6962618.158258466], [72012.2134203236, 6962643.820076237], [71905.0, 6962595.555555556], [71893.11927806452, 6962542.223267156], [71564.14594031192, 6962506.107796169], [71393.05935879199, 6962442.3945621075], [71143.31238459429, 6962485.651799203], [70867.4, 6962412.166666667], [70610.90909090909, 6962535.0], [70420.0, 6962535.0], [70341.21166514694, 6962474.726334734], [70216.25548551015, 6962452.483705918], [70146.92307692308, 6962517.307692308], [70039.36667746642, 6962493.810469168], [70000.0, 6962545.0], [69916.73843024242, 6962499.117647059], [69830.0, 6962545.0], [69756.34789749875, 6962517.84632758], [69457.23077368375, 6962615.887493126], [69375.13350683433, 6962470.183935834], [69128.05826420183, 6962187.100656492], [69101.68518849279, 6962089.119470686], [69305.0, 6961850.0], [69369.38546316116, 6961593.545272076], [69523.98807032993, 6961353.878243362], [69383.98717445099, 6961180.387227405], [69126.66666666667, 6961195.0], [69279.2372881356, 6961010.93220339], [69549.72895385089, 6960986.908707859], [69951.05306653242, 6960522.201261627], [70129.54711394985, 6960603.217907116], [70352.64759803966, 6960786.702930132], [70800.7552569773, 6960859.099323818], [70861.00283880919, 6960775.264816846], [70922.4915776405, 6960799.607885006], [71306.40502852314, 6960771.802239594], [71398.50507349602, 6960855.2705788985], [71545.7703964756, 6960777.969843529], [71280.02833062105, 6960698.942690349], [71262.66666666667, 6960612.333333333], [71156.53846153847, 6960487.692307692], [71240.6, 6960315.542857143], [71359.0, 6960176.0], [71388.60570126623, 6960036.4397075195], [71541.89491532254, 6959773.105084677], [71553.45134038523, 6959710.222267691], [71687.89833269652, 6959532.245851194], [72213.33230867295, 6959476.644114156], [72704.99413853498, 6959394.270878198], [72947.75862068965, 6959257.931034483], [72918.24786324786, 6959214.752136752], [73008.99963364626, 6959120.688413593], [73065.0, 6959120.0], [73057.8, 6959035.416666667], [73107.79069767441, 6959044.095607235], [73237.54107338445, 6958847.299342826], [73445.0, 6958640.0], [73407.0, 6958578.0], [73604.62989820681, 6958428.211442175], [73656.60686717731, 6958460.317498923], [73921.8789606504, 6958280.002880473], [74120.3186535856, 6958359.367817288], [74278.68421052632, 6958336.315789473], [74357.14285714286, 6958257.857142857], [74420.0, 6958335.0], [74514.94210342225, 6958316.011579315], [74595.1299052774, 6958241.169147497], [74531.05633802817, 6958184.929577465], [74689.35860133104, 6957992.644777612], [74823.33402467342, 6957940.273813123], [74987.74000350147, 6957715.310965717], [75428.76515020279, 6957607.397008409], [75667.04156479218, 6957757.151589242], [75635.0, 6957890.0], [75776.71428571429, 6958005.142857143], [75815.0, 6958080.0], [75775.83626760563, 6958182.9093309855], [75799.6784063944, 6958265.854876983], [75860.0, 6958265.0], [75894.65032849075, 6958324.817711889], [76330.5376344086, 6958267.3655913975], [76660.07133971949, 6958514.985083346], [76734.5785440613, 6958499.406130268], [76778.27222832052, 6958541.454445664], [77182.23550624441, 6958557.209356293], [77355.70956533289, 6958702.871194415], [78007.16432091234, 6958720.604364517], [78006.0, 6958785.0], [78193.11004784689, 6958799.593301435], [78248.0, 6958763.0], [78329.37110649659, 6958785.806882231], [78372.10592686002, 6958730.977301387], [78495.26098087193, 6958770.505404325], [78498.69550637156, 6958936.304493628], [78468.02337924596, 6958966.976620754], [78372.19732790613, 6958923.481646895], [78252.13335102267, 6958935.0], [78182.15669527947, 6959005.020767133], [78404.80505698084, 6959112.901062601], [78460.0, 6959095.0], [78605.0, 6959240.0], [78542.35692157614, 6959333.445875478], [78813.94185191789, 6959555.163707057], [78801.81154708848, 6959625.115283997], [78960.69264069264, 6959805.779220779], [79043.33333333333, 6959795.0], [79021.77468773258, 6959859.768526288], [79100.30713468142, 6959949.000381534], [79150.0, 6959915.0], [79258.0006530348, 6960048.14338579], [79397.33860196054, 6960106.3010016745], [79465.03244168527, 6960072.486164201], [79700.41014427051, 6960108.676364703], [79645.73989123043, 6960215.7611353835], [79704.88815023846, 6960332.923217541], [79636.16261384985, 6960328.419274428], [79511.8426437687, 6960523.1573562315], [79534.11862183308, 6960599.654579689], [79238.85964912281, 6960913.859649123], [79329.4390988027, 6960928.010032017], [79560.01352858999, 6961172.479707115], [79535.0, 6961210.0], [79637.56302521008, 6961214.075630252], [79698.89035667107, 6961287.668428006], [79790.0, 6961307.94117647], [79972.08437898548, 6961494.572200214], [79969.33892060861, 6961667.570967122], [79912.77327444695, 6961731.034862815], [79965.1872659176, 6961905.955056179], [80175.79326169523, 6962144.879703572], [80225.0, 6962270.0], [80187.28571428571, 6962332.857142857], [80419.72586763423, 6962592.223923851], [80309.50814491822, 6962703.390174013], [80345.99988079641, 6962929.000119204], [80305.7254458388, 6962969.274554161], [79947.11684246983, 6962952.4432078125], [79786.98944199643, 6963140.903058301], [79724.62552544629, 6963160.659915929], [79624.50884956267, 6963262.3041594345], [79335.81717451524, 6963293.509695291], [79116.9525172549, 6963375.363945213], [79003.89208380537, 6963457.166779573], [78799.5132965393, 6963483.411032816], [78695.95456832962, 6963589.37112284], [78641.0695102681, 6963523.58505797], [78316.70166232203, 6963481.701538768], [77816.30934477004, 6963465.391580793], [77778.33021274373, 6963527.741260669], [77324.73993181915, 6963545.634063785], [77283.08457588148, 6963473.480734604], [76999.43427212592, 6963503.280177234], [76946.37432984133, 6963425.220194024], [76682.54764770863, 6963331.300962459], [76620.1690140845, 6963337.253521127], [76257.3061666847, 6963224.22980192], [76075.59206783916, 6963232.891426087], [76058.51205952672, 6963273.202470791], [75857.2987711709, 6963292.740370541], [75606.34136985884, 6963208.447527089], [74990.36581370518, 6963254.763423874], [74546.93948004852, 6963172.997652634], [74391.71778159568, 6963181.2365309065], [74235.52631578947, 6963262.368421053], [73864.43086172343, 6963282.072015368], [73540.29985537069, 6963090.970941709], [73388.8696812623, 6962968.382781292], [73246.87272727273, 6963009.012121212], [73155.87201914524, 6963090.744525393], [72985.0, 6963030.0]]]}}]}