{"type": "FeatureCollection", "crs": {"type": "name", "properties": {"name": "EPSG:25833"}}, "features": [{"type": "Feature", "properties": {"station": "103.1.0", "name": "Ulv\u00e5a v/Storh\u00f8len", "series": ["1001.2"], "nodes": 4396141, "fine_vertices": 19190, "fine_area_m2": 439614150.0, "reduced_vertices": 756, "reduced_area_m2": 439614150.0000004, "outline_tolerance_m": 20.0, "windows": [[493, 466], [1171, 1178], [2574, 2524], [5517, 5057]], "placed_on": "number", "distance_m": 29.36337812539374, "uncertainty_m": 30.0, "elvid": "103-29-17", "objectid": 11606251, "lake": false, "confluence_near": false, "reach_up_m": 1000.0, "reach_down_m": 130.0, "reach_fork": false, "seeded_by": "river", "lake_rule": null, "lake_number": null, "lake_name": null, "lake_distance_m": null, "node_offset_m": 4.826241385236907, "chain_nodes": 106, "lowered_nodes": 34, "lowered_max_m": 6.52838134765625, "direction_ok": true, "end_extended_m": 14.142135623730951, "end_closed": true, "downstream_checked": "whole", "a0": 439.6141, "area_up": 439.52660000000003, "area_down": 439.6168, "swing": 0.00019903820191385414, "largest_step": 0.08639999999996917, "largest_step_at_m": 0.0, "checked_up_m": 28.28427124746213, "checked_down_m": 24.142135623731065, "drains": true, "monotone": true, "causes": []}, "geometry": {"type": "Polygon", "coordinates": [[[125600.0, 6933145.0], [125502.53564154786, 6933040.9368635435], [125622.36593336298, 6932791.584123958], [125880.88956025512, 6932587.893588453], [125909.34617746738, 6932273.213490506], [125728.07692307692, 6932048.461538462], [125829.73684210527, 6931924.2105263155], [125873.75, 6931731.875], [125808.33333333333, 6931563.333333333], [125717.81082395678, 6931445.678849203], [125770.00611995104, 6931336.450428396], [125700.0, 6931165.0], [125645.73200176256, 6931177.404113883], [125532.19933090977, 6931090.231036919], [125424.92150763042, 6931114.6870391], [125300.0, 6931025.0], [125230.0, 6931095.0], [125140.0, 6931095.0], [124994.6153846154, 6930970.384615385], [124869.99999999999, 6930975.0], [124855.0, 6930940.0], [124652.43549415337, 6930922.410472418], [124531.62748505287, 6930995.452331164], [124354.7238192651, 6931006.591588775], [124194.00657400742, 6931135.737369252], [124032.80043608266, 6931103.41824636], [123527.81456953642, 6931211.490066225], [123435.69844757307, 6931134.98684629], [123349.39655172414, 6931164.3965517245], [123245.63829787234, 6931122.340425532], [123200.0, 6931065.0], [123130.51338164533, 6931085.451533257], [123084.65751648563, 6930976.883797635], [122945.47701674554, 6931014.1756442245], [122838.13307392263, 6930981.613696508], [122909.18367346938, 6930882.142857143], [123032.2919593077, 6930774.718877902], [123155.80429793449, 6930599.195702066], [123076.64964745927, 6930456.937758327], [123057.0895522388, 6930334.179104477], [123014.10611198314, 6930289.471400143], [123018.391361672, 6930175.40078619], [123075.0, 6930120.0], [123087.38370859093, 6929971.395496909], [123297.23132073887, 6929816.68656813], [123001.37188217395, 6929412.680865948], [122673.54427638985, 6929154.603652468], [122251.56368934351, 6928964.135760301], [122167.63077286616, 6928976.283114848], [122171.62328127086, 6928846.634438938], [122080.7143281118, 6928780.179143002], [121765.31458559858, 6928890.60541584], [121692.41379310345, 6928953.275862069], [121542.71925845729, 6928861.981716368], [121635.0, 6928570.0], [121719.01531440833, 6928485.984685591], [121616.50135514502, 6928222.089193583], [121428.64517054474, 6928096.120951546], [121481.82892839747, 6928020.259154246], [121434.52461754279, 6927923.3099316675], [121538.07692307692, 6927740.6119273985], [121482.80577024395, 6927650.011152035], [121513.74393423572, 6927546.213863138], [121440.3708971481, 6927360.662601185], [121577.82869497743, 6927206.834424844], [121588.41060362635, 6927128.112615714], [121766.83795351184, 6926844.378555308], [121787.63213942268, 6926715.489142276], [121825.0, 6926670.0], [121829.24415919586, 6926564.875441456], [121966.40845070423, 6926357.887323944], [121890.0, 6926295.0], [121698.72034507549, 6926431.657081236], [121610.0, 6926345.0], [121580.0, 6926375.0], [121534.40625961326, 6926260.690799593], [121422.14895532654, 6926194.0772179505], [121196.23377074073, 6926198.965863627], [121010.0, 6926115.0], [120906.22077215878, 6926178.0560087], [120660.8683621429, 6926163.424096678], [120564.19252709298, 6926079.402846574], [120282.10182447077, 6926161.713935897], [120139.51823986231, 6925843.7494015535], [120019.66865523056, 6925985.4121007705], [119831.23021773438, 6925951.555167004], [119621.54639175258, 6925983.350515464], [119460.0, 6926145.0], [119111.04895759559, 6925846.408897312], [118950.38461538461, 6925808.846153846], [118789.42662694743, 6925716.370884303], [118688.57142857143, 6925767.857142857], [118273.5228235984, 6925804.792218939], [118132.70898271466, 6925937.708982714], [118020.99018003274, 6925825.990180032], [118015.0, 6925719.836065574], [118208.21410056736, 6925517.275408139], [118214.81516228497, 6925443.9727096865], [118087.70181547555, 6925330.590980919], [118215.93023255814, 6925138.372093023], [118205.0, 6925040.0], [118275.0, 6924970.0], [118062.95792429999, 6924553.539818745], [117880.55348603164, 6924359.264549228], [117996.5201196244, 6924248.788588517], [118127.29553811837, 6924274.468925482], [118237.8884291217, 6924170.4765264485], [118433.09523809524, 6924114.841269841], [118527.59803896908, 6924006.225834989], [118192.19239809281, 6923582.8795917], [118225.49642838756, 6923558.792030301], [118151.66666666667, 6923406.666666667], [118005.0, 6923260.0], [118041.82786192051, 6923115.293303606], [118289.08285287545, 6922858.746698453], [118553.89825662243, 6923031.101743378], [118738.60963038019, 6922846.39036962], [118830.11095000946, 6922826.436046145], [119046.17647058824, 6922985.882352941], [119120.8339076499, 6922985.096485183], [119408.87644738368, 6923134.296282373], [119542.01256249199, 6923055.6729906425], [119725.13753284868, 6923139.862467151], [119808.57142857143, 6923056.428571428], [119858.29067876401, 6923090.717709493], [120214.28571428571, 6922760.714285715], [120270.0, 6922775.0], [120330.0, 6922715.0], [120364.65120811679, 6922726.205489005], [120468.63846484627, 6922658.090195657], [120523.35647190998, 6922335.631432492], [120420.53986497925, 6922249.560956825], [120439.22277075515, 6922134.591998349], [120381.1486006535, 6922034.628498366], [120873.53235437148, 6921435.568897042], [121100.93289622455, 6921277.860693121], [121120.21235521235, 6921145.791505791], [121318.98733557349, 6920984.483932198], [121364.74851427742, 6920996.217567763], [121470.35617709212, 6920877.713236433], [121376.17647058824, 6920771.764705882], [121503.79993731176, 6920602.417694887], [121236.85537583916, 6920382.805648295], [121201.47058823529, 6920265.882352941], [120750.66324798165, 6919795.904081981], [120702.07902502094, 6919555.798701493], [120577.3588162762, 6919522.84217016], [120384.77758562156, 6919371.862615661], [120289.48142740004, 6918822.648636886], [120198.13656306076, 6918685.198682515], [120153.33333333333, 6918708.333333333], [120110.97044043684, 6918611.503863855], [119975.46250653514, 6918440.225472302], [119972.81496047486, 6918314.243531607], [120019.88513646182, 6918118.861182014], [119867.07500193502, 6917957.466040052], [119957.5, 6917872.5], [119930.90909090909, 6917844.090909091], [120242.40771754326, 6917537.160010162], [120464.30451130107, 6917517.29979822], [120658.97084583458, 6917567.781697328], [120774.82787020713, 6917566.557631097], [120939.33527048239, 6917475.0], [121119.1428377829, 6917269.089307494], [121123.92138986973, 6917188.240788077], [121314.61103908898, 6917028.324848568], [121403.65670958493, 6916852.273353982], [121569.14547839056, 6916869.402166875], [121796.28525814944, 6916629.215322591], [121889.54545454546, 6916285.454545454], [121996.46011259097, 6916141.421117671], [122244.22077922078, 6915907.532467533], [122306.17647058824, 6915944.705882353], [122419.6850852581, 6915848.2769338405], [122752.82123693872, 6915825.0], [123157.94750165257, 6915463.771767446], [123356.66666666667, 6915431.666666667], [123371.37093713167, 6915455.421219809], [123503.06165422896, 6915402.454576482], [123631.55883896584, 6915251.072724368], [123720.20469540525, 6915246.997599235], [123694.34782608696, 6915145.434782608], [123902.41312096488, 6915016.0429307725], [124097.34985700667, 6915104.571020019], [124210.47224473991, 6915093.927119204], [124344.42682047584, 6915214.343907715], [124445.72778646914, 6915167.911145876], [124470.0, 6915265.0], [124523.33333333333, 6915265.0], [124516.00013687796, 6915305.824291873], [124855.0, 6915680.0], [124827.39620403321, 6915733.013048636], [124985.0, 6915760.0], [125106.90167640953, 6915882.239652567], [125414.06686799419, 6915928.311998027], [125493.23703231946, 6916067.49067052], [125574.8946949683, 6916112.571292223], [125640.62192118226, 6916069.735221675], [125760.13623978202, 6916173.828337874], [125875.21623064602, 6916109.783769354], [125940.09350710924, 6916118.485953122], [126090.85480015872, 6916030.346082922], [126335.67081059319, 6916368.136371432], [126446.06690951687, 6916392.11506789], [126604.37608666577, 6916123.159689715], [126690.0, 6916085.0], [126788.30456852792, 6916174.6243654825], [126947.48729505227, 6916149.288707497], [127105.71428571429, 6916017.857142857], [127333.71573165538, 6916009.575771774], [127463.93731048833, 6916116.739788706], [127489.16317670111, 6916246.429284973], [127677.219626675, 6916335.0], [127743.33333333333, 6916335.0], [127809.28571428571, 6916397.142857143], [127940.57670095902, 6916270.326669798], [127877.05732116719, 6916081.93718351], [128195.0, 6915710.0], [128169.67710271364, 6915639.0338574145], [128472.4070805073, 6915342.817151219], [128562.85255675305, 6915354.03921119], [128699.19104323065, 6915225.477608076], [128672.50014751633, 6915143.137568951], [128723.66266375546, 6914961.0180131], [129167.11453049378, 6914501.219621974], [129148.25398101987, 6914281.060611804], [128900.51717663556, 6914020.112043598], [128848.73967991848, 6913846.10163436], [128885.0, 6913690.0], [128828.29398030414, 6913681.899140043], [128196.97972898534, 6913027.920017627], [128283.94126298172, 6912878.944890642], [128255.39215686274, 6912759.411764706], [128295.0, 6912700.0], [128360.45118746576, 6912310.562495328], [128283.82151303581, 6912178.33486817], [128293.38801804664, 6912111.152198441], [128205.57080969082, 6911740.689623093], [128044.09090909091, 6911753.636363637], [127999.84, 6911726.88], [128026.16054843033, 6911667.888010323], [127951.95575158948, 6911537.163382066], [127935.0, 6911340.0], [127961.92307692308, 6911313.076923077], [127926.61791288845, 6911267.752726005], [127891.29224647023, 6911117.022862646], [128016.35545649662, 6911068.713884762], [128033.57142857143, 6910944.285714285], [128094.47811185542, 6910862.6234615985], [128028.82271468145, 6910775.180055401], [127967.48040341257, 6910759.811275626], [128050.0, 6910661.666666667], [128100.0, 6910695.0], [128129.11764705883, 6910590.588235294], [128175.0, 6910560.0], [128223.80629301176, 6910391.935641599], [128274.89795918367, 6910439.897959184], [128480.96875345916, 6910451.950419444], [128847.45857901391, 6910022.046447632], [129116.16029183379, 6909819.247090328], [129246.98161065335, 6909938.304739086], [129810.0, 6909375.0], [129889.94451926913, 6909443.485382127], [130012.29058006826, 6909384.03927615], [130065.0, 6909500.0], [129986.62637248173, 6909628.212179939], [130114.93499036487, 6909700.301928174], [130281.3167035049, 6909864.561098832], [130310.0, 6909855.0], [130420.0, 6909965.0], [130452.51366120219, 6909953.852459016], [130721.02202686587, 6910126.849682962], [130708.46153846153, 6910183.461538462], [130960.0, 6910565.0], [131042.10436439682, 6910540.339116232], [131100.0, 6910445.0], [131231.6120610652, 6910524.473009072], [131372.85714285713, 6910462.142857143], [131540.7653665116, 6910495.026918139], [131581.3338517973, 6910457.444098801], [132003.60814875926, 6910842.053318267], [132016.4347956175, 6910937.803984407], [131978.4693877551, 6910973.469387755], [131995.3987076878, 6911024.686834569], [131908.15789473685, 6911153.157894737], [131997.16300736205, 6911253.699915304], [131923.75, 6911352.083333333], [131949.02908354398, 6911482.078258151], [131786.68954420052, 6912000.068180104], [131894.6844592716, 6912145.2363080345], [131875.0, 6912230.0], [132085.64516129033, 6912440.645161291], [132050.28331885193, 6912503.202271668], [132086.15111321647, 6912585.333964946], [132029.4055944056, 6912695.594405594], [132042.14285714287, 6912733.928571428], [132170.15151515152, 6912595.252525252], [132115.0, 6912490.0], [132353.01291637289, 6912194.286982688], [132625.52315134762, 6911974.636489288], [132730.0, 6912005.0], [132769.6305418719, 6911965.369458128], [132907.38461538462, 6911952.538461538], [133090.6653836736, 6912135.645832696], [133143.6923076923, 6912112.538461538], [133205.0, 6912180.0], [133214.94124031812, 6912290.915251265], [133730.24758152987, 6912756.705146106], [133716.44295564533, 6912860.594334066], [133817.7513798112, 6913032.095472707], [134006.5, 6913065.0], [134510.42345108872, 6913390.30619934], [134572.9039749717, 6913367.408723426], [134744.37425551098, 6913480.979247045], [135071.76737598956, 6913803.23262401], [135176.17184182227, 6913745.242101571], [135142.85714285713, 6913646.428571428], [135224.36661565927, 6913603.592323387], [135346.56943940913, 6913401.379222837], [135626.03266362852, 6913083.703646372], [135689.77746851573, 6912770.578246017], [135654.55186672456, 6912639.579902791], [135392.970367381, 6912401.782000989], [135585.6588579795, 6912213.060029282], [135587.45842819742, 6912166.169147447], [135727.27398949067, 6912086.433868957], [135906.66666666666, 6912185.0], [136111.12550298995, 6912172.124875885], [136159.66269204742, 6912125.21429515], [136242.3833649024, 6912161.33988232], [136419.62924195768, 6912146.186018524], [136310.29142293066, 6911985.2498291945], [136402.83783783784, 6911857.837837838], [136268.45114345115, 6911723.451143451], [136305.45877862244, 6911637.890588619], [136145.0, 6911450.0], [136174.29181579576, 6911421.456454307], [136094.19992734867, 6911323.421423058], [136065.0, 6911220.0], [136162.10119055278, 6911133.904931922], [136152.91583122656, 6911069.32503705], [136319.4015029522, 6910996.795491143], [136446.27528211166, 6910773.37744913], [136626.92307692306, 6910768.076923077], [136700.0, 6910825.0], [136891.90476190476, 6910843.095238095], [136980.0, 6910755.0], [137030.5659785733, 6910792.15913248], [137248.57105844043, 6910726.96108239], [137360.0, 6910655.0], [137479.52540106952, 6910744.097593583], [137539.01369863012, 6910636.315068494], [137696.04402212502, 6910644.751195071], [137773.33333333334, 6910561.666666667], [137860.0, 6910535.0], [137891.12903225806, 6910565.806451613], [137919.28158148506, 6910520.887174542], [137829.8799036879, 6910374.240419641], [137582.58965611414, 6910324.135767991], [137436.8524841143, 6910178.371120855], [137256.16434566645, 6909693.221135003], [137306.36264212758, 6909604.589564463], [137215.0, 6909498.181818182], [137229.8024012006, 6909455.242621311], [137185.0, 6909420.0], [137219.42962810586, 6909385.570371894], [137063.0578058653, 6909220.409886828], [137095.1892842638, 6909142.623671353], [137248.61475453293, 6909229.105960704], [137326.0, 6909181.0], [137387.07692307694, 6909260.538461538], [137443.79568761506, 6909278.933736524], [137663.49165468314, 6909075.697154621], [137819.228800247, 6908754.570744733], [137957.96964339752, 6908875.668389296], [138091.65106171038, 6908939.030303619], [138065.0, 6908550.0], [138752.99563342484, 6907820.71336864], [138859.3194237523, 6907903.408345749], [138741.00845297743, 6907759.748022824], [138581.69436782828, 6907378.001721649], [138595.56453553052, 6907333.8260183], [138518.67338487023, 6907149.588625069], [138570.3846153846, 6907084.615384615], [138539.6153846154, 6907035.384615385], [138662.77911851296, 6906882.654587412], [138687.1249599376, 6906591.48689307], [138761.57894736843, 6906504.295546559], [138755.0, 6906360.0], [138851.1499512833, 6906254.472194724], [138968.92728416683, 6906066.072715833], [138947.28728873702, 6905807.1782379905], [138657.89591302178, 6905710.684942299], [138747.22222222222, 6905583.333333333], [138677.79391650518, 6905495.488654671], [138638.4757356113, 6905319.985465307], [138603.48450290668, 6905322.221700069], [138509.28788007385, 6905125.827813989], [138518.85283893396, 6905053.65585168], [138779.22679006754, 6905071.599500042], [139087.98652064026, 6905371.402695872], [139201.54067004513, 6905343.567240038], [139259.70588235295, 6905378.823529412], [139258.8433033351, 6905515.367919534], [139301.53846153847, 6905575.0], [139394.39423637732, 6905564.018157239], [139389.78754732857, 6905669.600336559], [139545.51832253148, 6905899.717890519], [139880.59719620182, 6906041.1208745325], [139981.06602639947, 6906115.85470156], [139883.046803143, 6906256.641301558], [139962.3556231003, 6906423.221884498], [139965.0, 6906490.0], [139895.9090909091, 6906524.545454546], [139922.79770344833, 6906599.034178472], [139848.56037151703, 6906678.6996904025], [139827.85714285716, 6906772.857142857], [139912.42173952435, 6906915.60214791], [139892.0202020202, 6906957.02020202], [139985.4347826087, 6907050.434782608], [139928.33333333334, 6907146.666666667], [139979.68738324931, 6907307.719074608], [140186.42938800986, 6907396.134513718], [140232.7737359812, 6907390.780158928], [140496.59666176315, 6907589.823163647], [140565.0, 6907570.0], [140543.93653516294, 6907506.809605489], [140759.00489482458, 6907301.199021035], [140971.26605450644, 6907286.60417381], [141247.09843789862, 6907541.653367256], [141303.7476687159, 6907523.819852179], [141437.00257266313, 6907792.79028504], [141600.63422997945, 6907814.3657700205], [141713.97490589134, 6907780.763133495], [141954.3949044586, 6907550.796178344], [141990.0, 6907585.0], [142110.48746125668, 6907481.1848408], [142174.18706633995, 6907535.569465322], [142241.62883618783, 6907490.621620071], [142445.0, 6907700.0], [142427.85714285713, 6907752.857142857], [142597.42139376464, 6907983.2782417], [142786.00771576478, 6908163.329277232], [142784.38299687233, 6908579.95166335], [142950.0, 6908765.0], [143246.18688331428, 6908511.518451145], [143286.57863349805, 6908531.463043108], [143382.16463535765, 6908459.454038295], [143539.66233032837, 6908461.1895699855], [143580.0, 6908485.0], [143781.5930429429, 6908411.23518547], [143950.2833875412, 6908506.159092687], [144135.02325581395, 6908694.116279069], [144185.38461538462, 6908691.153846154], [144291.3015647226, 6908820.753911806], [144254.69494159656, 6908897.689587814], [144323.40934745676, 6909095.286585965], [144300.0, 6909135.0], [144426.38117537095, 6909261.381175371], [144335.7582730694, 6909538.501607126], [144336.58800176444, 6909678.831054256], [144296.42857142858, 6909725.714285715], [144336.60676390486, 6909815.4560254095], [144278.53197674418, 6910014.069767442], [144289.0, 6910162.0], [144198.8509491855, 6910263.207829282], [144249.2951137957, 6910505.573293065], [144255.0, 6910680.0], [144063.6370885979, 6910876.626069297], [144045.66865192034, 6911037.755709647], [144415.35607493474, 6911538.403755152], [144500.07936507935, 6911707.619047619], [144570.0, 6911655.0], [144743.33333333334, 6911661.666666667], [144826.32113092893, 6911637.682514439], [144855.8300395257, 6911836.060606061], [145002.76489157844, 6911809.813324596], [145114.02481093458, 6911896.727943508], [145391.33333333334, 6911903.666666667], [145443.125, 6911851.875], [145504.0, 6911855.0], [145500.9090909091, 6911814.090909091], [145614.72222222222, 6911700.277777778], [145720.14058055365, 6911805.04740775], [145801.10596980757, 6912017.109407887], [145880.0, 6911995.0], [145943.66586238454, 6912036.38281055], [146221.1157162813, 6912090.082654486], [146383.34009427653, 6912177.889890333], [146512.31292517006, 6912227.6077097505], [146660.0, 6912225.0], [146711.85321925502, 6912380.644676932], [146893.2700712847, 6912451.290517685], [147320.8054974302, 6912855.334515395], [147261.57367185692, 6912952.819277892], [147375.0, 6913150.0], [147125.0, 6913400.0], [147056.47727272726, 6913514.204545454], [147096.6425303532, 6913583.773204318], [146978.22287704542, 6913775.326734922], [147059.06427755038, 6914148.69526465], [146996.34447096262, 6914229.936356404], [147030.36585365853, 6914284.634146341], [146999.6911070343, 6914400.295074665], [147036.65746727644, 6914541.613310204], [147172.9928690308, 6914688.015153309], [147109.026002453, 6914882.692033181], [146988.2442810126, 6914996.8821462495], [146910.06612478656, 6915315.066124787], [146954.71779482492, 6915359.717794825], [146697.01823435584, 6915731.872769584], [146563.47237522632, 6915796.557330433], [146489.5134706617, 6915950.606244922], [146543.33333333334, 6915965.0], [146532.00611683607, 6916018.048276356], [146449.69528264078, 6916023.291664943], [146370.0, 6916165.0], [146332.0, 6916153.0], [146217.03007518797, 6916267.969924812], [146237.82727993655, 6916332.647105472], [146205.0, 6916443.636363637], [146267.52941396504, 6916504.469705343], [146295.47415262225, 6916654.57971975], [146338.19392083312, 6916744.30385149], [146076.8656708054, 6916922.538591892], [146152.6365878064, 6917077.847911693], [146107.38095238095, 6917132.380952381], [146156.9646879177, 6917334.117604328], [146108.2124672081, 6917429.0528193815], [145906.17647058822, 6917597.05882353], [145854.7759676981, 6917579.925322566], [145566.6391670142, 6917883.941898192], [145567.8735632184, 6917937.126436782], [145995.0, 6918380.0], [145968.45731351612, 6918477.876156409], [146042.54830511642, 6918648.2040213775], [145976.42857142858, 6918727.142857143], [146005.35331905782, 6918770.717344753], [145945.99068003037, 6918811.147317563], [145759.0550003585, 6919099.890699603], [145714.78260869565, 6919250.362318841], [145838.88476196447, 6919354.385840027], [145834.44751381216, 6919397.237569061], [145987.85714285713, 6919567.142857143], [145918.68828654406, 6919636.311713456], [145939.45581809376, 6919687.570613847], [145341.6551788372, 6920331.893045601], [145372.53848264937, 6920493.460172173], [145278.51093408122, 6920616.702186816], [145221.04264902382, 6920603.9546840405], [145208.75563212298, 6920760.6334481845], [145152.3188405797, 6920812.68115942], [145120.22226130203, 6920789.660763426], [144787.72652272845, 6920786.955574065], [144587.75840608228, 6920965.717755946], [144504.0, 6920941.0], [144453.78109452737, 6920991.467661692], [144465.25710419487, 6921063.640054127], [144387.0720350589, 6921173.0991509175], [144396.1304347826, 6921223.9130434785], [144285.00050659073, 6921349.647986977], [144255.0, 6921450.0], [144183.02980811874, 6921520.998074852], [144185.0, 6921790.0], [143946.17650727075, 6921977.293009632], [144095.65799495042, 6922074.245197073], [144400.10103539552, 6922440.23525772], [144258.39042203262, 6922658.095207042], [144394.93313632003, 6923019.891885748], [144569.31720455346, 6923195.682795446], [144515.80924855493, 6923249.1907514455], [144564.23076923078, 6923333.846153846], [144333.30721291646, 6923348.58102539], [144355.0, 6923423.703703703], [144251.26537784218, 6923396.51273936], [144193.34755389733, 6923564.042036163], [144133.27586206896, 6923532.75862069], [144094.33690428064, 6923638.299083682], [144128.44462272516, 6923747.382605618], [144075.47345767575, 6923787.632711621], [144106.29458388375, 6923852.734478204], [144010.03063380817, 6924015.275704274], [144035.0, 6924080.0], [143971.7389176341, 6924163.956923873], [144046.61879878744, 6924247.933815941], [143989.70686838793, 6924322.313791226], [143932.36240934645, 6924327.517164844], [143872.44718698948, 6924386.589482032], [143754.36202005896, 6924312.322627189], [143628.4171843565, 6924386.872372914], [143477.19999999998, 6924353.246153846], [143366.25702961546, 6924381.696475349], [143259.3837108014, 6924347.233013937], [143255.0, 6924270.0], [143130.95238095237, 6924165.0], [143052.62089331856, 6924181.930232558], [142792.5, 6924123.0], [142745.32223026792, 6924088.852280956], [142570.0, 6924225.0], [142519.42730592898, 6924208.1424353095], [141476.36644202503, 6925168.210593785], [141206.14954122528, 6925312.864315149], [140914.54084699557, 6925101.129493101], [140796.81818181818, 6925272.7272727275], [140855.09934395502, 6925349.808809747], [140737.82880944436, 6925594.868142402], [140701.75358933487, 6925620.449562287], [140726.69765166342, 6925758.674168297], [140631.87280754268, 6925900.351113809], [140439.86589807816, 6925849.834051826], [140305.67936260666, 6925986.390577475], [140287.40804627523, 6926102.527156724], [139999.69424678013, 6926264.320806511], [139954.81318664225, 6926206.212826979], [139623.46086546814, 6926397.862375012], [139516.10640656174, 6926533.950546525], [139439.45973381458, 6926573.379201444], [139455.0, 6926600.0], [139326.20422819885, 6926742.368636571], [139177.36543803982, 6926821.655863062], [139197.24622760966, 6926853.610375076], [138889.05698628677, 6927206.788657977], [138760.85315997587, 6927139.110984518], [138630.80903303582, 6927225.647226429], [138574.55392795545, 6927180.643142364], [138360.1324241454, 6927418.813170209], [138326.6402729939, 6927650.491633907], [138193.6702037531, 6927657.364288744], [138135.625, 6927778.125], [138173.1428613907, 6927863.419574507], [138052.138623618, 6928071.157992437], [137970.0, 6928095.0], [137938.7878215223, 6928032.575643045], [137778.83249673623, 6928108.095785772], [137815.5128868079, 6928294.140721116], [137692.4454626046, 6928343.918791038], [137621.6244376408, 6928291.307837812], [137544.4776119403, 6928342.313432836], [137450.0, 6928265.0], [137340.0, 6928375.0], [137218.23529411765, 6928326.764705882], [137190.0, 6928355.0], [137087.02702702704, 6928297.342342342], [136607.73620236505, 6928760.168796117], [136520.0, 6928695.0], [136483.35440588894, 6928716.29843976], [136318.11903012492, 6928689.445260838], [136290.0, 6928815.0], [136175.0050356607, 6928771.74083818], [136151.25184110034, 6928881.866938439], [135980.0, 6928945.0], [135877.44084154422, 6928915.9832440335], [135650.33343720785, 6929133.311000312], [135450.0008881415, 6929223.07646124], [135437.29176692571, 6929315.676337595], [135375.0, 6929379.50617284], [135355.0, 6929500.0], [135420.9349263047, 6929560.624730898], [135371.40614395047, 6929817.942770496], [135536.67050216705, 6930002.641366918], [135341.49202673035, 6929990.747085237], [135206.4814814815, 6930244.197530864], [135305.0, 6930350.0], [135321.36363636365, 6930435.454545454], [135218.7894736842, 6930552.842105263], [135314.629352282, 6930637.541000154], [135190.0, 6930785.0], [135098.33257924573, 6930774.359380406], [135060.0, 6930855.0], [135025.76687116566, 6930843.957055215], [135036.16600906895, 6930918.639656086], [135002.80487804877, 6930957.560975609], [134895.0, 6931220.0], [135044.31595193624, 6931369.1859424], [134824.03677215858, 6931428.236519052], [134728.20128479658, 6931347.997858672], [134728.40148698885, 6931376.598513011], [134625.49803950088, 6931429.040312952], [134583.73206845188, 6931386.133975671], [134412.72428029458, 6931458.734099532], [134319.13209144791, 6931379.057296077], [134247.7142857143, 6931252.714285715], [134060.0, 6931415.0], [133982.42728214915, 6931393.763633736], [133949.93319956266, 6931497.36935425], [133612.49392656726, 6931386.072368285], [133526.25, 6931328.75], [133470.0, 6931385.0], [133377.34275129158, 6931350.021788588], [133055.0, 6931710.557057869], [133056.7285473914, 6931931.06129862], [133135.0, 6932033.414634147], [133197.19356713095, 6932216.88750708], [133068.22257504408, 6932377.331875301], [132916.39594846522, 6932243.287777039], [132898.20478838414, 6932193.871022618], [132753.36533085594, 6932038.237144098], [132560.0, 6931915.0], [132493.8028169014, 6931928.23943662], [132214.68681244735, 6931759.230486505], [132172.5, 6931787.5], [132076.6073918027, 6931691.607391803], [131933.78640776698, 6931674.141747572], [131899.76971388696, 6931619.563852059], [131764.45185677818, 6931639.986110247], [131662.12250957318, 6931879.007896541], [131480.0, 6931785.0], [131503.46048004838, 6931962.809697441], [131418.1584700414, 6932080.594201285], [131419.1184573439, 6932200.147768664], [131155.0, 6932391.728940497], [131161.64595593046, 6932569.270146361], [131128.68041912245, 6932641.525867715], [131185.0, 6932680.0], [131076.68952449696, 6932668.339348552], [130982.79069767441, 6932762.441860465], [130920.0, 6932775.0], [130905.4177222103, 6932716.448511633], [130690.54066668072, 6932483.595237395], [130464.18283822312, 6932185.0], [130430.0, 6932185.0], [130212.4017827666, 6931971.772862331], [130228.48033128143, 6931931.222560731], [130142.35034373062, 6931784.063358868], [129578.18377602298, 6931287.040559943], [129478.42127654332, 6931465.521120737], [129490.1465836504, 6931484.442957486], [129371.68113714448, 6931666.461248328], [129178.17889830857, 6931856.763622708], [128902.27095982539, 6931927.414476004], [128828.67992188623, 6931851.500468385], [128843.5361152404, 6931765.760303348], [128695.0, 6931648.108108108], [128695.0, 6931606.666666667], [128659.00919815426, 6931612.9150697645], [128475.28301886792, 6931430.2830188675], [128397.7794863909, 6931510.75529243], [128310.0, 6931495.0], [128227.09677419355, 6931543.064516129], [128033.86444316775, 6931458.336881312], [127877.67515923567, 6931585.0], [127614.4644826145, 6931667.474069108], [127463.24225033444, 6931815.470251287], [127518.07692307692, 6931946.153846154], [127391.38888888889, 6932096.388888889], [127415.0, 6932120.0], [127191.96131092051, 6932306.882346922], [127140.8335332112, 6932374.270026803], [127110.6896551724, 6932365.0], [126929.04481119449, 6932578.228219372], [126754.63900599512, 6932874.762524366], [126499.28272579663, 6933043.638984786], [126272.55673853144, 6933080.071751027], [126154.83079899845, 6933153.3800297445], [125960.42216944488, 6933215.75599849], [125700.79820076625, 6933098.477277542], [125600.0, 6933145.0]]]}}]}