{"type": "FeatureCollection", "crs": {"type": "name", "properties": {"name": "EPSG:25833"}}, "features": [{"type": "Feature", "properties": {"station": "104.23.0", "name": "Vistdal", "series": ["1001.1"], "nodes": 661863, "fine_vertices": 5824, "fine_area_m2": 66186250.0, "reduced_vertices": 189, "reduced_area_m2": 66186250.00000018, "outline_tolerance_m": 20.0, "windows": [[500, 445], [1289, 1211], [2488, 2419]], "placed_on": "number", "distance_m": 10.752354228622853, "uncertainty_m": 30.0, "elvid": "104-20-1", "objectid": 11505828, "lake": false, "confluence_near": false, "reach_up_m": 1000.0, "reach_down_m": 130.0, "reach_fork": false, "seeded_by": "river", "lake_rule": null, "lake_number": null, "lake_name": null, "lake_distance_m": null, "node_offset_m": 3.418774644712862, "chain_nodes": 103, "lowered_nodes": 6, "lowered_max_m": 0.36600494384765625, "direction_ok": true, "end_extended_m": 0.0, "end_closed": true, "downstream_checked": "whole", "a0": 66.1863, "area_up": 66.1834, "area_down": 66.2288, "swing": 0.0006421268449815744, "largest_step": 0.04000000000000625, "largest_step_at_m": 28.28427124746213, "checked_up_m": 30.0, "checked_down_m": 28.28427124746213, "drains": true, "monotone": true, "causes": []}, "geometry": {"type": "Polygon", "coordinates": [[[141830.0, 6973305.0], [141565.0, 6973040.0], [141603.18181818182, 6972968.181818182], [141535.0, 6972900.0], [141562.07317073172, 6972872.926829268], [141486.62601741502, 6972698.223838407], [141345.61728395062, 6972518.148148148], [141370.08333333334, 6972444.75], [141343.62238561743, 6972428.36855824], [141318.33333333334, 6972293.333333333], [141355.0, 6972210.0], [141221.0, 6972076.0], [141249.0, 6972044.0], [141043.37885848916, 6971838.378858489], [140726.8661398022, 6971689.230335002], [140480.0, 6971495.0], [140390.38916471286, 6971584.610835287], [140132.21400963105, 6971297.818122816], [139792.1403360985, 6971218.717372357], [139586.60792951542, 6971151.607929516], [139420.0, 6970985.0], [139109.7034041119, 6970985.175261207], [139035.88585677827, 6970948.43619172], [138956.8, 6971018.2], [138774.76091540008, 6970927.398729984], [138622.16536175774, 6971073.119183065], [138552.2401055409, 6970967.831134564], [138603.61934692177, 6970910.799078617], [138547.68315199472, 6970837.291790307], [138663.14814814815, 6970722.222222222], [138628.06955394486, 6970654.966957991], [138745.66083027393, 6970564.394238915], [138951.96613249014, 6970301.677567258], [138967.7858742857, 6970172.276146729], [139055.0, 6969980.0], [139035.18404907975, 6969929.417177914], [139196.31660008218, 6969552.635266033], [139254.39769614013, 6969440.487110866], [139216.843226532, 6969429.554850893], [139219.19768516452, 6969356.942775112], [139448.15757441483, 6969136.482572855], [139510.19190192912, 6969038.082562148], [139352.9008327965, 6968779.029457109], [139212.3951048951, 6968678.12937063], [139262.77777777778, 6968552.222222222], [139195.3877488833, 6968440.720147044], [139031.39554156153, 6968288.4382024305], [138773.60644416203, 6968112.69826223], [138795.0, 6967740.0], [138823.05555555556, 6967697.916666667], [138342.0728459091, 6967194.1504512215], [138169.31184241248, 6967106.445120141], [137793.5063658386, 6967029.7407965185], [137358.13168503944, 6966527.5969919], [137320.89658742578, 6966368.476704013], [137345.0, 6966333.333333333], [137387.6437730991, 6965972.732316484], [137124.55636375607, 6965597.413287148], [137184.2273183689, 6965288.667447549], [137346.92965301138, 6965132.333928282], [137330.49047106446, 6964903.737805918], [137640.71520761077, 6964594.25082142], [137615.54577049636, 6964444.444131184], [137371.26458173778, 6964149.311315517], [136909.66383960025, 6963837.312820804], [136753.75737387218, 6963818.909362386], [136355.32673797724, 6963612.607930545], [136211.84239373912, 6963638.345681785], [136092.4168098345, 6963529.511912399], [136199.09060903185, 6963171.9732355205], [136390.87522933618, 6962924.036214108], [136366.045076233, 6962488.444407546], [136480.08882898212, 6962318.690665574], [136590.85714285713, 6962256.714285715], [137227.8211240351, 6962382.594730207], [137550.0, 6962315.0], [137627.79681316507, 6962382.024151427], [137856.3034551001, 6962378.240843542], [137926.2949691169, 6962332.30567212], [138340.0, 6962375.0], [138417.34333525677, 6962308.519522985], [138568.17237070235, 6962281.778107672], [138798.18181818182, 6962394.220779221], [138918.0780283898, 6962520.968201441], [139026.9617834395, 6962548.305732484], [139057.52639873253, 6962672.740201077], [139165.3125, 6962779.6875], [139490.540262593, 6962452.61299985], [139660.0, 6962445.0], [139861.2591254707, 6962243.740874529], [140295.547116737, 6961885.404605371], [140655.55212738764, 6961748.427412632], [140768.46292880893, 6961739.503318062], [140907.0508562868, 6961830.217759721], [141209.42049005898, 6961838.134481133], [141608.7161993213, 6961615.0], [141963.51453855878, 6961261.08091024], [142182.36895618314, 6961205.693971768], [142430.40460707614, 6960954.5863646865], [142605.0, 6960824.6806649165], [142635.8918918919, 6960715.540540541], [143117.1208389513, 6960502.817289262], [143362.87155868436, 6960572.238375503], [143610.15495520076, 6961095.42298483], [143745.0, 6961500.0], [143888.647106381, 6961793.903425957], [144049.90805195703, 6961978.87370911], [143974.31824885737, 6962086.154598561], [144004.69465648854, 6962199.083969465], [143960.55555555556, 6962357.777777778], [143986.51222111657, 6962473.455058747], [144101.61598551867, 6962556.045854491], [144230.95843126296, 6962719.28913571], [144112.00554839397, 6963029.360836047], [144080.23670519356, 6963171.241800227], [144135.41780256334, 6963465.956918797], [143936.78452486568, 6963758.947502071], [143955.10289897694, 6963850.794745807], [143871.28573975735, 6963981.909552407], [144039.87198676332, 6964229.533601191], [144034.38506963916, 6964307.93728422], [144126.31943295585, 6964469.160082965], [144084.70407225637, 6964626.228799977], [144154.87441191755, 6964642.53167961], [144125.09390583303, 6964702.979097172], [144327.68375152635, 6964840.744395828], [144277.1063614852, 6965003.884125432], [144438.27628687525, 6964989.5376926875], [144485.07263922517, 6965096.585956416], [144395.0, 6965200.0], [144503.31155253528, 6965257.375849451], [144682.06641053862, 6965439.473121648], [144550.69101005254, 6965667.716498405], [144635.92926917315, 6965751.186578572], [144657.7705727441, 6965899.773760584], [144577.72727272726, 6965975.454545454], [144615.51778574506, 6966023.32252861], [143978.90429659293, 6966665.186856739], [144088.492157614, 6966829.257228113], [143928.97771197816, 6966917.845596834], [143880.0, 6967035.0], [143819.6551724138, 6967035.0], [143772.0, 6967093.0], [143820.7237179487, 6967178.686538462], [143943.33333333334, 6967215.0], [143900.69679903815, 6967297.015163585], [143918.29420838936, 6967355.883065917], [143793.02047834167, 6967403.932086733], [143785.0, 6967610.0], [143845.0, 6967670.0], [143796.15789473685, 6967763.2105263155], [143829.8277497528, 6967808.103666337], [143725.6927651564, 6968035.503871989], [143859.0, 6968214.0], [143790.50715578985, 6968347.453620251], [143808.43030497598, 6968434.170016112], [143874.36137942024, 6968429.518246983], [143989.9022639857, 6968539.030728888], [144070.0, 6968505.0], [144276.3367262254, 6968702.365564216], [144655.12666062007, 6968880.8244281085], [144722.9824922475, 6969020.898829595], [144753.4989665022, 6969253.6528473515], [144835.0, 6969350.0], [144815.96904064922, 6969376.937936594], [144952.98785542222, 6969621.9965357715], [145248.66649314592, 6969924.334547979], [145235.78997783328, 6970061.579955666], [145283.4409804396, 6970178.44098044], [145318.9942070684, 6970543.353856746], [145110.0, 6970775.0], [145076.12903225806, 6970763.70967742], [144913.52853881178, 6970932.084916424], [144967.5, 6970967.5], [144768.04347826086, 6971166.956521739], [144666.66666666666, 6971345.0], [144694.0, 6971345.0], [144669.49702290568, 6971415.386654151], [144291.15942028986, 6971795.0], [144250.0, 6971795.0], [143712.05559905973, 6972298.682348074], [143519.1818361398, 6972398.248354159], [143161.61220266644, 6972519.41098625], [143152.77777777778, 6972626.666666667], [142853.33887873637, 6973054.863504897], [142787.31037334903, 6973226.422203244], [142512.3751966538, 6973548.870921969], [142328.08823529413, 6973579.55882353], [142076.6092279435, 6973330.450082247], [141830.0, 6973305.0]]]}}]}