{"type": "FeatureCollection", "crs": {"type": "name", "properties": {"name": "EPSG:25833"}}, "features": [{"type": "Feature", "properties": {"station": "105.1.0", "name": "Osenelv v/\u00d8ren", "series": ["1001.2"], "nodes": 7468, "fine_vertices": 708, "fine_area_m2": 746750.0, "reduced_vertices": 28, "reduced_area_m2": 746749.9999999935, "outline_tolerance_m": 20.0, "windows": [[430, 512], [933, 928]], "placed_on": "number", "distance_m": 19.57183471926846, "uncertainty_m": 30.0, "elvid": "105-23-1", "objectid": 11396948, "lake": false, "confluence_near": false, "reach_up_m": 1000.0, "reach_down_m": 130.0, "reach_fork": false, "seeded_by": "river", "lake_rule": null, "lake_number": null, "lake_name": null, "lake_distance_m": null, "node_offset_m": 2.374943446994048, "chain_nodes": 113, "lowered_nodes": 49, "lowered_max_m": 0.20248031616210938, "direction_ok": true, "end_extended_m": 0.0, "end_closed": true, "downstream_checked": "whole", "a0": 0.7468, "area_up": 0.7312000000000001, "area_down": 0.7482000000000001, "swing": 0.020889126941617497, "largest_step": 0.014100000000000001, "largest_step_at_m": -10.0, "checked_up_m": 20.0, "checked_down_m": 30.0, "drains": true, "monotone": true, "causes": []}, "geometry": {"type": "Polygon", "coordinates": [[[130420.0, 6984485.0], [130373.125, 6984451.875], [130443.53412680727, 6984445.164702644], [130399.05366607774, 6984366.125220848], [130499.72295514512, 6984262.427440633], [130438.92146315223, 6984176.078536848], [130535.0, 6984080.0], [130483.57689917852, 6983954.251083447], [129962.74987012437, 6983782.760021192], [129598.13358576785, 6983503.929212665], [129817.91548282506, 6983251.03613035], [129996.20901779788, 6983282.225468179], [130209.59109776562, 6983227.800494568], [130310.0, 6983255.0], [130366.0, 6983211.0], [130514.85462418526, 6983279.560196539], [130645.2761906331, 6983462.565705587], [130883.57257064641, 6983571.821286464], [130652.8036470583, 6983875.820470595], [130620.5223880597, 6983966.7164179105], [130795.83865195497, 6984169.917574801], [130734.58780306409, 6984304.217759673], [130834.48595372983, 6984411.749801224], [130854.0, 6984545.0], [130756.0, 6984535.0], [130729.07698379418, 6984492.634246812], [130634.31484602457, 6984555.3869022615], [130473.48974164134, 6984431.969984802], [130420.0, 6984485.0]]]}}]}