{"type": "FeatureCollection", "crs": {"type": "name", "properties": {"name": "EPSG:25833"}}, "features": [{"type": "Feature", "properties": {"station": "109.21.0", "name": "Driva v/Svoni", "series": ["1001.1"], "nodes": 1375389, "fine_vertices": 9590, "fine_area_m2": 137538850.0, "reduced_vertices": 332, "reduced_area_m2": 137538850.00000012, "outline_tolerance_m": 20.0, "windows": [[496, 458], [1237, 1210], [2678, 2409], [4755, 4808]], "placed_on": "number", "distance_m": 18.565951673459388, "uncertainty_m": 30.0, "elvid": "109-70-1", "objectid": 11178172, "lake": false, "confluence_near": false, "reach_up_m": 1000.0, "reach_down_m": 130.0, "reach_fork": false, "seeded_by": "river", "lake_rule": null, "lake_number": null, "lake_name": null, "lake_distance_m": null, "node_offset_m": 5.971792825811123, "chain_nodes": 106, "lowered_nodes": 20, "lowered_max_m": 0.30120849609375, "direction_ok": true, "end_extended_m": 0.0, "end_closed": true, "downstream_checked": "whole", "a0": 137.5389, "area_up": 137.5366, "area_down": 137.55620000000002, "swing": 0.0001257825967781178, "largest_step": 0.013599999999996726, "largest_step_at_m": 20.0, "checked_up_m": 24.142135623731065, "checked_down_m": 30.0, "drains": true, "monotone": true, "causes": []}, "geometry": {"type": "Polygon", "coordinates": [[[202075.0, 6922380.0], [202273.3846769154, 6922274.357469138], [202524.3723930371, 6921982.03714951], [202836.98733269714, 6921889.285223993], [203522.09237860324, 6921240.464603344], [203555.85949843438, 6921105.059871488], [203445.7664601567, 6920538.298876534], [203412.401459854, 6920500.653284672], [203375.80759217028, 6920206.727252922], [203296.94165573665, 6920069.822933853], [203249.39944309028, 6919741.738061825], [204056.62534435262, 6918902.506887052], [204065.0, 6918820.0], [204183.0, 6918702.0], [204000.67863681808, 6918454.801248764], [203630.6968286666, 6918315.8361944], [203575.38461538462, 6918249.461538462], [203685.4957567006, 6917962.5340111675], [204040.0079888533, 6917619.567790718], [204127.81570975302, 6917586.8199638305], [204372.78923844325, 6917351.166055892], [204308.6923076923, 6917306.307692308], [204525.17450857855, 6917049.149635389], [204689.1463414634, 6916815.853658536], [204715.43849386706, 6916723.595673013], [205003.507981269, 6916312.899169929], [204988.61080974274, 6916142.154665513], [205269.5324403516, 6915838.174131435], [205375.0, 6915640.0], [205332.46542630112, 6915586.4331430895], [205432.86137178037, 6915478.548242091], [205387.40645161291, 6915390.896774193], [205116.67004806935, 6915295.179449486], [205031.35832290127, 6915079.062682516], [204915.76289055013, 6914958.147402721], [204932.77777777778, 6914872.222222222], [204895.0, 6914820.0], [204925.0, 6914790.0], [204900.0, 6914715.0], [204966.09967799403, 6914616.184150401], [204234.51260231104, 6914178.319625074], [204305.8139130876, 6914060.498434522], [204185.26176231494, 6913929.094714281], [204403.94422890138, 6913668.9442289015], [204277.0, 6913542.0], [204241.70833303485, 6913404.828799345], [204020.9816011272, 6913178.62276162], [203985.0, 6913090.0], [204079.44291134874, 6913006.698861676], [203971.79675837065, 6912823.2032416295], [204045.0, 6912750.0], [203995.41382667964, 6912716.733203505], [203961.66319974422, 6912760.035894668], [203802.6575121163, 6912529.789983845], [203855.0, 6912440.0], [203732.47091978547, 6912382.117931245], [203548.74338385471, 6911980.008463761], [203457.1541407372, 6911901.651507898], [203522.34865114628, 6911823.49663165], [203532.12827413116, 6911711.121151624], [203362.9896280404, 6911441.4622158], [203183.93691425375, 6911296.810742761], [203140.36073091018, 6911212.26870132], [202841.89729026504, 6911005.489541547], [202769.3273507404, 6910809.314530899], [202922.14201657238, 6910792.857983428], [202992.16216216216, 6910722.837837838], [203062.5, 6910745.0], [203163.69565217392, 6910629.347826087], [203527.2397841172, 6910547.760215883], [203580.0, 6910495.0], [203554.76049515608, 6910429.109257266], [203747.3002596567, 6910248.138381644], [203870.0, 6910215.0], [204218.85183740428, 6909866.148162596], [204654.12698806103, 6909971.876064241], [204950.34054476873, 6910183.85858433], [205108.13778638298, 6910207.817647452], [205256.1021693492, 6910077.2253324], [205325.20616828697, 6910131.252095206], [205650.26001692473, 6909825.344310451], [205727.2, 6909827.4], [205797.79406757277, 6909757.25557617], [206052.8143712575, 6909743.562874251], [206132.8252193314, 6909687.368245616], [206280.0, 6909675.0], [206521.74069117455, 6909597.05522246], [206830.0, 6909635.0], [206927.73432417022, 6909566.011065291], [207401.8217532556, 6909361.787048739], [207467.38801989544, 6909151.259098009], [207589.7705517982, 6909099.000917554], [207834.68399433696, 6908774.76591444], [208013.42133051742, 6908765.0], [208159.82569790745, 6908845.174302093], [208285.1481194025, 6908714.338170128], [208588.70850990512, 6908662.593786113], [208710.95238095237, 6908554.047619048], [208835.0, 6908535.0], [208939.39393939395, 6908595.606060606], [208970.0, 6908565.0], [209162.8847428251, 6908735.1508895345], [209155.32467041782, 6908797.329705197], [209400.0, 6909095.0], [209508.56501735866, 6909113.009822462], [209682.4448379794, 6909239.869025709], [209927.38595592004, 6908994.292670425], [209975.8414076214, 6909020.863246209], [210194.398462075, 6908900.073242034], [210351.83942781997, 6908871.6835761], [210455.78612651458, 6908925.251701705], [210398.48129036796, 6909032.619831438], [210694.67402244217, 6909298.1958407955], [210973.75, 6909376.25], [210990.0, 6909465.0], [211128.55537550373, 6909311.48256607], [211809.41097095923, 6909477.504546788], [211940.0, 6909545.0], [211978.18181818182, 6909506.818181818], [212229.9892171678, 6909618.713889368], [212346.24224523164, 6909808.088527739], [212524.27594200344, 6909912.538183621], [212738.05174358783, 6910011.815922248], [212825.13625000708, 6910001.024645729], [213246.8578495278, 6910098.142150472], [213318.88888888888, 6910026.111111111], [213380.0, 6910055.0], [213513.8773669973, 6909956.911632101], [213703.20357695047, 6909943.336214235], [213715.0, 6909880.0], [213923.04539059705, 6909708.011863096], [214165.4450613202, 6909944.002134212], [214238.95061728396, 6910071.111111111], [214133.26251739517, 6910417.543839595], [214180.09372149492, 6910467.242485365], [213888.11787990676, 6910777.512832907], [213904.69696969696, 6910829.090909091], [213809.96752530386, 6910935.661534033], [213816.06708314514, 6911131.139098193], [213785.896511732, 6911171.935453883], [213813.79529690635, 6911370.239969063], [213863.73194573604, 6911470.953999163], [214091.74956050894, 6911301.398747535], [214351.72374526365, 6911281.132486416], [214532.92556298856, 6911230.636122101], [214687.93308691922, 6911293.532106205], [214776.36363636365, 6911233.181818182], [214968.45476010875, 6911364.421890087], [215091.93743314396, 6911361.913116265], [215249.1304347826, 6911523.260869565], [215298.98865784498, 6911497.97731569], [215275.0, 6911460.0], [215340.0, 6911395.0], [215479.03117807073, 6911431.903117807], [215596.32545476677, 6911325.288585709], [215813.33333333334, 6911438.076923077], [215994.97135752896, 6911445.737956922], [216070.0, 6911405.0], [216174.70979859275, 6911502.848316049], [216036.01620257215, 6911607.458805141], [216055.24676458887, 6911655.123382295], [215970.2052429212, 6911784.747117464], [216142.50661705362, 6912067.506617053], [216483.33333333334, 6912408.333333333], [216704.5198631863, 6912570.111394586], [216884.91328234406, 6912572.292901002], [217025.68675215877, 6912666.37562926], [217367.2293339959, 6912396.481605531], [217386.66666666666, 6912318.333333333], [217491.70255709035, 6912338.329183323], [217947.6720936249, 6912639.537533204], [218289.13047761517, 6912807.866865065], [218424.48566407256, 6912822.960790184], [218454.95444036447, 6912952.707058343], [218548.16008540188, 6913080.613556471], [218440.0209076035, 6913225.625539731], [218464.2305959754, 6913330.9563281], [218325.0, 6913504.285714285], [218395.0, 6913585.714285715], [218358.59545130646, 6913716.9460670445], [218146.05709396894, 6913724.42205956], [217533.9468685185, 6913499.790165815], [216858.48623853212, 6914234.495412844], [216747.11828131185, 6914274.768120396], [216812.14285714284, 6914400.431893688], [216755.0, 6914430.0], [216864.39199461488, 6914617.466207231], [216719.3192607127, 6914724.554085702], [216735.0, 6914800.0], [216646.64449645075, 6915018.824879617], [216508.63651217276, 6915035.0], [216490.90780549095, 6914967.306218271], [216341.14717226374, 6915069.463703963], [216235.7142857143, 6915085.0], [216233.70507276792, 6915028.742037502], [216104.27491830065, 6915067.8625408495], [216092.86585365853, 6914998.932926829], [216019.1935483871, 6914935.645161291], [215965.74785299777, 6914994.488710632], [215841.38595645578, 6914973.71741864], [215725.5371350395, 6914895.011612102], [215664.6074523547, 6915004.922116501], [215589.675554397, 6914989.883553354], [215637.46575342465, 6915080.684931506], [215588.19676771836, 6915088.910906377], [215560.0, 6915145.0], [215502.0, 6915116.0], [215377.7850455119, 6915182.10181511], [215172.12414585892, 6915539.539803903], [215234.04237313144, 6915875.108243107], [215209.3940578577, 6915909.093041439], [215261.5397117215, 6916058.771540091], [215118.27311959668, 6916142.632584207], [214935.1164590964, 6916415.058229548], [214990.45454545456, 6916442.7272727275], [214955.0, 6916480.0], [215001.72103448954, 6916500.0318250675], [214945.7148372153, 6916582.25904002], [214817.272249893, 6916500.102069751], [214754.8, 6916548.690322581], [214644.89219974985, 6916481.974084245], [214602.73950524695, 6916554.576758195], [214475.47365337546, 6916592.537518872], [214304.17634439972, 6916468.596229291], [214115.77730815203, 6916660.1604220485], [213629.08249721292, 6916498.87625418], [213585.1246921784, 6916599.875307822], [213598.90131567806, 6916643.371866534], [213534.4269322827, 6916727.632308817], [213551.37574537288, 6916953.319135754], [213421.51033915533, 6916991.14031102], [213272.73136364846, 6917172.243252008], [213345.01759338475, 6917291.381413024], [213308.89440183988, 6917458.108420401], [213609.6562680454, 6917810.872111982], [214336.32618552638, 6918525.603847808], [214325.0, 6918730.0], [214245.5290329176, 6918851.63923533], [214227.19232443266, 6919047.180396816], [213791.92854281666, 6919403.861728838], [213758.61406657775, 6919475.502777417], [213462.38832512626, 6919688.605050515], [213280.0, 6919535.0], [213020.25477707008, 6919757.165605095], [212928.73848961468, 6919803.392454449], [212838.30690117492, 6919957.408245956], [212682.0088656494, 6919852.284569102], [212612.17927865614, 6919880.924653447], [212552.0, 6919823.0], [212510.5109489051, 6919860.839416059], [212385.28443113773, 6919789.446107784], [212309.0653811804, 6919907.192255683], [212335.0, 6919950.0], [212222.13557390674, 6920023.348047166], [212103.81087062234, 6920298.008268197], [212124.82352941178, 6920330.176470588], [212031.63157894736, 6920494.947368421], [212054.52706741946, 6920529.29060113], [211973.87096774194, 6920651.129032258], [211719.71134924807, 6920677.8799728425], [211629.66412897373, 6920653.781777443], [211538.69301518, 6920781.6397338435], [211425.01597220547, 6920726.697848613], [211274.61968310678, 6920744.948472953], [211124.40197755973, 6920584.373873702], [211070.0, 6920445.0], [210943.6580554761, 6920330.671729062], [210653.8229047532, 6920342.007737953], [210453.83866104603, 6920412.402746641], [210743.90595785735, 6920725.62419274], [210684.3203198666, 6920819.058773972], [210474.3714238467, 6920808.521761572], [210302.56645682422, 6920637.503422251], [210114.20667250524, 6920671.561045911], [209957.6333858441, 6920505.520651952], [209848.73003785647, 6920318.81442062], [209616.12712420349, 6920230.57396072], [209456.0631386989, 6920343.267953483], [209454.7983805857, 6920612.998700423], [209316.78674908247, 6920893.975275256], [209355.24130116022, 6920960.003291507], [209325.0, 6921010.0], [209507.35294117648, 6921192.352941177], [209469.34321320077, 6921384.73167173], [209184.14059893411, 6921730.683142688], [209033.6634187228, 6921788.209725275], [208941.7278604403, 6921775.205403887], [208380.0, 6922345.0], [208300.0, 6922305.0], [208002.40823793225, 6922299.70494512], [208025.53316800992, 6922391.562306262], [207874.0159648334, 6922583.332922677], [207689.50714173767, 6922669.704062284], [207476.7237471837, 6922691.085137667], [207400.8703521684, 6922795.514886744], [207219.41608433647, 6922908.47739403], [207214.51441329543, 6923075.242928912], [206984.59835383084, 6923272.493891702], [206848.65783051867, 6923244.529852821], [206687.10023737696, 6923088.002166078], [206504.37071671043, 6923173.18100301], [206469.87114408435, 6923213.313158922], [206315.8620689655, 6923212.24137931], [206340.31113736852, 6923264.430522098], [206149.07836515908, 6923367.674777916], [206106.06018667473, 6923558.939813325], [205975.0, 6923690.0], [205962.7994997532, 6923822.549769299], [205805.32404934295, 6924066.558650219], [205716.44736842104, 6924096.184210527], [205593.67078441873, 6923991.012179978], [205449.04123818426, 6924052.925625844], [205365.20239757939, 6923999.071055754], [205181.30524396498, 6923996.037070101], [205066.21375527157, 6923899.450636519], [204958.853022292, 6923895.108509542], [204859.7833832039, 6923818.374227484], [204739.4470124932, 6923898.924280282], [204594.68085106384, 6923832.872340426], [203756.94906577936, 6923008.050934221], [203643.97048982282, 6923017.655284538], [203556.4630332069, 6922972.877819924], [203265.8169270785, 6922957.743448655], [203041.14330815035, 6923040.014309578], [202861.27007799415, 6923017.640019731], [202749.89934969737, 6923089.039820267], [202411.33809567374, 6923000.307574457], [202345.0, 6922930.0], [202288.19171770796, 6922701.472479782], [202196.61575562702, 6922605.152733119], [202194.14062563985, 6922523.912335961], [202079.27147204618, 6922436.1592094265], [202075.0, 6922380.0]]]}}]}