{"type": "FeatureCollection", "crs": {"type": "name", "properties": {"name": "EPSG:25833"}}, "features": [{"type": "Feature", "properties": {"station": "109.9.0", "name": "Driva v/Risefoss", "series": ["1001.1"], "nodes": 2, "fine_vertices": 8, "fine_area_m2": 150.0, "reduced_vertices": 4, "reduced_area_m2": 150.0, "outline_tolerance_m": 20.0, "windows": [[465, 489]], "placed_on": "number", "distance_m": 290.6228196581377, "uncertainty_m": 290.6228196581377, "elvid": "109-70-669", "objectid": 11177705, "lake": false, "confluence_near": true, "reach_up_m": 1000.0, "reach_down_m": 0.0, "reach_fork": false, "seeded_by": "river", "lake_rule": null, "lake_number": null, "lake_name": null, "lake_distance_m": null, "node_offset_m": 29.629960234709525, "chain_nodes": 101, "lowered_nodes": 6, "lowered_max_m": 2.79345703125, "direction_ok": true, "end_extended_m": 0.0, "end_closed": true, "downstream_checked": "none", "a0": 0.0002, "area_up": 0.0002, "area_down": 0.0002, "swing": 0.0, "largest_step": 0.0, "largest_step_at_m": 0.0, "checked_up_m": -0.0, "checked_down_m": 0.0, "drains": false, "monotone": true, "causes": ["downstream_unread", "chain_not_draining"]}, "geometry": {"type": "Polygon", "coordinates": [[[221490.0, 6942795.0], [221485.0, 6942790.0], [221500.0, 6942775.0], [221505.0, 6942780.0], [221490.0, 6942795.0]]]}}]}