{"type": "FeatureCollection", "crs": {"type": "name", "properties": {"name": "EPSG:25833"}}, "features": [{"type": "Feature", "properties": {"station": "11.4.0", "name": "Elgtjern", "series": ["1001.0"], "nodes": 69767, "fine_vertices": 2050, "fine_area_m2": 6976650.0, "reduced_vertices": 110, "reduced_area_m2": 6976649.9999999935, "outline_tolerance_m": 20.0, "windows": [[445, 424], [1056, 1050], [2061, 1850]], "placed_on": "number", "distance_m": 26.898093313469715, "uncertainty_m": 30.0, "elvid": "011-20-40", "objectid": 10853144, "lake": true, "confluence_near": false, "reach_up_m": 1000.0, "reach_down_m": 130.0, "reach_fork": false, "seeded_by": "lake", "lake_rule": "inside", "lake_number": 5391, "lake_name": "Elgstjerna", "lake_distance_m": 0.0, "node_offset_m": null, "chain_nodes": null, "lowered_nodes": null, "lowered_max_m": null, "direction_ok": null, "end_extended_m": null, "end_closed": null, "downstream_checked": null, "a0": null, "area_up": null, "area_down": null, "swing": null, "largest_step": null, "largest_step_at_m": null, "checked_up_m": null, "checked_down_m": null, "drains": null, "monotone": null, "causes": []}, "geometry": {"type": "Polygon", "coordinates": [[[224180.0, 6653275.0], [224126.98549489919, 6653201.018633812], [224163.3077667991, 6653077.908872072], [224056.43112518458, 6652953.162599024], [224070.0, 6652905.0], [224084.0, 6652941.0], [224115.50888945098, 6652930.126310914], [224212.49798876332, 6652624.901466926], [224159.22535211267, 6652516.901408451], [224327.01372868344, 6652295.62252777], [224392.64339451486, 6652080.0529487], [224304.91023017425, 6651985.7608578075], [224360.00079835177, 6651802.8862292245], [224320.0, 6651545.0], [224076.17781141668, 6651580.633736203], [224008.45049404536, 6651430.336994002], [224043.1405870173, 6651365.174595117], [223830.41666666666, 6651155.416666667], [223983.13528654462, 6651085.0399610195], [224192.3200992556, 6650824.689826303], [224155.0, 6650800.0], [224215.0, 6650740.0], [224214.44444444444, 6650695.0], [224142.55319148937, 6650695.0], [224070.5, 6650624.5], [224137.84093150077, 6650545.218202424], [223967.62378778655, 6650241.2699108645], [224190.89834901557, 6650017.252553664], [224110.0, 6649885.0], [224203.82352941178, 6649808.823529412], [224230.0, 6649835.0], [224305.4378186655, 6649777.285524274], [224241.45237640393, 6649653.86905899], [224295.0, 6649580.0], [224264.33333333334, 6649518.666666667], [224591.1321407911, 6649339.9850574555], [224615.0, 6649216.666666667], [224713.5886624254, 6649207.769427125], [224861.78380072862, 6649349.172346014], [224957.5, 6649302.5], [224996.88027815404, 6649341.880278154], [225271.53604317317, 6649281.584066674], [225335.36184673733, 6649332.319076631], [225390.0, 6649305.0], [225416.22437971953, 6649357.448759439], [225377.16528336433, 6649417.566343341], [225490.0, 6649435.0], [225560.0, 6649365.0], [225695.83162335056, 6649393.754352411], [225791.7088062283, 6649510.917061355], [225862.42097147263, 6649531.407093292], [226028.86537148748, 6649493.527842405], [226172.90991267486, 6649505.515683295], [226217.7706282102, 6649717.248498904], [226275.0, 6649770.0], [226227.87091541153, 6649945.418560052], [226321.6290777852, 6650038.906640973], [226228.4977183549, 6650081.112042678], [226139.8867489971, 6650079.367955456], [225990.51111396102, 6650237.08571795], [226063.0, 6650330.285714285], [226098.8706162683, 6650317.651234921], [226048.6670485391, 6650566.742906975], [225980.3210547178, 6650621.6138119465], [226060.0, 6650715.0], [226112.85714285713, 6650697.857142857], [226191.38461538462, 6650764.538461538], [226280.0, 6650735.0], [226338.36162988117, 6650793.361629881], [226257.60869565216, 6650968.695652174], [226265.0, 6651070.0], [226214.38775510204, 6651082.653061224], [226155.0, 6651220.0], [226187.8, 6651252.8], [226148.0646597711, 6651501.156490574], [226189.7470347007, 6651536.750913325], [226039.09211798583, 6651842.463941039], [225998.94906617372, 6651853.16816133], [225923.7484279722, 6651942.009793721], [225867.33943887762, 6652137.100425801], [225784.83870967742, 6652214.0322580645], [225714.84536082475, 6652190.154639175], [225650.6895228774, 6652321.53601442], [225610.74817394948, 6652306.1504552215], [225611.64909424164, 6652529.7117659785], [225482.6234567901, 6652667.808641976], [225484.61403161293, 6652812.518186465], [225409.40414507771, 6652988.393782384], [225425.15423826236, 6653101.215763382], [225290.0, 6653055.0], [225202.20889643763, 6653084.968852829], [225091.4362116074, 6653024.098127804], [225115.67811576847, 6652937.159005247], [225083.22652635697, 6652814.937817976], [224997.09677419355, 6652797.903225807], [224874.37154205656, 6652855.473685075], [224897.74647887325, 6652924.295774648], [224824.51476601808, 6652995.582937712], [224813.17642110263, 6653164.179470763], [224738.1906614786, 6653361.517509728], [224683.901276762, 6653411.7619341295], [224685.1244948904, 6653605.831234475], [224582.55469819688, 6653802.292660903], [224460.42755344417, 6653770.092916027], [224380.9375, 6653675.9375], [224313.84615384616, 6653658.076923077], [224329.75416914027, 6653561.566733229], [224224.67752337956, 6653471.114156724], [224279.74576271186, 6653388.474576271], [224254.9790864227, 6653270.214100867], [224180.0, 6653275.0]]]}}]}