{"type": "FeatureCollection", "crs": {"type": "name", "properties": {"name": "EPSG:25833"}}, "features": [{"type": "Feature", "properties": {"station": "112.8.0", "name": "Rinna", "series": ["1001.1"], "nodes": 882275, "fine_vertices": 7568, "fine_area_m2": 88227650.0, "reduced_vertices": 324, "reduced_area_m2": 88227649.99999997, "outline_tolerance_m": 20.0, "windows": [[468, 483], [1056, 1208], [2255, 2407], [4644, 4051]], "placed_on": "number", "distance_m": 19.09230661804683, "uncertainty_m": 30.0, "elvid": "112-19-105", "objectid": 11556970, "lake": false, "confluence_near": false, "reach_up_m": 1000.0, "reach_down_m": 130.0, "reach_fork": false, "seeded_by": "river", "lake_rule": null, "lake_number": null, "lake_name": null, "lake_distance_m": null, "node_offset_m": 5.312328886187497, "chain_nodes": 136, "lowered_nodes": 44, "lowered_max_m": 2.8472900390625, "direction_ok": true, "end_extended_m": 340.41630560342617, "end_closed": true, "downstream_checked": "whole", "a0": 88.2275, "area_up": 87.3302, "area_down": 88.22850000000001, "swing": 0.010170298376356593, "largest_step": 88.22720000000001, "largest_step_at_m": 0.0, "checked_up_m": 20.0, "checked_down_m": 24.142135623731065, "drains": false, "monotone": false, "causes": ["chain_not_draining"]}, "geometry": {"type": "Polygon", "coordinates": [[[215700.0, 6995265.0], [215528.83910386966, 6995110.865580448], [215470.0, 6995135.0], [215316.29530201343, 6995029.953020134], [215209.33536626532, 6995041.399544789], [214888.58778243637, 6995017.847330539], [214810.0, 6995065.0], [214728.22343970163, 6995032.693935381], [214691.3347741593, 6994971.411514917], [214488.3912691755, 6994974.137392403], [214380.0, 6995085.0], [214210.95366880958, 6995124.274661938], [214125.56371180085, 6995105.72351215], [214030.0, 6995275.0], [213941.57894736843, 6995237.105263158], [213840.0, 6995275.0], [213690.0, 6995245.0], [213632.58110014105, 6995283.763516691], [213580.87591907583, 6995235.212464318], [213388.44615384616, 6995243.138461539], [213315.0, 6995210.0], [213325.2330091142, 6995152.563100256], [213259.96856205893, 6995163.003776364], [213098.75, 6995127.361111111], [213076.79611571247, 6995197.004625573], [212925.8753546819, 6995140.16536894], [212611.85074626867, 6995317.358208955], [212569.73804604475, 6995432.977195384], [212479.2703419768, 6995518.290163526], [212254.30501257555, 6995434.925275913], [212190.59329727807, 6995482.598669002], [212125.94696039247, 6995434.002828589], [211859.2429649521, 6995442.271155842], [211710.0, 6995495.0], [211674.2857142857, 6995459.285714285], [211587.64051253255, 6995510.039052529], [211518.15167951194, 6995637.717226504], [211472.5, 6995622.5], [211443.2264774506, 6995679.4410172105], [211152.57207332226, 6995852.2306545265], [210938.56912832506, 6995539.72039591], [210955.27014211702, 6995397.992391194], [211180.88686331274, 6995164.104530162], [211009.4079630825, 6995135.584572833], [210849.4124538363, 6995031.3165666], [210789.02634374116, 6994945.076480375], [210696.14134587406, 6995064.429714502], [210605.47169811322, 6995058.018867925], [210454.53852651507, 6995213.439591095], [210382.94384959538, 6995147.723356055], [210403.33333333334, 6995075.0], [210302.2124407274, 6995056.921175338], [210237.4526600541, 6994975.680793508], [210265.0, 6994920.0], [210189.76885644768, 6994903.479318735], [210151.66666666666, 6994823.333333333], [210388.82213357318, 6994434.442467842], [210425.18270430082, 6994408.508107359], [210431.75019798058, 6994316.929510231], [210574.06517778384, 6993961.066075559], [210534.02780747975, 6993874.111952475], [210696.993006993, 6993730.594405594], [210831.3152675779, 6993672.851817955], [211275.01541098053, 6993280.27941232], [211412.76474830793, 6993323.581694633], [211431.87355604922, 6993199.199569427], [211372.14245296366, 6993104.284905927], [211481.5829775147, 6992973.443839027], [211401.47166361974, 6992928.226691042], [211415.0, 6992850.0], [211339.42698100852, 6992728.690242305], [211244.06111895182, 6992436.515548923], [211244.39465134928, 6992391.346305884], [211138.57142857142, 6992095.0], [211219.20109548155, 6991999.961904035], [211134.0, 6991941.0], [211085.5938464064, 6991989.406153593], [210884.53782216267, 6991917.263100208], [210701.38539976327, 6991711.926998816], [210694.95980384757, 6991679.799019238], [210407.2553056996, 6991364.212860103], [210415.0, 6991310.0], [210345.0, 6991240.0], [210385.09433962265, 6991198.903301887], [210185.0, 6990980.0], [210217.72727272726, 6990837.2727272725], [210136.64024329445, 6990707.956924918], [210180.4621198662, 6990618.525885033], [209972.8218496401, 6990224.001293587], [210254.46305691206, 6990275.110212361], [210439.15494056846, 6990237.931832862], [210515.49660424984, 6990095.602970584], [210624.24308343622, 6990127.828722291], [210821.2701036573, 6989913.837115848], [210795.0, 6989780.0], [210652.97354054634, 6989639.37076253], [210914.50317480738, 6989352.484125963], [210945.0, 6989280.0], [210882.31142113975, 6989192.798139828], [211109.15475543082, 6988892.33251397], [211106.42729961654, 6988743.32904402], [211197.27272727274, 6988559.545454546], [211185.0, 6988490.0], [211225.0, 6988410.0], [211168.74319156332, 6988316.461930699], [211207.5, 6988266.25], [211177.34456964038, 6988158.699109533], [210978.38983050847, 6987923.389830508], [211041.32183908045, 6987850.689655173], [210934.8528775422, 6987758.528775422], [210919.079268587, 6987672.299942334], [210810.0, 6987505.0], [210877.0, 6987438.0], [210847.2857142857, 6987327.714285715], [210900.2142857143, 6987194.785714285], [210985.0, 6987110.0], [210929.97931912186, 6986855.88927776], [210995.0, 6986680.0], [211075.71764705883, 6986647.094117647], [211205.96467145454, 6986512.367613959], [211350.0, 6986555.0], [211388.33333333334, 6986516.666666667], [211470.0, 6986555.0], [211790.49166102655, 6986243.358194894], [212004.21661652395, 6986219.216616524], [212065.7142857143, 6986280.714285715], [212115.0, 6986260.0], [211661.886827592, 6985791.477164863], [211385.0, 6985450.0], [211404.93174061432, 6985428.407281001], [211281.32222666495, 6985286.917680376], [211045.0121566544, 6985185.28393448], [210545.66818677855, 6984674.157025414], [210600.33333333334, 6984595.333333333], [210654.19258666557, 6984400.803247392], [210734.93464733424, 6984442.7607736625], [211617.14901605507, 6983556.554498968], [211594.51779326508, 6983432.140400418], [211675.0, 6983313.333333333], [211662.52424381644, 6983263.411113828], [211787.31431827712, 6983027.794802379], [211798.22222222222, 6982940.333333333], [212043.32667901696, 6983021.886818376], [212428.94240385832, 6982902.923941798], [212434.68717688243, 6982798.381027706], [212782.85714285713, 6982793.571428572], [212974.8982593773, 6982880.05761216], [213093.80143547044, 6982974.848176962], [213334.18604651163, 6982963.837209302], [213420.0, 6982895.0], [213521.8947368421, 6982913.52631579], [213600.76923076922, 6982868.076923077], [213720.0, 6982915.0], [213847.84369400307, 6982846.841867568], [213962.3076923077, 6982904.230769231], [214121.37727080693, 6982859.647232784], [214176.66666666666, 6982871.666666667], [214304.95717315684, 6982770.584424688], [214399.44073539806, 6982858.856708446], [214518.0, 6982888.818181818], [214570.0, 6982955.0], [214771.8291501541, 6982736.213562307], [214770.0, 6982705.0], [214820.0, 6982675.0], [214860.22831050228, 6982715.228310502], [214942.02110268315, 6982671.431847693], [214996.875, 6982772.8125], [215035.0, 6982750.0], [215007.28203005836, 6982616.915355867], [215034.6551724138, 6982548.808777429], [215005.76040172167, 6982383.304859874], [214954.85935784268, 6982322.693929831], [214995.2818319074, 6982060.3053179], [214947.0, 6982008.0], [215118.41401567543, 6981845.069156293], [215200.0, 6981915.0], [215259.12392837214, 6981863.389894993], [215434.04302102164, 6981883.0322657665], [215490.0, 6981925.0], [215520.0, 6981895.0], [215570.8643731933, 6981939.513032878], [215592.9300392519, 6981916.2860771185], [215630.0, 6981965.0], [215728.13777293565, 6981942.474495741], [215840.0, 6982035.0], [215950.0, 6981955.0], [216496.1286592568, 6982344.970928001], [216639.09078156977, 6982298.472552699], [216788.640632591, 6982414.837150494], [216852.23410738326, 6982379.713388016], [216925.0, 6982553.333333333], [216913.1954887218, 6982632.030075188], [216965.0, 6982730.0], [216922.0588235294, 6982772.94117647], [217033.33926381753, 6982947.296902858], [217168.96825396825, 6983043.862433863], [217208.41177863805, 6983214.784374098], [217385.11081732198, 6983453.646063827], [217480.15328146398, 6983483.947150205], [217564.41973508324, 6983427.790132458], [217609.2815249267, 6983465.68914956], [217651.04030680345, 6983721.238633636], [217615.8153288323, 6983799.480783319], [217682.0588235294, 6983888.823529412], [217620.05309420195, 6984099.1860804325], [217722.275580521, 6984240.389033307], [217676.76852245146, 6984295.696902294], [217704.1791066825, 6984509.132669508], [217639.12903474833, 6984737.701241439], [217946.08460538654, 6985064.047945035], [217771.75845691, 6985190.27537073], [217786.34949265845, 6985250.700950221], [217887.7043476934, 6985240.702574052], [218066.9383591251, 6985437.957651197], [218176.39631408267, 6985399.493842229], [218195.0, 6985510.0], [218112.969348659, 6985556.9348659], [218016.3170125572, 6985706.012162921], [218235.05654962076, 6985879.839252508], [218215.0, 6985950.0], [218289.456835224, 6986024.456835224], [218140.13238289204, 6986298.83910387], [218156.31934032985, 6986326.716641679], [218037.74580966806, 6986488.523779683], [218203.0, 6986601.776134369], [218215.0, 6986710.0], [218466.58210805777, 6986958.4745573895], [218279.48979591837, 6987257.959183673], [218295.0, 6987290.0], [217802.12110731445, 6987782.915923477], [217932.32200553193, 6987960.661099584], [217898.1911275645, 6988030.743705153], [217606.2189781022, 6988269.577128954], [217450.0, 6988245.0], [217340.0453138704, 6988357.764936052], [217489.66601309396, 6988469.259402396], [217485.0, 6988503.333333333], [217560.99240947788, 6988481.072930557], [217675.0, 6988563.529411765], [217654.95562842122, 6988614.2729827855], [217698.05337519624, 6988863.053375197], [217608.71055209253, 6989024.775925559], [217417.72727272726, 6989117.2727272725], [217473.86014390035, 6989331.179234621], [217548.95130553716, 6989399.003701227], [217398.81707882733, 6989582.61389634], [217197.38813284403, 6989768.720324165], [217365.6390597741, 6989955.0], [217426.14111198657, 6989935.529750097], [217626.4474259211, 6989955.9301824495], [217765.55555555556, 6989850.555555556], [217839.4903460838, 6989924.490346083], [217879.5332211943, 6990079.9663582845], [217840.1724137931, 6990151.724137931], [217883.0, 6990166.0], [217905.35294117648, 6990267.764705882], [217992.17039633653, 6990350.97520652], [217995.0, 6990512.448979592], [218053.1627296588, 6990584.855643044], [218046.66793288375, 6990826.3321117135], [218009.14774216278, 6990860.772285837], [217959.80176211454, 6991002.42495646], [218081.10983817803, 6991150.423263833], [218040.7142857143, 6991194.285714285], [218079.5719586536, 6991236.021733369], [217785.18833284886, 6991561.933471536], [217925.0, 6991710.0], [217935.0, 6991780.0], [217863.56792845766, 6991851.432071542], [217877.00312989045, 6991965.743348983], [218089.2513788711, 6992263.944180863], [218056.44735671332, 6992395.819214221], [217962.47606659427, 6992445.387755713], [217911.19047619047, 6992555.714285715], [217882.44903515952, 6992530.073684767], [217715.7532210923, 6992884.039795806], [217751.20833230938, 6993010.48977858], [217821.117858071, 6993090.093569015], [217808.33333333334, 6993123.333333333], [217914.51792785942, 6993236.464647228], [217810.59633650706, 6993385.566047596], [217955.46330751464, 6993610.463307515], [217917.3938353425, 6993712.3938353425], [217945.0, 6993740.0], [217819.71895899723, 6993934.492035975], [217998.66417497722, 6994263.5539293075], [217962.5450499866, 6994438.53467291], [217889.88372093023, 6994492.325581395], [217923.51063829788, 6994542.765957447], [217990.0, 6994525.0], [218052.3679417122, 6994587.367941712], [217972.26697550883, 6994712.835458211], [217888.763666538, 6994994.906983531], [217740.0, 6995035.0], [217696.3047619958, 6995081.214603079], [217856.7703041331, 6995302.291878346], [217982.41061130335, 6995252.035755479], [218000.0872506833, 6995272.320211832], [218052.65140439625, 6995235.250540152], [218117.8810250553, 6995367.118974945], [218067.5750246488, 6995500.51137725], [217863.02309413537, 6995514.960992295], [217872.62167324245, 6995608.44224058], [217659.33411043827, 6995752.08038314], [217298.52842809365, 6995816.638795987], [217254.27012575226, 6995875.51818138], [217150.40983606558, 6995900.546448087], [217235.0, 6996050.0], [216815.4891074953, 6996245.724836344], [216705.67403399973, 6996210.937656592], [216577.61904761905, 6996302.619047619], [216494.8127053961, 6996250.988042555], [216351.93324430706, 6996290.94834927], [216368.21146237903, 6996194.4477531975], [216215.76923076922, 6996149.230769231], [216164.82232570407, 6995893.837651746], [216184.4585987261, 6995833.471337579], [215987.4599962428, 6995828.092680676], [216021.7142500416, 6995639.097511237], [216008.64116094986, 6995563.64116095], [216045.0, 6995528.490566038], [215912.5, 6995397.5], [215949.07621247112, 6995309.734411085], [215819.43396226416, 6995194.496855346], [215700.0, 6995265.0]]]}}]}