{"type": "FeatureCollection", "crs": {"type": "name", "properties": {"name": "EPSG:25833"}}, "features": [{"type": "Feature", "properties": {"station": "12.192.0", "name": "Sundbyfoss", "series": ["1001.1"], "nodes": 755908, "fine_vertices": 9774, "fine_area_m2": 75590950.0, "reduced_vertices": 506, "reduced_area_m2": 75590949.99999985, "outline_tolerance_m": 20.0, "windows": [[432, 481], [1183, 1117], [2764, 2316]], "placed_on": "number", "distance_m": 5.60609498359909, "uncertainty_m": 30.0, "elvid": "012-1-15773", "objectid": 12447060, "lake": false, "confluence_near": false, "reach_up_m": 1000.0, "reach_down_m": 130.0, "reach_fork": false, "seeded_by": "river", "lake_rule": null, "lake_number": null, "lake_name": null, "lake_distance_m": null, "node_offset_m": 7.485109783016846, "chain_nodes": 101, "lowered_nodes": 87, "lowered_max_m": 0.38114166259765625, "direction_ok": true, "end_extended_m": 0.0, "end_closed": true, "downstream_checked": "whole", "a0": 75.5908, "area_up": 75.589, "area_down": 75.5916, "swing": 2.381242161748401e-05, "largest_step": 0.0011999999999972033, "largest_step_at_m": 0.0, "checked_up_m": 24.142135623731065, "checked_down_m": 24.142135623731065, "drains": true, "monotone": true, "causes": []}, "geometry": {"type": "Polygon", "coordinates": [[[215665.0, 6615400.0], [215617.3717301753, 6615191.486920701], [215639.09517940792, 6615113.51285439], [215603.4, 6614982.0], [215647.35413585827, 6614937.62322822], [215591.44633110976, 6614784.020618557], [215455.0, 6614650.0], [215570.89129107833, 6614286.077853551], [215702.8125, 6614167.8125], [215684.935277939, 6614104.524362242], [215750.19685063232, 6614044.188977213], [215725.0, 6613920.0], [215792.40007845304, 6613825.639890166], [215633.32304633997, 6613605.154183687], [215549.51383333118, 6613562.3231120845], [215663.23139118767, 6613353.188734941], [215486.37443907504, 6613020.845243583], [215582.78186232076, 6612984.778739743], [215600.0, 6612845.0], [215697.0985727755, 6612872.2424268555], [215786.69002863189, 6612739.613095979], [215725.0, 6612650.0], [215757.69471799463, 6612539.283795882], [215709.0697202335, 6612422.195032925], [215920.87291119498, 6612191.631597644], [215781.3283600372, 6612158.983007157], [215756.37140420382, 6612060.711963499], [215528.99536536008, 6612130.448412401], [215347.67673724104, 6611864.949848004], [215345.213928763, 6611667.179106856], [215442.48021985844, 6611499.945619446], [215381.109384711, 6611379.484151647], [215430.0, 6611325.0], [215506.66867362362, 6611357.858002981], [215828.56646693885, 6611014.518267141], [215937.5, 6610867.5], [215781.16825137901, 6610841.643989081], [215709.5078126956, 6610732.539063478], [215665.0, 6610630.0], [215681.58938892136, 6610492.446912137], [215286.51222169548, 6610092.057003743], [215172.77777777778, 6610032.222222222], [215341.6914656887, 6609874.395470554], [215368.8088797741, 6609522.7052513715], [215425.0, 6609480.0], [215439.9148367154, 6609325.532047317], [215510.08115799978, 6609204.457106418], [215664.1463414634, 6609085.975609756], [215731.18343195267, 6609166.420118343], [215932.47923966864, 6609005.659108277], [215869.91096149303, 6608744.084172171], [215950.094171005, 6608726.263831931], [216020.78347767523, 6608627.99584523], [215995.0, 6608540.0], [216053.96767353298, 6608494.837069414], [216195.0, 6608620.0], [216207.5806451613, 6608708.064516129], [216137.83672030258, 6608727.613949612], [216243.33333333334, 6608895.0], [216210.14297729183, 6609093.9655172415], [216268.75, 6609166.78030303], [216388.04563852155, 6609143.424840943], [216607.77777777778, 6608879.444444444], [216660.0, 6608865.0], [216701.29520381565, 6608934.1614142405], [216832.23067017936, 6608978.565869453], [216877.20183906992, 6608916.616982733], [216870.57429967515, 6608770.666032981], [217158.05549837803, 6608563.055498378], [217242.69837862774, 6608607.347391424], [217339.61538461538, 6608486.923076923], [217378.12625453604, 6608304.860122527], [217468.55313969494, 6608320.80366562], [217449.5074022902, 6608237.871169127], [217615.0, 6608110.0], [217615.0, 6608035.714285715], [217677.9983003304, 6608062.563156758], [217922.09173403293, 6607838.022051929], [218057.0448416959, 6607949.182684019], [218064.11469706695, 6608079.321483154], [218130.20320855614, 6608129.9732620325], [218319.0909090909, 6607945.909090909], [218389.41114438773, 6608002.585101447], [218414.33017696414, 6607847.769726342], [218505.0, 6607820.0], [218472.58670059507, 6607787.586700595], [218577.49787390121, 6607668.977156881], [218672.9441569661, 6607625.837056572], [218677.85834776296, 6607559.835949282], [218798.77358978387, 6607496.015346896], [218916.49433954136, 6607289.505812814], [219010.132496279, 6607362.947001488], [219050.0, 6607335.0], [219087.33333333334, 6607372.333333333], [219102.35569163362, 6607474.023143366], [219208.49812734083, 6607726.464419476], [219177.82702075882, 6607822.447286328], [219250.9775454294, 6607909.302205426], [219298.42076931382, 6607928.277032316], [219329.80634771532, 6607830.482448822], [219413.00186283342, 6607794.242907594], [219533.35902376365, 6607875.687219011], [219619.80765224033, 6607693.966785504], [219741.72625611792, 6607527.816444996], [219729.68085106384, 6607432.765957447], [219791.64556962025, 6607400.544303797], [219686.2425987691, 6607255.703199536], [219777.3358261339, 6607193.86787077], [219780.6158305996, 6607054.814049116], [219848.01369863015, 6606992.575342466], [219729.62899742383, 6606851.82087906], [219813.33333333334, 6606825.0], [219803.45590384657, 6606766.399556008], [219968.66741814424, 6606639.558524804], [219917.35311581363, 6606474.237383407], [220015.94227866412, 6606227.03180041], [219897.04746239213, 6606240.7524105515], [219785.0, 6606160.0], [219833.61759718368, 6605977.138224016], [219929.8716690054, 6605878.759696025], [219861.04938271604, 6605815.555555556], [219856.46440514276, 6605679.639300217], [219922.5, 6605637.5], [219989.02104627917, 6605694.192660204], [220076.56265002835, 6605566.00510628], [220034.88955021367, 6605479.246726577], [220154.80272380318, 6605389.115992509], [220174.79586153032, 6605286.1180593595], [220060.0, 6605315.0], [220001.59117997615, 6605241.144219309], [220097.3549898499, 6605086.107280523], [220003.31218835813, 6604822.115670746], [219874.5, 6604656.5], [219995.32986994743, 6604555.587769816], [219806.0027376068, 6604243.592120509], [219781.92969079808, 6604144.072430386], [219685.65121902555, 6604158.273834787], [219675.91743119265, 6603891.467889909], [219791.42674899587, 6603859.2266619075], [219780.71008559573, 6603820.449839856], [219869.116837089, 6603543.301709209], [220034.3774606875, 6603445.596299781], [220029.44242097402, 6603410.68696148], [220114.19186467712, 6603271.149899907], [220210.56989230332, 6603186.410923823], [220186.66666666666, 6603035.0], [220220.0, 6602985.0], [220278.65853658537, 6602999.5121951215], [220324.64877402253, 6602884.473161033], [220295.0, 6602840.0], [220320.0, 6602820.0], [220242.41383044422, 6602522.768477195], [220183.128050865, 6602447.113842205], [220203.25504169826, 6602384.563933716], [220387.39704619083, 6602276.445170345], [220479.78580864347, 6602056.792359903], [220686.4084262754, 6601931.557277967], [220535.5172413793, 6601824.655172414], [220480.0, 6601765.0], [220442.57401978434, 6601807.772548818], [220263.48602011916, 6601782.579796464], [220273.9472903481, 6601695.6561511075], [220147.3404255319, 6601652.340425532], [220075.0, 6601674.0], [220077.55531351443, 6601616.201307022], [219825.02558361457, 6601530.348013241], [219793.8028169014, 6601501.197183099], [219774.50892857142, 6601520.491071428], [219673.0, 6601398.0], [219708.15056686336, 6601377.866472187], [219643.01969699806, 6601286.931060507], [219737.99330423967, 6601029.172246467], [219772.9781420765, 6601000.018214936], [219792.5, 6600755.0], [219763.40834911153, 6600726.875321835], [219760.16129032258, 6600478.70967742], [219675.0, 6600280.0], [219690.81934954555, 6600188.7611368215], [219800.45188713775, 6600126.398069256], [219753.8321167883, 6600010.78705173], [219849.79837852038, 6599959.569672936], [219867.17603370093, 6599834.502218735], [219729.9185597985, 6599844.918559799], [219680.82999959885, 6599795.829999599], [219552.8575021161, 6599764.98690471], [219497.3453791603, 6599671.75903437], [219439.9651731507, 6599385.731140785], [219481.17559100385, 6599059.969745713], [219446.42857142858, 6599001.428571428], [219467.51658291457, 6598871.710552764], [219412.14004686603, 6598837.771074203], [219466.4157869086, 6598494.478466786], [219638.8554531454, 6598266.040839251], [219639.88081124233, 6598202.397922891], [219675.0, 6598204.0], [219666.2925170068, 6598136.081632653], [219730.0, 6598045.0], [219823.88663967612, 6598097.914979757], [219881.872027426, 6598014.241405321], [219975.0, 6597996.0], [219975.0, 6598073.333333333], [220022.95986622074, 6598023.68729097], [219995.0, 6597980.0], [220029.66594571568, 6597954.000540713], [220046.88338424757, 6597819.496613096], [220163.59260981512, 6597641.385275206], [219953.1884876594, 6597619.267115308], [219907.31495556832, 6597422.314955568], [219826.19722573215, 6597283.323613718], [219884.52380952382, 6597208.571428572], [219849.25199259017, 6597092.668262625], [219885.83964086426, 6597020.038199033], [220020.0, 6596985.0], [220083.99061032865, 6597042.136150234], [220145.99601924035, 6596968.504727152], [220423.63636363635, 6596981.363636363], [220481.72236503856, 6596954.948586118], [220556.1363419403, 6597012.915519052], [220654.52155762832, 6596920.164698976], [220740.6070327666, 6596967.661937333], [220785.83333333334, 6597049.166666667], [220830.0, 6597005.0], [220933.98118447262, 6597157.159075114], [221087.76549771242, 6597096.516849861], [221040.48480463098, 6597265.484804631], [221091.08695652173, 6597316.0869565215], [221062.86212238573, 6597349.432997677], [221065.0, 6597480.0], [221160.69138775783, 6597475.498881445], [221235.2759220413, 6597394.960855938], [221268.0, 6597437.0], [221294.15130940833, 6597398.288069835], [221445.00254456943, 6597403.578505364], [221572.40463530092, 6597563.723407249], [221560.80802463568, 6597735.36585089], [221675.07445070083, 6597738.832758308], [221658.6570021721, 6597924.906691797], [221714.77757446124, 6597975.204495555], [221896.2538320049, 6597963.71857756], [221917.42399342646, 6597790.123253903], [222013.74583538357, 6597672.022258906], [222013.9024390244, 6597609.87804878], [222100.0, 6597615.0], [222164.8404301003, 6597492.795314081], [222323.92191423257, 6597537.273781025], [222460.0, 6597435.0], [222496.13682929543, 6597471.136829295], [222649.6904309181, 6597387.159555049], [222927.94214954643, 6597527.622262249], [223055.68125740477, 6597454.077077293], [223088.3378349781, 6597483.146995956], [222995.4596958281, 6598038.532149486], [223065.0, 6598090.0], [223051.5821094793, 6598158.878504673], [223135.81892892043, 6598230.808656264], [223122.95426195426, 6598394.833160083], [223045.4065430199, 6598532.308785804], [223045.29411764705, 6598624.411764706], [223190.875, 6598675.875], [223285.88715515615, 6598770.887155157], [223170.08674122638, 6598987.164035681], [223221.2030798845, 6599019.802694899], [223277.7881935078, 6598956.253259599], [223335.0, 6599094.23098534], [223479.87272124243, 6599231.978954084], [223435.703691156, 6599304.336063515], [223457.9090909091, 6599404.545454546], [223415.0, 6599465.0], [223448.07102082498, 6599553.09750643], [223195.03801612408, 6599892.471487907], [223207.62741394187, 6600018.690632416], [223307.5, 6600167.5], [223369.90660899208, 6600105.093391008], [223459.9742225014, 6600203.47471116], [223445.38461538462, 6600301.923076923], [223494.05940594058, 6600330.940594059], [223536.875, 6600288.125], [223585.0, 6600320.0], [223586.1576444023, 6600428.103510816], [223768.39519869757, 6600588.810028443], [223867.52917954, 6600552.613285273], [223925.52518921017, 6600278.431358913], [223927.22879794723, 6600181.99794509], [224034.23829777326, 6600024.468897665], [224072.14285714287, 6599915.714285715], [224115.6955247791, 6599907.260573815], [224170.7281915382, 6599757.383123225], [224266.9217318787, 6599651.217104021], [224313.75, 6599511.25], [224347.07740732573, 6599559.601488544], [224447.87863456353, 6599571.967421756], [224640.0, 6599265.0], [224684.77561535788, 6599323.891814368], [224615.37363802703, 6599545.352778761], [224656.28537413458, 6599627.3702572845], [224772.87660783966, 6599530.873010775], [224727.60398152235, 6599452.211953845], [224807.83704833296, 6599402.79427055], [224913.92872695602, 6599510.984177674], [225044.3411225929, 6599722.696324193], [224985.2439976576, 6599781.138005075], [224931.92908534405, 6599776.929085344], [224946.58225312456, 6599971.607899131], [224873.66642053038, 6600070.89368733], [224799.19056816743, 6600063.999356161], [224795.0, 6600170.0], [224707.85714285713, 6600265.714285715], [224729.87171200424, 6600308.194217727], [224677.64906209608, 6600357.498952936], [224667.72727272726, 6600497.2727272725], [224615.0, 6600550.0], [224600.91914498413, 6600698.389085543], [224492.66233766233, 6600811.038961039], [224533.87329288397, 6600864.641163052], [224485.04071183683, 6601090.392138616], [224581.25755651933, 6601197.033733445], [224460.89841483155, 6601344.5166610675], [224472.78243494063, 6601433.412065809], [224393.9959950631, 6601587.62222614], [224315.0, 6601620.0], [224330.30940834142, 6601693.398642095], [224260.44324836275, 6601798.134058503], [224303.91503608815, 6601970.70758516], [224226.27593655945, 6602055.151477418], [224335.1850512357, 6602141.518384569], [224385.23359124805, 6602130.043298545], [224513.70400073397, 6602265.203211761], [224462.29166666666, 6602482.708333333], [224407.80487804877, 6602443.536585365], [224303.3925892969, 6602582.24324255], [224343.3664729275, 6602677.623126338], [224315.0, 6602820.0], [224225.44460730642, 6602896.985091613], [224211.54259913624, 6603290.91087554], [224165.0, 6603320.0], [224176.70212765958, 6603378.510638298], [224085.0, 6603473.967517401], [224094.35841319858, 6603590.256376033], [223999.9798115669, 6603697.95811988], [224003.53407004953, 6603784.362921897], [223937.4376774253, 6603966.264107734], [224061.3992470241, 6603988.509383856], [224025.2493634261, 6604158.179067362], [224100.45454545456, 6604234.545454546], [223979.67479940137, 6604315.339932077], [223879.61335095836, 6604311.82419035], [223783.4726186713, 6604467.014404273], [223844.58550088393, 6604546.461151149], [223841.0453509665, 6604647.458446711], [223636.42857142858, 6605022.857142857], [223663.37505812498, 6605056.099351472], [223539.0472134497, 6605217.297755201], [223594.48102455933, 6605378.4753066], [223782.35106550143, 6605607.946803495], [223785.62634093873, 6605691.788766403], [223906.9026076302, 6605636.5380788855], [223983.66608436446, 6605685.142607585], [224054.86346791495, 6605640.932319095], [224100.97375039206, 6605695.010150691], [223985.0, 6605955.555555556], [224030.0, 6606085.0], [224056.0, 6606059.0], [224182.45449432347, 6606104.749354048], [224231.42857142858, 6605989.285714285], [224202.25352112675, 6605897.582159624], [224270.3435114504, 6605874.885496183], [224284.54545454544, 6605830.454545454], [224344.11758730162, 6605857.728533945], [224411.4526817934, 6605800.7720647035], [224439.05078738724, 6605659.0469809845], [224622.087746683, 6605776.360798305], [224699.1990587549, 6605875.392735676], [224675.0, 6605981.25], [224732.85079527475, 6606073.901664307], [224635.38461538462, 6606170.384615385], [224530.9867052582, 6606088.352595901], [224499.30119762348, 6606111.203192419], [224495.51817534346, 6606300.958526369], [224656.07751454544, 6606564.951714424], [224604.9593193608, 6606640.426847894], [224574.33765663783, 6606606.918397688], [224452.78097982708, 6606680.763688761], [224397.7871311168, 6606669.648926453], [224363.0, 6606796.0], [224433.63216266173, 6606899.815157116], [224408.89630531892, 6606957.103557908], [224455.68784087515, 6607078.414624563], [224388.2213740458, 6607168.702290077], [224425.0, 6607210.0], [224368.47826086957, 6607269.130434782], [224398.11534694178, 6607318.525578236], [224247.78369218478, 6607527.870472183], [224310.12820512822, 6607552.564102564], [224235.0, 6607690.034129693], [224235.0, 6607733.575917486], [224061.76279520366, 6607818.280690352], [224064.83870967742, 6607891.774193549], [223941.37191633842, 6607976.601840865], [223647.83961507617, 6608051.159315691], [223632.0, 6608023.0], [223546.73315000618, 6608133.661717802], [223505.3027887248, 6608334.802126891], [223386.22478846312, 6608512.488759398], [223362.9411764706, 6608594.411764706], [223214.20604513446, 6608486.240760098], [223185.76301496726, 6608566.222863113], [223074.09519401027, 6608671.593766695], [223084.27255372828, 6608723.13078168], [222970.0, 6608745.0], [222940.0, 6608715.0], [222898.46153846153, 6608770.384615385], [222845.40983606558, 6608729.590163934], [222740.0, 6608835.0], [222662.95329536838, 6608763.26292468], [222334.52574252116, 6609152.358955905], [222274.3737795436, 6609163.2956764465], [222141.9202938131, 6609325.120103949], [222098.18181818182, 6609294.090909091], [222060.0, 6609345.0], [221976.278896523, 6609319.038322791], [221845.70175438595, 6609389.403508772], [221515.0, 6609710.0], [221468.03986310173, 6609908.486308445], [221481.24626114077, 6609997.998139363], [221399.85308250756, 6610148.064634647], [221355.14018179826, 6610190.399189574], [221309.28985507245, 6610346.434782608], [221335.26315789475, 6610430.7894736845], [221132.8515625, 6610566.4453125], [221115.0, 6610620.0], [221207.84680166346, 6610713.897566506], [221051.65529010238, 6610844.982935154], [221095.0, 6610900.0], [220999.05902273828, 6610945.074987905], [220937.72727272726, 6611023.636363637], [220893.37346590025, 6610987.643312102], [220745.75781048246, 6610996.507829558], [220658.1372483446, 6611148.039261588], [220685.0, 6611170.0], [220607.09390110656, 6611320.188782609], [220518.8666280815, 6611860.56317327], [220534.60269127952, 6611984.9464902], [220413.54072424432, 6612033.388660775], [220351.3069162567, 6611983.184645265], [220033.91774584848, 6612343.4755738005], [219781.02456243953, 6612565.438556488], [219722.72727272726, 6612493.181818182], [219675.8536585366, 6612520.853658536], [219614.56645311002, 6612419.028409197], [219555.37221215677, 6612487.323940638], [219449.99083278215, 6612476.698720014], [219336.59717051376, 6612574.43162075], [219301.37931034484, 6612547.75862069], [219265.5629551216, 6612581.723724175], [218926.08695652173, 6612697.608695652], [218891.85008509454, 6613011.48298089], [218946.19822672577, 6613038.801773274], [218970.31725888324, 6613014.682741117], [219027.94736842104, 6613081.47368421], [219021.11111111112, 6613157.222222222], [218935.73407202217, 6613137.354570637], [218900.0, 6613185.0], [218783.0971635775, 6613156.652048527], [218720.0, 6613315.0], [218600.58823529413, 6613292.05882353], [218457.1628591006, 6613311.157685907], [218474.89686997756, 6613545.579615751], [218416.89611583544, 6613597.214433463], [218430.33333333334, 6613656.0], [218375.0, 6613697.5], [218405.60505594694, 6613759.593866556], [218347.55447941888, 6613798.559322034], [218310.09308582847, 6613775.777543709], [218198.10344827586, 6613849.655172414], [218122.01274638163, 6613703.902640334], [218008.33333333334, 6613685.0], [217879.75408220687, 6613790.913275525], [217797.6654903219, 6613705.38926318], [217737.63157894736, 6613711.578947368], [217711.33321037167, 6613624.660846042], [217642.66116350118, 6613640.451318609], [217610.0, 6613725.0], [217583.33333333334, 6613700.555555556], [217520.5156136824, 6613817.805671923], [217400.81349693885, 6613884.105327101], [217371.88679245283, 6614049.867924528], [217320.0, 6614015.0], [217177.87235700444, 6614312.225166445], [217214.17858508008, 6614391.873780683], [217139.59612277866, 6614382.075928917], [217004.88734291767, 6614500.696355484], [216968.75, 6614476.25], [216931.81099443417, 6614628.494576178], [216753.67500746308, 6614572.749414034], [216666.85714282983, 6614498.544224177], [216551.62061636557, 6614567.523910733], [216396.71412063204, 6614888.313409995], [216275.03818811305, 6614972.113725756], [216176.74033149172, 6615001.629834254], [216114.54545454544, 6614940.454545454], [215923.13975404087, 6615136.277930923], [215847.69562383337, 6615108.371011229], [215818.08216930018, 6615184.3974998575], [215925.0, 6615310.0], [215804.9875000472, 6615350.414135649], [215700.21525005903, 6615426.411437544], [215665.0, 6615400.0]]]}}]}