{"type": "FeatureCollection", "crs": {"type": "name", "properties": {"name": "EPSG:25833"}}, "features": [{"type": "Feature", "properties": {"station": "12.193.0", "name": "Fiskum", "series": ["1001.1"], "nodes": 516809, "fine_vertices": 6416, "fine_area_m2": 51680950.0, "reduced_vertices": 357, "reduced_area_m2": 51680950.00000009, "outline_tolerance_m": 20.0, "windows": [[423, 508], [1221, 1092], [2643, 2291]], "placed_on": "number", "distance_m": 5.733846819897664, "uncertainty_m": 30.0, "elvid": "012-1-16665", "objectid": 12420164, "lake": false, "confluence_near": false, "reach_up_m": 1000.0, "reach_down_m": 130.00000000000023, "reach_fork": false, "seeded_by": "river", "lake_rule": null, "lake_number": null, "lake_name": null, "lake_distance_m": null, "node_offset_m": 3.4768615212394294, "chain_nodes": 108, "lowered_nodes": 33, "lowered_max_m": 0.9785537719726562, "direction_ok": true, "end_extended_m": 0.0, "end_closed": true, "downstream_checked": "whole", "a0": 51.6809, "area_up": 51.6783, "area_down": 51.683400000000006, "swing": 5.0308721403865756e-05, "largest_step": 0.0018000000000029104, "largest_step_at_m": 10.0, "checked_up_m": 24.142135623731065, "checked_down_m": 20.0, "drains": true, "monotone": true, "causes": []}, "geometry": {"type": "Polygon", "coordinates": [[[199230.0, 6636865.0], [199076.884583946, 6636957.26922343], [198943.0, 6636798.0], [198975.0, 6636730.0], [198946.42857142858, 6636687.142857143], [198983.96993931764, 6636644.904016528], [199137.77777777778, 6636590.555555556], [199162.80797913662, 6636631.794736318], [199236.7931295669, 6636561.896497951], [199218.88608431487, 6636482.509786405], [199174.61705202312, 6636455.802023121], [199161.12903225806, 6636373.870967742], [199207.61904761905, 6636327.380952381], [199252.0, 6636367.0], [199316.7259780024, 6636257.321897618], [199203.47488326827, 6636135.138876204], [199177.45706596793, 6635972.313391877], [199324.57716701902, 6635738.90063425], [199308.33333333334, 6635696.666666667], [199375.0, 6635630.0], [199357.05274574898, 6635544.0252422355], [199471.27484944672, 6635464.414223807], [199399.609334682, 6635309.789980465], [199470.24023661987, 6635232.448716915], [199389.58145222728, 6635104.120745273], [199435.0, 6635059.175328123], [199490.57561777128, 6634875.1796611715], [199372.76116951666, 6634751.1074544685], [199242.21512247072, 6634741.357827476], [199192.18345929615, 6634629.947276164], [199220.82346950227, 6634569.273439572], [199150.9472303061, 6634496.33789526], [199032.64064443906, 6634514.592549718], [198887.8312527675, 6634315.574697701], [198898.25377628853, 6634255.859156731], [198795.4899345137, 6634038.789716226], [198893.1661588799, 6634040.177161035], [198941.4949752716, 6634072.894308039], [199044.27129703565, 6633894.950618349], [199115.0, 6633894.705882353], [199088.2751091703, 6633800.087336245], [199107.52531852335, 6633648.044014137], [199212.87321063396, 6633547.484662577], [199125.63465932387, 6633322.237825263], [199230.0, 6633295.0], [199334.49541284403, 6633429.403669725], [199494.45096728313, 6633258.121062807], [199438.3465824977, 6633133.883117908], [199455.33333333334, 6633059.666666667], [199571.458032429, 6632950.799274124], [199720.0, 6633015.0], [199737.93809634628, 6632930.154759134], [199897.8041966531, 6632879.501375045], [199847.2592837077, 6632798.810855742], [199898.40972056487, 6632784.907806658], [199902.81652508813, 6632569.662378988], [199795.02876874397, 6632478.281809536], [199875.0, 6632360.0], [199825.0, 6632278.0], [199869.30571873471, 6632182.542596788], [199783.89772741805, 6632048.2670443645], [199805.0, 6631900.0], [199848.56698280972, 6631882.99347955], [199915.0, 6631740.0], [199795.06282050104, 6631532.633493565], [199745.9723075172, 6631486.702834656], [199613.49715691252, 6631255.591057481], [199641.57894736843, 6631106.578947368], [199524.8056060124, 6631206.0939201135], [199498.34584454456, 6631138.292047669], [199492.96824039912, 6630813.990839495], [199625.92182309355, 6630844.942660066], [199716.15953307392, 6630677.463035019], [199680.80427654536, 6630535.435386034], [199760.96175590024, 6630446.914706366], [199712.33868898035, 6630252.022930749], [199809.8869172978, 6630173.468468041], [199839.66936860327, 6629985.031414987], [199750.77761192527, 6629870.663798257], [199765.0, 6629560.0], [199696.36148100032, 6629510.427736278], [199748.94467487818, 6629371.972337439], [199722.8947368421, 6629358.947368421], [199781.1698652888, 6629281.83583482], [199724.66884006668, 6629236.632387497], [199785.6050338819, 6629134.874152953], [199901.6305528427, 6629092.019634997], [199935.0, 6628950.0], [199895.0, 6628925.0], [199913.31465991455, 6628816.42961975], [199888.5540743082, 6628756.080331995], [200011.97270471463, 6628606.401985112], [200006.38333044227, 6628509.099753098], [200115.9486558327, 6628294.558197103], [200016.62790697673, 6628162.9069767445], [200077.3939774153, 6627976.795483061], [199956.59790411638, 6627874.746160927], [200189.26853215514, 6627672.025036819], [200307.76308328658, 6627661.019304461], [200537.83382496526, 6627448.096474057], [200618.1026493969, 6627449.668973845], [200642.86753682993, 6627365.014469143], [200765.0, 6627350.0], [200709.8775510204, 6627254.199372057], [200577.45276872965, 6627220.244299674], [200535.0, 6627170.0], [200582.7268837297, 6627122.27311627], [200539.59382644985, 6627073.762052094], [200641.5206218178, 6627009.581240399], [200605.00562558832, 6626959.994374412], [200653.07692307694, 6626911.923076923], [200586.15217391305, 6626840.369565218], [200631.45911075475, 6626749.585280816], [200544.87045957558, 6626747.8017185265], [200496.00858782989, 6626690.084244073], [200589.1970465342, 6626575.038792142], [200653.64191499757, 6626546.8441621885], [200629.73684210525, 6626422.631578947], [200695.0, 6626390.0], [200679.44444444444, 6626363.333333333], [200825.0, 6626253.740458015], [200825.0, 6626188.074534162], [200680.40022833945, 6626199.240137003], [200672.27207494614, 6626108.204588662], [200611.21714285715, 6626051.622857143], [200724.13803297724, 6625956.39852443], [200674.9387477314, 6625921.694646098], [200626.66666666666, 6625935.0], [200640.11563911563, 6625891.142870779], [200597.7812422067, 6625814.375155866], [200655.0, 6625700.0], [200564.50931913275, 6625640.833016356], [200571.3300668033, 6625594.902958709], [200481.83673469388, 6625545.585034014], [200619.27677764528, 6625426.480587444], [200581.165151694, 6625289.17424153], [200505.9584099937, 6625187.886773391], [200584.35646456733, 6625147.256950269], [200596.25108367956, 6624930.164509008], [200636.91111933443, 6624930.56520012], [200710.31578947368, 6624847.0], [200752.39629528826, 6624892.876835145], [200824.9714285714, 6624883.64], [200896.39820565068, 6624795.238812446], [200960.51121303742, 6624843.209261695], [201329.15641469922, 6624913.6385993175], [201325.0, 6624993.333333333], [201386.20352317233, 6624982.632687399], [201473.26694552976, 6625085.273136722], [201500.9239583899, 6625301.92293008], [201599.7130035151, 6625271.825110045], [201660.0, 6625375.0], [201681.1920604808, 6625361.2287283745], [201742.77777777778, 6625453.333333333], [201716.74311926606, 6625492.385321101], [201839.81812626988, 6625469.804510291], [201954.59088064992, 6625567.872000316], [202176.03884173706, 6625338.426654136], [202245.0, 6625410.0], [202243.77930476962, 6625499.029911075], [202201.07069209046, 6625610.871068935], [202315.0, 6625825.212258053], [202425.38510764798, 6625949.6514084255], [202476.40291448293, 6625915.066470663], [202510.0, 6625995.0], [202545.8573567952, 6625977.274429053], [202623.0, 6626044.0], [202738.2059546419, 6626008.630064336], [202848.85939036382, 6626056.012782694], [202970.55555555556, 6625942.222222222], [202945.0, 6625910.0], [203070.36752367267, 6625824.696393488], [203127.46599494608, 6625878.098658339], [203209.2217655442, 6625801.9226741], [203321.66666666666, 6625910.0], [203290.55555555556, 6625956.666666667], [203307.50528339107, 6626012.49699468], [203444.2190669371, 6625947.109533468], [203500.7800457354, 6625986.737566673], [203545.93359025274, 6625952.129350697], [203646.95179904957, 6625961.320434487], [203742.66786570742, 6625882.811750599], [203809.66394184873, 6626044.422600216], [203860.0, 6626025.0], [203945.9423076923, 6626154.403846154], [203945.04871957042, 6626207.125545345], [204209.09563957318, 6626303.183375049], [204317.0508869839, 6626411.927285246], [204455.46087888532, 6626391.757770632], [204570.625, 6626474.017857143], [204511.15384615384, 6626566.923076923], [204600.0, 6626605.0], [204631.65627782725, 6626554.477859629], [204737.5, 6626697.5], [204804.77069334767, 6626642.264515043], [204896.66666666666, 6626688.333333333], [204930.0, 6626775.0], [205014.8565859092, 6626742.362851573], [205063.52274972637, 6626946.90644415], [205283.71762957933, 6627164.521465951], [205262.70077370974, 6627278.272641744], [205385.0, 6627300.0], [205370.4054054054, 6627364.054054054], [205468.89916970918, 6627617.115608077], [205521.9164917628, 6627607.011510294], [205595.91927236062, 6627859.465882207], [205695.0, 6627900.0], [205688.50533368098, 6627942.907835059], [205777.38399762046, 6628067.306662701], [205783.940397351, 6628152.450331125], [205841.66666666666, 6628206.858279103], [205845.0, 6628270.0], [205899.6136315654, 6628296.549585323], [205908.67693294838, 6628386.57476428], [205765.36302540594, 6628501.588902642], [205977.10295760084, 6628850.045332644], [206001.36363636365, 6628834.545454546], [206090.7115386141, 6629013.1828498095], [206575.78674292853, 6628925.787343708], [206662.72727272726, 6629068.636363637], [206706.66666666666, 6629041.666666667], [206774.8730964467, 6629122.208121828], [206890.0, 6629135.0], [206977.87802238506, 6629222.878022385], [206914.02307321256, 6629436.114133348], [206720.0, 6629585.0], [206594.15902758244, 6629580.526106004], [206544.52676711621, 6629740.243496374], [206429.3220338983, 6629810.084745763], [206400.0, 6629785.0], [206355.8061712299, 6629875.286831812], [206310.0, 6629815.0], [206154.94121838262, 6629817.048450303], [206140.0, 6629785.0], [206101.08318890815, 6629852.778740613], [206125.0, 6629885.0], [206077.19859972928, 6629962.552817487], [206091.9304358323, 6630083.030068198], [206305.49180327868, 6630261.081967213], [206257.50591201408, 6630467.239222963], [206083.02578197126, 6630514.686559327], [206069.99747803356, 6630619.912557361], [205999.1679849341, 6630676.660640301], [205977.89612731, 6630761.74865346], [205915.0, 6630810.0], [205928.33333333334, 6630858.888888889], [205825.2932562842, 6630955.089121346], [205715.0, 6630979.203373945], [205721.68752838587, 6631097.04777909], [205670.90706733445, 6631123.931552588], [205682.06700768447, 6631215.780132102], [205633.80479598904, 6631244.5985750565], [205608.53658536586, 6631153.292682927], [205446.79392512195, 6631248.951180336], [205377.34268242816, 6631255.005948882], [205313.724231364, 6631367.316840975], [205181.85289590718, 6631427.66573148], [205127.14285714287, 6631544.183673469], [205035.0, 6631610.0], [205072.44239631336, 6631779.193548387], [204958.11434034165, 6631895.929905924], [204992.83040488922, 6631945.087853323], [204921.78180827753, 6631975.877914889], [204824.2298595045, 6631652.020732391], [204768.98453339512, 6631635.487362181], [204698.87282361847, 6631730.97653293], [204715.0, 6631770.0], [204570.8423402049, 6631825.59832603], [204419.673531807, 6632001.744122289], [204313.56842062867, 6631835.355262893], [204314.74469168606, 6631739.744691686], [204279.7014925373, 6631704.701492538], [204060.625, 6631820.625], [204004.89979742793, 6631908.407044282], [204036.77383916802, 6631999.025926469], [203907.68565574594, 6632140.664349945], [203799.5744680851, 6632038.617021277], [203661.84189723321, 6632124.1225296445], [203640.0, 6632095.0], [203630.0, 6632145.0], [203545.34684193105, 6632205.4665414775], [203581.84912475687, 6632300.514031676], [203534.01930915166, 6632430.39246037], [203487.27536512236, 6632480.140487474], [203485.0, 6632555.0], [203445.0, 6632580.0], [203349.73845499769, 6632834.597293356], [203439.38988985607, 6632873.526670334], [203475.94339622642, 6632844.150943397], [203575.31107532114, 6633051.770605213], [203505.07211027926, 6633043.302961627], [203511.76369366216, 6633347.813988096], [203473.53605455338, 6633364.7875140775], [203461.10327646098, 6633425.288402695], [203394.5205479452, 6633411.301369863], [203364.70414201185, 6633355.0], [203241.59435913037, 6633363.52526977], [203205.0, 6633440.0], [203274.22585046134, 6633635.258492165], [203260.07310647398, 6633738.428168851], [203155.18533260524, 6633775.879678666], [203178.69897999815, 6633921.601120463], [203151.12903225806, 6633995.806451613], [203188.6015603873, 6634184.035847722], [203044.0395553667, 6634203.881825042], [202991.66022298153, 6634061.295727663], [202860.57992665388, 6634105.398240709], [202880.68181818182, 6634313.863636363], [202851.62714570816, 6634289.613070721], [202797.10742731526, 6634313.721265305], [202837.0, 6634442.0], [202796.97496187332, 6634511.046794464], [202831.42857142858, 6634629.285714285], [202984.8622288958, 6634768.20551582], [202910.0, 6634875.0], [202900.61855670103, 6634835.824742268], [202857.26940640583, 6634843.239466088], [202838.80952380953, 6634883.591269841], [202767.61423670262, 6634799.101450642], [202496.47983777258, 6635122.674699192], [202387.25904753822, 6635196.008906154], [202402.91130670757, 6635348.304955441], [202489.82522282065, 6635410.631217176], [202400.1390997394, 6635473.936357954], [202341.54132546452, 6635684.835442983], [202309.87711207653, 6635708.75951532], [202333.43971631204, 6635897.375886525], [202310.0, 6636015.0], [202275.0, 6636010.0], [202320.4740700107, 6636103.898186779], [202319.59054964787, 6636186.399200844], [202214.2390942391, 6636160.834165834], [202174.70965565997, 6636224.588473875], [201873.91202391393, 6636133.680610425], [201629.52148072651, 6636293.31122821], [201522.64645210543, 6636431.815594339], [201457.96416824913, 6636315.637353482], [201298.0, 6636223.0], [201264.1002576213, 6636271.592743667], [201293.63636363635, 6636345.909090909], [201191.13952151098, 6636513.036554382], [200740.6852972959, 6636975.068135002], [200654.71698113208, 6636881.226415094], [200534.039007983, 6636982.381140393], [200420.7142857143, 6636888.571428572], [200360.0, 6636925.0], [200307.77777777778, 6636887.222222222], [200228.8712678261, 6636924.722297711], [200142.56177325582, 6637047.5617732555], [200110.0, 6637015.0], [200078.18181818182, 6637077.7272727275], [199983.62170669396, 6637046.2072355645], [199740.40332069361, 6637110.633226613], [199683.117056083, 6637020.605154175], [199527.09914776066, 6637030.009807251], [199468.32871388062, 6636899.991118504], [199301.5276020847, 6636989.596468148], [199230.0, 6636865.0]]]}}]}