{"type": "FeatureCollection", "crs": {"type": "name", "properties": {"name": "EPSG:25833"}}, "features": [{"type": "Feature", "properties": {"station": "12.188.0", "name": "Langtjernbekk", "series": ["1001.1"], "nodes": 5, "fine_vertices": 16, "fine_area_m2": 450.0, "reduced_vertices": 4, "reduced_area_m2": 450.0000000042312, "outline_tolerance_m": 20.0, "windows": [[510, 440]], "placed_on": "number", "distance_m": 30.61661323156025, "uncertainty_m": 30.61661323156025, "elvid": "012-1-13455", "objectid": 12412052, "lake": false, "confluence_near": false, "reach_up_m": 1000.0, "reach_down_m": 130.61661323156022, "reach_fork": false, "seeded_by": "river", "lake_rule": null, "lake_number": null, "lake_name": null, "lake_distance_m": null, "node_offset_m": 10.995658250031061, "chain_nodes": 123, "lowered_nodes": 103, "lowered_max_m": 0.664764404296875, "direction_ok": true, "end_extended_m": 0.0, "end_closed": true, "downstream_checked": "whole", "a0": 0.0005, "area_up": 4.673500000000001, "area_down": 0.001, "swing": 1.0, "largest_step": 0.0005, "largest_step_at_m": 24.142135623731065, "checked_up_m": 24.142135623731065, "checked_down_m": 24.142135623731065, "drains": false, "monotone": false, "causes": ["swing", "chain_not_draining"]}, "geometry": {"type": "Polygon", "coordinates": [[[209370.0, 6704565.0], [209403.46153846153, 6704598.461538462], [209371.42857142858, 6704603.571428572], [209380.0, 6704595.0], [209370.0, 6704565.0]]]}}]}