{"type": "FeatureCollection", "crs": {"type": "name", "properties": {"name": "EPSG:25833"}}, "features": [{"type": "Feature", "properties": {"station": "12.178.0", "name": "Eggedal", "series": ["1001.1"], "nodes": 4, "fine_vertices": 16, "fine_area_m2": 350.0, "reduced_vertices": 4, "reduced_area_m2": 350.0, "outline_tolerance_m": 20.0, "windows": [[477, 464], [1090, 1057], [2438, 2402], [4904, 4943]], "placed_on": "number", "distance_m": 31.991063030793537, "uncertainty_m": 31.991063030793537, "elvid": "012-1-12982", "objectid": 10800086, "lake": false, "confluence_near": false, "reach_up_m": 1000.0, "reach_down_m": 131.9910630307936, "reach_fork": false, "seeded_by": "river", "lake_rule": null, "lake_number": null, "lake_name": null, "lake_distance_m": null, "node_offset_m": 6.411835213135224, "chain_nodes": 106, "lowered_nodes": 86, "lowered_max_m": 3.8387603759765625, "direction_ok": true, "end_extended_m": 0.0, "end_closed": true, "downstream_checked": "whole", "a0": 0.0004, "area_up": 309.9655, "area_down": 309.96860000000004, "swing": 774920.5, "largest_step": 309.96750000000003, "largest_step_at_m": 28.28427124746213, "checked_up_m": 24.142135623731065, "checked_down_m": 28.28427124746213, "drains": false, "monotone": false, "causes": ["swing", "chain_not_draining"]}, "geometry": {"type": "Polygon", "coordinates": [[[191210.0, 6681425.0], [191185.0, 6681400.0], [191215.0, 6681410.0], [191230.0, 6681405.0], [191210.0, 6681425.0]]]}}]}