{"type": "FeatureCollection", "crs": {"type": "name", "properties": {"name": "EPSG:25833"}}, "features": [{"type": "Feature", "properties": {"station": "12.171.0", "name": "H\u00f8lervatn", "series": ["1001.1"], "nodes": 812594, "fine_vertices": 7254, "fine_area_m2": 81259550.0, "reduced_vertices": 361, "reduced_area_m2": 81259550.00000086, "outline_tolerance_m": 20.0, "windows": [[510, 613], [1201, 1304], [2430, 2503]], "placed_on": "number", "distance_m": 1.723832552471404, "uncertainty_m": 30.0, "elvid": "012-1-7794", "objectid": 12441455, "lake": true, "confluence_near": false, "reach_up_m": 1000.0, "reach_down_m": 130.0, "reach_fork": false, "seeded_by": "lake", "lake_rule": "inside", "lake_number": 7028, "lake_name": "H\u00f8lervatnet", "lake_distance_m": 0.0, "node_offset_m": null, "chain_nodes": null, "lowered_nodes": null, "lowered_max_m": null, "direction_ok": null, "end_extended_m": null, "end_closed": null, "downstream_checked": null, "a0": null, "area_up": null, "area_down": null, "swing": null, "largest_step": null, "largest_step_at_m": null, "checked_up_m": null, "checked_down_m": null, "drains": null, "monotone": null, "causes": []}, "geometry": {"type": "Polygon", "coordinates": [[[188000.0, 6746075.0], [187850.95238095237, 6746014.047619048], [187804.0151373783, 6746086.607093715], [187755.06099604358, 6746072.462856363], [187645.55555555556, 6746189.444444444], [187553.33333333334, 6746191.666666667], [187331.02362204724, 6746330.826771653], [187158.52209972602, 6746269.91523715], [186999.25925925927, 6746344.259259259], [186953.52402745996, 6746298.52402746], [186909.30555555556, 6746375.694444444], [186862.98519760233, 6746265.913637586], [186631.4814814815, 6746243.518518519], [186501.13243772442, 6746181.834079535], [186439.55414012738, 6746041.32533072], [186332.575048403, 6745937.893580391], [186213.06539109928, 6745963.224493125], [186085.0, 6745890.0], [186091.66666666666, 6745809.191919192], [186007.27870724924, 6745658.188796497], [185875.0, 6745625.454545454], [185824.78502265492, 6745526.480563449], [185669.24192260604, 6745394.675216872], [185709.62318877375, 6745252.321764767], [185456.2817431235, 6745062.042482385], [185387.8554493308, 6745116.116634799], [185307.3839554394, 6745053.174819144], [185315.0, 6744980.0], [185216.4441276232, 6744952.626928005], [185196.05263157896, 6744668.872180451], [185003.22028919373, 6744485.8696951615], [184881.54935606685, 6744489.021253324], [184768.98026132985, 6744395.953598663], [184681.344649655, 6744260.966331223], [184790.0, 6744235.0], [184938.1910381661, 6743954.959057493], [185011.12209048978, 6743943.809242442], [184984.83711412572, 6743880.432002609], [185150.91983342767, 6743681.8396668555], [185121.25, 6743622.5], [185207.60632205493, 6743511.014249204], [185114.61538461538, 6743428.076923077], [185060.0, 6743435.0], [184961.4705882353, 6743305.882352941], [184888.31560789625, 6743285.648786571], [184873.78048780488, 6743223.902439024], [184951.1733615222, 6743165.327695561], [184753.4406476736, 6743059.183480398], [184682.9931972789, 6743107.137998057], [184497.93183736177, 6742974.951312401], [184356.48687012066, 6743108.1937544355], [184287.5536779888, 6743073.604944497], [184262.5, 6743012.5], [184338.7037037037, 6742953.703703703], [184292.1076011846, 6742907.107601184], [184324.16088397856, 6742735.200463363], [184412.9562172963, 6742742.625912014], [184442.99602038754, 6742607.469395201], [184590.57790863691, 6742416.095413761], [184485.00779752058, 6742299.379778102], [184418.66746221163, 6742273.492442323], [184465.0, 6742180.0], [184235.71620146927, 6742106.438005149], [184101.39314308847, 6741837.771055509], [184165.1724137931, 6741790.862068965], [184220.0, 6741805.0], [184297.7210460772, 6741652.745952678], [184239.01858959885, 6741545.981410401], [184400.0, 6741385.0], [184498.63636363635, 6741399.090909091], [184515.0, 6741370.0], [184210.121765113, 6741179.843409748], [184220.95688443512, 6741106.353467316], [184127.58813263156, 6740990.569401704], [184081.57091992637, 6740995.666574403], [183899.4597144177, 6740841.30835787], [184085.0, 6740640.0], [184092.76177737443, 6740580.590212019], [183971.10883221278, 6740441.37091063], [183873.62012987013, 6740390.60064935], [183940.73890792028, 6740261.358007103], [184059.64205927806, 6740173.197734177], [184086.57894736843, 6740062.105263158], [184046.26213592233, 6740014.0453074435], [184100.0, 6739955.0], [184126.92252807287, 6739968.461264037], [184310.03907893595, 6739773.50134193], [184414.5145631068, 6739550.485436893], [184575.0, 6739390.0], [184545.0, 6739340.0], [184650.94462540717, 6739298.811074918], [184735.8536585366, 6739226.951219512], [184842.24784170234, 6739294.592757338], [184952.6697123884, 6739235.077118073], [185120.0, 6739265.0], [185156.66666666666, 6739198.333333333], [185053.45985932573, 6739135.932573369], [185045.0, 6738990.0], [185127.02680067002, 6738904.824120603], [185160.0, 6738795.0], [185223.90986297888, 6738815.7275231285], [185416.1302305865, 6738572.507642303], [185567.72727272726, 6738574.545454546], [185674.47338064667, 6738665.016591612], [185871.50004689742, 6738676.119017247], [186206.7105159159, 6738459.07574345], [186385.63111850456, 6738566.134181883], [186461.58517712983, 6738511.411907452], [186492.22733407366, 6738561.859954825], [186570.0, 6738595.0], [186661.40350877194, 6738478.50877193], [186750.0, 6738475.0], [186846.12912261472, 6738379.45209948], [186935.08298755187, 6738419.917012448], [186911.82769775414, 6738443.172302246], [187162.97997372926, 6738518.796893608], [187262.5860802242, 6738625.2083344], [187259.1559877175, 6738778.311975435], [187216.92444297517, 6738831.936044894], [187219.5868572448, 6738962.014752994], [187397.25976278845, 6739235.548047442], [187457.19844357978, 6739223.560311284], [187488.9899462395, 6739286.030887559], [187373.0965909091, 6739331.903409091], [187493.33333333334, 6739407.222222222], [187530.0, 6739395.0], [187512.28954209608, 6739582.29394302], [187603.89862096342, 6739646.221023134], [187801.05284276188, 6739905.669756688], [188079.6933648845, 6739983.501868435], [188090.28169014084, 6740035.233400403], [188291.46736642736, 6740100.229756376], [188335.6035054048, 6740155.137051881], [188492.9140895087, 6740247.914089508], [188613.67543003624, 6740166.2968683615], [188734.1096921071, 6740128.189226781], [188975.8224409202, 6739891.538593905], [189067.5, 6739967.5], [189400.3352829442, 6739675.081153796], [189486.5133201193, 6739555.817440476], [189612.39130434784, 6739585.217391305], [189640.91836734695, 6739514.081632653], [189774.65978174872, 6739384.83039546], [189759.9531136382, 6739243.402127637], [189914.17708701585, 6739125.908414748], [190049.54815050363, 6739094.283264702], [190120.0, 6739035.0], [190178.68691096827, 6739052.705179439], [190391.83249370276, 6738987.764483627], [190335.0, 6738860.0], [190365.98063412914, 6738800.639466069], [190298.15120109022, 6738724.472972532], [190463.43978335508, 6738521.0597182475], [190502.85714285713, 6738542.142857143], [190674.0, 6738385.0], [190875.98774617017, 6738403.947989964], [190865.0, 6738298.0], [190917.88543568258, 6738297.770692216], [190950.0, 6738215.0], [191122.96296296298, 6738312.037037037], [191233.65217391305, 6738201.347826087], [191322.5828421347, 6738218.805630768], [191427.91666666666, 6738142.916666667], [191377.23318559388, 6738025.932570198], [191484.464577769, 6737927.055558013], [191579.53020134228, 6737988.020134228], [191556.36363636365, 6738017.7272727275], [191627.29717580165, 6738087.395035097], [191740.931372549, 6738294.068627451], [191855.0, 6738272.7272727275], [191831.03476401887, 6738450.064079452], [191917.57616294123, 6738602.136014499], [192075.0, 6738720.0], [192164.63302752294, 6738880.458715596], [192135.21276595746, 6738917.234042553], [192220.0, 6739105.0], [192261.13995538434, 6739089.388375015], [192308.88888888888, 6739154.777777778], [192402.64705882352, 6739162.94117647], [192419.61890247947, 6739267.530698394], [192554.55134720984, 6739398.510592465], [192650.105486952, 6739433.063292171], [192639.36939503351, 6739570.154815377], [192710.0, 6739585.0], [192759.06976744186, 6739538.2558139535], [192835.93220338982, 6739599.745762712], [192862.52215389904, 6739535.156713973], [193131.13081881942, 6739537.056132477], [193072.15315213698, 6739357.283213384], [193222.47844732506, 6739285.939852509], [193412.44914268862, 6739292.344261803], [193476.6881623909, 6739251.688162391], [193544.93946216966, 6739274.546059545], [193763.17628004245, 6739088.584327413], [193930.22311247385, 6739170.793433696], [193961.66666666666, 6739120.0], [193926.72413793104, 6739058.275862069], [193990.0, 6738995.0], [194097.9049676026, 6739131.371490281], [194185.42403521182, 6739058.794702508], [194263.54609929078, 6739060.035460993], [194410.0, 6738945.0], [194433.38781428072, 6738998.258746194], [194615.0, 6738882.857142857], [194785.41250448005, 6738911.608664361], [194875.28370037532, 6739025.035018979], [194992.1969783192, 6738950.788540945], [195086.80215046922, 6738944.684423856], [195168.77836859252, 6738814.350588169], [195335.0, 6738910.0], [195314.40133037695, 6738930.598669623], [195438.61607337036, 6739086.799053595], [195485.88235294117, 6739205.0], [195670.0, 6739035.0], [195782.02000141854, 6739001.148663025], [195768.125, 6739076.875], [195845.69305231993, 6739179.9305293765], [196031.46743279428, 6739074.953476986], [196152.64504562775, 6739216.160365022], [196165.0, 6739315.0], [196247.8108108108, 6739441.945945946], [196333.9557759662, 6739437.81878885], [196324.5247912935, 6739488.758053313], [196510.374841169, 6739709.250317662], [196495.0, 6739740.0], [196613.05555555556, 6739801.944444444], [196640.0, 6739775.0], [196780.0, 6739915.0], [196801.35072856938, 6739902.189562858], [196875.0367178969, 6740019.919247368], [197160.0, 6740235.0], [197229.73495289058, 6740234.84373444], [197513.6586143396, 6740455.601645837], [197545.93659942364, 6740598.332132565], [197571.50432443403, 6740531.576871366], [197686.96148359487, 6740433.074179743], [197748.00651926178, 6740575.9074853975], [197883.27586206896, 6740542.413793104], [197925.63583815028, 6740619.36416185], [197875.0, 6740670.0], [197902.7358490566, 6740753.962264151], [197820.65596135968, 6740925.552150695], [197961.56207451416, 6741067.478029459], [198050.0, 6741025.0], [198243.77567245264, 6741291.718033656], [198407.1016470301, 6741374.435714851], [198432.85714285713, 6741447.857142857], [198511.66702196424, 6741463.360725632], [198592.22195160843, 6741401.972330909], [198586.08113294444, 6741582.557184526], [198660.603017303, 6741558.234506088], [198773.36721800047, 6741657.354828393], [198695.56515775033, 6741829.87654321], [198581.01524603262, 6741962.309672337], [198605.0, 6742000.0], [198012.77777777778, 6742592.222222222], [198095.0, 6742780.0], [198024.23076923078, 6742874.615384615], [198075.0, 6742900.0], [197968.3257458771, 6743066.625638699], [197842.93494853508, 6743130.572304252], [197821.44329896907, 6743241.701030928], [197845.0, 6743330.0], [197575.5030458042, 6743596.040528554], [197389.97491470707, 6743682.944681452], [197307.46326154398, 6743765.975100718], [197266.42587778872, 6743701.553982216], [197191.9805819495, 6743716.623301661], [197150.0, 6743775.0], [197107.56756756757, 6743758.513513514], [197053.33333333334, 6743805.0], [196950.0, 6743825.0], [196866.254600624, 6743744.804236727], [196736.22192011017, 6743843.517171577], [196633.55788616737, 6743776.915066017], [196355.26903204486, 6743950.269032045], [196320.0, 6743915.0], [196204.4484106748, 6743937.223355431], [196110.0, 6743855.0], [196056.0, 6743882.0], [195945.5251125914, 6743866.551449561], [195794.0874217693, 6743793.903040074], [195622.8921326076, 6743889.686293914], [195610.0, 6743945.0], [195537.9043861685, 6743935.525257214], [195493.59101764852, 6743888.98656965], [195408.29307568437, 6743926.91626409], [195282.16216216216, 6743915.0], [195215.75166616775, 6743961.678978069], [195090.0, 6743955.0], [195038.12030075188, 6744011.390977443], [195000.0, 6743995.0], [194940.0, 6744055.0], [194889.19475504453, 6744020.178427615], [194755.10823170733, 6744126.702743903], [194654.25673970106, 6744097.081060766], [194540.0, 6744135.0], [194496.98324022346, 6744100.586592179], [194335.0, 6744150.0], [194330.58861727465, 6744085.812316141], [194220.92041580356, 6743999.404768432], [193958.93215990937, 6744140.683574652], [193784.91278923926, 6744296.415885793], [193654.69505506035, 6744341.106096586], [193641.8091035764, 6744307.357176034], [193513.90257151148, 6744407.375120526], [193431.93727002802, 6744369.539054935], [193292.01878151766, 6744463.642253782], [193221.81818181818, 6744456.818181818], [193243.33333333334, 6744405.0], [193132.82338075805, 6744455.07463], [193080.0, 6744625.0], [193056.40350877194, 6744601.403508772], [192942.72727272726, 6744695.0], [192867.25925925927, 6744647.740740741], [192756.34262940456, 6744748.726504546], [192597.09977773327, 6744767.999622174], [192566.7743122224, 6744849.098501047], [192215.0, 6745230.0], [192241.66666666666, 6745263.333333333], [192070.3390760667, 6745434.660923934], [191514.28538494697, 6745781.01966757], [191319.68947503594, 6745752.064083932], [191193.51380021262, 6745941.082052894], [191255.0, 6746020.0], [191195.7142857143, 6746067.857142857], [191043.50332498646, 6746057.073674717], [190982.95058325207, 6746016.106717747], [190789.1696022165, 6746065.830397784], [190722.85714285713, 6746132.142857143], [190632.96321892037, 6746108.654303924], [190466.76887191326, 6746156.580269422], [190426.42857142858, 6746231.428571428], [190491.34583481395, 6746295.615816842], [190464.30952218076, 6746394.5403074], [190413.58974358975, 6746368.58974359], [190160.0, 6746505.0], [190128.91025641025, 6746473.91025641], [190051.05263157896, 6746560.263157895], [189948.688601019, 6746589.6371840555], [189852.7142857143, 6746542.571428572], [189768.0815558344, 6746626.928481807], [189825.0, 6746700.0], [189742.66106442577, 6746782.3389355745], [189492.60209346897, 6746842.397906531], [189346.88733191, 6746704.076100452], [189335.19182661184, 6746639.312239863], [189243.37150000187, 6746571.408161965], [189155.71979186742, 6746427.950472153], [189066.62451276064, 6746400.9459245745], [189072.2271016311, 6746451.681304893], [188880.83983045604, 6746665.839830456], [188850.0, 6746635.0], [188656.58687201067, 6746875.916896928], [188486.5906362545, 6746851.086434574], [188511.24112965673, 6746814.462315623], [188364.12690498817, 6746622.723516878], [188223.22395736506, 6746326.753423809], [188246.77238194365, 6746222.098766524], [188112.79078748668, 6746135.988484358], [188036.25, 6746040.3125], [188000.0, 6746075.0]]]}}]}