{"type": "FeatureCollection", "crs": {"type": "name", "properties": {"name": "EPSG:25833"}}, "features": [{"type": "Feature", "properties": {"station": "12.197.0", "name": "Grunke", "series": ["1001.0"], "nodes": 1840307, "fine_vertices": 10708, "fine_area_m2": 184030850.0, "reduced_vertices": 439, "reduced_area_m2": 184030849.99999934, "outline_tolerance_m": 20.0, "windows": [[434, 512], [1232, 1137], [2517, 2336], [4916, 4594]], "placed_on": "number", "distance_m": 77.01239789167816, "uncertainty_m": 77.01239789167816, "elvid": "012-1-900", "objectid": 12434473, "lake": true, "confluence_near": false, "reach_up_m": 1000.0, "reach_down_m": 177.01239789167812, "reach_fork": false, "seeded_by": "river", "lake_rule": null, "lake_number": null, "lake_name": null, "lake_distance_m": null, "node_offset_m": 16.652238976842632, "chain_nodes": 110, "lowered_nodes": 86, "lowered_max_m": 0.3126220703125, "direction_ok": true, "end_extended_m": 0.0, "end_closed": true, "downstream_checked": "whole", "a0": 184.0307, "area_up": 184.017, "area_down": 184.05120000000002, "swing": 0.00011139445755532544, "largest_step": 0.015300000000024738, "largest_step_at_m": 14.142135623731065, "checked_up_m": 72.4264068711932, "checked_down_m": 76.56854249492426, "drains": true, "monotone": true, "causes": []}, "geometry": {"type": "Polygon", "coordinates": [[[145045.0, 6790010.0], [145097.4812030075, 6789957.5187969925], [145097.72727272726, 6789836.363636363], [144965.61641844834, 6789682.454585534], [144998.76161401646, 6789602.4767719675], [144931.35687155434, 6789510.294381388], [145025.0, 6789380.0], [144890.0, 6789245.0], [144796.56979514053, 6789255.957598857], [144678.2938664201, 6789184.918403788], [144578.44178082192, 6789323.441780822], [144535.5535902295, 6789280.55359023], [144303.4393809269, 6789288.304629029], [144245.7634408602, 6789358.0322580645], [144050.4762751099, 6789343.06719957], [143918.62028588276, 6789179.349939637], [143722.67757754592, 6789254.249796071], [143478.1904575677, 6789034.291480614], [143383.61375995234, 6788826.62482855], [143495.0, 6788690.0], [143465.0, 6788660.0], [143525.50875231338, 6788511.213949722], [143492.5, 6788332.5], [143440.0, 6788315.0], [143384.54545454544, 6788369.545454546], [143306.72334394485, 6788291.723343945], [143187.13835197428, 6788302.9777687285], [143075.3110408194, 6788141.788672993], [142991.81818181818, 6788192.2727272725], [142905.44, 6788167.704], [142867.31707317074, 6788106.707317073], [142740.52631578947, 6788050.578947368], [142647.30569948186, 6788125.155440414], [142583.30949310565, 6788018.8638855005], [142481.30083950463, 6787945.593975043], [142516.50238049403, 6787907.577971829], [142318.07446754124, 6787727.395681348], [142055.17096820934, 6787775.603970973], [141866.89243351284, 6787532.615447509], [141938.03465393657, 6787332.819152309], [141981.14987457596, 6787287.26823884], [141921.0, 6787164.0], [141978.84615384616, 6787106.153846154], [141883.09187279153, 6787018.621908127], [141890.0, 6786915.0], [141785.78225544852, 6786845.521503632], [141696.36953310642, 6786729.158371331], [141663.38164251207, 6786759.412238325], [141612.27272727274, 6786692.7272727275], [141672.8724094739, 6786632.127590526], [141894.02826743407, 6786613.965949692], [142174.88589598873, 6786315.80795615], [142270.0, 6786285.0], [142450.0, 6786105.0], [142474.55813953487, 6786129.558139535], [142592.57575757575, 6786052.121212121], [142616.33640931285, 6785952.218866322], [142552.31368127812, 6785816.869315139], [142707.36177151074, 6785712.18558666], [142740.0, 6785725.0], [142816.37404580152, 6785664.809160305], [142801.66666666666, 6785613.333333333], [142905.0, 6785510.0], [142923.53329786292, 6785374.8754101265], [143262.7714184452, 6785032.09523247], [143340.0, 6785095.0], [143359.61754780653, 6785063.48143982], [143530.0, 6785065.0], [143599.90212333528, 6785023.483179119], [143662.5, 6785075.0], [143719.83417352082, 6785043.439904484], [143756.5306772878, 6785073.308144936], [143922.37055196552, 6785038.945887617], [144000.0, 6784985.0], [144054.37768240343, 6785023.841201717], [144187.29257259594, 6784979.158178899], [144424.12278708586, 6784773.1615278805], [144560.92245641255, 6784565.427800794], [144696.0655737705, 6784471.721311475], [144736.10917537747, 6784511.167247387], [144842.3232879873, 6784484.41482752], [144974.4302983262, 6784331.049489853], [144951.96251417542, 6784231.120298071], [145098.75, 6784016.25], [145045.0, 6783910.0], [145141.66666666666, 6783846.666666667], [145269.30982094072, 6783853.299666549], [145694.868278499, 6783575.254387654], [145677.58186397984, 6783483.38790932], [145788.84351496425, 6783537.651803062], [145989.70588235295, 6783335.294117647], [145900.72383073496, 6783245.6941351155], [145952.99269950186, 6783127.356828355], [145903.10164752215, 6783010.697022206], [145975.92694211815, 6782789.073057882], [146144.0, 6782621.0], [146171.30325814537, 6782646.203007519], [146378.2374493797, 6782463.23744938], [146489.5965711594, 6782547.6606214205], [146540.07646739238, 6782493.740600789], [146639.92687385742, 6782541.617915905], [146745.77640817245, 6782490.215482226], [146268.34342500413, 6781950.7215489745], [146223.4479611166, 6781832.217697092], [146318.92406650618, 6781703.255241263], [146185.0, 6781490.0], [146252.5, 6781422.5], [146255.0, 6781340.0], [146335.0, 6781260.0], [146330.95618567354, 6781183.023105857], [146422.39130434784, 6781045.217391305], [146392.3788053096, 6780872.618880789], [146264.38461538462, 6780717.692307692], [146268.62369337978, 6780633.62369338], [146155.0, 6780520.0], [146170.0, 6780415.0], [146118.31827733156, 6780363.318277332], [146164.45518044237, 6780290.896391152], [146108.0745228054, 6780220.46585895], [146225.0, 6780010.0], [146140.14018691587, 6779946.355140187], [146285.94826556195, 6779633.926444484], [146264.62700950954, 6779437.5433981735], [146289.56373983494, 6779259.218006367], [146260.86031404618, 6779191.5085245455], [146286.2188365651, 6779154.764542936], [146227.5, 6779092.5], [146265.0, 6779044.666666667], [146115.0, 6778880.0], [146199.8275862069, 6778674.827586207], [146184.5860204781, 6778623.652213354], [146490.05226867142, 6778226.161533583], [146549.4793832191, 6778222.334845983], [146610.0, 6778145.0], [146708.85411616412, 6778118.14401238], [146895.14400908275, 6777932.6572334645], [146869.15584415584, 6777885.844155844], [146893.38053590033, 6777861.619464099], [146813.2054939833, 6777683.041094625], [146971.3943607488, 6777502.846523537], [146835.0, 6777450.0], [146856.98229899115, 6777359.840254427], [146760.26086956522, 6777294.594202898], [146722.65736897284, 6777179.122433196], [146767.58947929094, 6777145.9131301055], [146740.07006807992, 6777008.692115638], [147010.28111874583, 6776742.44425127], [146860.33150529867, 6776491.355083218], [146975.0, 6776430.0], [146942.36842105264, 6776323.684210527], [147118.918585803, 6776110.948657214], [147231.38983371065, 6776146.658017492], [147305.9090909091, 6776119.090909091], [147368.95348640694, 6776029.752961233], [147508.7735991878, 6776050.887729817], [147625.63480715713, 6775949.616989968], [147747.52700285087, 6775984.274714145], [147914.58605147197, 6775838.454331786], [148085.95888675403, 6775760.520297406], [148204.88315360207, 6775610.1168463975], [148139.84852563692, 6775530.122763333], [148380.0, 6775415.0], [148501.49755245505, 6775428.814590513], [148570.66237542263, 6775296.956601759], [148667.2194940832, 6775303.782346493], [148827.94328252153, 6775049.163306772], [149145.52341455693, 6774684.234572705], [149105.63131632592, 6774606.540158312], [149000.0, 6774625.0], [148918.37606837606, 6774543.376068376], [148826.47024502727, 6774599.708587884], [148376.93051902347, 6774198.069480976], [148268.55184978072, 6774038.706187952], [148530.70937019013, 6773793.074584773], [148732.85714285713, 6773782.142857143], [148776.0, 6773739.0], [148834.2059637579, 6773756.591728028], [148960.0, 6773685.0], [148987.19626168226, 6773712.196261683], [149200.0, 6773657.5], [149261.90584887832, 6773703.929386659], [149400.698902885, 6773712.342543681], [149622.11898003935, 6773554.766689751], [150013.33333333334, 6773198.333333333], [150060.4, 6773234.6], [150273.95638629285, 6773021.043613707], [150407.02127659574, 6773024.574468086], [150652.93671222054, 6772880.628034633], [150769.85237019003, 6772764.634020829], [150934.75609756098, 6772963.048780488], [150911.36363636365, 6772985.454545454], [151266.0798763463, 6773474.905837881], [151432.07888296293, 6773467.025973658], [151579.25746765026, 6773558.335348894], [151750.0, 6773385.0], [151866.08632846578, 6773430.396530271], [151920.0, 6773355.0], [152054.60360780032, 6773408.272677246], [152123.45202089634, 6773347.294473467], [152173.59878277575, 6773233.13260885], [152105.0, 6773180.0], [152180.29173964006, 6773019.97281171], [152382.40498476522, 6772817.690242539], [152377.98598197682, 6772766.514327945], [152496.83889653315, 6772899.75998563], [152672.42981256073, 6772991.834124271], [152770.0, 6773005.0], [152830.0, 6773065.0], [152966.6077170418, 6772928.485530547], [153080.0, 6772985.0], [153118.57142857142, 6772946.428571428], [153280.0091755746, 6773023.380052301], [153285.9313736696, 6772994.749156463], [153513.57298400818, 6772984.075535896], [153490.81292708774, 6772804.760432439], [153839.06861392513, 6772442.430262657], [153767.51341162462, 6772382.118480954], [153790.0, 6772292.038145101], [153906.96500672947, 6772327.32166891], [154027.3076923077, 6772176.923076923], [153965.09513886104, 6772035.77104171], [154096.69558494224, 6771808.349530888], [154201.34615384616, 6771816.346153846], [154248.33333333334, 6771863.333333333], [154444.82035991014, 6771723.102203767], [154354.15909428406, 6771555.361458513], [154438.7931034483, 6771487.586206896], [154405.0, 6771420.0], [154523.13044374847, 6771077.916927698], [154732.6775554817, 6770868.536864795], [155549.8105366092, 6770635.999877766], [155686.0, 6770729.0], [155750.0, 6770665.0], [156636.84803001877, 6771550.065666041], [156723.65786578658, 6771568.657865787], [156810.0, 6771655.0], [156861.09587718867, 6771624.654231958], [156945.0, 6771720.918902767], [156935.0, 6771790.0], [156983.56164383562, 6771819.383561644], [156960.6850021597, 6771921.642066521], [157018.88634010922, 6771952.328880625], [157004.37291546867, 6772001.551178838], [157226.8362361572, 6772141.438411218], [157300.0, 6772135.0], [157333.61904761905, 6772222.523809524], [157366.4798206278, 6772200.040122729], [157425.0, 6772234.333333333], [157486.48908857204, 6771964.727530171], [157653.43332861707, 6771790.979059687], [157748.6608458854, 6771768.010032203], [157919.98725291798, 6771595.588267732], [157818.32550195948, 6771471.597111756], [157864.36955820702, 6771262.79103515], [158047.57993534434, 6771242.6000928935], [158169.8743362832, 6771345.231858407], [158322.93650964543, 6771198.617530982], [158433.61038292633, 6771261.320743569], [158366.01889164108, 6771339.490554179], [158413.4, 6771441.609302325], [158371.9696969697, 6771494.545454546], [158440.55147788898, 6771583.744058068], [158428.03872889772, 6771622.403177756], [158554.0110998991, 6771709.011099899], [158592.49092537587, 6771820.744695785], [158547.9689012755, 6771976.408615085], [158744.9518026653, 6772145.564358826], [158947.1076469961, 6772136.269073695], [159018.33634578655, 6772032.442919887], [159225.0, 6772070.0], [159130.26420033124, 6772202.038533184], [159194.18423587753, 6772440.742431764], [159175.0, 6772540.0], [159236.68369673408, 6772589.921051409], [159223.34038166728, 6772650.325897341], [159290.93301435406, 6772695.837320575], [159278.73879108066, 6772868.663222422], [159354.61165048543, 6772955.242718447], [159299.43980536808, 6773042.856066552], [159323.46153846153, 6773116.923076923], [159285.0, 6773150.0], [159325.0, 6773190.0], [159278.1817204429, 6773369.903881099], [159354.05405405405, 6773481.756756756], [159190.5540956274, 6773734.182613419], [159106.8398281054, 6773835.259082703], [159183.0720131992, 6773907.845380683], [159066.289005698, 6774053.921216899], [159125.0, 6774140.0], [159094.94137472223, 6774181.819882615], [159122.82131809252, 6774271.706634891], [159032.7107673656, 6774424.780205086], [159201.65665099607, 6774582.749311548], [159770.82864678692, 6775177.107859553], [159652.5, 6775407.5], [159715.0, 6775470.0], [159654.05525846704, 6775645.169340463], [159689.21413864105, 6775784.214138641], [159727.8879935536, 6775822.887993554], [159703.3835946924, 6775948.082026538], [159739.88450279424, 6775984.782286833], [159735.26311988337, 6776111.078736519], [159632.94749432124, 6776077.424270192], [159473.4004809373, 6776104.424533995], [159284.33680475716, 6776210.083814927], [159195.05923000988, 6776418.914116486], [159251.91876934282, 6776487.047228945], [159282.96738887648, 6776663.558186285], [159104.03225806452, 6776867.096774193], [159125.0, 6776930.0], [159076.39841296783, 6777060.240388695], [159305.0, 6777390.0], [159239.3717277487, 6777403.481675393], [159200.0, 6777375.0], [158987.15369101398, 6777609.212537299], [158950.0, 6777745.0], [158881.08262108263, 6777676.082621083], [158664.54545454547, 6777778.636363637], [158363.9192328541, 6777579.12934617], [158325.2564102564, 6777605.384615385], [158381.59611327946, 6777706.600032054], [158342.96122741036, 6777754.441841115], [158441.91864247376, 6777931.085377185], [158270.36741214056, 6778122.875399361], [158181.739642916, 6778129.448317597], [158163.89861301088, 6778274.498704675], [158044.85671424924, 6778468.782071118], [158065.0, 6778540.0], [158026.48936170212, 6778640.212765957], [158028.86307385197, 6778902.530680688], [157912.38737041602, 6779013.623065353], [157924.41176470587, 6779154.117647059], [158009.46323116685, 6779290.402823069], [157939.75484602954, 6779443.318224423], [158153.79127356355, 6779677.524297803], [158256.3593539559, 6779707.462026515], [158345.2688172043, 6779821.774193549], [158472.30248905212, 6779765.553762944], [158585.0, 6779790.0], [158519.5945945946, 6779855.405405405], [158524.69584540557, 6779920.140278197], [158421.88888888888, 6779971.555555556], [158459.97364038212, 6780030.941242046], [158204.9437820819, 6780223.398031813], [158053.71964069508, 6780211.0306410575], [157077.0, 6781188.0], [156911.65134482158, 6781446.218110233], [156609.18322936312, 6781764.955026839], [156560.0, 6781735.0], [156073.0967238718, 6782169.957497282], [155968.93058847898, 6782374.817058296], [155712.62292240906, 6782618.811913542], [155454.73831310336, 6782738.0345722465], [155422.3372781065, 6782905.562130177], [155297.71680736763, 6783107.283192633], [155188.81156316918, 6783216.18843683], [155197.55054683978, 6783305.160387895], [155161.60194174756, 6783513.495145631], [154994.8590289873, 6783706.261274571], [154864.8051141625, 6783791.361328656], [154807.0, 6783888.0], [154837.97314272687, 6784128.733362885], [154760.0, 6784315.0], [154702.56756756757, 6784308.6486486485], [154605.21722602108, 6784454.6741609685], [154607.2130747378, 6784590.055216201], [154412.9312077084, 6785195.939174672], [154286.16024776394, 6785368.272302124], [154301.93866943868, 6785516.9386694385], [154122.11538461538, 6785707.115384615], [154149.24714152672, 6785734.247141527], [153978.79185035493, 6786008.308461405], [153836.0528689029, 6786554.013720982], [153621.4752455436, 6786825.745479829], [153505.0, 6786766.666666667], [153519.50823332573, 6786848.879988845], [153393.55953144262, 6786985.66307899], [153223.9050180408, 6786918.310566867], [153027.37245489907, 6786989.010033841], [152895.0, 6787220.0], [152908.75255354695, 6787255.756639222], [152826.51055976268, 6787433.766454836], [152626.02682188767, 6787560.23756145], [152423.27232487948, 6787463.583052717], [152239.18342975818, 6787655.70093458], [152041.7972468614, 6787722.152660117], [151894.05405405405, 6787842.297297297], [151810.0, 6787775.0], [151753.0460396032, 6787802.443193766], [151774.66501240694, 6787855.248138958], [151590.0, 6788085.0], [151571.81577018497, 6788033.030552457], [151492.43268149445, 6788003.368892916], [151461.7439466116, 6788130.795970203], [151221.25, 6788263.75], [151066.34192907627, 6788418.658070924], [150970.3900650125, 6788385.3900650125], [150704.34999455613, 6788523.097964829], [150582.99268521977, 6788515.88679153], [150542.96386686715, 6788553.4503892055], [150325.7142857143, 6788585.0], [150327.91044776118, 6788634.104477612], [150216.72904800653, 6788619.654190399], [150105.7019841268, 6788700.299006529], [150052.4970186476, 6788651.366484152], [149747.49653727355, 6788954.9013914205], [149840.70696365237, 6789061.778684333], [149719.84769216683, 6789206.370770498], [149705.0, 6789300.0], [149447.5993924604, 6789635.405200856], [149289.18695496622, 6789724.459800869], [149274.60157126823, 6789610.712682379], [149123.52758352758, 6789618.527583527], [149090.8412537917, 6789536.391304348], [149043.64424552835, 6789533.589502496], [148926.77432712214, 6789421.605146406], [148797.925526516, 6789490.145238777], [148694.88037480757, 6789494.203019527], [148546.63922678155, 6789604.177511627], [148416.5, 6789628.5], [148236.0, 6789729.0], [148151.858474901, 6789672.101800996], [148095.34391534392, 6789733.571428572], [148000.0, 6789685.0], [147964.91911045442, 6789737.698529965], [147751.13369003424, 6789706.618605446], [147595.45454545456, 6789811.363636363], [147369.99828014255, 6789798.642056507], [147095.38461538462, 6789988.076923077], [147010.625, 6789974.375], [146590.01794125917, 6790394.982058741], [146454.15799284296, 6790458.941502964], [146124.7097200469, 6790146.64626994], [146149.29012115847, 6790052.188198974], [145694.89064056508, 6790133.300356582], [145595.21753176546, 6790080.217531766], [145472.9360769667, 6790133.823855912], [145276.28114715562, 6790028.472809904], [145095.15887999127, 6790040.584682922], [145045.0, 6790010.0]]]}}]}