{"type": "FeatureCollection", "crs": {"type": "name", "properties": {"name": "EPSG:25833"}}, "features": [{"type": "Feature", "properties": {"station": "12.207.0", "name": "Vinde-elv", "series": ["1001.0"], "nodes": 2731253, "fine_vertices": 16846, "fine_area_m2": 273125450.0, "reduced_vertices": 755, "reduced_area_m2": 273125450.00000006, "outline_tolerance_m": 20.0, "windows": [[496, 459], [1101, 1138], [2300, 2537], [5325, 5249]], "placed_on": "number", "distance_m": 0.6923360898617505, "uncertainty_m": 30.0, "elvid": "012-1-1892", "objectid": 12426319, "lake": false, "confluence_near": false, "reach_up_m": 1000.0, "reach_down_m": 130.0, "reach_fork": false, "seeded_by": "river", "lake_rule": null, "lake_number": null, "lake_name": null, "lake_distance_m": null, "node_offset_m": 5.561325899132548, "chain_nodes": 108, "lowered_nodes": 13, "lowered_max_m": 1.239990234375, "direction_ok": true, "end_extended_m": 0.0, "end_closed": true, "downstream_checked": "whole", "a0": 273.12530000000004, "area_up": 273.1068, "area_down": 273.1331, "swing": 6.773447937637881e-05, "largest_step": 0.017400000000009186, "largest_step_at_m": -14.142135623731065, "checked_up_m": 24.142135623731065, "checked_down_m": 20.0, "drains": true, "monotone": true, "causes": []}, "geometry": {"type": "Polygon", "coordinates": [[[170325.0, 6811250.0], [170388.75, 6811186.25], [170209.29299427674, 6811091.161248168], [170299.10221767623, 6810990.170587828], [170212.25806451612, 6810831.5322580645], [170265.0, 6810770.0], [170156.5909090909, 6810658.409090909], [170092.85714285713, 6810722.142857143], [170033.48413910109, 6810661.046736569], [169945.0, 6810730.0], [169965.0, 6810760.0], [169884.5962732919, 6810762.639751553], [169799.32569260223, 6810855.624070739], [169738.0203691916, 6810816.979630808], [169690.0, 6810865.0], [169545.51328556004, 6810726.661656387], [169481.11395178962, 6810707.034331629], [169597.29408128574, 6810575.406428682], [169652.54577821112, 6810567.938437405], [169718.75, 6810483.75], [169695.0, 6810460.0], [169742.74193548388, 6810424.193548387], [169725.0, 6810360.0], [169866.02964761996, 6810148.947546518], [169917.80514071306, 6810132.205543773], [170051.4457684009, 6810025.867465056], [170191.4800174591, 6809957.884431413], [170621.981626161, 6809609.189489118], [170702.97550797227, 6809590.122460139], [170704.76891124586, 6809547.493012177], [171044.41148851276, 6809260.6103863], [171332.7000669501, 6809139.637337577], [171280.0, 6809025.0], [171314.0403376837, 6808878.23358401], [171442.59475149776, 6808742.657919163], [171515.43511776955, 6808597.2499112], [171571.08695652173, 6808632.391304348], [171913.30976732282, 6808384.226040061], [171891.0487407756, 6808300.790251845], [171820.0, 6808315.0], [171670.0, 6808215.0], [171596.58307609113, 6807997.963286657], [171837.39139729418, 6807733.517887957], [171808.02605210422, 6807701.482965932], [171929.72664712256, 6807542.579662817], [171962.66025591316, 6807356.132221791], [172090.0, 6807375.0], [172123.55263157896, 6807330.263157895], [172204.44444444444, 6807335.0], [172345.75079872203, 6807221.709265175], [172412.45485483995, 6807207.414888611], [172655.47527243584, 6807427.314561024], [172798.21489373388, 6807325.177659399], [172840.43925875085, 6807168.109128346], [173016.0660834532, 6807119.474007659], [173097.9916502647, 6807171.029272933], [173454.0, 6807137.0], [173470.0, 6807105.0], [173621.5404040404, 6807167.398989899], [173758.9164236196, 6806973.706560309], [173665.0, 6806900.0], [173864.5451309232, 6806946.900759433], [173900.77663479952, 6806994.223365201], [173841.66666666666, 6807053.333333333], [173900.0, 6807085.0], [173926.2822275696, 6807062.06943967], [173899.89649209168, 6807185.496652256], [174057.27272727274, 6807233.181818182], [174220.59548896062, 6807191.90472754], [174371.87184029966, 6807077.712450518], [174355.0, 6807000.0], [174412.47944431554, 6806942.520555684], [174479.40715274154, 6806657.706519372], [174514.297560291, 6806606.744637553], [174515.0, 6806430.0], [174540.6920835357, 6806420.335114133], [174479.42484868245, 6806325.171678806], [174383.54825221607, 6806278.548252217], [174449.29073028464, 6806174.358528436], [174530.0, 6806195.0], [174917.71389374568, 6805604.428157461], [175132.5591813658, 6805335.919124002], [175446.57133523558, 6804891.660230548], [175819.48609433754, 6804758.225997538], [176201.80176809654, 6804513.463479242], [176156.4977202258, 6804387.580386397], [176054.4487796425, 6804262.72969035], [176081.02039405057, 6804207.44244541], [176039.9895602331, 6804153.400751952], [176075.77879065686, 6804041.163828166], [176196.42857142858, 6803925.0], [176231.25, 6803977.5], [176334.51364982344, 6803909.179980259], [176212.50753160974, 6803603.911476076], [176123.93791818412, 6803506.143812993], [176165.0, 6803470.0], [176138.44537815126, 6803377.05882353], [176228.82797365362, 6803265.993800852], [176255.0, 6803180.0], [176471.79716659617, 6802925.129692661], [176451.13971258135, 6802812.426475055], [176588.1443298969, 6802903.762886598], [176710.3080650744, 6802735.973101531], [176844.04344863305, 6802680.703725159], [176932.1463547334, 6802591.01468988], [176911.14010434656, 6802366.311046185], [177025.0, 6802250.0], [176976.54879642735, 6802083.282095508], [177142.65715632355, 6801875.222919089], [177122.54944277374, 6801782.7274367595], [177280.5445658957, 6801618.540258254], [177354.3492063492, 6801662.100529101], [177471.0, 6801479.333333333], [177551.59541491172, 6801264.540538571], [177397.53521126762, 6801069.295774648], [177495.0, 6800910.0], [177491.73748328214, 6800843.000570786], [177605.0945715226, 6800775.5530814165], [177585.0, 6800750.0], [177911.8387508584, 6800535.567773195], [178022.50002708312, 6800298.998373466], [177977.42596367782, 6800251.975180449], [178055.0, 6800140.0], [178031.81992337166, 6800025.526083113], [177925.0, 6800020.0], [177942.87501899272, 6800002.124981008], [177885.419167222, 6799922.279998907], [177882.38484398217, 6799833.2689450225], [177831.82799452977, 6799759.828354658], [177952.46991438794, 6799551.315587775], [177910.0, 6799485.0], [177965.0, 6799430.0], [177958.9465408805, 6799370.089098533], [178028.53573632898, 6799335.436750307], [178026.11111111112, 6799181.111111111], [178141.66595823262, 6799115.936888895], [178234.08127208482, 6798939.081272085], [178205.0, 6798910.0], [178286.10022396417, 6798804.454087346], [178588.77137976373, 6798664.746188925], [178684.9461457411, 6798534.757655835], [178655.0, 6798460.0], [178778.6220650688, 6798243.486350911], [178807.1875, 6798089.6875], [178940.53981302746, 6798066.679702386], [179005.0, 6797970.0], [179017.77108433735, 6797848.674698795], [179075.10681399633, 6797807.79373849], [179045.0, 6797760.0], [179104.92273552768, 6797670.115896708], [179194.5322519804, 6797711.214635987], [179433.82464453956, 6797538.138446867], [179425.0, 6797350.0], [179350.484512442, 6797211.0953259645], [179196.66666666666, 6797195.0], [179258.09833930316, 6797101.922826441], [179081.37183507555, 6797024.108312189], [179125.0, 6796850.0], [179021.84210526315, 6796763.157894737], [179057.85714285713, 6796727.142857143], [178936.53348466064, 6796629.125676624], [179109.1245319874, 6796484.70978988], [179120.41134661992, 6796418.882227725], [179275.0, 6796260.0], [179208.33333333334, 6796176.666666667], [179252.6224477753, 6796137.263661041], [179500.2405063105, 6796422.963176081], [179583.33731941308, 6796421.662680587], [179833.33333333334, 6796171.666666667], [179912.85714285713, 6795985.0], [179934.7899159664, 6795985.0], [179935.0, 6795866.0], [179977.48927038626, 6795869.055793991], [180056.00209256035, 6795740.442774549], [179951.04922704463, 6795679.21065241], [179950.40278552705, 6795541.030743007], [179856.59303954354, 6795372.891490943], [180242.3641080097, 6794975.837661788], [180297.8705642338, 6794791.7383475695], [180507.660944206, 6794627.339055794], [180459.03046744404, 6794515.301327047], [180495.0, 6794450.0], [180448.4130637692, 6794294.020217311], [180500.0, 6794075.0], [180639.8935670015, 6794153.829806939], [180827.86332004613, 6793947.347119218], [180918.89703330758, 6793919.602908856], [181281.92093966843, 6794216.759239369], [181413.75, 6794131.25], [181648.12356517464, 6794396.836829572], [181606.3564430605, 6794452.293424403], [181914.21629144842, 6794767.84206226], [181982.97069394524, 6794748.888581698], [182245.0, 6795000.0], [182282.56386410244, 6795150.779338247], [182602.192591216, 6795471.295780077], [182565.0, 6795510.0], [182713.67155297904, 6795677.676788313], [182673.40870011182, 6795819.54126773], [182758.2983743841, 6795925.032910415], [182744.5794336824, 6795996.548851746], [182869.11042944784, 6796094.110429448], [182954.08153508403, 6796041.603393279], [182980.0, 6796145.0], [183061.53148199065, 6796107.273852075], [183230.0, 6796255.0], [183274.946570415, 6796251.07164414], [183443.9820426342, 6796454.155618368], [183433.1717174679, 6796498.286725756], [183623.10110974105, 6796750.400739827], [183698.88137168417, 6796712.868936783], [183756.6186710221, 6796780.159889968], [183824.0, 6796775.0], [183824.76308643713, 6796856.808080624], [183923.77768112352, 6796893.9837217145], [184036.66666666666, 6797078.076923077], [184066.0, 6797051.0], [184203.33333333334, 6797188.333333333], [184399.9217159407, 6797136.83824162], [184378.3893014908, 6797017.695531085], [184484.1042247082, 6796894.632517904], [184813.870805207, 6796816.698830772], [184785.18861269584, 6796721.176969766], [184805.2564102564, 6796684.102564103], [184750.8208955224, 6796609.253731343], [184979.80184519687, 6796492.708737128], [185023.33259157313, 6796505.014489787], [185187.09940924303, 6796329.234333176], [185197.09681978158, 6796233.9173861295], [185608.84021982248, 6795832.78764996], [185729.16075011576, 6795766.46820497], [186162.8371270932, 6795186.825301001], [186124.3910728544, 6795134.756886379], [186293.4619486783, 6794694.344796882], [186245.3957996769, 6794640.105008078], [186308.75, 6794603.75], [186255.75004483762, 6794520.266764725], [186344.04406679515, 6794345.031658531], [186288.69686782392, 6794271.369543459], [186404.68996281808, 6794193.5365066435], [186517.48583795372, 6794011.281287752], [186282.17212482257, 6793764.124723639], [186149.277955825, 6793739.394370906], [186078.74468085106, 6793481.468085106], [186241.49683185376, 6793308.97231668], [186364.6339058891, 6793235.946720259], [186434.0, 6793135.0], [186298.0141475564, 6793099.341208296], [186033.22607764724, 6793075.516508706], [185957.3709743176, 6792969.319364045], [185734.56770274387, 6792880.858770183], [185653.18991528128, 6792451.603466266], [185567.35409394704, 6792304.537981155], [185594.63414342096, 6792266.691576662], [185306.11368952872, 6791860.834105879], [185160.7030924254, 6791987.883187916], [185128.70967741936, 6791903.70967742], [185157.6722228743, 6791830.906203927], [185014.50341896137, 6791671.489743116], [185033.33944776983, 6791614.98165669], [184995.86716594402, 6791564.087504927], [185076.81818181818, 6791221.818181818], [185142.22006734254, 6791151.730831225], [185111.114954701, 6791058.111212324], [185281.57770259207, 6790855.03373987], [185345.0, 6790864.285714285], [185396.8895717726, 6790631.812964273], [185336.24387560456, 6790584.524009821], [185413.18624044475, 6790472.778976629], [185442.5889360787, 6790299.410902526], [185597.57825370674, 6790315.0], [185689.48225000416, 6790192.556633382], [185511.64813007636, 6790003.65848381], [185489.2903257205, 6789880.72414874], [185376.46656012489, 6789850.067146105], [185385.54782407996, 6789803.453881027], [185234.08450704225, 6789638.943661972], [185387.96341100644, 6789534.384134854], [185348.64998627562, 6789409.891623206], [185624.95221281474, 6789320.3617776465], [185875.0, 6789145.0], [185830.07323784826, 6789061.994533118], [186030.11373472126, 6788962.5755213285], [186002.01847864484, 6788824.595447345], [186313.77104109764, 6788514.975953031], [186735.0209422634, 6788176.812820395], [186791.6793727699, 6788107.307116121], [187092.0219942788, 6788023.144742576], [187097.90462930733, 6787904.836407936], [187297.27272727274, 6787786.818181818], [187361.80437724866, 6787833.547997318], [187445.0, 6787807.7267385265], [187401.68367405634, 6787763.316325944], [187494.95554186107, 6787708.306188925], [187699.41435611778, 6787791.50607184], [188037.48742775453, 6787844.263518559], [188235.85412667945, 6787799.414587332], [188290.0, 6787825.0], [188447.38903394257, 6787756.8537859], [188545.7142857143, 6787769.285714285], [188592.11105002748, 6787676.769592572], [188700.0, 6787655.0], [188807.476635514, 6787731.323987539], [188850.0, 6787715.0], [188900.92541254952, 6787833.729278657], [189126.726178761, 6787841.67431464], [189194.8778060378, 6787909.614619043], [189179.7756797125, 6788001.077189282], [189285.41755170882, 6788177.804836741], [189215.0, 6788300.0], [189269.6999276934, 6788335.032537961], [189230.0, 6788465.0], [189122.4709783928, 6788463.82980942], [189150.0, 6788685.0], [189229.79591836734, 6788647.040816327], [189340.0, 6788745.0], [189448.77082136704, 6788717.245835726], [189800.5100769067, 6788406.277928079], [189916.36363636365, 6788421.363636363], [190133.10901449202, 6788373.872517286], [190201.76470588235, 6788416.764705882], [190315.0, 6788360.0], [190327.96827488343, 6788317.093959051], [190456.93407054004, 6788301.93407054], [190728.70054820663, 6788515.660774225], [190790.0, 6788505.0], [190903.74427615356, 6788631.504050722], [190977.3015873016, 6788649.761904762], [191044.74148897425, 6788779.830696665], [191234.82846511307, 6788855.694589068], [191236.1130327682, 6788928.814339899], [191293.79194630872, 6788977.315436241], [191365.5211408835, 6788967.068408445], [191554.62410582465, 6789151.950515035], [191712.63983378274, 6789148.657625418], [191746.28463775426, 6789245.523740765], [191803.33333333334, 6789273.888888889], [191973.6186770428, 6789158.618677042], [192053.52418010007, 6789168.5241801], [192103.18461765122, 6789242.712410695], [192197.9263803681, 6789196.321063395], [192266.95215037913, 6789242.941464863], [192352.04407229388, 6789199.048201939], [192515.0, 6789310.0], [192474.5945945946, 6789357.432432433], [192504.50753176643, 6789417.519756612], [192455.271120044, 6789620.885548078], [192524.8100406336, 6789850.38835312], [192445.0, 6789910.0], [192494.95537126632, 6789934.955371266], [192383.90010970496, 6790102.7828821065], [192455.78657844622, 6790163.945705291], [192265.95631603242, 6790269.474533439], [192247.74488697524, 6790240.20452099], [192194.58838735335, 6790325.869954266], [192226.25, 6790378.75], [192266.9011406844, 6790347.376425856], [192328.87096774194, 6790424.838709678], [192295.0, 6790460.0], [192359.42591209855, 6790555.644942847], [192446.8142783496, 6790554.923684407], [192614.6812080537, 6790375.218120805], [192692.0492572389, 6790409.754886699], [192720.7142857143, 6790478.571428572], [192770.53621386384, 6790464.852346907], [192841.92307692306, 6790516.923076923], [192752.67772511847, 6790578.502369668], [192715.0, 6790710.0], [192789.33338503633, 6790752.897786443], [192943.33333333334, 6790605.0], [193053.76025889104, 6790628.244963817], [193035.0, 6790560.0], [193199.35836348298, 6790413.4282589825], [193414.23532216685, 6790450.007061267], [193454.21700383726, 6790402.287737171], [193544.33076526993, 6790471.140229863], [193651.31316195146, 6790365.59699683], [193680.8115873939, 6790372.766716609], [193876.79245283018, 6790209.7169811325], [193917.33720930232, 6790233.441860465], [193980.0, 6790195.0], [194133.6553503307, 6790336.923868595], [194170.0, 6790295.0], [194165.25169392477, 6790331.392701201], [194373.98197350203, 6790447.812038826], [194497.67342154964, 6790427.6856522495], [194527.45926867428, 6790315.1309841955], [194614.24288576937, 6790251.654507399], [194593.2142857143, 6790198.214285715], [194826.67302192564, 6790010.33841754], [194892.7848710473, 6790051.184407608], [195107.97475254536, 6789895.860975397], [195143.79937426673, 6789952.878373094], [195238.7372712584, 6789943.737271259], [195405.94247750688, 6790029.414567855], [195480.0, 6790005.0], [195516.81818181818, 6790078.181818182], [195495.0, 6790100.0], [195569.3091079273, 6790090.195962332], [195676.0606060606, 6790201.060606061], [195751.15384615384, 6790174.615384615], [195827.6558398436, 6790322.342440329], [195889.28108927922, 6790367.804787801], [195825.3070313923, 6790503.538981237], [195879.57263904586, 6790594.360607536], [195785.0, 6790680.0], [195810.0, 6790745.0], [195701.78435664094, 6790835.287985255], [195766.89604614442, 6790971.896046145], [195854.33913425764, 6790985.17212206], [195753.23682028105, 6791130.296025352], [195780.866738847, 6791164.833423559], [195976.94621397273, 6791204.97090321], [195966.21951219512, 6791287.804878049], [195925.0, 6791310.0], [196160.6321149105, 6791436.851538214], [196277.01914361064, 6791578.437813964], [196098.43325042288, 6791762.016315204], [196060.0, 6791925.0], [196140.49114791548, 6792035.30268418], [196212.63157894736, 6791997.631578947], [196265.38461538462, 6792050.384615385], [196219.61538461538, 6792084.615384615], [196334.8593094976, 6792201.711795348], [196497.92751546696, 6792104.289515939], [196588.75, 6792146.25], [196515.0, 6792220.0], [196723.29050532874, 6792407.7654163195], [196694.98104411087, 6792593.4878836], [196584.17280741205, 6792717.408201616], [196606.73289384687, 6792752.048414014], [196456.4356124519, 6792849.487343114], [196403.4319167847, 6793071.615395571], [196438.7904468413, 6793120.32357473], [196403.78821380922, 6793140.705631996], [196489.30613278, 6793269.070354085], [196343.9917241479, 6793393.442960642], [196365.0, 6793500.0], [196031.9618444191, 6793762.69263366], [195995.40336554678, 6793738.702591889], [195890.0, 6793805.0], [195793.86366730055, 6793784.1363599235], [195674.1734835327, 6793932.853625356], [195364.66814071673, 6794072.282850426], [194648.6199644511, 6794782.498027199], [194870.8426966292, 6795064.382022472], [194570.8945165871, 6795237.9190146765], [194344.76706561146, 6795256.114966278], [194307.10843373495, 6795283.072289157], [194172.5746299512, 6795229.7709418675], [194116.66666666666, 6795278.333333333], [193822.1810314993, 6795213.894803463], [193707.26708469682, 6795291.009963245], [193330.91836734695, 6795671.734693877], [193298.41265149275, 6795645.730121194], [193240.74074074073, 6795800.066666666], [193160.0, 6795875.0], [193102.26055882566, 6795874.021365404], [192805.75425380882, 6796031.897908588], [192787.62947851213, 6796162.018320339], [192559.06551377175, 6796342.058563972], [192599.92579815094, 6796411.892729084], [192525.4354345428, 6796588.659822635], [192535.0, 6796696.444444444], [192450.59470377018, 6796787.796678635], [192370.0, 6796765.0], [192293.68653935724, 6796822.81322776], [192275.47619047618, 6796898.571428572], [192383.03488786044, 6796988.359558562], [192294.28786927694, 6797128.054340479], [192308.50746268657, 6797289.328358209], [192245.619336839, 6797325.239305539], [192250.47555892385, 6797397.684729064], [192131.94066170268, 6797574.967034485], [192153.4394739922, 6797664.741740051], [191853.17008520494, 6797892.122617977], [191869.6151892304, 6797965.2501905], [191806.84079537276, 6798039.960908998], [192075.6885586866, 6798275.065567605], [192035.2608052222, 6798489.608792166], [192074.68744131803, 6798550.312558682], [192051.4396838946, 6798685.002340502], [192019.046021093, 6798724.450623202], [192083.57142857142, 6798811.428571428], [192056.49157346546, 6798884.737981325], [192091.27530364372, 6799012.368421053], [192057.19490741086, 6799119.29979032], [192197.84185239678, 6799227.130521822], [192395.0, 6799460.0], [192326.52951980472, 6799477.117620049], [192382.06336939722, 6799623.122102009], [192365.0, 6799680.0], [192598.33333333334, 6799913.333333333], [192532.6278632299, 6800023.056152877], [192617.66506188532, 6800156.04213909], [192525.01384410865, 6800229.537866413], [192592.1443298969, 6800347.144329897], [192577.70396846483, 6800425.238460065], [192655.0, 6800490.0], [192536.875, 6800539.78125], [192455.0, 6800620.0], [192489.50063182926, 6800672.572391359], [192159.31587905367, 6800777.169698037], [191911.68539325843, 6800774.438202247], [191871.84453291626, 6800741.039783876], [191640.06588235294, 6800985.197647058], [191659.51952307805, 6801017.5059544295], [191455.5048727934, 6801249.495127207], [191361.0961615698, 6801401.953066728], [191354.73921878287, 6801584.944711096], [191071.97397846862, 6801659.931735585], [191070.33451634826, 6801784.7757305745], [190856.84912420122, 6801927.100443269], [190839.20810783212, 6802037.375676503], [190893.25526932086, 6802104.578454332], [190775.0, 6802247.540350529], [190775.0, 6802300.0], [190882.60191846523, 6802397.57793765], [191046.2118570183, 6802671.211857018], [191008.23984197134, 6802723.223999224], [191069.75803263046, 6802784.441367434], [190996.30252100842, 6802837.100840336], [190968.18181818182, 6802827.7272727275], [190791.5873015873, 6803014.470899471], [190361.976918461, 6803217.021712943], [190321.7715409256, 6803260.601442616], [190171.58007815955, 6803307.079722166], [190145.0, 6803236.0], [189970.3205128205, 6803254.679487179], [189926.33661102218, 6803334.336839698], [189856.06470828172, 6803299.495255393], [189661.97870450417, 6803283.577099708], [189573.40305020698, 6803489.695243076], [189599.2711864407, 6803506.406779661], [189479.90788833785, 6803525.0683595985], [189382.99120576243, 6803596.993947925], [189058.4214456494, 6803766.578554351], [188854.17907131749, 6803808.669184626], [188800.0, 6803858.333333333], [188760.0, 6803845.0], [188742.57318137438, 6803889.461502653], [188659.44141714598, 6803913.960009919], [188166.22657345238, 6804287.257553162], [187958.70568138902, 6804339.378569318], [188010.4454864228, 6804426.687583466], [187899.8209354666, 6804614.760777088], [187905.0, 6804720.0], [187828.58266452648, 6804752.998394864], [187804.33333333334, 6804810.666666667], [187893.66666666666, 6805021.333333333], [187844.0909090909, 6805070.909090909], [188000.56712536543, 6805285.52550765], [188324.17105672852, 6805608.951217915], [188285.6258628624, 6805775.964104924], [188172.68176290547, 6805946.278037641], [187945.77622855717, 6806166.030495954], [188045.93442569743, 6806290.914539583], [188037.1083172147, 6806417.891682785], [188113.79401731095, 6806564.446446289], [188204.42893401015, 6806616.078680203], [188262.5, 6806707.5], [188310.0, 6806675.0], [188369.0, 6806734.0], [188335.0, 6806800.0], [188368.29024644603, 6806843.108567978], [188327.35294117648, 6806987.647058823], [188405.0, 6807080.0], [188391.58857979503, 6807139.121522694], [188479.0149963935, 6807251.148627618], [188385.9250398724, 6807389.414445204], [188419.0, 6807466.0], [188366.6923076923, 6807517.538461538], [188444.22228157133, 6807655.9850961575], [189310.75279836138, 6808554.15334592], [189390.31376675377, 6808697.000824629], [189305.12715476463, 6808837.658943456], [189378.06977050836, 6808971.311820691], [189228.0972291739, 6809077.669762874], [189008.0829609292, 6808978.3385343095], [188852.6918122223, 6808999.706306748], [188751.86203569706, 6809054.006271104], [188671.40309155767, 6809002.324613555], [188580.0, 6809005.0], [188544.1831238779, 6808940.152603231], [188459.14301438793, 6808951.436040569], [188385.58651736716, 6808886.2946751835], [187917.90057314918, 6809170.461323043], [187716.86639879653, 6808930.909956957], [187613.3333333333, 6808906.111111111], [187527.3769644712, 6808975.918101581], [187314.42989214175, 6809113.073959938], [187132.56850113758, 6809156.786238099], [187045.97459445216, 6809051.188478435], [187072.24137931035, 6808888.620689655], [186910.34668023523, 6808995.998600746], [186839.58811919542, 6808967.577497889], [186513.31729218326, 6809252.291255143], [186374.51939023598, 6809160.828255167], [186128.66956153774, 6809339.803879081], [185829.04007602535, 6809662.860817515], [185571.927190488, 6810075.974871335], [185480.0, 6810155.0], [185445.29411764705, 6810121.470588235], [185258.96119617834, 6810216.985321508], [185183.82777166815, 6810151.552890482], [185090.3622466332, 6810146.052843153], [185053.04347826086, 6810056.304347826], [185001.81818181818, 6810090.454545454], [184918.80952380953, 6810083.80952381], [184827.73907802586, 6810162.589743681], [184775.92857142858, 6810107.357142857], [184656.75801011804, 6810180.586003372], [184610.0, 6810165.0], [184267.74193548388, 6810442.741935484], [184167.0719799092, 6810342.071979909], [183944.23229256528, 6810368.533050859], [183926.41881638847, 6810315.713201821], [183833.53458240366, 6810378.537989699], [183724.03137541044, 6810268.929222912], [183484.37534240843, 6810402.447026635], [183380.02976160936, 6810264.26340555], [183289.09877872386, 6810298.64748191], [183190.94354902167, 6810518.785644727], [182865.0, 6810800.0], [182685.82985850406, 6810811.414115796], [182705.0, 6810874.4], [182591.60415893057, 6810974.732640178], [182520.0, 6810995.0], [182391.36301835487, 6810877.375934739], [182335.25508780763, 6810778.832202709], [182285.0, 6810790.0], [182204.80391042912, 6810709.80391043], [182178.22119402798, 6810756.778805972], [181874.34554925904, 6811009.017989421], [181791.19341563786, 6810938.107890499], [181707.26927671293, 6811004.486372258], [181660.48197109203, 6810932.951751453], [181579.51647751045, 6810910.428930336], [181309.65624904318, 6810732.544255836], [181130.0, 6810835.0], [180909.60049489638, 6810785.36374884], [180869.46013810422, 6810821.911487759], [180840.0, 6810755.0], [180746.66666666666, 6810781.666666667], [180619.99993752115, 6810660.454500016], [180487.96860077218, 6810756.477890319], [180111.15404769056, 6810960.091309327], [179893.68656315014, 6811148.602321394], [179563.37986881414, 6810818.382940485], [179607.90168571257, 6810766.846961906], [179656.67102000042, 6810531.977808941], [179567.9287344244, 6810421.170525729], [179645.82077051926, 6810318.123953098], [179641.84931760718, 6810233.445991133], [179448.71187754004, 6810253.282503387], [179204.0287838103, 6810040.97121619], [179191.06041704537, 6810053.939582955], [178927.801836122, 6809716.594291786], [178940.47619047618, 6809655.952380952], [178916.57234923524, 6809608.144698471], [178814.69936964603, 6809689.553903346], [178855.0, 6809760.0], [178791.25, 6809823.75], [178640.12920310206, 6809730.66762211], [178572.35294117648, 6809742.647058823], [178517.5901051573, 6809703.484318525], [178203.93271261515, 6809728.9327126155], [178185.6061817754, 6809706.730534367], [178057.50605326876, 6809783.329297821], [178005.625, 6809731.875], [177940.0, 6809745.0], [177875.0, 6809680.0], [177911.50357995226, 6809640.513126492], [177727.3001639186, 6809638.5997814415], [177627.10836903178, 6809772.188841291], [177568.4341536484, 6809678.645285672], [177135.0, 6809950.0], [177031.2338593974, 6809866.951219512], [176963.2344321449, 6809876.1502690315], [176932.17821782178, 6809832.821782178], [176860.0, 6809905.0], [176765.48063047032, 6809905.547727439], [176709.15887850468, 6809965.46728972], [176634.51612903227, 6809880.161290322], [176585.0, 6809890.0], [176703.4864883549, 6809756.981666711], [176633.9135055872, 6809730.385005376], [176550.0, 6809805.0], [176481.50343809975, 6809751.611091005], [176229.60689249038, 6809857.784254555], [176149.19606213953, 6809803.209033457], [176079.64761026588, 6809674.068146392], [176168.28753401348, 6809517.283313432], [176129.59271915272, 6809393.532710006], [175960.1838754951, 6809276.819800517], [176006.32258064515, 6809228.161290322], [175881.62257783738, 6809182.207186773], [175738.29115902263, 6809257.825322562], [175699.0, 6809163.0], [175495.14393131773, 6809332.601513066], [175374.11764705883, 6809310.882352941], [175337.01376421304, 6809351.241771394], [175176.58106463143, 6809310.950251558], [175058.57142857142, 6809189.761904762], [175029.96116504853, 6809240.624595469], [174905.0, 6809176.666666667], [174915.20637726592, 6809232.508212556], [174679.5515915512, 6809486.074201057], [174535.58823529413, 6809550.588235294], [174356.88865541798, 6809433.329185128], [173873.3116299955, 6809814.8675348], [173697.94856868652, 6809646.367620876], [173588.5049082283, 6809664.364617183], [173546.99442925077, 6809709.62674009], [173376.01925934045, 6809522.3781562345], [173345.62945000516, 6809558.764833351], [173395.0, 6809680.0], [173374.4630799655, 6809761.305146898], [173282.76795334468, 6809817.591187968], [173009.4801136448, 6810149.320611095], [172951.68768145997, 6810137.408958938], [172841.8779784463, 6810207.426310516], [172722.85714285713, 6810167.857142857], [172623.37068874622, 6810247.200155336], [172509.73128594697, 6810176.298479907], [172452.48700017223, 6810095.382230596], [172252.6552689871, 6810290.7454041755], [172298.07692307694, 6810363.846153846], [172268.4859511987, 6810441.495620157], [172331.1797752809, 6810513.820224719], [172210.67237687367, 6810645.0], [172145.27504326767, 6810609.034764155], [172038.22482197356, 6810730.09155646], [172004.54545454544, 6810701.363636363], [171811.83935049665, 6810868.131528714], [171793.78048780488, 6810968.536585365], [171845.0, 6811020.0], [171778.8053097345, 6811098.672566372], [171885.0, 6811190.0], [171834.2, 6811256.4], [171774.769874477, 6811236.589958159], [171593.3280108879, 6811408.47707341], [171538.87150099184, 6811351.581441482], [171471.53846153847, 6811414.230769231], [171405.36082474227, 6811361.288659794], [171371.00605798356, 6811390.510601471], [171310.87012425624, 6811285.85251036], [171160.0, 6811405.0], [171059.9088391729, 6811392.817893867], [170930.86089057647, 6811522.848809113], [170845.10252712108, 6811539.8347651595], [170811.25634517765, 6811489.83502538], [170665.42029043302, 6811573.538068511], [170537.64692272097, 6811419.028227672], [170469.7901546229, 6811441.991164405], [170325.0, 6811250.0]]]}}]}