{"type": "FeatureCollection", "crs": {"type": "name", "properties": {"name": "EPSG:25833"}}, "features": [{"type": "Feature", "properties": {"station": "12.215.0", "name": "Storeskar", "series": ["1001.1"], "nodes": 1580676, "fine_vertices": 10438, "fine_area_m2": 158067750.0, "reduced_vertices": 453, "reduced_area_m2": 158067750.0000008, "outline_tolerance_m": 20.0, "windows": [[475, 487], [1207, 1214], [2494, 2413], [4429, 4812]], "placed_on": "number", "distance_m": 15.582245172562736, "uncertainty_m": 30.0, "elvid": "012-1-4422", "objectid": 12425884, "lake": false, "confluence_near": false, "reach_up_m": 1000.0, "reach_down_m": 130.0, "reach_fork": false, "seeded_by": "river", "lake_rule": null, "lake_number": null, "lake_name": null, "lake_distance_m": null, "node_offset_m": 5.388297253369324, "chain_nodes": 104, "lowered_nodes": 62, "lowered_max_m": 0.17950439453125, "direction_ok": true, "end_extended_m": 0.0, "end_closed": true, "downstream_checked": "whole", "a0": 158.0676, "area_up": 158.0666, "area_down": 158.2251, "swing": 0.000996409131283064, "largest_step": 0.15629999999998745, "largest_step_at_m": 24.142135623731065, "checked_up_m": 24.142135623731065, "checked_down_m": 24.142135623731065, "drains": true, "monotone": true, "causes": []}, "geometry": {"type": "Polygon", "coordinates": [[[121230.0, 6782395.0], [121100.17868827994, 6782265.5460525565], [121077.98339299629, 6781983.529535907], [120980.40542444987, 6781913.974508842], [120986.76286198795, 6781703.897122735], [121076.67288360819, 6781639.193424352], [121095.26606758796, 6781360.798202764], [121200.92459064367, 6781178.262114107], [120936.92792022772, 6780978.749605098], [120678.90245079785, 6781047.6496752035], [120424.36751105731, 6780926.132469606], [120238.56193078063, 6780696.060222184], [120345.0, 6780628.825065274], [120421.24567892001, 6780516.356383109], [120384.4128113879, 6780450.729537367], [120558.92860866201, 6780360.752367774], [120820.0496355082, 6779995.933886722], [120835.07389346768, 6779886.431971148], [121005.0, 6779780.0], [121037.91423047517, 6779499.152270502], [121146.62999861014, 6779487.378425404], [121222.35971477129, 6779237.979187998], [121566.66666666667, 6779105.0], [121655.0, 6779030.0], [121642.0884973204, 6778967.759384028], [121729.0, 6778874.0], [121665.3125, 6778810.3125], [121731.49758259159, 6778694.419456871], [121859.44444444444, 6778297.777777778], [121808.01335681784, 6778242.489358579], [121879.54545454546, 6778164.545454546], [121807.08939817728, 6778092.089398177], [121629.082953323, 6778114.9156447], [121472.82608695653, 6778102.173913044], [121355.43027166385, 6778321.709132398], [121058.74713233788, 6778198.122610281], [120977.46735052607, 6778138.392042707], [121038.30899951441, 6777756.228379349], [121015.0, 6777650.0], [121070.37534054228, 6777580.780824322], [120943.37455523736, 6777455.228673088], [120946.72413793103, 6777333.793103448], [121006.38247711919, 6777249.163569113], [121030.0, 6777135.0], [121113.03973695257, 6777123.393032041], [121373.23999254224, 6776928.589459536], [121413.74447921228, 6776953.428784358], [121489.22152629924, 6776719.55979932], [121450.49646700345, 6776419.932190346], [121483.90459044615, 6776397.105508031], [121360.47629125821, 6776236.830801643], [121227.77728851173, 6776165.288858263], [121325.0, 6775990.0], [121289.84312148028, 6775955.09788147], [121295.0, 6775690.0], [121339.28571428571, 6775645.714285715], [121318.31823329558, 6775511.500566252], [121201.0, 6775386.0], [121180.1406832042, 6775230.053211914], [121246.44776421653, 6775175.396835062], [121249.38325607333, 6774983.515039559], [121355.37190082645, 6774816.32231405], [121457.67849727871, 6774781.481657117], [121600.92803159388, 6774820.734665805], [121601.15264797508, 6774655.342679128], [121782.8071781454, 6774678.502207195], [121887.69738736744, 6774565.560288182], [121817.87139121024, 6774471.456984704], [121820.84905660378, 6774310.924528302], [121924.74026157602, 6774068.041961008], [121889.37674169979, 6773935.800266699], [122063.66803848506, 6773703.872977031], [122032.22909147957, 6773552.804006364], [122075.98190383703, 6773460.951732727], [122087.55434489448, 6773149.313632571], [122012.39002717401, 6773039.291540819], [122001.25882093911, 6772842.0609028395], [122082.77777777778, 6772677.777777778], [122067.22222222222, 6772642.222222222], [122122.17617342989, 6772496.7718492495], [122087.72429260158, 6772306.468624452], [122177.50158470724, 6772283.99405607], [122226.58541086972, 6772219.487494577], [122402.3486999802, 6772149.993617323], [122423.77429805616, 6772064.72462203], [122340.4552059055, 6772076.329411049], [122318.05395406824, 6771979.37389084], [122216.25878410637, 6771881.468713093], [122311.66666666667, 6771753.333333333], [122290.16666666667, 6771697.433333334], [122428.33333333333, 6771656.666666667], [122357.29753251224, 6771568.4690240435], [122531.37123774303, 6771469.233439256], [122481.0, 6771402.0], [122502.56341285715, 6771364.2640275], [122422.99768884812, 6771185.018617074], [122563.89309693547, 6771065.602468574], [122850.45546947597, 6770947.901843898], [122947.46710917813, 6770856.761251602], [122914.81308411215, 6770764.579439253], [122984.88024373706, 6770669.195917583], [123270.96119684346, 6770472.614643317], [123340.61696819024, 6770498.650387673], [123500.19676632092, 6770460.163209274], [123574.46315909045, 6770390.245182073], [123530.0, 6770315.0], [123504.0, 6770339.0], [123366.85672135098, 6770254.7096833065], [123373.3720082582, 6770022.270089448], [123525.0, 6769890.0], [123506.6, 6769871.6], [123698.69100600918, 6769572.916578705], [123909.63144978629, 6769473.192922178], [124067.02104954746, 6769217.7942112265], [124205.0, 6769105.0], [124276.0, 6769113.0], [124326.92423787007, 6769042.16240943], [124501.12611659212, 6769213.191246854], [124576.82186894423, 6769163.179029738], [124805.05917159763, 6769165.7058326285], [124915.8585819121, 6769206.344982167], [124999.04828920073, 6769155.209092141], [125160.0, 6769265.0], [125236.05569811956, 6769204.280636069], [125336.15384615384, 6769199.615384615], [125444.32383159397, 6769120.946304295], [125623.00368945587, 6769081.506473515], [125659.33447098976, 6769160.204778157], [125603.0, 6769238.0], [125778.8904494382, 6769413.890449438], [125996.18209747922, 6769566.801528945], [126071.27933212895, 6769552.13274694], [126340.34187235392, 6769595.242430453], [126616.54707851325, 6769412.7362870425], [126663.58337106933, 6769455.614675284], [126962.8, 6769352.6], [126994.47368421053, 6769363.157894737], [127139.47047053822, 6769204.011899555], [127250.72497921862, 6769244.973881369], [127306.18731030496, 6769145.0], [127504.52009554906, 6769075.566536106], [127598.15424380777, 6769010.458374412], [127650.76228988278, 6768771.275368782], [127724.67797508615, 6768842.124304268], [127907.46694989545, 6768892.087608814], [128033.2567678425, 6768981.538146022], [128095.0, 6768890.0], [128190.0, 6768875.0], [128301.46341463414, 6768974.5121951215], [128423.94047146296, 6768937.243758786], [128594.36060662393, 6768676.006319731], [128847.24238140995, 6768618.553638983], [129000.20770398629, 6768449.648138776], [129035.40029416107, 6768318.613096182], [129146.42860095177, 6768345.373684995], [129209.6916595886, 6768305.370404814], [129381.3698630137, 6768411.821917809], [129602.57668711657, 6768236.963190184], [129781.74602447823, 6768163.724480856], [129905.24550118265, 6768156.779127635], [129940.34440344403, 6768178.56703567], [130170.66907555397, 6768137.9166474], [130248.03370786516, 6767966.741573034], [130370.0, 6767825.0], [130450.66045066045, 6767848.045843046], [130537.69230769231, 6767957.769230769], [130687.08540809756, 6768030.362385951], [130748.30443901572, 6768116.695560984], [130719.44444444444, 6768145.555555556], [130755.0, 6768200.0], [130702.45762711864, 6768271.807909604], [130773.47262467592, 6768400.221900259], [130830.0, 6768355.0], [130980.55555555556, 6768505.555555556], [130945.0, 6768560.0], [131088.020936054, 6768633.837897292], [131214.09253178988, 6768747.731220446], [131305.55555555556, 6768680.555555556], [131332.3619138641, 6768718.532203133], [131589.91666264925, 6768661.589044675], [131695.81438004278, 6768735.146542071], [131900.0, 6768595.0], [131950.08984795967, 6768443.9800666515], [131908.57980135322, 6768398.449082285], [132011.40077745213, 6768275.788060588], [132170.8586849853, 6768224.602551521], [132648.0287305839, 6767745.448593132], [132717.63164551102, 6767752.923367611], [132962.04687067776, 6767594.998527339], [132921.44578313254, 6767502.891566265], [133000.88416866862, 6767385.800359904], [133145.46689881317, 6767384.327439962], [133228.42748000057, 6767286.887992335], [133344.44444444444, 6767340.555555556], [133871.12022665882, 6766825.759648665], [133971.42171628785, 6766934.505168411], [134046.0, 6766881.0], [134253.33333333334, 6767088.333333333], [134484.07407407407, 6767049.074074074], [134520.0, 6767085.0], [134724.58437413565, 6767105.935293987], [134822.0, 6767045.4], [134830.98757619713, 6767113.532494788], [134910.0, 6767105.0], [134969.0612250121, 6767202.233909631], [134925.2145678484, 6767292.558268184], [135022.66154189684, 6767393.806149724], [134905.0, 6767528.838258548], [134967.87051199234, 6767604.458257222], [135057.16887310904, 6767608.696179689], [135056.29192546583, 6767678.385093167], [135231.25, 6767711.25], [135258.90516871275, 6767762.887934559], [135329.5680948843, 6767755.944457953], [135494.2857142857, 6767917.857142857], [135530.0, 6767895.0], [135595.17007691992, 6767960.17007692], [135736.72236753063, 6767873.055451764], [135958.31626064496, 6768019.725176924], [136153.3170293572, 6767892.100257682], [136339.85181119648, 6767873.889498719], [136538.07275944116, 6767708.229331762], [136723.00708453933, 6767753.260540055], [136838.23529411765, 6767733.823529412], [137122.27205359982, 6767808.354972109], [137262.65036163965, 6767919.378831255], [137240.24413553433, 6768025.771875388], [137280.0, 6768085.0], [137423.65346479038, 6768050.473845372], [137601.9126823236, 6768169.672726769], [137713.68421052632, 6768158.263157895], [137889.19191919192, 6768345.471380471], [137885.0, 6768440.0], [137930.20771513353, 6768444.97032641], [138396.35687732341, 6768900.278810409], [138420.1505960371, 6768985.272215369], [138600.47619047618, 6769144.523809524], [138613.48050867117, 6769131.519491329], [139134.80108335524, 6769595.8630665615], [139184.2857142857, 6769562.142857143], [139358.46875159233, 6769603.502973388], [139395.8055046003, 6769648.083428338], [139721.50657271192, 6769696.36543454], [139637.37988755104, 6769798.271763493], [139752.38649110595, 6769964.432609879], [139867.16170769135, 6769971.768565084], [139938.90835579514, 6770136.873315364], [139804.48389479393, 6770188.127464444], [139846.05263157893, 6770338.947368421], [139789.61538461538, 6770395.384615385], [139859.8494510825, 6770508.605418038], [139952.0896370124, 6770601.149276691], [139897.77789125688, 6770837.663555561], [139922.77777777778, 6770872.222222222], [139883.39959483413, 6770980.769815143], [139985.0, 6771120.0], [139926.42857142858, 6771201.428571428], [140030.0, 6771305.0], [140012.0563847031, 6771403.34475596], [140017.91999999998, 6771519.16], [139963.82331727725, 6771486.69427421], [139832.9670051688, 6771573.7753], [139731.7842060801, 6771554.771795882], [139653.39449541285, 6771635.0], [139487.86516853934, 6771659.494382023], [139470.0, 6771725.0], [139252.9078778135, 6771947.447749197], [139202.5, 6771912.5], [139067.70941409827, 6772062.384676025], [139014.27164850343, 6772050.832729002], [138918.99613686683, 6772115.766663256], [138804.2857142857, 6772169.285714285], [138724.68468468467, 6772090.3153153155], [138640.0, 6772175.0], [138570.0, 6772105.0], [138496.0, 6772164.2], [138345.30113501905, 6772018.706117161], [137953.34339804825, 6772304.991999204], [137717.4306549214, 6772312.697521337], [137551.4716656791, 6772452.651518235], [137410.06172839506, 6772391.604938271], [137438.68421052632, 6772440.263157895], [137375.0, 6772560.0], [137426.6549088581, 6772620.264060334], [137372.6211339938, 6772759.567178504], [137429.8637733456, 6772781.792607452], [137474.5649227501, 6773066.532396231], [137427.22222222222, 6773217.777777778], [137474.1605359835, 6773296.383203853], [137402.2684249661, 6773363.805274898], [137410.0, 6773455.0], [137346.34361900343, 6773438.110206697], [136978.8604117104, 6773581.017229694], [136807.12188828015, 6773717.258817087], [136740.4410344985, 6773686.892143259], [136663.764435763, 6773789.928892087], [136533.33333333334, 6773851.666666667], [136418.66666666666, 6773966.333333333], [136291.92474151633, 6773945.261150483], [136143.488372093, 6774032.9069767445], [136024.8025324088, 6773938.807657522], [135655.7103578372, 6774272.695707067], [135557.47648902822, 6774326.222570533], [135444.0, 6774231.0], [135388.5520361991, 6774286.221719457], [135310.0, 6774275.0], [135032.51336898396, 6774552.486631016], [134841.02564102563, 6774552.179487179], [134332.58520947024, 6774990.4247359205], [134185.51403842767, 6775224.130765508], [134183.87885681787, 6775311.473766529], [133884.67032967033, 6775548.351648352], [133887.81349122868, 6775682.146643349], [133788.83629701132, 6775799.054413015], [133775.0, 6775950.0], [133720.8904109589, 6776004.109589041], [133797.91267749463, 6776113.716211531], [133763.5803505563, 6776286.985046529], [133570.0, 6776425.0], [133393.73177842566, 6776317.827988339], [133224.4257465675, 6776382.326046992], [133136.6077253219, 6776340.2], [132937.91243390404, 6776401.888620821], [132850.0, 6776555.0], [132809.0399357711, 6776520.569801083], [132242.7302490804, 6776905.758744856], [132065.625, 6777121.25], [132105.0, 6777170.0], [132063.94245723172, 6777212.083981337], [132135.0, 6777300.0], [131954.86375133722, 6777430.394934561], [131966.80260980793, 6777560.77100069], [132008.52821162235, 6777612.990713381], [131888.8208262135, 6777708.792871085], [131732.56407362453, 6777985.128018831], [131693.4153321355, 6777978.5062625315], [131567.19805423197, 6778095.0], [131523.2849874597, 6778095.0], [131338.90366281988, 6778270.050175615], [131395.0, 6778420.0], [131226.7441860465, 6778522.829457364], [131200.0, 6778505.0], [131128.3371264646, 6778577.579167859], [131008.19236589878, 6778559.444257609], [130814.38301769279, 6778672.336157397], [130455.24875750043, 6779035.732654997], [130390.0, 6779005.0], [130218.35503401581, 6779128.486051886], [130105.0400804614, 6779010.701822327], [130050.6953642384, 6779040.684326711], [129970.61348467288, 6779003.726269933], [129878.71288764186, 6779021.801592347], [129658.1506515573, 6778871.251009033], [129589.07634357191, 6778903.461701244], [129153.56307123767, 6778497.441020226], [129046.18240675316, 6778538.162050954], [129035.85094850948, 6778658.298102981], [128943.53389147522, 6778748.144766937], [128958.26249415506, 6778960.342125752], [129026.65289256198, 6779020.661157025], [129016.98548094374, 6779258.014519056], [128966.66666666667, 6779308.333333333], [128791.10141841481, 6779350.70062389], [128892.9104477612, 6779496.865671642], [128858.29072571236, 6779554.53265576], [128400.26088446332, 6779835.130442232], [128320.0, 6779795.0], [128317.85714285714, 6779848.571428572], [128222.5063734894, 6779942.152194448], [128014.33741245115, 6779766.150355763], [127779.00849951283, 6779917.923087051], [127656.78902463513, 6779816.00358014], [127546.46739130435, 6779825.706521739], [127405.0, 6779670.0], [127523.27586206897, 6779614.655172414], [127417.36842105263, 6779491.096491228], [127494.6, 6779398.8], [127438.76975873543, 6779316.182404326], [127450.33795382094, 6779108.910313496], [127561.52637447586, 6778880.702122723], [127366.4597001949, 6778728.487490893], [127452.21015673285, 6778662.7268884955], [127393.0, 6778552.0], [127415.0, 6778491.818181818], [127335.65573770492, 6778349.344262295], [127363.4375, 6778321.5625], [127241.1469135799, 6778186.321317961], [127202.48718670406, 6778213.123272747], [127049.46480032936, 6778242.332235488], [126872.71322152806, 6778179.027053186], [126786.73714757794, 6778319.2926208675], [126739.26169301513, 6778245.363089586], [126602.85714285714, 6778326.428571428], [126537.47474747474, 6778315.808080808], [126355.12980222658, 6778463.578744281], [126346.41102177915, 6778616.580024314], [126431.37354946573, 6778736.793297376], [126335.57864811902, 6778875.0], [126228.38876686539, 6778931.841857546], [126069.0, 6779114.666666667], [126075.0, 6779190.0], [126001.1801242236, 6779243.198757764], [125952.5, 6779207.5], [125796.96901592021, 6779317.6828722805], [125745.58557770553, 6779443.682948641], [125431.7971160755, 6779729.735487424], [125196.39784946236, 6780048.76344086], [125345.0, 6780190.0], [125372.93103448275, 6780308.448275862], [125241.1603084458, 6780548.470882197], [125315.09727768118, 6780650.139712885], [125198.33333333333, 6780830.0], [125111.52, 6780769.24], [125003.20074737341, 6780799.410223929], [124956.36363636363, 6780748.636363637], [124901.41056583535, 6780765.005363368], [124820.0, 6780645.0], [124766.02365559211, 6780680.321505537], [124609.04360616553, 6780541.639904391], [124553.84615384616, 6780578.076923077], [124461.72907503926, 6780506.872235236], [124349.92420530788, 6780507.851731068], [124157.60026953611, 6780700.758387015], [124045.0, 6780910.0], [124280.5999202095, 6781043.576686151], [124092.72727272728, 6781183.181818182], [123993.046875, 6781197.421875], [123985.0, 6781290.0], [123703.73333333334, 6781336.866666666], [123655.71428571429, 6781312.857142857], [123588.90052356021, 6781360.2006980805], [123540.0, 6781295.0], [123443.6974789916, 6781323.0672268905], [123306.90095846646, 6781473.530351438], [123170.0, 6781555.0], [123127.05331292833, 6781441.782442079], [123004.43100216912, 6781384.446120068], [122960.05057278163, 6781256.079992209], [122775.80623204182, 6781152.620697513], [122660.95038054654, 6780971.52756914], [122444.04096706542, 6781064.511142881], [122399.53849896039, 6781035.262501606], [122184.51400800457, 6781242.041166381], [122150.0, 6781355.0], [121871.81818181818, 6781575.0], [121830.0, 6781575.0], [121673.65485641934, 6781689.317147025], [121613.73540856031, 6781653.093385214], [121459.01817264008, 6781763.97490445], [121494.99188494658, 6781800.035165232], [121457.77242054035, 6782029.722808743], [121347.85714285714, 6782082.857142857], [121192.62247047984, 6782279.933214547], [121230.0, 6782395.0]]]}}]}