{"type": "FeatureCollection", "crs": {"type": "name", "properties": {"name": "EPSG:25833"}}, "features": [{"type": "Feature", "properties": {"station": "12.70.0", "name": "Etna", "series": ["1001.1"], "nodes": 5654513, "fine_vertices": 25694, "fine_area_m2": 565452150.0, "reduced_vertices": 1170, "reduced_area_m2": 565452149.9999989, "outline_tolerance_m": 20.0, "windows": [[420, 501], [1052, 1299], [2251, 2839], [4650, 5238], [9449, 8874]], "placed_on": "number", "distance_m": 129.8350516754231, "uncertainty_m": 129.8350516754231, "elvid": "012-1-7014", "objectid": 12392197, "lake": false, "confluence_near": true, "reach_up_m": 1000.0, "reach_down_m": 7.530810288836392, "reach_fork": false, "seeded_by": "river", "lake_rule": null, "lake_number": null, "lake_name": null, "lake_distance_m": null, "node_offset_m": 27.994534085738408, "chain_nodes": 95, "lowered_nodes": 3, "lowered_max_m": 0.587066650390625, "direction_ok": true, "end_extended_m": 0.0, "end_closed": true, "downstream_checked": "none", "a0": 565.4513000000001, "area_up": 0.00030000000000000003, "area_down": 565.4513000000001, "swing": 0.999999469450331, "largest_step": 565.4512000000001, "largest_step_at_m": 0.0, "checked_up_m": 127.27922061357947, "checked_down_m": 0.0, "drains": false, "monotone": false, "causes": ["swing", "downstream_unread", "chain_not_draining"]}, "geometry": {"type": "Polygon", "coordinates": [[[191405.0, 6811690.0], [191461.4885496183, 6811578.152671755], [191455.0, 6811460.0], [191508.3552381856, 6811425.828667679], [191456.34630913424, 6811360.407114726], [191452.2003884684, 6811283.580871726], [191197.4071873237, 6811159.8019300755], [191157.73394784727, 6811102.080035968], [191084.6836831773, 6811145.21568589], [190743.5324035497, 6810736.711669414], [190704.39585926567, 6810584.659723351], [190652.2603828398, 6810522.834800725], [190750.8707383072, 6810380.446679221], [190496.1188518503, 6810088.408805418], [190520.23278688526, 6810054.1147540985], [190002.8552259622, 6809518.819880833], [189942.42574257427, 6809395.445544555], [189963.38441488388, 6809209.196227003], [189933.26534793203, 6809123.1051175995], [189815.02316960148, 6809139.99536608], [189696.97157650776, 6809027.8540730495], [189637.59532282664, 6809052.854600915], [189467.27272727274, 6809030.454545454], [189381.0027526033, 6808980.331004146], [189305.0, 6808837.5], [189390.42077331312, 6808697.192949204], [189310.81473277704, 6808554.223442914], [188444.2194489687, 6807655.980037929], [188366.6923076923, 6807517.538461538], [188419.0, 6807466.0], [188385.9250398724, 6807389.414445204], [188478.87269978537, 6807252.023584854], [188391.54411764705, 6807138.602941177], [188405.0, 6807080.0], [188327.35294117648, 6806987.647058823], [188368.290246446, 6806843.108567978], [188335.0, 6806800.0], [188369.0, 6806734.0], [188310.0, 6806675.0], [188262.5, 6806707.5], [188204.42893401015, 6806616.078680203], [188056.34097376527, 6806498.947101648], [188025.0, 6806250.0], [187965.0, 6806190.0], [187985.0, 6806120.0], [188172.68176290544, 6805946.278037641], [188285.6258628624, 6805775.964104924], [188324.17105672852, 6805608.951217915], [188000.56712536543, 6805285.52550765], [187844.0909090909, 6805070.909090909], [187893.66666666666, 6805021.333333333], [187804.33333333334, 6804810.666666667], [187828.58266452648, 6804752.998394864], [187905.0, 6804720.0], [187896.29713425177, 6804620.507436034], [188011.3601532567, 6804429.310344827], [187965.0, 6804350.0], [188191.07627871534, 6804271.343707451], [188367.97224709042, 6804120.778871979], [188705.08446075825, 6803898.381929918], [188892.12948256114, 6803792.351201552], [188919.6992481203, 6803809.060150376], [188980.0, 6803765.0], [189002.61728238707, 6803795.325397797], [189382.22383131162, 6803597.563445945], [189481.0347160395, 6803524.232097531], [189599.67486818982, 6803507.012302285], [189573.5585044619, 6803484.79841944], [189663.17005763465, 6803284.001752048], [189856.85544156152, 6803299.240180141], [189925.853297465, 6803334.7472002655], [189970.72518778968, 6803254.590458686], [190145.0, 6803236.0], [190179.44244206382, 6803328.183667825], [190276.07843137256, 6803257.352941177], [190328.66420694662, 6803260.86187758], [190471.53846153847, 6803146.538461538], [190534.50771059422, 6803143.274163714], [190846.8214498794, 6802969.842482278], [190968.18181818182, 6802827.7272727275], [190996.27906976745, 6802837.0930232555], [191069.75046210721, 6802784.750462107], [191006.72222222222, 6802721.722222222], [191047.72222222222, 6802672.722222222], [190868.44262295082, 6802375.409836066], [190775.0, 6802310.0], [190775.0, 6802223.303747535], [190904.1595408379, 6802117.49489856], [190839.24213075062, 6802037.273607749], [190856.82930109798, 6801927.113658775], [191070.33451634826, 6801784.7757305745], [191071.97397846862, 6801659.931735585], [191356.51883068372, 6801584.43789187], [191360.14349500166, 6801372.5680770045], [191659.43662092823, 6801017.368271814], [191640.06588235294, 6800985.197647058], [191871.84453291626, 6800741.039783876], [191911.68539325843, 6800774.438202247], [192159.31587905367, 6800777.169698037], [192489.50063182923, 6800672.572391359], [192455.0, 6800620.0], [192536.97502837685, 6800539.716231555], [192655.0, 6800490.0], [192577.70396846483, 6800425.238460065], [192592.1443298969, 6800347.144329897], [192525.01384410865, 6800229.537866413], [192617.66506188532, 6800156.04213909], [192532.65406361315, 6800023.385097271], [192598.33333333334, 6799913.333333333], [192365.0, 6799680.0], [192382.06336939722, 6799623.122102009], [192326.52951980472, 6799477.117620049], [192395.0, 6799460.0], [192197.84079214302, 6799227.129071535], [192056.9191520788, 6799119.086270965], [192091.4417177914, 6799013.558282209], [192057.36805069953, 6798888.02277071], [192084.60086251883, 6798801.948653427], [192031.06324352548, 6798746.6707723085], [192074.4071146245, 6798550.592885375], [192035.49529470032, 6798489.25705795], [192075.54382342202, 6798274.938998075], [191806.84079537276, 6798039.960908998], [191869.6151892304, 6797965.2501905], [191853.18536909623, 6797892.190581905], [192156.47932125526, 6797662.359449586], [192132.0588235294, 6797594.117647059], [192248.95467404122, 6797382.344948507], [192245.55240978766, 6797325.2674133275], [192308.50746268657, 6797289.328358209], [192294.28786927694, 6797128.054340479], [192383.03488786044, 6796988.359558562], [192275.47619047618, 6796898.571428572], [192293.68653935724, 6796822.81322776], [192370.0, 6796765.0], [192450.59470377018, 6796787.796678635], [192539.1790471809, 6796691.921442763], [192521.1088075024, 6796596.945596249], [192586.63691123234, 6796466.25500319], [192569.03558359772, 6796344.886014105], [192789.72307529388, 6796150.530551732], [192805.76664133096, 6796032.211538161], [193101.6441664573, 6795874.010918075], [193160.0, 6795875.0], [193233.60018306188, 6795806.69362827], [193272.72008063566, 6795707.246617441], [193795.4985221661, 6795222.985696071], [194127.00471698114, 6795269.0330188675], [194172.92368364954, 6795229.916862076], [194307.10843373495, 6795283.072289157], [194344.76706561146, 6795256.114966278], [194570.8945165871, 6795237.9190146765], [194870.8426966292, 6795064.382022472], [194652.07441798245, 6794785.041702644], [195354.13445038206, 6794076.599130534], [195660.81804143358, 6793939.551299381], [195792.52136752137, 6793796.495726496], [195915.9163441794, 6793788.698970842], [195995.40448509474, 6793738.702007777], [196032.84497319395, 6793763.275978555], [196374.08623707903, 6793487.8296617875], [196343.9917241479, 6793393.442960642], [196489.30613278, 6793269.070354085], [196403.78821380922, 6793140.705631996], [196438.7904468413, 6793120.32357473], [196404.3655832468, 6793072.901568758], [196455.1154111606, 6792850.090029016], [196605.39619722316, 6792753.235951809], [196586.3400177651, 6792717.915527921], [196695.0, 6792590.0], [196723.91768182203, 6792408.330790412], [196515.0, 6792220.0], [196588.75, 6792146.25], [196497.92751546696, 6792104.289515939], [196334.8593094976, 6792201.711795348], [196219.61538461538, 6792084.615384615], [196265.38461538462, 6792050.384615385], [196212.63157894736, 6791997.631578947], [196140.49114791548, 6792035.30268418], [196060.0, 6791925.0], [196096.61135198406, 6791769.74243042], [196274.47755153832, 6791575.323730315], [196160.6336219033, 6791436.852324471], [195925.0, 6791310.0], [195966.21951219512, 6791287.804878049], [195976.94621397273, 6791204.97090321], [195780.866738847, 6791164.833423559], [195750.00864256613, 6791126.260803208], [195854.8661660442, 6790992.639132431], [195761.92954359992, 6790961.524967134], [195700.3966816596, 6790838.685708507], [195810.0, 6790745.0], [195787.0816894135, 6790646.714430099], [195893.29375307425, 6790600.396994393], [195824.57274126195, 6790507.046507959], [195889.2676625339, 6790367.4593835585], [195823.05750334676, 6790318.951645806], [195754.8128342246, 6790175.5347593585], [195674.93333333332, 6790199.933333334], [195569.34659902877, 6790090.191015911], [195495.0, 6790100.0], [195516.81818181818, 6790078.181818182], [195480.0, 6790005.0], [195403.44108603804, 6790030.239202405], [195239.21748623034, 6789941.159215336], [195146.0, 6789956.333333333], [195120.0, 6789915.0], [195015.4584906336, 6789944.869002677], [194897.70280055967, 6790054.96051627], [194815.9064702114, 6790008.937646807], [194597.5075236797, 6790205.205493363], [194612.26517210942, 6790253.86406697], [194516.13739528361, 6790323.412185851], [194515.51616992513, 6790394.927998067], [194407.94792984994, 6790463.954981016], [194086.6687156741, 6790293.696955633], [193974.2811172836, 6790189.3122264715], [193924.73684210525, 6790238.157894737], [193877.0462633452, 6790209.519572954], [193680.78380315413, 6790372.776886479], [193649.1877427003, 6790365.155344711], [193545.9859138681, 6790471.979499544], [193453.66933693658, 6790402.513560467], [193414.2680261745, 6790450.018564411], [193207.58606956239, 6790416.731544376], [193032.1997981101, 6790549.813590646], [193053.76025889104, 6790628.244963817], [192933.64815169148, 6790602.961260846], [192810.8751781062, 6790747.472737637], [192704.9038219933, 6790712.9418267235], [192765.0, 6790570.0], [192844.08698746457, 6790515.429978649], [192707.93795824362, 6790448.160909795], [192693.2703396661, 6790410.019220879], [192621.91750644086, 6790377.2457280075], [192438.18862060123, 6790554.9948761305], [192359.42591209855, 6790555.644942847], [192295.0, 6790460.0], [192328.87096774194, 6790424.838709678], [192266.9011406844, 6790347.376425856], [192226.25, 6790378.75], [192194.58838735335, 6790325.869954266], [192247.74488697524, 6790240.20452099], [192265.95631603242, 6790269.474533439], [192455.78657844622, 6790163.945705291], [192383.90010970496, 6790102.7828821065], [192494.95537126632, 6789934.955371266], [192445.0, 6789910.0], [192520.32712727837, 6789853.736726906], [192450.0, 6789585.0], [192475.0, 6789608.333333333], [192615.75458744226, 6789433.556984147], [192633.57142857142, 6789281.428571428], [192581.27445190537, 6789258.082822603], [192568.1931979216, 6789097.562588569], [192660.20987831068, 6789016.1344309235], [192756.9696969697, 6789026.885521886], [192986.68193539322, 6788797.453624633], [192921.68017046404, 6788617.318150783], [193005.0, 6788500.0], [192951.2621917324, 6788424.728700781], [193091.98529411765, 6788275.661764706], [193116.96148707852, 6788283.987162359], [193206.88681015113, 6788198.732705708], [193187.46153846153, 6788098.153846154], [193311.0831460379, 6788018.06757918], [193282.30434782608, 6787939.043478261], [193315.0, 6787890.0], [193252.13248524105, 6787776.2504498195], [193057.26335334821, 6787580.675024091], [192997.51633986927, 6787382.810457516], [193110.12618813504, 6787275.09668961], [193035.22468455398, 6787174.28597058], [193246.20696701918, 6787050.63294921], [193294.09881229, 6786872.653341975], [193479.55298171853, 6786804.445795292], [193521.9657978448, 6786614.126074548], [193825.17073170733, 6786389.097560976], [193987.81966818462, 6786345.178592678], [193996.4539301193, 6786137.795842474], [194075.13157894736, 6786150.131578947], [194177.42103932318, 6786106.982276978], [194145.0, 6786050.0], [194283.98341677833, 6785838.353538559], [194090.0, 6785715.0], [194041.44578313254, 6785720.903614458], [193867.50798212006, 6785517.49201788], [193905.0, 6785480.0], [193826.95947723885, 6785356.741513902], [193750.0, 6785355.0], [193683.16557430528, 6785230.549690085], [193614.5555797933, 6785349.555579794], [193570.0, 6785305.0], [193480.0, 6785355.0], [193370.39188069725, 6785259.741394894], [193125.26404367117, 6785208.751649542], [193027.30307993942, 6785147.696920061], [193055.65423375616, 6785017.153367122], [192982.10686359688, 6784916.055603823], [193071.33187869118, 6784804.945207668], [193063.62921416337, 6784635.198262302], [193162.78264050098, 6784470.337904127], [193066.79523349914, 6784383.9468408935], [193089.87442153998, 6784321.645075894], [193003.08824119365, 6784250.19289551], [193092.43038462428, 6784132.599610292], [192962.3789472454, 6783937.378947245], [192925.33488820467, 6783831.207203637], [192860.32801704516, 6783781.4219828], [192790.96592223278, 6783650.952752386], [192789.74217311235, 6783505.0], [192705.81967213115, 6783460.491803279], [192722.7772574729, 6783338.749707328], [192693.0, 6783322.0], [192721.04540023895, 6783282.3655913975], [192653.0159561793, 6783172.444730957], [192778.84615384616, 6783053.846153846], [192709.9736143378, 6782969.526422331], [192745.0, 6782873.743743744], [192814.6342469235, 6782858.591751483], [193015.0, 6782650.0], [192969.22696343754, 6782533.71160573], [193000.12076937302, 6782498.341409285], [192975.0, 6782413.333333333], [193035.0, 6782380.0], [193008.8960500987, 6782308.733887278], [193144.70006240415, 6782248.842342706], [193132.0447043715, 6782183.588100129], [193251.7229068736, 6782005.903633592], [193201.05634521449, 6781895.855927442], [193263.72171800758, 6781824.59644638], [193132.53253173208, 6781667.532531732], [193128.2762719649, 6781532.254579275], [193195.0, 6781460.0], [193189.31818181818, 6781396.136363637], [193261.991673347, 6781390.339662391], [193247.53681264236, 6781227.688355986], [193211.43692504434, 6781121.592442298], [193254.5965464144, 6781088.3652061755], [193339.82908731382, 6781148.502721704], [193448.86274270716, 6781033.663117906], [193456.0, 6780985.0], [193550.98039215687, 6780985.0], [193541.4434647921, 6780887.624210652], [193635.0, 6780790.0], [193611.49769585254, 6780707.741935484], [193740.0, 6780615.0], [193864.78664088162, 6780682.643222165], [193912.34109810018, 6780672.56143722], [193878.645943098, 6780560.442571128], [194020.95238095237, 6780514.365079365], [194035.0, 6780400.0], [194111.36363636365, 6780323.636363637], [194084.21909127975, 6780268.668659842], [194113.61828184512, 6780129.824375793], [194140.0, 6780165.0], [194240.15706806284, 6780078.193717278], [194372.22577209797, 6780142.774227902], [194446.4705882353, 6780068.529411765], [194651.0486115201, 6780106.680079819], [194737.4358974359, 6780183.461538462], [194870.0, 6780075.0], [194965.65799842397, 6780105.543735225], [195015.44436553842, 6780046.76212264], [195174.4704706626, 6779969.365380563], [195300.0, 6780005.0], [195305.64516129033, 6779945.806451613], [195366.6883116883, 6779864.415584415], [195440.0, 6779895.0], [195444.54995262658, 6779849.500473734], [195500.54970760233, 6779845.0], [195683.13587287278, 6779593.217289305], [195748.69633599574, 6779620.982105883], [195910.28474701883, 6779472.710452489], [196168.94779674013, 6779556.926214368], [196221.0, 6779454.0], [196145.0, 6779280.0], [196296.8361574331, 6779301.485195269], [196321.57076266044, 6779056.76917097], [196669.70554827622, 6778951.92606951], [196923.57798165138, 6779089.862385321], [197224.39557173202, 6779101.554489587], [197287.58620689655, 6779153.275862069], [197375.98039215687, 6779100.980392157], [197480.0, 6779205.0], [197546.5129699018, 6779201.212432872], [197590.47171822112, 6779122.896282638], [197596.90775695854, 6778911.857428021], [197466.96911265788, 6778746.874171034], [197476.982382591, 6778601.307735181], [197380.26119402985, 6778567.052238806], [197323.75, 6778488.75], [197500.35146479143, 6778258.476719804], [197500.0423576796, 6778211.444883866], [197561.8941724532, 6778237.98145381], [197740.09542571794, 6778142.021993648], [197803.75, 6778058.194444444], [197770.94594594595, 6778010.810810811], [197791.8132848783, 6777932.019385861], [197911.6297277402, 6777864.075658687], [198024.06051035997, 6777604.541757907], [198000.41292639633, 6777414.944839661], [198040.38461538462, 6777391.538461538], [197937.33716475096, 6777314.252873563], [197990.45454545456, 6777235.454545454], [197940.1948051948, 6777185.194805195], [197987.0, 6777078.0], [197944.32297804547, 6777053.994175151], [198265.59956903235, 6776894.588325398], [198464.05331050514, 6776908.946925401], [198506.85055203477, 6777009.542434946], [198837.3919452276, 6776921.766965237], [199157.20835209216, 6776587.232182977], [199195.0, 6776480.0], [199108.8677452188, 6776318.10765793], [199019.10587609085, 6776259.947516465], [199068.33333333334, 6776186.666666667], [199038.8986784141, 6776099.801762114], [199083.33333333334, 6776040.555555556], [199266.26459485036, 6776030.109118245], [199337.66925817946, 6775900.5312601235], [199439.43195615563, 6775868.609758811], [199334.53376715755, 6775608.993596785], [199209.5040025922, 6775516.5124491155], [199251.3536078676, 6775428.850207762], [199185.3250572683, 6775348.696370621], [199122.4064171123, 6775357.192513369], [199084.02413649604, 6775296.702039118], [198980.0, 6775325.0], [198913.70787802504, 6775277.460094971], [198929.22535211267, 6775212.112676056], [198840.060495207, 6775205.184525079], [198762.6923076923, 6775073.076923077], [198807.4094688035, 6774994.36453216], [198689.22121787787, 6774940.770505251], [198760.04542286505, 6774824.346610709], [198792.52601305104, 6774553.686010722], [198661.70562770564, 6774448.411255411], [198589.1118772234, 6774448.529522887], [198421.1117855305, 6774340.372618435], [198375.0, 6774230.0], [198427.350232106, 6774083.532649434], [198630.08158230287, 6773962.6050519515], [198652.5, 6773892.5], [198558.1043408274, 6773867.1186898295], [198575.2896467035, 6773799.710353296], [198440.83707340164, 6773780.599844385], [198387.19741561692, 6773548.311136026], [198555.0412624066, 6773176.730233077], [198582.55601938965, 6773161.703723728], [198788.25452619544, 6772885.493235842], [198620.73740125672, 6772627.120814822], [198460.71482889733, 6772535.517110266], [198355.5978038666, 6772560.5978038665], [198246.30770092964, 6772489.289257603], [198172.96909986564, 6772574.4849977605], [198080.30303030304, 6772588.939393939], [197938.64528261757, 6772479.748957981], [197943.67850256013, 6772395.211789247], [197783.33333333334, 6772355.0], [197688.8524590164, 6772274.016393443], [197645.0, 6772280.0], [197683.57142857142, 6772178.571428572], [197636.59833404882, 6771993.826759135], [197733.30791326216, 6771904.514336896], [197691.15384615384, 6771846.153846154], [197728.16305680425, 6771785.941969759], [197933.84243848638, 6771689.368689407], [197931.90976431218, 6771523.090235688], [197989.44444444444, 6771465.555555556], [198025.0, 6771250.0], [197986.1505393153, 6771193.77051743], [198066.0, 6771141.0], [198182.8125, 6771152.1875], [198280.0, 6771055.0], [198363.13708078334, 6771050.686338658], [198375.3948591019, 6770827.88220184], [198416.59022640664, 6770842.251961444], [198451.3042694671, 6770691.36785919], [198644.1896015107, 6770487.229813558], [198702.90029739402, 6770377.1818136], [198740.63636363635, 6770415.454545454], [198915.8263984858, 6770150.00135606], [198960.0, 6770165.0], [199024.75468613574, 6770071.341934645], [199173.5294117647, 6769992.05882353], [199250.95575701242, 6769987.552297148], [199363.4665697851, 6769870.608923531], [199505.0, 6769836.0], [199505.0, 6769884.0], [199680.49019607843, 6769855.490196078], [199715.55555555556, 6769890.555555556], [199790.0, 6769875.0], [199857.18264595608, 6769986.971076594], [199947.93103448275, 6769923.620689655], [200125.0072139742, 6770018.615112562], [200243.68724922335, 6770153.264931236], [200405.0, 6770090.0], [200396.65545087482, 6770024.078061911], [200563.35327642885, 6769926.551173371], [200560.65462781, 6769849.567895317], [200700.4, 6769845.8], [200836.63746958636, 6769991.754257907], [200820.0, 6770035.0], [201074.03751369796, 6770327.367707949], [201247.70684685674, 6770453.209623749], [201440.32343386087, 6770464.040665792], [201547.91458986787, 6770595.8608110305], [201485.91228294623, 6770681.984179099], [201644.1904370163, 6770745.499928158], [201826.0928433269, 6770909.874274662], [201928.42105263157, 6770882.894736842], [201980.58280438546, 6770952.44373918], [202195.25810583754, 6770820.258105838], [202218.11536767945, 6770843.11536768], [202294.90781945328, 6770775.534011443], [202446.1599874765, 6770900.072010019], [202486.3278983775, 6770852.643364891], [202760.03093419285, 6770768.425574006], [202815.06481982252, 6770853.3598942375], [202763.0, 6770928.0], [202897.26913018036, 6771012.541956264], [203229.965106721, 6770825.928787232], [203342.68292682926, 6770722.560975609], [203403.01901278153, 6770733.3721153], [203637.84670069782, 6770537.615566899], [203745.59481589758, 6770563.667866482], [203855.09324324378, 6770740.833311499], [204013.02373932497, 6770631.787449354], [204087.36310549293, 6770724.148059067], [204160.0, 6770665.0], [204191.66666666666, 6770696.666666667], [204172.99166232412, 6770803.57582074], [204020.61406257914, 6770994.423535823], [204084.4876770663, 6771075.635119317], [204214.94382022473, 6771119.269662921], [204259.5581671082, 6771164.39912093], [204372.31169390772, 6771181.898109915], [204546.0, 6771059.0], [204785.28050541258, 6771284.835847806], [204946.41160949867, 6771204.129287599], [205015.19791088355, 6771220.535911829], [205209.40299196282, 6771066.474195602], [205350.42479674798, 6770830.567073171], [205457.93460114882, 6770874.764914525], [205635.77441918562, 6770741.703722209], [205575.0, 6770640.0], [205670.38157709126, 6770515.679221329], [205798.57773585143, 6770533.337170363], [205982.4431871003, 6770417.112911657], [205976.130601994, 6770343.91946473], [206108.40472445486, 6770281.001866689], [206085.57479224377, 6770166.779778393], [206300.71174872445, 6770040.84780568], [206475.03647625478, 6770043.837133654], [206581.7496111975, 6769913.950233282], [206709.7483253003, 6769871.182023692], [206924.8352118198, 6769600.204876123], [206944.59251711264, 6769475.355969852], [207035.96921980576, 6769321.658309116], [207190.0, 6769175.0], [207465.71943819747, 6769408.750583443], [207530.87396631113, 6769351.426728421], [207690.0, 6769345.0], [207907.6498769147, 6769557.067723343], [208023.39881530002, 6769396.00518187], [208269.58643311248, 6769387.12370324], [208563.2936933645, 6769545.898010283], [208610.88463103535, 6769526.939546709], [208775.2128534214, 6769502.495765161], [208932.14285714284, 6769599.285714285], [209068.24427480917, 6769556.755725191], [209226.31938079235, 6769649.551771683], [209305.20942408376, 6769551.989528796], [209265.0, 6769500.0], [209342.3076923077, 6769447.307692308], [209412.30274731937, 6769522.655527426], [209619.6422368878, 6769590.713789511], [209733.33333333334, 6769681.666666667], [209760.0, 6769655.0], [209790.8914444431, 6769685.137994579], [210027.88280113507, 6769544.544337466], [210212.3636120705, 6769385.972981453], [210362.77942654717, 6769431.254143992], [210489.1673837642, 6769549.975777516], [210630.0, 6769505.0], [210673.34494394253, 6769577.235767933], [210762.79755352976, 6769565.2276861025], [211073.29446071267, 6769640.381003571], [211130.0, 6769685.0], [211315.91952281795, 6769662.773760111], [211506.1403508772, 6769809.385964912], [211600.0, 6769795.0], [211843.97251019423, 6769906.729382645], [211920.0, 6770035.0], [212001.42857142858, 6770023.571428572], [212095.5983082706, 6769929.401691729], [212337.38313447897, 6769997.980396751], [212352.309605277, 6770112.19148693], [212247.33333333334, 6770135.666666667], [212242.66510355606, 6770204.093395858], [212166.244961711, 6770182.722793239], [212217.876894193, 6770293.369018387], [212689.7738059218, 6770313.422387594], [212632.0147458672, 6770429.240622442], [212470.0, 6770495.0], [212374.88372093023, 6770478.488372093], [212340.0, 6770525.0], [212159.727110431, 6770533.543738842], [212085.0, 6770630.0], [212212.18639392097, 6770665.925407948], [212118.6223390065, 6770793.722896791], [211995.65689414914, 6770810.6922057755], [211972.21723518852, 6771013.608617594], [212196.93355257052, 6771087.578070094], [212253.67088607594, 6771163.227848101], [212370.0, 6771055.0], [212433.94440857606, 6771142.729755113], [212405.61538461538, 6771200.461538462], [212474.84126984127, 6771252.380952381], [212350.0, 6771395.0], [212134.10521637189, 6771413.941620445], [211985.0, 6771550.0], [212000.93644354295, 6771629.682217714], [211975.9422674931, 6771667.272693339], [212141.1954285932, 6771789.674285678], [212103.05464661785, 6771853.2422556365], [212343.13826212866, 6772044.563364013], [212421.39331863812, 6772027.04519004], [212787.57161618027, 6772317.896091796], [212917.7529017393, 6772222.594679255], [212954.54545454547, 6772258.636363637], [213118.5021224985, 6772174.163856883], [213277.74612479046, 6772028.004459414], [213397.1222155328, 6772003.037326911], [213485.92592592593, 6772039.074074074], [213514.91315594973, 6772010.08684405], [213588.8260869565, 6772171.478260869], [213455.0, 6772281.111111111], [213490.0544550037, 6772414.731321073], [213446.81076672106, 6772482.95269168], [213586.5, 6772594.5], [213571.13402061857, 6772676.134020618], [213605.0, 6772710.0], [213582.77777777778, 6772777.777777778], [213632.31028266693, 6772827.310282667], [213646.54039047108, 6772913.080780942], [213593.02715093226, 6772941.025019517], [213722.33408641408, 6773058.493673486], [213444.46403494236, 6773259.464034942], [213490.0, 6773305.0], [213572.38169123352, 6773269.6935609], [213782.0754716981, 6773527.264150944], [213866.0, 6773503.285714285], [214003.98311789942, 6773656.691909416], [214179.45558739256, 6773656.891117479], [214200.0, 6773760.714285715], [214322.48681644624, 6773778.212402349], [214305.17099333685, 6773819.8290066635], [214523.8689153536, 6774049.440043881], [214359.34023724578, 6774159.570562189], [214433.66666666666, 6774242.666666667], [214374.57852926574, 6774309.381033817], [214399.80066915456, 6774334.083129585], [214353.2899318584, 6774370.029718251], [214295.07668288238, 6774567.9497750215], [214355.0, 6774630.0], [214305.0, 6774660.0], [214304.9773595051, 6774746.82111376], [214210.97468409565, 6774872.110383679], [214080.96971737934, 6774954.351180504], [213877.4962429607, 6774963.22898948], [213743.0479388186, 6775029.723004181], [213700.0, 6775085.0], [213660.0, 6775065.0], [213496.77868534866, 6775187.688191527], [213311.03523545488, 6775183.543874736], [213205.61445344106, 6775273.575634727], [213140.0, 6775385.0], [213104.54724996493, 6775377.909449993], [212912.7416962113, 6775522.676048178], [212792.32029502923, 6775506.640585699], [212721.15384615384, 6775544.615384615], [212648.41152951404, 6775482.023279846], [212525.0, 6775556.327690382], [212607.95602299276, 6775622.844704509], [212585.0, 6775650.0], [212773.83494112248, 6775724.830234273], [212905.42892353985, 6775738.666827094], [212969.99971706807, 6775796.790007106], [212727.60315795138, 6776047.605847859], [212710.0, 6776165.0], [212750.38461538462, 6776299.230769231], [212708.88901910232, 6776277.000078128], [212676.69789227165, 6776334.953161593], [212585.88235294117, 6776335.588235294], [212493.2192114388, 6776280.989469621], [212331.94973727028, 6776353.24361705], [212190.70707070708, 6776375.0], [212123.43496349597, 6776358.329315109], [212035.6349206349, 6776449.047619048], [212064.2105263158, 6776480.7894736845], [212008.38640759233, 6776591.170332389], [212032.31210969345, 6776626.078323979], [211954.5634042659, 6776883.235524363], [211992.16718901618, 6777143.223747301], [212047.1875, 6777155.0], [212065.2384990925, 6777207.473482626], [211956.47388510412, 6777256.738416196], [211886.81447724346, 6777234.382971785], [211700.04505430826, 6777356.671846662], [211793.4, 6777514.8], [211792.39472524705, 6777617.929124441], [211763.66666666666, 6777636.0], [211802.2518765638, 6777743.498748957], [211619.4626336892, 6777767.396363278], [211611.19047619047, 6777804.285714285], [211758.68381739093, 6778015.588118986], [211725.41079858088, 6778049.41568811], [211833.7933144649, 6778203.560391647], [211939.43809368712, 6778188.189557559], [212077.58620689655, 6778378.448275862], [212124.9460272518, 6778368.243673686], [212375.4122520097, 6778668.828942394], [212085.83076994366, 6778942.610861037], [212030.0, 6778865.0], [211978.36127409892, 6778918.784576697], [212095.0, 6779020.0], [212029.00230249116, 6779080.717881708], [212290.21926389978, 6779205.125293657], [212350.7831556201, 6779276.1758008115], [212689.08268047622, 6779238.758235082], [212845.63216419984, 6779268.663609074], [212508.8835284416, 6779520.1803177465], [212669.97765862377, 6779774.253798034], [212591.93737038574, 6779902.343425964], [212619.82384734743, 6780006.360350699], [212715.0, 6780090.0], [212675.0, 6780145.0], [212694.8947368421, 6780174.842105263], [212590.0, 6780255.0], [212500.0, 6780245.0], [212420.68824359303, 6780323.873749008], [212533.8523268706, 6780425.979166556], [212835.20627207417, 6780548.195818617], [212874.61538461538, 6780521.923076923], [212923.85778795785, 6780570.588495799], [212988.3141762452, 6780566.915708812], [212954.49380500577, 6780630.958539457], [213101.17783676178, 6780741.220968812], [213078.49909877917, 6780748.4655656675], [213122.33176467096, 6780919.856756786], [213245.0, 6780930.0], [213225.0, 6780950.0], [213400.84096385541, 6781109.108433735], [213485.0, 6781150.0], [213293.36245742824, 6781165.893375774], [213044.28508573875, 6781353.399200393], [212998.18181818182, 6781345.0], [212870.0, 6781455.0], [212833.77358490566, 6781430.849056603], [212734.10122770444, 6781463.578874218], [212733.33333333334, 6781525.0], [212671.03346456692, 6781514.005905512], [212461.20040356423, 6781736.47871299], [212515.0, 6781770.0], [212335.39372262638, 6781921.767783026], [212260.0, 6781895.0], [212197.85714285716, 6781955.714285715], [212245.3075283407, 6781984.1845170045], [212626.23087364458, 6782117.582964723], [212587.7027027027, 6782171.621621622], [212698.9168917184, 6782166.855165025], [212798.15259747682, 6782251.397626165], [212930.3547756791, 6782178.362323282], [212984.14012738853, 6782229.140127389], [213036.84210526315, 6782199.2105263155], [213209.88782774616, 6782256.201499937], [213448.97875951804, 6782256.100714354], [213491.0691868316, 6782297.788312037], [213936.06934401952, 6782312.01367715], [214015.55555555556, 6782363.888888889], [214181.38683744354, 6782333.675285314], [214430.49560463423, 6782095.725232946], [214560.4917268963, 6782155.49689158], [214895.9512449066, 6782170.032224478], [214773.19447961508, 6782332.387946315], [214876.1351100167, 6782422.71186894], [214869.1810167067, 6782552.630037297], [214930.0, 6782565.0], [214991.42835964658, 6782724.5117985895], [214973.4091528194, 6782828.011441024], [214925.0, 6782854.776883687], [214981.2551440329, 6782932.613168724], [214965.0, 6782996.0], [215012.87173666287, 6783028.552780931], [214997.99506046873, 6783126.274099643], [215043.88563049852, 6783153.724340176], [215005.0, 6783230.0], [215112.04453441297, 6783293.4412955465], [215070.0, 6783425.0], [215199.74280229557, 6783336.903799744], [215453.58318462496, 6783259.102991964], [215490.0967153706, 6783300.913487062], [215769.66027980938, 6783244.54854992], [215832.25964014206, 6783311.439309626], [215959.84732824427, 6783269.65648855], [216293.0415766146, 6783295.752944318], [216374.84735974288, 6783285.650373254], [216432.14880001708, 6783397.72168081], [216292.15390791232, 6783490.0706417505], [216167.21900347623, 6783437.699884125], [215973.33333333334, 6783451.666666667], [215814.778841551, 6783508.438487315], [215851.97509777534, 6783624.921410592], [215845.66798036583, 6783853.72203554], [215983.67303609342, 6783930.456475584], [216132.39284904377, 6784062.607150956], [216065.0, 6784130.0], [216125.7831325301, 6784288.524096386], [215644.8852882567, 6784814.554687955], [215653.21367779473, 6784905.073819429], [215545.7894736842, 6784904.47368421], [215358.14003511838, 6785040.76644091], [215263.7142857143, 6784990.714285715], [215129.17640660953, 6785011.822518941], [215040.20635185213, 6785063.2971630525], [215101.98655383906, 6785204.552616555], [214949.85694581046, 6785354.848763533], [214790.0, 6785355.0], [214735.0451173625, 6785391.636588425], [214782.19983928246, 6785455.055727001], [214648.7276402999, 6785623.787266167], [214704.0302895994, 6785698.604139539], [214638.47621777016, 6785821.065537603], [214655.0, 6785928.843695197], [214603.95611002052, 6785941.733684527], [214625.92260948318, 6786105.57275994], [214779.62857142856, 6786263.828571429], [214741.9898594026, 6786303.144255772], [214840.1562488377, 6786484.736630376], [215046.11367094528, 6786581.864582827], [215266.23751885642, 6786608.538577777], [215307.51126075402, 6786751.672191019], [215359.67245929837, 6786778.718009549], [215326.87935034803, 6786822.807424594], [215375.06802211312, 6786890.364017881], [215728.16731168865, 6786884.287188179], [215773.0, 6786908.0], [215736.51726760386, 6787013.710012229], [216113.25721485098, 6787055.058123464], [216210.55370155777, 6787106.959485991], [216280.62249632902, 6787301.383815667], [216569.67002533827, 6787567.015790864], [216516.25, 6787640.0], [216451.15810322386, 6787576.667343677], [216283.78151260503, 6787669.145658263], [216305.0, 6787774.0], [216355.0, 6787800.0], [216346.4136969714, 6787933.787998254], [216216.0, 6787951.0], [216310.35601306075, 6788112.047158064], [216091.09422264862, 6788459.696707027], [216057.98245614034, 6788395.614035088], [215765.06142438715, 6788404.198679425], [215660.0, 6788485.0], [215594.8771600508, 6788494.30326285], [215394.55470737914, 6788720.445292621], [215343.488372093, 6788680.116279069], [215290.0, 6788755.0], [215201.15384615384, 6788793.076923077], [215258.03477572178, 6788901.250629995], [215184.80167014615, 6788950.407098121], [215092.35553774564, 6788937.879522114], [215025.0, 6789070.0], [215106.5254237288, 6789115.593220339], [215031.0, 6789210.0], [215045.0, 6789280.0], [214995.61516762504, 6789305.806661604], [214923.66211019128, 6789459.982498534], [214840.06172839506, 6789458.888888889], [214878.85992346884, 6789544.97488596], [214802.93103448275, 6789542.068965517], [214721.15044247787, 6789616.150442478], [214751.66666666666, 6789646.666666667], [214738.0884419257, 6789712.357660358], [215252.47294539615, 6789909.418311513], [215314.4457384519, 6790001.927040398], [215441.40090107732, 6790115.055703881], [215704.0, 6790098.333333333], [215628.03104981076, 6790192.078574824], [215654.46840391916, 6790314.733840193], [215545.0, 6790430.0], [215562.14285714287, 6790482.857142857], [215485.0, 6790560.0], [215526.041445271, 6790639.617428267], [215798.7721821168, 6790941.451435902], [215645.82119900506, 6791058.578933521], [215629.82796346402, 6791338.051534642], [215463.18465256345, 6791504.3359163115], [215284.1178270946, 6791507.919360729], [215026.16438356164, 6791653.493150685], [215035.0, 6791680.0], [214726.17398150256, 6791975.886874612], [214773.51974365656, 6792036.997130689], [214740.0, 6792175.0], [214522.17705422087, 6791957.177054221], [214402.2245485475, 6792033.561458606], [214312.15570455752, 6791973.0247242255], [214211.37208574114, 6792040.919041248], [214024.8073281989, 6792007.444937129], [213810.0, 6792135.0], [213632.79979691852, 6791984.639227818], [213492.54791600798, 6791967.264143379], [213330.61928250667, 6791819.846781561], [213233.76041498288, 6791883.531248623], [213170.27007605185, 6791831.584607678], [212859.83343808926, 6791857.083595223], [212845.0, 6791820.0], [212893.43805524148, 6791748.05524148], [212734.63987010892, 6791628.584503602], [212565.869297164, 6791579.599260173], [212430.0, 6791650.0], [212360.0, 6791635.0], [212258.1678173128, 6791693.682952735], [212170.1880985677, 6791837.180663139], [212020.9700578633, 6791835.485028932], [211755.90653032513, 6792092.953265162], [211580.0, 6792025.0], [211464.43298969071, 6792126.546391753], [211359.71231099815, 6792080.150138488], [211289.14111358087, 6792184.167628935], [211162.5092408242, 6792055.987611985], [211047.5451263538, 6792105.6859205775], [210764.92216944197, 6792367.494440675], [210699.66882027997, 6792341.066235944], [210560.0, 6792345.0], [210505.79325935297, 6792416.574530755], [210405.13838525466, 6792389.217876195], [210362.3719790067, 6792329.667559817], [210425.0, 6792290.0], [210202.15312148415, 6792300.660395462], [210112.6582278481, 6792375.126582279], [210039.3529818357, 6792354.566735298], [209937.76456891582, 6792382.170897994], [209862.5, 6792242.5], [209798.48484848486, 6792308.796791444], [209706.66666666666, 6792325.0], [209711.04516482266, 6792364.406483403], [209199.03591951844, 6792724.920167344], [208977.0405830385, 6792918.795357962], [208803.92712682526, 6793017.327027569], [208410.5288340426, 6793334.565075486], [208097.82327649562, 6793508.972435], [207595.0, 6793993.640360858], [207417.76974338008, 6794222.64131642], [207445.0, 6794300.0], [207365.43883583447, 6794328.844604691], [207270.0, 6794305.0], [207188.0, 6794373.0], [207085.4929577465, 6794367.6760563385], [207001.44599021185, 6794479.738679717], [206908.52272132313, 6794518.9722138755], [207039.91115385777, 6794674.5617035795], [207007.85142024764, 6794749.413692644], [207190.0, 6794612.777777778], [207272.65788148472, 6794678.147736338], [207258.32771130945, 6794802.677829004], [207414.38829734517, 6794897.09109115], [207357.2077922078, 6794975.714285715], [207423.10739723063, 6795082.944029069], [207384.84633285512, 6795226.8820398515], [207188.1691493408, 6795480.743501036], [207218.375, 6795566.625], [207353.65898043916, 6795660.715070026], [207194.17529276395, 6795867.5192091875], [207029.46896668975, 6795959.936764042], [207098.81924792612, 6796056.386654985], [206949.13015039935, 6796228.217264854], [207072.18802550808, 6796341.289522319], [207199.6537168085, 6796615.653224794], [207382.90600182096, 6796589.784231406], [207620.0, 6796865.0], [207663.33333333334, 6796865.0], [207640.74954717286, 6796908.336975565], [207665.40494295693, 6797179.259451766], [207635.0, 6797255.0], [207679.44444444444, 6797282.777777778], [207635.0, 6797300.0], [207651.79903730444, 6797354.596871239], [207585.0, 6797434.285714285], [207577.28849426357, 6797558.023091941], [207452.17643953953, 6797606.421292186], [207306.84331790873, 6797572.939239115], [207120.83333333334, 6797685.833333333], [207030.0, 6797595.0], [206820.0, 6797625.0], [206414.3264062922, 6798030.673593707], [206224.02699188172, 6798089.633052488], [206112.64958594122, 6798000.633290547], [206103.96569309518, 6798077.467925027], [206045.86531595766, 6798099.134684042], [206045.42200146004, 6798273.527737797], [205947.15496427318, 6798332.344355689], [205826.36751177922, 6798469.678034552], [205728.57142857142, 6798406.428571428], [205637.2, 6798422.2], [205563.42621084637, 6798391.980272721], [205467.98598641914, 6798470.687146395], [205184.92570619282, 6798625.1077143345], [205043.4185650448, 6798614.0016056355], [204872.3642743545, 6798734.0932045635], [204885.0, 6798778.421052632], [204822.55294156136, 6798846.665145608], [204701.50417827297, 6798803.288068709], [204648.82352941178, 6798886.176470588], [204664.26119431987, 6798921.926349244], [204556.3632754604, 6799194.322012698], [204443.58974358975, 6799197.222222222], [204360.58749469245, 6799288.275428001], [204290.23486147862, 6799302.875927545], [204096.48699741167, 6799039.358746764], [203833.81409294947, 6799028.506068178], [203736.88990145433, 6799179.411144054], [203441.27490039842, 6799310.258964144], [203175.82370692465, 6799375.041524932], [202914.48275525894, 6799137.437076402], [202666.14418277948, 6799217.484444008], [202065.39534680094, 6799476.027128307], [201986.29587552842, 6799478.337120244], [201854.93211162018, 6799550.606854287], [201659.00897822063, 6799594.92636035], [201599.60049331107, 6799643.503464033], [201460.69952657569, 6799613.628544607], [201420.2508795141, 6799551.693252386], [200713.8823767738, 6799813.929504847], [200553.14337454678, 6799678.628776332], [200218.63015855796, 6799790.323314606], [200111.22968043675, 6799867.9482408445], [200149.49799061645, 6799965.609920223], [199840.9090909091, 6800040.454545454], [199776.47887323942, 6800008.23943662], [199460.0, 6800205.0], [199462.5314183124, 6800173.868940754], [199223.2778696707, 6799938.466555873], [199412.94676768556, 6799664.022724417], [199361.66666666666, 6799606.666666667], [199283.33333333334, 6799648.333333333], [199220.7142857143, 6799585.714285715], [199051.69312169313, 6799686.693121693], [199065.31024971962, 6799788.629030854], [198970.84796486775, 6799893.732185375], [198446.47651640236, 6800219.569157353], [198150.08563289465, 6800219.460866177], [198090.0, 6800275.0], [198057.0130610914, 6800258.415046321], [197801.72910662825, 6800403.616714697], [197742.72727272726, 6800387.7272727275], [197528.1378516091, 6800457.720904322], [197297.73720386394, 6800697.171802725], [197373.92203826836, 6800959.850967136], [197222.71505880967, 6801123.057671197], [197227.22222222222, 6801327.777777778], [197268.908045977, 6801385.402298851], [197233.51605180773, 6801446.124547296], [197087.69657018743, 6801466.237233413], [197016.13636363635, 6801550.681818182], [197107.2668251359, 6801535.972427441], [197123.1467345208, 6801618.146734521], [197053.39152119702, 6801665.997506235], [197106.0342107221, 6801739.618729784], [197066.49274641354, 6801867.32330129], [196830.8337808474, 6802055.157261991], [196678.20143884892, 6802071.258992806], [196687.05854179632, 6802102.037201119], [196618.42105263157, 6802131.842105263], [196599.91685591047, 6802094.833711821], [196275.88921268607, 6802283.034342066], [196292.14922571564, 6802422.850774284], [196175.73740480607, 6802627.317329378], [196233.33333333334, 6802668.333333333], [196105.75757575757, 6802760.757575758], [196145.0, 6802881.544401544], [195947.5942415934, 6803127.071959749], [195890.28032458873, 6803135.030916665], [195822.39591725523, 6803224.814909775], [195661.96521680994, 6803107.010591444], [195587.0, 6803174.0], [195546.42857142858, 6803158.571428572], [195469.50920245398, 6803314.509202454], [195420.3111111111, 6803265.311111111], [195370.9999415158, 6803313.598780266], [195240.38947279903, 6803331.231413818], [195118.28949423324, 6803435.921041567], [195076.04992233068, 6803561.122380378], [194883.2308662194, 6803584.557961438], [194831.82830412438, 6803682.001581236], [194625.0, 6803698.729628827], [194625.0, 6803760.0], [194512.51805688706, 6803850.919470711], [194525.76404494382, 6804013.610486891], [194423.5785265126, 6804207.3609246025], [194349.4871794872, 6804141.538461538], [194262.71817084428, 6804197.092593907], [194230.0, 6804325.0], [194187.2570915409, 6804313.0292056305], [194096.30478627194, 6804359.663331044], [194015.0, 6804520.0], [194038.57782175104, 6804579.080580273], [193807.16577134054, 6804710.917610969], [193768.7606837607, 6804696.239316239], [193650.79710144928, 6804882.028985507], [193635.0, 6804990.0], [193690.80021912267, 6805047.998609413], [193616.42857142858, 6805107.857142857], [193674.04197419249, 6805185.099840655], [193587.8631138976, 6805393.699059561], [193625.08482785945, 6805491.813465094], [193427.18593987165, 6805823.411847185], [193262.11148648648, 6806049.746621622], [193345.0, 6806140.0], [193297.36363636365, 6806192.090909091], [193416.6770431861, 6806367.746758024], [193485.2575107296, 6806685.858369099], [193399.97428234454, 6806732.76414471], [193387.01754494794, 6806959.87605932], [193586.89055611027, 6807166.323895476], [193469.2857142857, 6807364.285714285], [193495.0, 6807390.0], [193430.48002559852, 6807456.294273698], [194428.40561340077, 6808393.576085287], [194346.549875786, 6808537.484940624], [194452.3076923077, 6808647.307692308], [194524.48721631715, 6808598.711577133], [194767.9568175776, 6808837.749790531], [194813.711018711, 6808791.226611227], [194869.96070928208, 6808902.804635971], [194965.55793991417, 6808975.622317596], [194995.0, 6809070.0], [194934.80840664712, 6809198.072336266], [195014.2989058635, 6809409.595369606], [194931.08319901873, 6809819.342761647], [194969.11691218955, 6810003.007163753], [194955.9740504081, 6810223.222870687], [194740.89314624932, 6810432.633567188], [194716.13570209607, 6810658.186734315], [194775.7334550337, 6810802.185008365], [194738.51251618905, 6811028.756762031], [194803.6805601677, 6811163.839424048], [194665.9486419656, 6811565.20124068], [194510.0, 6811415.0], [194346.66666666666, 6811428.333333333], [194276.2652010935, 6811498.734798906], [194134.46837806315, 6811556.52189211], [193779.25367481716, 6811264.253674817], [193732.22638152775, 6811295.516659872], [193621.50127226464, 6811246.119592875], [193562.5, 6811132.5], [193394.64285714287, 6811300.357142857], [193286.5726237095, 6811554.707191171], [193156.0284041052, 6811651.1963969655], [193029.1140066633, 6811615.859344178], [192444.4736740112, 6812234.024766002], [192377.24518206273, 6812227.896187344], [192183.63636363635, 6812417.7272727275], [192048.74018488807, 6812367.848717088], [191881.25078326862, 6812400.552644519], [191389.2982919134, 6811939.502812826], [191351.06454075756, 6811851.410949537], [191444.9551891212, 6811759.933506438], [191405.0, 6811690.0]]]}}]}