{"type": "FeatureCollection", "crs": {"type": "name", "properties": {"name": "EPSG:25833"}}, "features": [{"type": "Feature", "properties": {"station": "121.20.0", "name": "\u00c5mot", "series": ["1001.1"], "nodes": 2837651, "fine_vertices": 18334, "fine_area_m2": 283765950.0, "reduced_vertices": 919, "reduced_area_m2": 283765949.99999976, "outline_tolerance_m": 20.0, "windows": [[454, 489], [1102, 1133], [2591, 2612], [4990, 5011]], "placed_on": "number", "distance_m": 39.675575115006495, "uncertainty_m": 39.675575115006495, "elvid": "121-36-2297", "objectid": 11577217, "lake": false, "confluence_near": false, "reach_up_m": 1000.0, "reach_down_m": 139.6755751150065, "reach_fork": false, "seeded_by": "river", "lake_rule": null, "lake_number": null, "lake_name": null, "lake_distance_m": null, "node_offset_m": 14.3840570714426, "chain_nodes": 103, "lowered_nodes": 89, "lowered_max_m": 0.8277740478515625, "direction_ok": true, "end_extended_m": 0.0, "end_closed": true, "downstream_checked": "whole", "a0": 283.7651, "area_up": 283.7629, "area_down": 283.77340000000004, "swing": 2.924954478200362e-05, "largest_step": 0.004700000000013915, "largest_step_at_m": 30.0, "checked_up_m": 34.142135623731065, "checked_down_m": 30.0, "drains": true, "monotone": true, "causes": []}, "geometry": {"type": "Polygon", "coordinates": [[[244910.0, 7015145.0], [244848.99197145406, 7015060.057983943], [244750.0, 7015055.0], [244681.4484501902, 7015123.55154981], [244610.03114851075, 7015008.547802929], [244383.1807244956, 7014984.744715071], [244306.37771978756, 7015061.141532624], [244254.0, 7015055.0], [244244.0, 7015105.0], [244156.16338252608, 7015116.252987835], [244174.31484924135, 7015021.827013188], [243968.1456259504, 7014847.157495986], [244054.67213114753, 7014737.049180328], [243976.45790554414, 7014619.32238193], [243921.26791850134, 7014599.047351738], [243903.9289547429, 7014546.3565993905], [243831.62991714105, 7014595.608498461], [243612.30608084085, 7014396.18925068], [243572.5, 7014392.5], [243647.6056540249, 7014311.5106427325], [243661.28087528193, 7014040.992954403], [243717.95673628457, 7013946.302216832], [243741.87210263565, 7013942.450021204], [243774.0196570282, 7013850.174191413], [243659.05940594058, 7013735.940594059], [243705.0, 7013690.0], [243665.0, 7013650.0], [243684.90365733037, 7013580.578056018], [243578.0301466901, 7013463.476033742], [243427.34268101578, 7013444.290952077], [243376.4856227698, 7013361.924089173], [243545.24142378697, 7013231.225899793], [243451.79257160844, 7013125.408666457], [243518.33333333334, 7013047.777777778], [243540.8909825709, 7012804.624357009], [243333.41847035073, 7012758.163059299], [243188.13864628822, 7012816.200873363], [243157.80029350237, 7012765.706695393], [243080.31287008504, 7012845.408303933], [242984.0, 7012851.0], [242890.0, 7012805.0], [242824.05693950178, 7012973.71886121], [242744.0, 7012999.0], [242639.0069191995, 7012942.076449969], [242504.5778340175, 7013018.064979729], [242097.0455965389, 7013023.851537544], [242039.8882681564, 7013080.474860335], [241890.76535853976, 7013089.938560696], [241855.7142857143, 7013299.761904762], [241767.83783783784, 7013329.054054054], [241698.10131449305, 7013308.414757062], [241617.29717844824, 7013378.491469338], [241524.7630614043, 7013384.68138304], [241430.0, 7013475.0], [241425.13118982382, 7013347.419807436], [241380.0, 7013315.0], [241265.80736795242, 7013395.308115928], [241106.75774134792, 7013261.484517304], [241075.33483497158, 7013290.926014177], [240887.0071390492, 7013311.453445518], [240896.09580642523, 7013269.389765388], [240782.65432098764, 7013307.098765432], [240734.39989657057, 7013259.507378908], [240586.11423627398, 7013383.673263981], [240628.62962962964, 7013407.703703703], [240636.0036664505, 7013479.814924243], [240533.52575488455, 7013568.525754885], [240567.79503527598, 7013627.076374688], [240476.09706073918, 7013661.245201701], [240516.13796364263, 7013812.84542789], [240160.10776653572, 7013941.562379506], [240013.5770117698, 7013794.295019616], [240033.52328062285, 7013827.538801038], [239895.73025856045, 7013834.331137067], [239770.0, 7013695.0], [239708.88888888888, 7013723.888888889], [239678.0357142857, 7013693.035714285], [239389.4001831502, 7013794.400183151], [239351.47478515562, 7013756.474785156], [239296.60963708433, 7013811.597767563], [239103.99171078252, 7013769.487928115], [239024.9492870921, 7013666.196035877], [238950.0, 7013685.0], [238925.1370678, 7013635.2741356], [238454.9794007513, 7013672.290262174], [238372.5, 7013602.5], [238336.7255718139, 7013472.977153678], [238521.34427805073, 7013401.272004478], [238795.0, 7013210.0], [238760.0, 7013165.0], [238873.684761818, 7013060.9348149495], [238850.0, 7013025.0], [238778.70415647922, 7013052.698218652], [238733.72420992464, 7012975.60958832], [238901.86666666667, 7012859.622222222], [239022.75594298006, 7012829.088453596], [239138.59135569382, 7012741.116755516], [239294.26894999752, 7012781.261104075], [239355.0958020112, 7012711.589380261], [239593.04347826086, 7012702.391304348], [239650.0, 7012645.0], [239662.01986754968, 7012676.423841059], [239735.61877576396, 7012629.041974351], [239838.5, 7012623.5], [239940.10096629092, 7012527.207313147], [240210.8911918032, 7012473.802072623], [240282.33661075766, 7012538.102949682], [240675.51178422847, 7012514.581298687], [241145.64503480052, 7012346.450348005], [241080.0, 7012265.0], [241042.33086819015, 7012257.466173638], [240984.26227458613, 7012153.626197098], [240618.08219178085, 7012146.780821918], [240235.91117233332, 7012192.7805308355], [240129.2991608718, 7012226.955800834], [239908.4532461831, 7012214.082971563], [239833.38108387255, 7012145.773314551], [239684.65147353575, 7012281.162868384], [239580.0, 7012255.0], [239448.29544949828, 7012155.406273239], [239263.7609563102, 7012184.661402678], [239208.43007915566, 7012145.329815303], [239270.83345698862, 7012085.169968354], [239154.7562971538, 7011965.941279789], [239073.18087318089, 7011929.241164241], [239000.9090909091, 7011978.636363637], [238933.5294117647, 7011956.176470588], [238880.0, 7011995.0], [238894.5, 7011880.5], [238949.4642857143, 7011825.535714285], [238896.28205128206, 7011763.846153846], [238907.92598967298, 7011705.283993116], [238749.26428058228, 7011612.7814232735], [238709.05339805825, 7011638.567961165], [238650.84277620396, 7011598.54815864], [238675.0, 7011560.0], [238631.68997507615, 7011551.767515924], [238551.42857142858, 7011280.714285715], [238580.38225260106, 7011193.853242197], [238386.1003314076, 7010978.930094185], [238337.7672459189, 7011027.022116903], [238265.0, 7010910.0], [238325.7594936709, 7010887.215189873], [238753.57442014155, 7010527.465826091], [238732.47251675808, 7010472.527483242], [238809.75601960366, 7010307.826550181], [238935.7358660061, 7010300.851530518], [238952.79171615202, 7010258.780433492], [239086.41027135073, 7010231.333908729], [239082.82671434112, 7010174.781619768], [239208.75, 7009973.75], [239175.0, 7009940.0], [239204.2, 7009914.0], [239141.09339049336, 7009850.379891396], [239251.72217009246, 7009485.60322708], [239184.96544574984, 7009429.9585349], [239252.39130434784, 7009363.043478261], [239289.2712805285, 7009178.908618608], [239048.50416016483, 7008982.165279945], [239024.1649851234, 7008990.278338293], [238812.68549365798, 7008774.828775085], [238780.0, 7008805.0], [238856.93879262157, 7008731.528898826], [238937.24392593108, 7008533.211584592], [239127.75768902505, 7008515.107261172], [239322.68560263744, 7008593.142378852], [239463.02009542342, 7008498.966416072], [239701.02871478358, 7008475.91175873], [239716.5606250412, 7008426.799630777], [239637.27633999707, 7008338.300390623], [239675.0, 7008250.0], [239646.42857142858, 7008208.571428572], [239704.41917212025, 7008191.258940429], [239707.70391061454, 7008127.586592179], [239865.80578094602, 7008027.6657932], [239939.15254237287, 7007835.677966102], [240047.2123212968, 7007781.901775971], [240099.97902005576, 7007688.709392562], [240233.39447807978, 7007745.0], [240277.86555569476, 7007672.048615462], [240241.92307692306, 7007623.846153846], [240453.79565368587, 7007381.039941719], [240428.65227272728, 7007327.638636364], [240213.92397851212, 7007323.784795702], [240139.5167069175, 7007235.100986614], [240065.55555555556, 7007250.555555556], [239944.87394326506, 7007180.519443923], [239925.71557155714, 7007237.439243925], [239803.33333333334, 7007171.666666667], [239726.36363636365, 7007248.636363637], [239500.0, 7007365.0], [239446.5345899897, 7007308.036729527], [239303.91489759652, 7007231.87599023], [239154.43385977377, 7007356.579734964], [238986.36363636365, 7007437.181818182], [238940.78900859258, 7007397.089727761], [238880.0, 7007485.0], [238748.18181818182, 7007477.7272727275], [238687.7693401258, 7007509.062103019], [238517.75281818712, 7007413.390750967], [238444.62599301126, 7007521.149782521], [238335.23721916872, 7007496.390723556], [238238.80952380953, 7007484.285714285], [238178.64392104346, 7007632.31066819], [238137.61252865897, 7007600.112568151], [237895.60611914107, 7007699.001631854], [237833.24468085106, 7007866.046099291], [237776.0391077894, 7007857.351830238], [237756.21291329982, 7008036.868197928], [237650.17270999745, 7008244.102554087], [237532.97060881736, 7008216.871938419], [237441.29015061262, 7008273.687330829], [237382.33111023292, 7008147.863291004], [237255.58531074604, 7008198.761021543], [237085.60353897518, 7008191.66588549], [236751.2302878296, 7008233.529336678], [236722.48207663783, 7008195.9270704575], [236636.2139975976, 7008187.609419668], [236603.81091285954, 7008219.652432029], [236456.85600726068, 7008177.437642788], [236242.29535737692, 7008272.021004916], [236067.94212971436, 7008217.057870286], [235803.33333333334, 7008481.666666667], [235720.0, 7008445.0], [235594.7266185379, 7008530.162623347], [235505.0, 7008390.0], [235552.28051391864, 7008320.471092077], [235507.35294117648, 7008257.647058823], [235552.9012345679, 7008207.901234568], [235493.31497139673, 7008142.575529583], [235757.23297547214, 7007806.91756132], [235684.11745809324, 7007705.5468189325], [235760.14197965252, 7007596.269832726], [235683.12340870037, 7007420.642367804], [235722.3076923077, 7007268.846153846], [235620.0, 7007315.0], [235527.7755511022, 7007220.410821644], [235482.05287796227, 7007220.111599042], [235476.71488350467, 7007051.247352379], [235539.16666666666, 7007004.166666667], [235492.5, 7006957.5], [235786.38888888888, 7006711.388888889], [235755.0, 7006680.0], [235822.0588235294, 7006646.470588235], [235861.47081241445, 7006686.712303202], [235991.7997800536, 7006554.533644924], [235755.07005273827, 7006283.102871623], [235771.1556860125, 7006118.032138338], [235823.72761011592, 7005976.46688265], [235816.52543689712, 7005898.520277429], [235909.12832206936, 7005808.692517551], [235988.82352941178, 7005825.0], [236151.8512449448, 7005619.010314399], [236276.08913611772, 7005569.2113357615], [236351.95589680935, 7005394.365277318], [236053.24453376816, 7005034.582523446], [236179.16666666666, 7004964.166666667], [236126.70731707316, 7004911.707317073], [236055.0, 7004706.12244898], [235839.02274032624, 7004450.620616122], [235810.52189931757, 7004272.574065685], [235682.86641168484, 7004149.675263516], [235715.0, 7004110.0], [235651.0, 7004046.0], [235845.81029161764, 7003791.298323186], [235971.19785127882, 7003742.877004623], [236065.0, 7003660.0], [236094.00900900902, 7003676.486486486], [236085.3448275862, 7003610.344827586], [235942.59426956062, 7003416.211010493], [235810.0, 7003315.0], [235790.0, 7003335.0], [235880.39963370652, 7003204.217786559], [235877.14285714287, 7003003.571428572], [235999.0764260584, 7002946.556507705], [236071.74985320022, 7003049.1250734], [236160.12358040304, 7002959.260432464], [236218.77518868615, 7002971.2581519745], [236237.13655208767, 7002870.303069192], [236371.6786849655, 7002755.329017084], [236420.0, 7002785.0], [236470.0, 7002705.0], [236530.0, 7002805.0], [236613.1674164894, 7002788.670545656], [236594.8706208732, 7002681.4556448795], [236682.94336502688, 7002571.775527078], [236790.0, 7002605.0], [236811.93573179792, 7002548.85939828], [236951.80505415163, 7002475.902527076], [236980.0, 7002505.0], [237040.0, 7002465.0], [237084.44444444444, 7002509.444444444], [237161.92567567568, 7002448.682432433], [237223.33333333334, 7002475.0], [237213.06614785994, 7002428.79766537], [237333.15789473685, 7002292.894736842], [237394.7493224932, 7002330.785907859], [237469.88443448205, 7002305.675755958], [237619.95203400808, 7002414.142735758], [237697.19679251587, 7002385.0], [237773.3704735376, 7002468.370473538], [237872.8260869565, 7002411.739130435], [237836.87319884726, 7002357.80979827], [237927.30640553535, 7002258.1851606965], [237883.88888888888, 7002136.666666667], [237955.0, 7002024.375], [237958.19229263638, 7001904.390740085], [237887.9727212365, 7001820.996624737], [237959.34077760516, 7001727.420259026], [237936.71972007107, 7001678.440207972], [237973.57142857142, 7001561.428571428], [237906.62704302862, 7001388.235511173], [237973.4225791154, 7001355.925924622], [237953.20512820513, 7001189.743589744], [238021.09640518733, 7001071.9800701225], [237945.0, 7000977.142857143], [237945.85488751117, 7000879.853259419], [237782.24845000973, 7000684.8261555275], [237995.9509202454, 7000530.582822086], [238059.07841552142, 7000581.240905416], [238164.1493374601, 7000519.14933746], [238241.35763886294, 7000529.454234742], [238330.72648813995, 7000473.688224611], [238254.23796289286, 7000360.762037107], [238255.79477461232, 7000179.792209594], [238372.8744939271, 7000092.8658183925], [238515.91078159938, 7000168.109336881], [238583.4141172307, 6999975.0], [238671.94328182554, 7000000.719505286], [238769.07925112714, 6999939.25493714], [238846.1345495217, 7000013.974938635], [239067.7032223918, 6999992.712167484], [239208.89703142465, 6999909.156005465], [239520.20058488313, 7000082.986013187], [239620.0, 7000035.0], [239716.6693391536, 7000131.669339154], [239874.26363706667, 7000115.048729885], [240353.21043910156, 6999592.524764122], [240415.0, 6999590.0], [240226.71966731898, 6999401.719667319], [239987.44961401256, 6998868.106911964], [240008.86466545617, 6998838.486220608], [239925.0, 6998710.0], [239979.028340081, 6998628.431174089], [239725.0, 6998490.0], [239740.0, 6998386.462830443], [239812.44051322906, 6998272.793187599], [239662.89931054885, 6998109.733792967], [239627.14905234188, 6998132.410108704], [239427.20318237453, 6997912.068543452], [239482.07886177514, 6997739.302825356], [239376.8918918919, 6997662.162162162], [239413.88888888888, 6997606.666666667], [239256.20018396573, 6997445.737668411], [239314.67348927876, 6997373.786549708], [239145.9715569413, 6997175.306822381], [239175.66666666666, 6997128.0], [239125.0, 6997090.0], [239138.61802286483, 6997013.836583725], [239229.0, 6996946.0], [239205.0, 6996920.0], [239463.79310344826, 6996888.793103448], [239560.0, 6996985.0], [239759.42132529573, 6996999.064706937], [239795.0, 6996919.5055387905], [240150.1997336884, 6996554.866844208], [240201.51515151514, 6996596.515151516], [240364.44139601022, 6996420.1934414115], [240420.53050933313, 6996581.049665688], [240535.0, 6996660.0], [240502.99863500727, 6996722.004777474], [240600.50987757352, 6996786.966061755], [240724.83961987708, 6996589.768532461], [240814.10484417254, 6996638.963029188], [241101.88661341678, 6996470.07806852], [241167.5748894924, 6996498.847319932], [241248.71698113208, 6996459.679245283], [241259.5829555757, 6996493.694469628], [241311.53846153847, 6996435.0], [241358.46153846153, 6996445.0], [241402.99751758378, 6996382.796855606], [241292.32845475725, 6996166.735716602], [241390.5404275287, 6995998.02444228], [241235.47445255474, 6995891.3503649635], [241107.95577847125, 6995980.234055401], [241030.61403508772, 6995923.859649123], [241136.69491525425, 6995830.508474576], [241125.0, 6995770.0], [241000.5926323086, 6995666.327193591], [241003.50857460796, 6995250.137824699], [241100.0, 6995155.0], [241158.39806111174, 6995198.956939112], [241273.5, 6995088.5], [241199.54328803197, 6995054.701996768], [241188.58650887813, 6994884.461654672], [241292.8307094109, 6994716.610483455], [241200.5820743583, 6994572.471991185], [241267.9081632653, 6994487.636054422], [241338.61145953706, 6994504.790223754], [241420.72037510655, 6994358.427437865], [241324.05614128587, 6994156.3113749735], [241236.97658812566, 6994047.44688868], [241272.91100953575, 6993983.185601114], [241277.86079336278, 6993739.860958164], [241201.8973732626, 6993621.82523398], [241056.09060402686, 6993536.72818792], [241062.58711448335, 6993493.468743031], [241000.55627846453, 6993501.014964216], [240868.6776156822, 6993299.894153988], [240929.61538461538, 6993244.615384615], [240803.70767244592, 6993125.334836127], [240797.5971448242, 6993055.99336876], [240662.75299640687, 6993024.953357], [240398.57142857142, 6993143.571428572], [240352.5, 6993097.5], [240260.0, 6993165.0], [240034.04761904763, 6993114.761904762], [239853.76203602768, 6993274.294203307], [239723.35101893806, 6993176.789091169], [239496.67474557305, 6993232.479379453], [239183.0453134633, 6992959.651919285], [238995.3443050492, 6992958.324965678], [238886.90476190476, 6992921.904761905], [239044.6283823815, 6992737.316872823], [238979.0650406504, 6992610.325203252], [238995.0, 6992560.0], [238949.5185568195, 6992532.711134092], [238912.63992068107, 6992349.984833683], [239023.33333333334, 6992258.333333333], [239060.0, 6992295.0], [239271.27906976745, 6992076.279069767], [239255.94827586206, 6992060.948275862], [239600.0, 6991825.0], [239568.9769820972, 6991667.608695652], [239698.678133944, 6991483.664117051], [239837.86986831913, 6991509.2757552285], [239944.1633019291, 6991430.777707779], [240002.22222222222, 6991472.777777778], [240090.6598639456, 6991277.074829932], [239990.42355986283, 6991060.21788161], [239825.0, 6991043.076923077], [239730.1739920139, 6990862.758128689], [239780.0, 6990805.0], [239813.33333333334, 6990831.666666667], [239869.04477522356, 6990763.820538984], [239799.68085106384, 6990715.319148936], [239885.0, 6990630.0], [239823.82352941178, 6990553.529411765], [239830.54128888279, 6990407.726109016], [239920.0, 6990375.0], [239975.09960159363, 6990448.466135458], [240155.0, 6990270.0], [240135.0, 6990190.0], [240221.66666666666, 6990133.333333333], [240217.03674005056, 6990019.766614503], [240329.12978079738, 6989981.519463526], [240420.31049151524, 6989853.627410182], [240284.25084688773, 6989806.397551598], [240327.6233119792, 6989696.483140972], [240469.49491930663, 6989586.180514047], [240425.0, 6989525.0], [240452.6923076923, 6989487.692307692], [240451.6530250566, 6989318.921901514], [240481.07175246597, 6989278.932782058], [240479.52156980112, 6989096.54482084], [240561.99251889501, 6989037.905288865], [240654.97709526288, 6988905.363872983], [240727.83018867925, 6988672.075471698], [240838.66279069768, 6988529.57641196], [241013.33333333334, 6988591.666666667], [241094.1150442478, 6988510.884955753], [241079.92101834787, 6988431.846719967], [241257.10144927536, 6988237.028985507], [241328.6600640839, 6988223.3920769], [241387.38115095912, 6988293.857381151], [241700.47884091694, 6988196.347790927], [241770.0, 6988115.0], [241794.23076923078, 6988139.230769231], [241765.0, 6988240.0], [241852.65312701484, 6988263.491295938], [241921.52844738401, 6988384.848779398], [242090.0, 6988555.0], [242236.36363636365, 6988518.636363637], [242300.5357142857, 6988454.464285715], [242475.0, 6988560.0], [242481.33275726438, 6988627.321527509], [242641.3691909335, 6988884.526435594], [242764.44966734527, 6989034.067624885], [242673.5997789991, 6989140.872210912], [242756.56013671943, 6989228.074617747], [242686.29051579357, 6989361.350576064], [242699.53367875647, 6989431.269430052], [242815.0, 6989425.0], [242840.0, 6989385.0], [242953.9559028752, 6989428.934805928], [243053.24361189414, 6989408.843775575], [243144.43181818182, 6989491.931818182], [243282.05709429007, 6989445.1518968], [243468.57642087544, 6989578.550052162], [243544.57641626592, 6989521.56881757], [243720.8484520671, 6989594.734539253], [243805.0, 6989690.0], [243770.9735784032, 6989705.1809305], [243810.0, 6989845.0], [243843.4090909091, 6989811.590909091], [243977.895256917, 6989907.104743083], [244055.94411213422, 6989898.07916207], [244245.91454272863, 6990051.071964018], [244314.02189399645, 6989956.3601786615], [244415.6299425031, 6990015.162070282], [244559.93859705524, 6990023.7536166655], [244607.59359945438, 6990052.744253316], [244730.72383552254, 6989922.432523207], [244790.60429934127, 6989909.141488263], [244989.7661233168, 6989725.155917789], [245044.0243902439, 6989746.341463415], [245150.9706680677, 6989621.33187325], [245166.6985174243, 6989343.044423272], [245222.16405960437, 6989359.396494667], [245428.2530565577, 6989261.93819756], [245493.125, 6989321.875], [245553.92081793235, 6989287.21526959], [245677.27898186972, 6989525.348727337], [245712.83261802574, 6989478.948497854], [245861.23875066172, 6989573.761249338], [245994.2857142857, 6989440.714285715], [246030.0, 6989475.0], [246092.00796377915, 6989443.996018111], [246264.2947742263, 6989632.115677321], [246233.79000561484, 6989701.496350365], [246299.23076923078, 6989715.0], [246414.7629035348, 6989821.16560905], [246360.1895998306, 6989849.840940527], [246430.80713301338, 6989972.207663312], [246535.3693963907, 6989970.270702796], [246699.02652559403, 6990071.383070783], [246868.125, 6990224.0625], [246945.0, 6990160.0], [246938.9909533751, 6990098.117606124], [247027.09094059336, 6990073.168937177], [247075.89275191515, 6990178.535651149], [247147.66990291263, 6990116.747572816], [247200.31709504966, 6990149.5677421], [247290.0, 6990085.0], [247509.78436294713, 6990261.306765039], [247558.76325088338, 6990253.90459364], [247598.46442202837, 6990317.602917121], [247643.75, 6990308.75], [247588.4067547724, 6990375.512901195], [247588.84577939895, 6990433.255412067], [247531.95652173914, 6990426.0869565215], [247505.0, 6990480.0], [247621.00330802196, 6990552.502067514], [247609.81792717087, 6990638.655462185], [247652.0, 6990687.0], [247670.0, 6990655.0], [247767.25702928012, 6990664.987364392], [247816.06393129771, 6990721.455152672], [247882.7086391628, 6990569.1143323295], [248032.91433808178, 6990432.971492521], [248279.1325950374, 6990560.724125736], [248377.41379310345, 6990518.620689655], [248432.21181084926, 6990620.385587077], [248643.8271954688, 6990688.470873374], [248788.33333333334, 6990833.333333333], [248775.0, 6990910.0], [248735.0, 6990950.0], [248827.98362048907, 6990972.262072175], [248725.0, 6991110.0], [248733.3884184649, 6991212.892652281], [248768.4704677456, 6991256.568031815], [248634.96855752502, 6991406.169930756], [248635.39660686115, 6991480.01824667], [248745.33382305765, 6991496.603873383], [249033.7534270845, 6991868.216624035], [248880.83333333334, 6991985.833333333], [248923.37837837837, 6992028.378378378], [248896.02040816325, 6992068.979591837], [248986.98383312955, 6992245.012723526], [248958.57142857142, 6992392.142857143], [249021.6807511019, 6992518.361502204], [249091.9469988247, 6992543.053001176], [249200.70972462418, 6992659.535719037], [249197.72727272726, 6992743.636363637], [249311.73913043478, 6992756.304347826], [249430.52074139452, 6992841.319505737], [249464.88188976378, 6992818.412073491], [249552.7081003039, 6992901.137063669], [249506.79892887123, 6993042.698393307], [249615.620513874, 6993153.2867364], [249603.763027167, 6993224.499635961], [249785.2949720078, 6993389.901675997], [249910.89567429593, 6993380.831188467], [249964.16666666666, 6993429.166666667], [250009.6603773585, 6993375.037735849], [250050.0624609619, 6993414.68769519], [250040.0, 6993465.0], [250101.2659749188, 6993422.085029048], [250126.54612472604, 6993285.128511656], [250071.94132004175, 6993212.672136209], [250185.1724137931, 6993137.413793104], [250252.0030272452, 6993184.984863774], [250235.0, 6993230.0], [250315.0, 6993310.0], [250329.70085470084, 6993404.188034188], [250385.23227668388, 6993423.660568822], [250416.6974015088, 6993389.459346186], [250526.41791044775, 6993378.582089553], [250602.54892570587, 6993244.046882635], [250688.33333333334, 6993253.333333333], [250813.4219553281, 6993122.242515229], [250835.0, 6993203.333333333], [251029.6875713162, 6993325.345032635], [251054.05230749823, 6993284.883526442], [251169.54719887383, 6993294.999724382], [251294.24552579244, 6993234.14216494], [251369.52705439358, 6993342.061291387], [251504.9919896121, 6993195.868428737], [251593.29998506795, 6993298.737494401], [251690.0, 6993285.0], [251703.75, 6993311.25], [251657.84593082638, 6993326.583201045], [251687.83179984338, 6993478.122604189], [251646.3524590164, 6993615.696721312], [251705.8185914651, 6993722.570328231], [251593.9544101156, 6993901.437686091], [251682.79181550635, 6994022.260785874], [251732.9740463985, 6994174.1327228965], [251527.9893203806, 6994410.963473155], [251582.93103448275, 6994486.8965517245], [251510.21824369722, 6994597.49632935], [251565.0, 6994740.0], [251542.24411722246, 6994762.755882777], [251533.61338468947, 6994938.141550313], [251471.32653061225, 6994905.306122449], [251393.19821949105, 6994975.621602458], [251272.36076622916, 6995228.460446967], [251365.0, 6995282.5], [251355.46948719007, 6995389.871987061], [251493.1081081081, 6995477.837837838], [251365.04350793344, 6995699.77625968], [251421.74067186305, 6995766.940869891], [251305.0, 6995840.0], [251315.13186813187, 6995951.450549451], [251221.25, 6996056.25], [251309.609375, 6996126.484375], [251353.75, 6996128.75], [251311.07263405877, 6996189.408589342], [251169.9812565602, 6996160.037486879], [251108.08390217563, 6996284.470211849], [251148.9022192182, 6996369.242987496], [251085.87112050984, 6996475.709894586], [251319.9212677245, 6996673.671971949], [251231.1469509261, 6996808.97363321], [251114.70835368807, 6996866.710762084], [251251.17647058822, 6996997.352941177], [251306.25278943276, 6996951.489264481], [251470.30819035784, 6997217.99173282], [251511.6744532344, 6997198.852118652], [251641.21045302233, 6997353.789546978], [251603.68204551592, 6997459.7322217645], [251520.08482992076, 6997533.643962599], [251520.68330247383, 6997645.27332099], [251454.03520385132, 6997626.149892821], [251336.89655172414, 6997667.068965517], [251377.80375412817, 6997884.063845067], [251294.00085586746, 6997887.854405929], [251237.56, 6997968.88], [251120.62453197368, 6997992.486343608], [251133.08871815476, 6998207.96270778], [251060.19545036365, 6998278.61123055], [251192.45653144323, 6998408.909333658], [251202.112, 6998488.973333334], [251413.38265345726, 6998579.331841904], [251382.44897959183, 6998722.346938776], [251515.1117952507, 6998778.216961189], [251634.5872930941, 6998907.851580195], [251695.3237410072, 6999054.496402877], [251734.70137116735, 6999055.300027983], [251928.2221854087, 6999255.858386426], [251915.6908100948, 6999271.965502409], [252027.30837757257, 6999291.488258041], [252216.28379581563, 6999441.366312475], [252213.74251497007, 6999575.149700599], [252097.87792975502, 6999761.680501144], [252032.11832749113, 6999774.264706488], [252044.4390026714, 6999945.351736421], [251884.90945975782, 7000231.667081749], [251835.02610315208, 7000221.578312997], [251746.9259902091, 7000329.629951046], [251752.8423506733, 7000516.1439507], [251702.83783783784, 7000561.3513513515], [251715.0, 7000600.0], [251601.7669082701, 7000803.530033089], [251551.25469182277, 7000778.000018384], [251522.7106310341, 7000811.393680617], [251326.94835105658, 7000781.698185701], [251152.76923076922, 7000985.0], [251110.12794709604, 7000987.523001725], [251094.65252891037, 7001161.2170864865], [250985.34842619087, 7001289.112943949], [251023.82049237817, 7001336.914281036], [250866.0, 7001499.0], [250840.0, 7001475.0], [250816.6547277937, 7001550.107449857], [250874.05910875087, 7001586.4192257365], [250950.0, 7001565.0], [250980.0, 7001615.0], [251107.64705882352, 7001572.647058823], [251191.21569829833, 7001622.98712249], [251166.59658477112, 7001500.461454486], [251231.29492558935, 7001391.454233677], [251399.7847365141, 7001425.873294504], [251497.72727272726, 7001346.363636363], [251530.35714285713, 7001364.642857143], [251511.77242074892, 7001383.227579251], [251530.6563241658, 7001475.53610449], [251960.29856790495, 7001968.894077259], [252091.2637987343, 7002090.244551312], [252056.60635598877, 7002232.553077848], [252124.16795976576, 7002310.589348877], [252032.12039795332, 7002502.958268034], [252188.0, 7002767.333333333], [252145.0, 7002810.0], [252225.56407485862, 7002842.7395048], [252296.65621865596, 7002749.238966901], [252386.875, 7002791.875], [252542.15366705472, 7002601.076833528], [252610.0, 7002635.0], [252637.14285714287, 7002592.142857143], [252670.0, 7002625.0], [252753.33333333334, 7002558.333333333], [252857.5158702971, 7002562.5598906875], [252997.73959884996, 7002457.031299088], [252949.66292134832, 7002554.550561798], [253012.72727272726, 7002638.636363637], [253079.03540064095, 7002615.439162546], [253138.0265188587, 7002792.415229096], [253082.14285714287, 7002875.714285715], [253217.93445918025, 7002989.344591803], [253106.42857142858, 7003118.571428572], [253155.0, 7003210.0], [253085.0, 7003320.0], [253121.65379991854, 7003413.624935182], [252917.34939759035, 7003623.674698795], [252856.56565656565, 7003593.282828283], [252675.0, 7003750.0], [253010.7071419558, 7004081.021373283], [253135.14839069248, 7004083.830987878], [253186.60943207738, 7004029.4928986635], [253260.0, 7004145.0], [253330.0, 7004145.0], [253437.39130434784, 7004267.608695652], [253465.2950763912, 7004248.902979731], [253737.3076923077, 7004492.307692308], [253540.28584403137, 7004595.874652196], [253311.0, 7004894.0], [253341.6073766511, 7004930.926630144], [253267.4336283186, 7005062.433628319], [253514.920912103, 7005226.71906718], [253515.0016912334, 7005285.67885691], [253594.36603797568, 7005279.366037976], [253685.0, 7005370.0], [253486.08615167858, 7005481.023594137], [253364.01957404317, 7005523.2093146825], [253104.5384396558, 7005812.635658915], [253222.4269775465, 7005959.5162317315], [253103.34274155291, 7006197.751527216], [252886.82955578575, 7006132.869109067], [252817.81554979674, 7006051.001523802], [252785.0, 7006070.0], [252807.3076923077, 7006092.307692308], [252722.6657165124, 7006221.591348258], [252794.95976009135, 7006270.497230616], [252787.29340491488, 7006316.834723932], [253096.79396936067, 7006522.084046305], [253158.39518899797, 7006476.664753512], [253295.0, 7006680.0], [253229.40702881283, 7006673.666889577], [253027.5, 7006837.5], [252958.45360824742, 7006790.257731959], [252875.19389303483, 7006830.244613592], [252766.75105485233, 7006738.248945148], [252734.31363646724, 7006770.686363533], [252593.45057020505, 7006735.690114041], [252465.8353651457, 7006855.0], [252289.5244419059, 7006681.216913579], [252252.57031807737, 7006758.219910255], [252090.7142857143, 7006792.142857143], [252051.875, 7006766.25], [251962.9354232867, 7006844.807836533], [251650.0, 7006635.0], [251607.89881990405, 7006738.089177485], [251362.74279144953, 7006799.883774615], [250899.63670254027, 7007181.054395152], [250860.4159402381, 7007256.354181055], [250734.6636085627, 7007380.336391437], [250685.52283486922, 7007309.400067547], [250645.66666666666, 7007418.0], [250678.21810986556, 7007502.013657899], [250551.9004918586, 7007564.527318572], [250551.69064758698, 7007623.140787588], [250391.6092600367, 7007661.251172102], [250251.9457021166, 7007527.542043303], [250161.65597158414, 7007521.728241923], [250127.09434546492, 7007466.755569522], [249971.27659574468, 7007395.85106383], [249870.06855040145, 7007554.651402468], [249801.2987012987, 7007525.0], [249710.80864903473, 7007674.854321819], [249486.18721087102, 7007855.863331676], [249544.33114432308, 7007979.693838774], [249647.75553481627, 7008065.904976226], [249814.9079535731, 7008006.800527908], [250035.0, 7008145.0], [250060.0, 7008105.0], [250116.67630108277, 7008162.040778903], [250231.27571153306, 7008087.55795412], [250425.58668017248, 7008297.746267961], [250416.24233366194, 7008379.695805783], [250628.83129490062, 7008410.13679422], [250737.766573296, 7008350.148459384], [250785.0, 7008460.0], [250750.74146783448, 7008495.678042888], [250809.02298850575, 7008554.827586207], [250531.8866322551, 7008863.197677418], [250478.57142857142, 7008826.428571428], [250276.1313123677, 7008863.002343514], [250236.79611650485, 7008892.669902912], [250185.0, 7008855.0], [250157.65771604632, 7008874.511864605], [249963.43640789622, 7008834.460526677], [249716.12637747562, 7009116.763527294], [249651.8049254583, 7009108.856448639], [249619.19143073997, 7009149.569284448], [249439.98072123728, 7009222.548196907], [249356.37272834263, 7009301.372728342], [249290.0, 7009235.0], [249137.4091313112, 7009307.909067823], [248898.47007530718, 7009173.343242172], [248818.69734283863, 7009086.957226182], [248740.68784508904, 7009141.468232366], [248767.9963152351, 7009222.78539824], [248686.48049569508, 7009370.174996412], [248540.0, 7009335.0], [248470.58823529413, 7009404.411764706], [248370.0, 7009335.0], [248320.0, 7009355.0], [248298.1081081081, 7009425.054054054], [248078.6992385716, 7009594.400060986], [247964.09258931942, 7009486.900800834], [247847.4383687965, 7009577.561631204], [247889.66741701856, 7009627.025542041], [247756.16474357666, 7009825.784784256], [247558.84955752213, 7009843.230088496], [247556.23830302307, 7009929.154114524], [247679.8139465045, 7010011.594468053], [247575.13009685368, 7010355.145593501], [247661.04016064256, 7010499.285140562], [247614.35541675307, 7010646.9773715595], [247660.11735564037, 7010702.962722326], [247682.22222222222, 7010802.777777778], [247639.01724199863, 7010771.5231112335], [247565.36943555274, 7010805.848649812], [247518.6827033219, 7010759.776632302], [247390.3385357699, 7011058.713377735], [247264.11578037232, 7011293.744751755], [247240.0, 7011255.0], [246835.0, 7011657.037037037], [246734.51348000532, 7011969.12569133], [246548.07692307694, 7011955.384615385], [246496.27031019202, 7012040.212679084], [246453.46153846153, 7012006.153846154], [246334.07916875687, 7012095.690623432], [246284.74791103645, 7012063.222630813], [246157.5227415999, 7012118.94265034], [246085.0, 7012350.0], [246162.20426157236, 7012451.508082292], [246122.12845233438, 7012485.509103978], [246119.14594455954, 7012687.567118947], [246275.0, 7012854.07124682], [246275.0, 7012944.615384615], [246333.28699106257, 7012944.960278054], [246499.31025579112, 7013054.3523316905], [246539.1672008538, 7013042.89076387], [246580.65213279583, 7013137.281343324], [246661.9024357997, 7013192.018093387], [246639.07413591584, 7013264.391384204], [246837.3126183819, 7013479.394786688], [246924.69072164947, 7013516.18556701], [246872.85714285713, 7013629.285714285], [246830.0, 7013615.0], [246678.03062266076, 7013763.374957468], [246680.93023255814, 7013825.0], [246506.57269941422, 7013952.183145376], [246452.2670025189, 7013892.833753149], [246349.53586558814, 7013880.890972309], [246209.86486486485, 7013784.594594595], [246187.5, 7013717.5], [246090.63490876817, 7013731.637443404], [245980.88562259864, 7013826.277280697], [245813.2238362885, 7013794.797454904], [245776.065496499, 7013867.298331828], [245665.21739130435, 7013779.782608695], [245525.71198869954, 7013919.2880113], [245552.34133886988, 7013986.012008305], [245524.83801295896, 7014040.982721383], [245599.7634889688, 7014020.741463991], [245609.22673066446, 7014220.8065781575], [245956.23486142186, 7014339.971984058], [245573.64708660037, 7014730.7920689685], [245523.00668351058, 7014863.807403613], [245389.32094392958, 7014809.371620898], [245236.47520435968, 7014810.251226158], [245196.08326000886, 7014870.426979987], [245282.12772073457, 7015038.616837797], [245221.29878774102, 7015162.685543273], [245131.57123770154, 7015170.370605391], [244943.7061316858, 7015107.886345242], [244910.0, 7015145.0]]]}}]}