{"type": "FeatureCollection", "crs": {"type": "name", "properties": {"name": "EPSG:25833"}}, "features": [{"type": "Feature", "properties": {"station": "122.11.0", "name": "Eggafoss", "series": ["1001.1"], "nodes": 6556317, "fine_vertices": 25946, "fine_area_m2": 655632150.0, "reduced_vertices": 1169, "reduced_area_m2": 655632149.9999992, "outline_tolerance_m": 20.0, "windows": [[510, 444], [1198, 1242], [2437, 2840], [4836, 5433], [9162, 10619]], "placed_on": "number", "distance_m": 3.9230484972591015, "uncertainty_m": 30.0, "elvid": "122-62-1", "objectid": 10788924, "lake": false, "confluence_near": true, "reach_up_m": 1000.0, "reach_down_m": 130.0, "reach_fork": false, "seeded_by": "river", "lake_rule": null, "lake_number": null, "lake_name": null, "lake_distance_m": null, "node_offset_m": 17.460543343786703, "chain_nodes": 106, "lowered_nodes": 34, "lowered_max_m": 1.920440673828125, "direction_ok": true, "end_extended_m": 0.0, "end_closed": true, "downstream_checked": "whole", "a0": 655.6317, "area_up": 655.6294, "area_down": 0.0002, "swing": 3.50806710534449e-06, "largest_step": 0.0016000000000531145, "largest_step_at_m": -10.0, "checked_up_m": 24.142135623731065, "checked_down_m": 28.28427124746213, "drains": false, "monotone": false, "causes": ["chain_not_draining"]}, "geometry": {"type": "Polygon", "coordinates": [[[302540.0, 6980545.0], [302410.4048401554, 6980429.626531222], [302392.2582924502, 6980309.573710756], [302275.95852449856, 6980278.958295852], [302118.39156067866, 6980453.391560678], [301900.0, 6980235.0], [301701.7305236271, 6980166.947637293], [301734.4081304831, 6980097.507722723], [301575.0, 6979907.967661171], [301625.8084733937, 6979840.922932538], [301545.43694636296, 6979763.013086706], [301594.46336910874, 6979686.994867009], [301363.3051007155, 6979423.823875586], [301383.79396984924, 6979312.56281407], [301245.0, 6979110.0], [301265.0, 6979080.0], [301158.81656804733, 6978961.50887574], [301153.7166849072, 6978863.368417074], [301373.3172476204, 6978558.711861673], [301290.76160676253, 6978519.44759346], [301290.4411764706, 6978464.55882353], [301196.6631533883, 6978403.4691399215], [301121.6171339398, 6978427.285998597], [301071.36363636365, 6978203.636363637], [301105.0, 6978170.0], [301055.0, 6978060.0], [300975.0, 6978030.0], [301002.7419354839, 6977973.548387097], [300935.0, 6977960.0], [300998.6328333009, 6977744.023897656], [300850.2, 6977586.4], [300696.4437261395, 6977498.930632643], [300486.9928531256, 6977427.876591619], [300349.02424721094, 6977109.349498141], [300326.39130434784, 6977094.260869565], [300238.5173904777, 6976865.512729949], [300337.80389761104, 6976704.296840365], [300254.7590361446, 6976482.008032128], [300380.2681164148, 6976416.818374758], [300361.99500059517, 6976307.011665278], [300230.2743598413, 6976307.942383697], [300055.0, 6976180.0], [300076.7021276596, 6976154.680851064], [299955.063913471, 6976059.936086529], [299903.45220538945, 6976069.280734683], [299839.5200126001, 6975990.309959049], [299856.77969142445, 6975934.21600287], [299658.06451612903, 6975793.387096774], [299598.08857005445, 6975805.382285989], [299254.35794101324, 6975469.30570143], [299183.441563132, 6975508.061878849], [299034.7757847534, 6975338.340807175], [298978.2277330389, 6975359.537221579], [298780.0, 6975115.0], [298596.9990104898, 6975100.758027949], [298494.2537313433, 6975001.044776119], [298555.0, 6974940.0], [298535.0, 6974880.0], [298764.6207175807, 6974607.289971549], [298748.36553204537, 6974413.405397117], [298800.2526635606, 6974461.006029822], [298895.2803738318, 6974333.08411215], [298890.39823008847, 6974273.0088495575], [299465.0, 6973660.0], [299427.43234013487, 6973584.256595236], [299457.643941564, 6973512.918934403], [299395.0, 6973475.263157895], [299395.0, 6973434.0], [299501.0426472284, 6973426.761085685], [299514.0059603698, 6973372.188605061], [299307.34316799097, 6973258.812700693], [299366.49686472275, 6973174.614586829], [299302.96226415096, 6972997.962264151], [299386.53846153844, 6972877.692307692], [299387.64599963545, 6972749.482476609], [299343.2503233117, 6972588.193433242], [299415.3741886216, 6972470.3741886215], [299375.0, 6972430.0], [299458.1972341126, 6972346.802765887], [299499.3058823529, 6972234.235294118], [299405.9169361805, 6972124.77079685], [299403.00884955755, 6972042.0206489675], [299060.451671759, 6971712.632739578], [298625.52661585074, 6971389.138438581], [298604.2060085837, 6971408.862660944], [298258.45432352566, 6971086.545676474], [298165.025207048, 6971140.17063689], [298082.1223796378, 6971283.53654097], [297949.3194552065, 6971354.319455206], [297875.5728115334, 6971280.572811534], [297584.5601461265, 6971293.693707714], [297546.36363636365, 6971232.2727272725], [297656.47454584384, 6971021.9508539615], [297600.13534416084, 6970986.202629544], [297597.9649460105, 6970881.379089237], [297318.0061957982, 6970889.788289001], [297087.0, 6970726.0], [297050.9888844883, 6970736.651352421], [297022.3187589212, 6970688.774697619], [297078.75, 6970636.25], [296885.0, 6970500.70967742], [296885.0, 6970408.034188034], [296300.0, 6969875.0], [296259.1304347826, 6969875.0], [296086.73913043475, 6969685.405405405], [295865.0, 6969530.0], [295853.9743589744, 6969474.871794872], [295802.5, 6969461.25], [295718.1359764317, 6969330.600781393], [295303.555040444, 6968961.256985743], [295212.6663275495, 6968704.937817754], [295013.88518720085, 6968406.5286813015], [295000.5189893329, 6968062.023024301], [295048.32257053006, 6968006.955802138], [294878.4184874055, 6967737.882384713], [294843.4591706166, 6967559.386097133], [294881.54552581994, 6967466.574583772], [294791.99029126216, 6967338.932038835], [294705.5269100489, 6966997.365449755], [294663.1019187956, 6966791.761090972], [294708.20230429404, 6966668.352620882], [294693.9917506874, 6966637.241063245], [294782.67224995914, 6966462.399562995], [294848.22615287144, 6966382.399058841], [294883.24244966445, 6966266.262583893], [294782.1612787204, 6966080.815636607], [294898.400114482, 6965794.287349743], [295055.0, 6965630.0], [295010.7341628845, 6965558.977923561], [294914.51882845187, 6965496.589958159], [294912.5438768624, 6965165.83317326], [294786.3864024592, 6964950.9991398845], [294635.4628096371, 6964881.165021631], [294575.0, 6964730.0], [294627.7840909091, 6964677.215909091], [294601.851342327, 6964596.752257663], [294503.8461538461, 6964638.076923077], [294400.0921711245, 6964550.328214514], [294447.52427184465, 6964359.1262135925], [294386.38260049064, 6964271.696835903], [294460.15006750444, 6964158.042372001], [294401.22696828574, 6964047.014937579], [294295.0, 6964050.0], [294315.0, 6964020.0], [294230.8090614112, 6963977.4968246175], [294126.9795033087, 6963671.28938621], [294235.0, 6963530.0], [294177.61904761905, 6963456.388888889], [294219.42307692306, 6963398.75], [294155.0, 6963330.0], [294309.97452036873, 6962964.948907576], [294290.1574582695, 6962863.920579792], [294397.4537193946, 6962652.511260345], [294370.79538709286, 6962473.366779908], [294408.8324948947, 6962340.065995916], [294255.23831842194, 6962223.725350472], [294173.65182591294, 6962278.859072394], [294025.0, 6962150.0], [294058.05263157893, 6962064.736842105], [293882.2262732288, 6961844.736211391], [293763.55191256833, 6961795.0], [293680.9463051459, 6961696.951287662], [293685.0, 6961480.0], [293638.8064516129, 6961399.161290322], [293673.3333333333, 6961395.0], [293612.57678991713, 6961268.653639526], [293538.70075560483, 6961212.714954281], [293627.80240767513, 6960621.203907814], [293599.69992766454, 6960580.383258884], [293645.0, 6960480.0], [293528.77987517125, 6960430.243568275], [293668.6724996298, 6960180.7933194395], [293616.1173005733, 6960099.825780731], [293825.544244623, 6959847.3551920215], [293860.37105673633, 6959752.59489492], [294052.71176336287, 6959623.667520739], [294102.3663561991, 6959464.807382876], [294256.4147286822, 6959378.5852713175], [294294.15174870455, 6959395.280073169], [294403.222869751, 6959201.517774529], [294519.56655125436, 6958894.2325731525], [294598.1204379562, 6958798.083941606], [294596.46907216497, 6958711.469072165], [294475.0, 6958590.0], [294543.57761473744, 6958424.921591981], [294539.89159810223, 6958222.62206474], [294589.8484848485, 6958147.2727272725], [294507.7778081773, 6958018.826727097], [294492.0546473237, 6957762.88204102], [294428.15789473685, 6957711.578947368], [294416.7046944663, 6957623.16024128], [294575.0, 6957320.0], [294547.5290340346, 6957266.6740072435], [294603.9721914469, 6957077.787170396], [294483.5452793834, 6956973.265895953], [294389.0420429926, 6957013.846394776], [294275.3479123269, 6956707.147609315], [294441.2068965517, 6956286.551724138], [294474.0028017018, 6956079.670021791], [294358.7377387713, 6955941.636551368], [294387.0, 6955832.0], [294369.3176733781, 6955686.375838926], [294395.0, 6955640.0], [294355.0, 6955600.0], [294393.1000972591, 6955426.753945316], [294563.4028695028, 6955278.180088287], [294808.3663799935, 6954882.473986281], [294962.41764294443, 6954391.390519694], [294952.6693350404, 6954196.876729194], [295144.1508353906, 6954025.994781804], [295214.9808429119, 6954044.003831417], [295215.2119460501, 6953995.70327553], [295305.0, 6953945.184549356], [295305.0, 6953815.517241379], [295446.91728057596, 6953707.349611357], [295485.7619013115, 6953724.7521918705], [295571.53846153844, 6953623.461538462], [295620.0, 6953705.0], [295765.7144701524, 6953614.36414889], [295750.8902828648, 6953484.453532342], [295976.2291951161, 6953240.262971128], [296126.6666666667, 6953288.333333333], [296316.1629429404, 6953133.45673016], [296360.0, 6953165.0], [296477.0588235294, 6953112.05882353], [296555.5407415008, 6953190.5407415], [296673.5668675468, 6953067.079513297], [296842.29597388464, 6953053.161044613], [296949.441435812, 6953157.111712838], [297025.3414762124, 6953140.192272966], [297167.4117647059, 6953278.294117647], [297202.1338667465, 6953416.527656805], [297174.67548316653, 6953632.284081957], [297205.0, 6953770.0], [297316.1111111111, 6953924.444444444], [297353.93203883496, 6954096.601941748], [297316.4285714286, 6954152.857142857], [297343.4466019418, 6954178.524271845], [297295.0, 6954390.0], [297470.6733379784, 6954579.046394849], [297416.5870032281, 6954723.40344061], [297305.8848832446, 6954864.108971733], [297365.0, 6954940.0], [297296.74496644293, 6955049.463087249], [297384.5652173913, 6955148.260869565], [297416.2802370835, 6955283.315202823], [297597.24162216095, 6955467.145665825], [297733.9268292683, 6955415.292682927], [297835.0, 6955458.333333333], [297860.0, 6955435.0], [297953.0741521701, 6955528.07415217], [298192.8496157235, 6955661.336522267], [298338.3267774411, 6955896.117033853], [298400.67091765354, 6955866.082228128], [298446.43451756437, 6955913.609785797], [298494.7826086957, 6955851.956521739], [298692.1641791045, 6956010.597014925], [298770.0, 6955955.0], [298842.05717657873, 6956095.715553533], [299002.3592209919, 6956180.42579314], [298999.734460545, 6956245.375660905], [299138.0027678261, 6956281.836384459], [299273.83793570515, 6956450.930543873], [299451.70314462745, 6956529.535081694], [300097.2711845879, 6957157.925254574], [300204.4803362087, 6956857.543501315], [300309.9946638207, 6956735.908929206], [300304.52097645437, 6956674.735650022], [300445.0, 6956585.0], [300570.9749047856, 6956560.479328672], [300673.7254482797, 6956416.229333371], [300725.9509097151, 6956420.906958556], [300810.20295202953, 6956268.9667896675], [300812.99690759066, 6956219.479389091], [300915.0884431647, 6956012.46389226], [301340.0962854569, 6955722.75452291], [301379.19325893687, 6955748.017182698], [301611.92307692306, 6955611.538461538], [301622.2499769564, 6955555.044243709], [301757.9614927859, 6955431.784421857], [301701.2161519939, 6955321.486037183], [301872.1349051759, 6955190.710945151], [301887.591776716, 6955052.055301819], [301828.06091822195, 6955004.846805432], [301743.2695035461, 6954808.709219858], [301700.5263157895, 6954635.52631579], [301660.6060606061, 6954595.606060606], [301681.9767441861, 6954494.186046512], [301772.9747413073, 6954418.354382244], [301705.56334332575, 6954267.863403041], [301746.95769690536, 6954098.083760539], [302287.88096270943, 6953557.119945765], [302467.2755126869, 6953444.469568842], [302540.0, 6953515.0], [302946.01161033654, 6953211.247181527], [303014.9782671689, 6953238.155607071], [303271.32053861633, 6953002.088995512], [303433.1850029309, 6952911.36826228], [303572.54268907825, 6953342.997076992], [303639.1185185185, 6953406.3481481485], [303625.0, 6953500.0], [303701.25, 6953538.557692308], [303700.61346569593, 6953620.607884032], [303755.0, 6953660.0], [303731.5853658537, 6953741.951219512], [303773.9137440758, 6953746.492890995], [303818.21428571426, 6953896.785714285], [303757.5, 6954027.5], [303842.13604727434, 6954188.970836291], [303886.80147688655, 6954184.286721293], [303895.2130805942, 6954590.213080594], [303936.79917909595, 6954631.799179096], [303961.98936099093, 6954933.720887516], [303917.8032860921, 6955320.385699606], [304090.0, 6955185.0], [304115.0, 6955210.0], [304210.0, 6955145.0], [304278.52203801053, 6955214.981803478], [304393.81482708023, 6955191.6794296], [304458.7873067308, 6955225.967778682], [304406.321587626, 6955323.773723784], [304499.84370389837, 6955438.24614138], [304643.0778239111, 6955259.863064922], [304716.7004991197, 6955322.843653676], [304794.4736842105, 6955280.52631579], [304771.153024911, 6955214.964940029], [304830.0, 6955195.0], [304861.52694573725, 6955297.003136214], [304935.0, 6955300.0], [304911.5886287625, 6955350.234113713], [304963.70303797524, 6955523.040410735], [305037.1185063641, 6955626.443823443], [305101.50500514935, 6955550.310137761], [305060.16343650565, 6955486.650274805], [305105.0, 6955425.0], [305082.14285714284, 6955348.571428572], [305134.8001406748, 6955282.749824157], [305079.94493890484, 6955058.338038489], [305001.6666666667, 6954970.0], [304975.86044477054, 6954802.610910425], [305011.2642498897, 6954745.924471562], [305152.139938713, 6954775.015321757], [305172.83412962593, 6954617.098396251], [305073.8097832763, 6954544.455053369], [305107.59364722867, 6954445.967353814], [305290.89904067654, 6954450.951012633], [305459.28416563827, 6954647.324083526], [305422.3463438028, 6954756.043192472], [305663.55020892335, 6955075.094851428], [305647.7147239264, 6955130.743865031], [305715.3648843573, 6955208.0944928005], [305698.63636363635, 6955295.454545454], [305749.5468509985, 6955413.978494624], [305829.8, 6955484.2], [305786.87604690116, 6955566.407035176], [305825.0, 6955600.0], [305805.0, 6955670.0], [305866.0126582279, 6955714.17721519], [305849.0, 6955812.0], [305932.7035985328, 6955882.604166722], [305834.4735192729, 6956104.421811344], [305878.5516739447, 6956132.241630277], [305872.7913043478, 6956427.791304348], [305941.6666666667, 6956496.666666667], [305871.85039370076, 6956615.354330708], [305816.77419354836, 6956911.774193549], [305904.101875507, 6957074.902382912], [306009.65581051074, 6957130.51073279], [305985.0, 6957190.0], [306086.98706709506, 6957291.757696526], [306018.34377538, 6957448.84159581], [306063.2514928066, 6957633.292090136], [306136.15287388704, 6957601.152873887], [306171.1111111111, 6957636.111111111], [306063.8888888889, 6957808.888888889], [306120.0, 6957865.0], [306146.3333333333, 6957837.333333333], [306260.0, 6957885.0], [306267.9732510288, 6957993.508230452], [306357.1052631579, 6958086.315789473], [306297.11258129624, 6958191.302982732], [306335.7243382554, 6958265.971376496], [306410.0, 6958245.0], [306538.6620058131, 6958524.032297496], [306651.36363636365, 6958555.454545454], [306688.84737678856, 6958494.244833068], [306744.56219318474, 6958538.626396945], [306856.11716794793, 6958491.117167948], [306888.85, 6958523.85], [307034.89062303654, 6958408.379972062], [307115.6647997306, 6958276.924357903], [307237.7470159828, 6958402.849776247], [307333.32687955524, 6958324.515042505], [307429.2285512534, 6958189.152642109], [307569.1780409721, 6958328.180166957], [307710.58974756574, 6958400.683754057], [307744.92075933213, 6958265.644439771], [307851.6666666667, 6958323.333333333], [307879.0, 6958285.5], [307925.0, 6958320.0], [307908.4269932757, 6958370.295389049], [307951.6111014314, 6958433.944035772], [308032.2727272727, 6958376.363636363], [308096.84548083914, 6958436.385573537], [308083.43571933574, 6958803.667893956], [308175.121607863, 6958866.8622387955], [308135.31540708756, 6958970.476292021], [308180.0, 6959095.0], [308220.3833865815, 6959081.709265175], [308202.4062414525, 6959323.098447722], [308291.63170321356, 6959350.009081355], [308314.28571428574, 6959549.285714285], [308495.0, 6959730.0], [308462.8466861053, 6959826.459941684], [308606.22937906254, 6959979.373721793], [308548.41792656586, 6960077.975161987], [308590.0, 6960175.0], [308638.1818181818, 6960113.181818182], [308710.0, 6960185.0], [308749.61403328733, 6960078.459651734], [308821.1111111111, 6960023.888888889], [308935.31843264773, 6960149.981486466], [309450.3998082, 6959605.155723726], [309570.62233845406, 6959565.311169227], [309630.0, 6959595.0], [309757.2369713849, 6959402.933394867], [310049.62906141445, 6959143.145307072], [310034.09670586203, 6959065.48352931], [310445.9029564901, 6958741.646988465], [310552.2663467688, 6958578.958852083], [310660.0, 6958605.0], [310783.1034482759, 6958529.137931035], [310874.6666453673, 6958557.063122336], [310980.94991380814, 6958663.955878465], [311010.0, 6958615.0], [311040.0, 6958645.0], [311155.10705540824, 6958629.116471034], [311163.265195585, 6958561.787288184], [311405.3304142259, 6958469.899685899], [311463.3774834437, 6958539.966887417], [311505.1754796444, 6958500.058493215], [311621.9672054345, 6958583.032794566], [311714.0991373023, 6958447.878057538], [311683.4162303665, 6958418.416230367], [311791.92363335274, 6958317.985064315], [311826.9044190143, 6958350.0368918525], [311890.0, 6958305.0], [311904.7062302275, 6958361.502884558], [311971.82106531074, 6958391.724707413], [311988.7662785353, 6958297.818676268], [312022.0, 6958327.0], [312113.0655733101, 6958253.397360945], [312192.17862246785, 6958059.673883249], [312309.58904109587, 6958075.0], [312512.84435907647, 6957873.957942922], [312495.0, 6957747.142857143], [312547.5, 6957662.5], [312456.93857085815, 6957571.938570858], [312524.46708279353, 6957509.692026852], [312647.4074074074, 6957492.901234568], [312766.3054187192, 6957411.30541872], [313200.15535486443, 6957778.373783516], [313357.03620810097, 6958019.12579882], [313521.2697197024, 6958083.428125814], [313517.11528049264, 6958230.40405987], [313595.0, 6958340.0], [313562.5, 6958417.5], [313572.1178464078, 6958549.887845348], [313679.67982547067, 6958674.8228945965], [313796.5330539395, 6958626.976865035], [314113.77815067436, 6958965.93726952], [314120.9748609415, 6959104.904592752], [314172.6321585903, 6959170.297356828], [314280.0, 6959175.0], [314309.7300162926, 6959226.777222393], [314264.7826266155, 6959276.044758743], [314178.7156429283, 6959435.229917862], [314230.3777777778, 6959493.066666666], [314213.39285714284, 6959568.035714285], [314303.1673222374, 6959655.125433947], [314233.74514877104, 6959759.974126779], [314337.8928573089, 6959972.751815961], [314745.2247191011, 6960378.337078651], [314739.2972077615, 6960493.769048746], [314801.6794217235, 6960581.874799002], [314927.4772415317, 6960491.152871744], [315000.0, 6960515.0], [315138.8544891641, 6960386.826625387], [315232.3881315921, 6960514.338211515], [315195.0, 6960610.0], [315418.6655817738, 6960816.008950366], [315487.464787581, 6960852.374244864], [315536.56669950637, 6960987.260955937], [315663.0417320773, 6961063.742354422], [315652.69091919996, 6961294.399400298], [315680.5812421507, 6961377.634264264], [315813.6728395062, 6961428.117283951], [315790.0, 6961475.0], [315713.586836046, 6961484.192315345], [315560.274633348, 6961609.364460167], [315440.92902907834, 6961773.397404305], [315462.6033569921, 6961921.9624529425], [315288.7094513638, 6962009.870026807], [315311.25014449644, 6962138.730248075], [315418.7608913964, 6962116.470024945], [315510.66966076725, 6962345.513507806], [315681.21763822343, 6962317.870772298], [315709.0410958904, 6962363.219178082], [315750.0, 6962335.0], [315788.67839194956, 6962458.22707529], [315907.6334673795, 6962518.847390521], [315987.6177024482, 6962620.790960452], [315985.22154574667, 6962739.33536276], [316049.2015537586, 6962805.079844624], [316113.07692307694, 6962798.692307692], [316156.2430768301, 6962876.525282578], [316102.7616024914, 6963057.500108915], [316133.96352235443, 6963084.070392732], [316100.0, 6963195.0], [316064.51905626134, 6963178.629764065], [316000.0779026315, 6963284.523387864], [316175.30988307326, 6963492.3680345705], [315998.9494665144, 6963842.5813791845], [316162.87304321, 6963969.210224311], [316410.07800518686, 6963646.255825491], [316584.6153846154, 6963755.0], [316651.6219181873, 6963611.499526232], [316843.9194369852, 6963682.274914176], [317574.0965147453, 6963183.298480786], [317589.7924305138, 6963048.992333574], [317827.2840383767, 6962872.067322262], [317945.5888242152, 6963187.466070046], [318008.860820333, 6963162.076264888], [318168.47759246896, 6963497.392899626], [318269.6807327513, 6963485.03897314], [318300.70045287645, 6963540.100647199], [318708.2194570136, 6963758.753393665], [318789.07561009156, 6963676.403362471], [318985.8785283051, 6963229.6173843285], [319512.6586959577, 6962711.596904073], [319583.41991341993, 6962746.645021645], [319690.0, 6962705.0], [319715.0, 6962730.0], [319690.6269717345, 6962808.5353133], [320010.82278481015, 6963100.886075949], [319980.18400655466, 6963238.899054027], [320034.5963178901, 6963293.762320407], [320142.2310810612, 6963511.727921119], [320057.8742679356, 6963688.062774524], [320117.63517190516, 6963674.863784606], [320172.21778431785, 6963745.378389741], [320143.7242955065, 6963865.297029703], [320225.0, 6964090.0], [320188.266358485, 6964121.87245463], [320197.3601492454, 6964244.45315806], [320282.2244151939, 6964431.414744005], [320475.89339611155, 6964621.464216348], [320681.4285714286, 6964733.571428572], [320727.67294889607, 6964712.654460716], [320789.7465846277, 6964836.862267212], [320940.1708766716, 6964945.170876672], [320920.4810212917, 6964999.081702249], [320994.55530742125, 6965096.522223053], [320999.2243186583, 6965170.01048218], [321300.0, 6965335.0], [321335.0, 6965330.0], [321347.40769923455, 6965392.038496173], [321466.7251461988, 6965469.093567251], [321540.0, 6965365.0], [321602.56543128897, 6965402.6267628735], [321664.1666666667, 6965350.833333333], [321702.72633726284, 6965431.3962955605], [321867.59312231635, 6965629.528975061], [322083.64124105853, 6965722.320695557], [322249.48397368134, 6965583.17656179], [322269.49485030276, 6965517.945561673], [322529.3059152113, 6965225.147380883], [322645.0, 6964974.0], [322601.3807890223, 6964965.276157805], [322630.9571977535, 6964676.566388363], [322703.54926108377, 6964512.901477832], [322675.2309468822, 6964475.773672055], [322802.3454911453, 6964278.020919995], [322828.20855614974, 6964305.347593583], [322796.4285714286, 6964351.428571428], [322815.31421249476, 6964462.234532415], [322920.9724012256, 6964398.857211463], [323199.2706032952, 6964733.656169388], [323256.0196476193, 6964867.565814966], [323320.0, 6964835.0], [323433.15789473685, 6964911.842105263], [323480.0, 6964865.0], [323798.81355932204, 6965136.186440678], [323871.53846153844, 6965063.461538462], [323913.3333333333, 6965079.444444444], [324047.18913403904, 6964974.688815203], [324104.8222897279, 6964988.485335162], [324362.10526315786, 6964785.701754386], [324437.053241961, 6964800.201194869], [324518.10975609755, 6964725.899390244], [324646.36363636365, 6964707.7272727275], [324740.0, 6964645.0], [324974.7342995169, 6964602.391304348], [325113.68982383894, 6964550.572649176], [325197.7907633489, 6964575.143964435], [325298.818102698, 6964511.422976501], [325364.70943133166, 6964558.206879082], [325600.83557050925, 6964427.422196285], [325685.23269746127, 6964527.967018691], [325994.739371277, 6964242.868826081], [326010.0, 6964125.0], [326043.4541286783, 6964138.381651471], [326245.39065750234, 6963950.383449773], [326346.840996019, 6964051.992428382], [326457.33575937105, 6963969.32645582], [326606.1044786628, 6963944.263680891], [326718.7253401911, 6963808.701318102], [326785.17028586677, 6963842.880516361], [326922.0556918816, 6963747.075700319], [326937.6526107852, 6963702.241947202], [327114.54392199416, 6963526.866257395], [327145.0, 6963386.363636363], [327202.30038022815, 6963322.433460076], [327625.0, 6962590.0], [327477.6759230574, 6962476.099667386], [327580.5637020174, 6962332.685611116], [327649.1855622397, 6962286.207774179], [327796.44824693806, 6962049.631047467], [327781.09929078014, 6961933.90070922], [328044.5492639575, 6961664.003631358], [328080.0, 6961695.0], [328162.2509792949, 6961678.549804141], [328248.7610619469, 6961408.221238938], [328324.3192271685, 6961471.858743877], [328431.8256503251, 6961398.36702101], [328520.0, 6961285.0], [328709.2315493292, 6961410.989214628], [328897.7921628355, 6961248.605595016], [329009.12107406615, 6961353.993379334], [329024.36885060824, 6961588.571823724], [329138.5783109454, 6961536.288772923], [329243.3333333333, 6961687.222222222], [329270.0, 6961645.0], [329317.30825215514, 6961661.102281077], [329337.4386592011, 6961809.73186015], [329459.12248816, 6961888.862133248], [329536.95652173914, 6961786.304347826], [329580.0, 6961815.0], [329722.1457441598, 6961594.49257674], [330030.0, 6961895.0], [330130.2083333333, 6961946.25], [330168.92433086905, 6961913.064859255], [330264.15368711523, 6961912.327911852], [330490.94183501945, 6962144.057059077], [330395.71749764855, 6962218.210103064], [330470.4792778922, 6962311.876357351], [330634.168776272, 6962204.414161865], [330718.330472103, 6962265.0042918455], [330629.7714575587, 6962387.902332698], [330702.6254027651, 6962528.855180574], [330662.5, 6962587.5], [330691.75180812506, 6962626.560281047], [330641.4232800096, 6962704.131216021], [330735.0, 6962870.0], [330715.0531578404, 6962960.817385701], [330937.77777777775, 6962957.222222222], [330990.0, 6962995.0], [331150.14238969557, 6962939.298202133], [331450.7022738938, 6962602.225919734], [331523.3333333333, 6962698.333333333], [331566.6666666667, 6962671.666666667], [331694.9138949113, 6962764.962599822], [331763.893129771, 6962742.557251909], [331989.9980496136, 6962898.890583253], [332079.75409836066, 6962844.75409836], [332110.0, 6962875.0], [332157.6456144827, 6962810.170203633], [332306.57200034155, 6962859.610602232], [332353.149589133, 6962826.510481302], [332509.0053895196, 6962964.1218185155], [332634.8434999211, 6962988.059500462], [332542.28395541414, 6963114.268009387], [332715.13698561734, 6963437.997140475], [332731.8181818182, 6963624.409090909], [332695.0, 6963660.0], [332750.3912295787, 6963734.630266552], [332628.5731296707, 6963856.278229449], [332685.0, 6963970.0], [332635.5469183787, 6964088.897834537], [332730.0, 6964245.0], [332816.9166969766, 6964172.163435474], [332921.1269113981, 6964240.694405622], [332990.0668902062, 6964398.731031562], [333160.2372983296, 6964242.247177692], [333280.736000882, 6963965.835333054], [333432.0, 6964035.0], [333470.0, 6964085.0], [333497.14285714284, 6964057.857142857], [333644.3130692796, 6964065.769519853], [333709.47340698703, 6963909.648937991], [333628.71841155237, 6963855.8122743685], [333633.3333333333, 6963705.0], [333545.8381531711, 6963653.674212206], [333608.2608695652, 6963560.507246377], [333557.7995326726, 6963529.658501866], [333502.85714285716, 6963567.285714285], [333408.3719293242, 6963454.790199618], [333533.5095255943, 6963357.330967552], [333566.68369462044, 6963260.738925517], [333526.82156133826, 6963120.483271375], [333555.0, 6963120.0], [333515.0, 6963080.0], [333611.0, 6962984.0], [333558.03039800504, 6962816.262927016], [333776.8605226205, 6962601.965652417], [333822.8585264366, 6962671.96463161], [333968.3429572301, 6962642.73094525], [334028.89010884607, 6962585.214410903], [334184.06316992996, 6962660.582392454], [334291.0692119801, 6962559.964770825], [334463.00728554814, 6962666.300285243], [334632.5, 6962717.5], [334597.6818504738, 6962773.63538393], [334709.8039215686, 6962925.196078432], [334677.1487732928, 6962951.164139972], [334724.1908006922, 6962994.12789574], [334532.83728002454, 6963349.88714569], [334655.0, 6963400.0], [334620.71428571426, 6963435.714285715], [334658.44143831066, 6963473.441438311], [334592.10927456385, 6963586.791551882], [334585.40939011826, 6963728.865237648], [334546.9442406456, 6963764.421129861], [334498.6468649046, 6963995.629078821], [334545.43907499535, 6964103.355099666], [334517.5, 6964192.5], [334600.0, 6964165.0], [334692.0972013375, 6964257.097201337], [334732.17250266357, 6964139.712009476], [334836.06263463583, 6964067.28561229], [334940.0, 6964235.0], [335041.97746829636, 6964238.352118121], [335163.6078555591, 6964119.149509028], [335219.89473684214, 6964115.631578947], [335360.0, 6964285.0], [335396.884057971, 6964248.115942029], [335476.46412826516, 6964396.296508258], [335560.0, 6964325.0], [335633.52812169836, 6964352.493167751], [335695.0, 6964470.0], [335714.4454639566, 6964467.839392894], [335691.01734358637, 6964630.349967683], [335547.49819145957, 6964778.006331338], [335607.8758169935, 6964862.875816993], [335541.92307692306, 6964914.615384615], [335575.81913660764, 6965021.699281768], [335391.2185579945, 6965261.494259652], [335283.3751493429, 6965352.19832736], [335298.09683515946, 6965482.686933158], [335157.01425679383, 6965691.838684828], [335248.1641285956, 6965826.14213198], [335036.8621952585, 6965974.489756207], [335000.0, 6965945.0], [334897.94509727275, 6966104.226133763], [334828.2131350084, 6966036.8404911505], [334713.2599824026, 6966221.479318514], [334539.57553721126, 6966090.382040771], [334418.1812031858, 6966167.536440099], [334310.29341455176, 6966080.66527401], [334233.5017445385, 6966091.621494256], [334153.7816134392, 6965988.127704962], [334069.8651246758, 6966185.210773228], [333843.6984126984, 6966457.7566137565], [333884.26174496644, 6966501.700223713], [333780.0, 6966575.0], [333740.0, 6966535.0], [333564.2990076707, 6966678.919432227], [333184.7711498672, 6967248.389652803], [333009.70878835954, 6967562.563452863], [333056.02040816325, 6967701.020408163], [333030.6434997891, 6967881.35532872], [332979.21085759246, 6967968.683713611], [333008.71763371764, 6968029.533169533], [333123.2311532203, 6968023.846318733], [333237.39339674695, 6968221.166293311], [333351.54668166477, 6968263.480141905], [333302.5504163589, 6968471.23432651], [333398.44549816893, 6968611.644163869], [333375.86421070463, 6968737.967617298], [333317.18653981603, 6968846.368833131], [333404.156824425, 6968942.090844492], [333354.917395734, 6968999.603530469], [333393.2393072737, 6969097.694875664], [333516.67461540666, 6969131.201177849], [333488.2803214076, 6969339.678273415], [333696.5322580645, 6969464.274193549], [333717.5, 6969427.5], [333764.3220338983, 6969455.593220339], [333725.0, 6969550.0], [333765.0, 6969570.0], [333752.08858030825, 6969620.501628921], [333869.4728933348, 6969738.735673328], [333927.14285714284, 6969753.571428572], [333913.7480242726, 6969828.142335713], [333739.08377735515, 6970112.115609835], [333787.78093379526, 6970254.436990925], [333708.17713774065, 6970372.129532905], [333855.4172575142, 6970531.670491527], [333755.8, 6970662.4], [333829.20676965744, 6970747.091436344], [333733.23529411765, 6970828.235294118], [333760.19176800747, 6970859.167446211], [333697.75162190443, 6971003.468837668], [333700.0, 6971095.0], [333643.8709533443, 6971080.738936743], [333467.30945210747, 6971356.429148455], [333512.3002159827, 6971433.349532037], [333282.41009763116, 6971885.9692644235], [333303.907473727, 6971963.075799919], [333195.0, 6972170.0], [333234.04761904763, 6972209.047619048], [333019.8378211254, 6972576.419416494], [333053.83920032973, 6972621.536631207], [333044.81106574426, 6972689.811065745], [333071.9584311767, 6972809.614315815], [333008.5111111111, 6973005.911111111], [333115.0, 6973160.0], [333036.7278106509, 6973209.408284023], [333012.68670507666, 6973342.313294923], [332935.0, 6973420.0], [332959.45953787223, 6973520.759752873], [332855.0, 6973810.0], [332828.0, 6974019.0], [332795.0, 6974030.0], [332760.347144824, 6974165.243558644], [332680.4816326934, 6974272.055360712], [332622.0233219451, 6974264.736032958], [332585.3497841787, 6974309.49837261], [332506.25942641485, 6974317.7751962645], [332338.6165830614, 6974536.661926303], [332344.54545454547, 6974717.7272727275], [332436.8048229856, 6974799.684727382], [332447.53246753244, 6974916.688311689], [332517.16697434685, 6974957.234226005], [332485.86954811955, 6975159.13045188], [332455.0, 6975190.0], [332532.2553940176, 6975200.766108455], [332606.50989188004, 6975594.185670516], [332502.93477050675, 6975681.76727777], [332538.22961868887, 6975786.770381311], [332495.0, 6975830.0], [332529.8241294396, 6976021.306718232], [332505.0, 6976040.0], [332573.2608695652, 6976158.695652174], [332579.5596868885, 6976271.382909328], [332540.0, 6976315.0], [332455.3092783505, 6976284.226804123], [332427.60869565216, 6976353.478260869], [332485.0, 6976440.0], [332247.77606348664, 6976669.571053767], [332175.0, 6976650.0], [332177.52045417967, 6976590.769326778], [331940.0983957219, 6976531.720855615], [331872.1023687528, 6976422.289749712], [331814.8214285714, 6976503.452380952], [331640.98827750795, 6976502.064739939], [331560.0, 6976555.0], [331505.6531204644, 6976511.277213353], [331508.125, 6976463.125], [331453.4388452773, 6976415.731830843], [331343.3333333333, 6976491.666666667], [331285.23803344247, 6976434.054988566], [331192.86898839136, 6976480.630182421], [331009.4593536601, 6976370.40515854], [330990.0, 6976325.0], [330892.2723841368, 6976358.863807932], [330733.8839231287, 6976304.03962708], [330500.8535069761, 6976137.340668974], [330399.6997536782, 6976104.660051685], [330306.6915422886, 6975999.353233831], [330029.16271873994, 6975873.301006572], [329978.77907556796, 6975911.872328293], [329684.23529411765, 6975642.176470588], [329403.6950673403, 6975767.81751239], [329100.0, 6976085.0], [329006.6666666667, 6976111.666666667], [328956.3151724499, 6976066.704087507], [328879.0, 6976130.0], [328800.0, 6976115.0], [328271.2590511918, 6976592.768131356], [328371.0908549894, 6976723.108455053], [328280.0, 6976845.0], [328097.0178799456, 6976727.865744832], [327801.37681319565, 6977053.985750299], [327707.52884921536, 6977008.370322824], [327451.6666666667, 6976986.666666667], [327422.4360953969, 6977006.54345513], [327175.1633272338, 6976915.13214578], [327085.73024543654, 6976837.1297113085], [326960.0, 6976855.0], [326920.0, 6976815.0], [326886.6666666667, 6976848.333333333], [326755.09803921566, 6976809.901960785], [326693.07692307694, 6976871.923076923], [326580.0, 6976855.0], [326485.9246972257, 6976894.999425031], [326445.74781081016, 6976856.706005599], [326247.91024682124, 6976843.059835453], [326097.438752784, 6976794.487750557], [325954.34917017724, 6976674.739021851], [325842.7542051847, 6976696.682672688], [325780.7227940002, 6976649.112572086], [325480.17448746227, 6976686.534080495], [325375.08196721313, 6976595.983606557], [325117.79015416524, 6976621.855450171], [325027.8448275862, 6976542.5], [324940.0, 6976525.0], [324916.8858072248, 6976578.263139874], [324671.8471733895, 6976599.831364197], [324649.77366426564, 6976538.528539795], [324551.4954806902, 6976447.087099425], [324422.44978898874, 6976569.5312147075], [324299.45164132776, 6976423.121801493], [324018.73609678115, 6976315.360854198], [323814.0, 6976329.0], [323680.0, 6976245.0], [323552.7593741154, 6976293.29746317], [323295.1905534868, 6976072.05973987], [323287.1106260927, 6975984.72180197], [323130.05997778807, 6975968.929495797], [322943.01697699836, 6975815.716791788], [322898.23529411765, 6975843.823529412], [322839.28571428574, 6975808.571428572], [322773.2430278885, 6975830.58565737], [322625.9077041036, 6975719.455377538], [322550.0, 6975765.0], [322531.1189855144, 6975725.023623209], [322605.044411547, 6975629.333826795], [322505.9547262131, 6975513.167917519], [322320.8918074166, 6975425.628831657], [322422.6422712555, 6975367.823623706], [322513.09523809527, 6975201.904761905], [322442.76951672864, 6975156.6914498145], [322538.2686241853, 6975000.748756691], [322510.98664474883, 6974958.740825251], [322272.70612355287, 6975022.85602461], [322066.7060777095, 6975208.308541928], [322077.40020484856, 6975376.1259593265], [321951.9563080503, 6975527.17857931], [321860.0, 6975565.0], [321777.10526315786, 6975515.263157895], [321541.0250485478, 6975860.563132245], [321495.5452055256, 6975977.821662901], [321283.63345100055, 6976238.578180592], [321186.30266225367, 6976164.587278745], [321090.0, 6976325.0], [321000.0, 6976285.0], [320930.08508180454, 6976302.094669311], [320981.16883116885, 6976416.688311689], [320935.49155798287, 6976577.834465389], [320834.4826391203, 6976669.82919027], [320753.03588381695, 6976691.882663327], [320639.95152363065, 6976785.625504258], [320681.93616479344, 6976892.568800109], [320610.03944706067, 6976877.579864539], [320454.91315789474, 6976907.155263158], [320390.2987886621, 6977022.216609192], [320327.7626106027, 6976974.474778795], [320355.0, 6976940.0], [320297.2031926381, 6976927.28470238], [320223.56543550326, 6977034.282717751], [320302.25270167936, 6977177.848186891], [320233.0, 6977238.0], [320265.0, 6977270.0], [320163.01799772726, 6977452.081102386], [320065.0, 6977480.0], [320045.0, 6977550.0], [319971.4035087719, 6977623.596491228], [319921.6548026095, 6977594.126011152], [319775.51334975817, 6977664.271022393], [319657.5159235669, 6977676.656050956], [319665.0, 6977724.0], [319584.06263060425, 6977712.678951799], [319503.01370058494, 6977589.883052693], [319425.0, 6977640.0], [319440.0, 6977705.0], [319232.2577757696, 6978025.5997645445], [319220.87729907554, 6978406.852478102], [319048.023387117, 6978446.215276906], [319011.45760040596, 6978493.1298711775], [318846.6255265423, 6978416.808104803], [318806.6811279826, 6978480.010845987], [318770.9113291817, 6978442.370756257], [318652.0921361227, 6978484.52566704], [318548.9024390244, 6978404.146341464], [318516.83865327155, 6978534.8524732245], [318440.98465905455, 6978626.056796931], [318431.484655346, 6978677.926994266], [318240.0, 6978865.0], [318157.41296518606, 6978882.442977191], [318114.0, 6978725.0], [317978.25405671936, 6978753.442590011], [317693.937512883, 6978488.530967261], [317688.64013911947, 6978382.761209888], [317635.6918045603, 6978381.688110486], [317507.9992364817, 6978637.537821201], [317438.11351654865, 6978582.454066195], [317415.0, 6978500.0], [317480.3829565599, 6978403.872695042], [317429.1715250913, 6978344.81098458], [317441.6666666667, 6978263.333333333], [317368.6, 6978172.0], [317390.2692478861, 6978087.187360926], [317320.92982019007, 6978025.06062458], [317290.0, 6977925.0], [317174.2689713749, 6977867.390219178], [317081.19916008215, 6977995.490102104], [316997.84919576684, 6977961.424597884], [316860.4557521878, 6978244.997953807], [316763.11274578306, 6978296.60091692], [316625.64188915613, 6978205.777002405], [316612.5806451613, 6978088.225806451], [316527.5, 6978097.5], [316517.2346368715, 6978050.279329609], [316422.5, 6977972.5], [316469.0, 6977894.0], [316415.0, 6977840.0], [316483.28048170137, 6977777.409558441], [316444.11341822246, 6977535.465969394], [316358.3494341353, 6977455.618374937], [316339.9591318528, 6977340.618658816], [316275.0856724278, 6977256.894795983], [316223.30052684684, 6977294.667003831], [316104.47232894046, 6977169.258560325], [316154.8814935725, 6977026.716255458], [316044.35339002096, 6976974.568926681], [315955.478960606, 6977088.447091059], [315935.4661073548, 6977280.926134817], [315788.89751534053, 6977245.402480656], [315703.26780314115, 6977401.671214601], [315709.2010216655, 6977468.994891672], [315530.7434932578, 6977677.175695004], [315480.39263531944, 6977657.029095483], [315384.67677598755, 6977835.806065593], [315350.0, 6977815.0], [315270.0983606557, 6977958.016393443], [315115.9464786637, 6978052.879090053], [314891.5402543252, 6977975.895109583], [314840.0, 6977865.0], [314784.76385052106, 6977969.523935324], [314676.60028532764, 6977937.347507562], [314630.0, 6978005.0], [314580.0, 6977975.0], [314516.2944836884, 6978043.620497485], [314312.1077159883, 6978069.230517339], [314111.22417855985, 6978186.22417856], [314025.02913913905, 6978181.122430257], [313966.02548421605, 6978245.032286131], [313897.26034366805, 6978249.155724237], [313827.93339280406, 6978207.804044008], [313765.78265896864, 6978268.9986127075], [313724.4272076372, 6978157.929594272], [313675.0, 6978195.0], [313620.0, 6978155.0], [313567.8154864926, 6978210.16743171], [313517.7272727273, 6978176.363636363], [313454.19565420126, 6978228.292921757], [313414.77490073093, 6978187.22110982], [313332.0683453237, 6978205.089928058], [313350.0, 6978085.0], [313448.0288383145, 6978050.316510983], [313523.35896076943, 6977929.230646925], [313445.0, 6977790.0], [313531.9254996878, 6977610.23456926], [313330.5583542622, 6977298.47461642], [313177.4900428235, 6977132.567309688], [313173.27219605894, 6976987.943158973], [313192.65228079207, 6976930.836228621], [313078.23529411765, 6976891.470588235], [313045.1539338654, 6976825.307867731], [312943.9733298179, 6976844.295221388], [312848.45637583896, 6976776.543624161], [312733.5294117647, 6976803.823529412], [312678.1731864793, 6976763.675058326], [312515.5, 6976949.5], [312327.1833759435, 6976801.532651966], [312301.347826087, 6976658.0869565215], [312216.3413654618, 6976681.341365462], [312198.5576923077, 6976663.557692308], [312045.71726262383, 6976781.898707417], [312007.8322644302, 6976888.7873507645], [311920.0, 6976945.0], [311879.1304347826, 6976904.130434782], [311610.0, 6977095.0], [311590.0, 6977075.0], [311217.9504509276, 6977282.716341221], [311145.99423631123, 6977466.8155619595], [311093.5613068779, 6977430.546167163], [311043.19979307964, 6977453.65444304], [310983.429237427, 6977388.64227093], [311045.0, 6977186.666666667], [311133.1438053669, 6977051.469132295], [311007.6121751965, 6976942.935506101], [310822.04457822733, 6976913.088080743], [310787.8984642115, 6976794.910334737], [310682.67634854774, 6976771.43153527], [310630.42471042473, 6976841.100386101], [310575.71428571426, 6976790.714285715], [310486.5289164895, 6976881.178966773], [310446.2715710567, 6976870.6403662665], [310482.9376198355, 6976776.999154805], [310373.3333333333, 6976688.333333333], [310350.0, 6976725.0], [310243.3764367816, 6976649.00862069], [310200.0, 6976695.0], [310064.87022722134, 6976595.36920045], [309773.54214888375, 6976942.264242515], [309660.9649236479, 6976783.43034459], [309488.44320167287, 6976941.375400802], [309382.87770013214, 6977139.553479211], [309325.7434287956, 6977074.984307571], [309252.26413851045, 6977177.833797341], [309043.75, 6977247.5], [309029.56957299146, 6977275.860854017], [308890.8176317149, 6977308.513026306], [308638.2811870551, 6977515.099130515], [308537.0879639736, 6977502.870974425], [308415.7508512128, 6977755.313776476], [308257.5862068966, 6977872.931034483], [308080.36427384336, 6977883.089201087], [307935.8862324446, 6978004.247973387], [307883.3886232915, 6977977.00953704], [307736.49572649575, 6978101.495726496], [307690.0, 6978055.0], [307630.0, 6978115.0], [307588.5714285714, 6978086.428571428], [307458.38150965475, 6978116.111761264], [307279.5195785287, 6978259.775943671], [307241.2114317359, 6978370.2959808], [306813.1317615835, 6978723.9623537185], [306677.5156691101, 6978881.437445402], [306227.3668875489, 6979221.535302503], [305825.6893384619, 6978926.523041849], [305517.9732613401, 6979184.673887726], [305264.7060140981, 6979479.640435046], [305020.0, 6979675.0], [304872.23668166914, 6979586.483349939], [304764.94868466543, 6979324.043450601], [304683.85131259845, 6979196.942170924], [304585.0, 6979290.0], [304593.4426229508, 6979335.983606557], [304520.0, 6979315.0], [304404.8118590525, 6979416.991463589], [304381.35022186086, 6979601.3891919665], [304156.8181818182, 6979897.2727272725], [304158.41508754774, 6979992.976516034], [304040.0, 6980055.0], [303956.1059087145, 6980010.58107068], [303849.1677416497, 6980046.95730887], [303766.4236826229, 6980165.034464346], [303506.0500970163, 6980288.433078734], [303446.1958652564, 6980193.541654174], [303503.2085010597, 6980115.031485492], [303438.55759541783, 6980032.442546007], [303266.6666666667, 6980185.0], [303141.4375333836, 6980216.005353678], [303049.13073256874, 6980289.1749990545], [302887.31173949305, 6980331.1333527975], [302828.1013558232, 6980393.358678592], [302540.0, 6980545.0]]]}}]}