{"type": "FeatureCollection", "crs": {"type": "name", "properties": {"name": "EPSG:25833"}}, "features": [{"type": "Feature", "properties": {"station": "122.14.0", "name": "Lillebudal bru", "series": ["1001.1"], "nodes": 1689506, "fine_vertices": 11716, "fine_area_m2": 168951050.0, "reduced_vertices": 536, "reduced_area_m2": 168951049.99999902, "outline_tolerance_m": 20.0, "windows": [[471, 491], [1237, 1179], [2536, 2486], [4935, 4646]], "placed_on": "number", "distance_m": 1.4893995563590645, "uncertainty_m": 30.0, "elvid": "122-62-2066", "objectid": 12122445, "lake": false, "confluence_near": true, "reach_up_m": 1000.0, "reach_down_m": 130.0, "reach_fork": false, "seeded_by": "river", "lake_rule": null, "lake_number": null, "lake_name": null, "lake_distance_m": null, "node_offset_m": 12.545658108464703, "chain_nodes": 101, "lowered_nodes": 27, "lowered_max_m": 1.294525146484375, "direction_ok": true, "end_extended_m": 0.0, "end_closed": true, "downstream_checked": "whole", "a0": 168.9506, "area_up": 168.9462, "area_down": 0.0001, "swing": 2.6043115561613607e-05, "largest_step": 0.0033999999999991815, "largest_step_at_m": -14.142135623731065, "checked_up_m": 24.142135623731065, "checked_down_m": 24.142135623731065, "drains": false, "monotone": false, "causes": ["chain_not_draining"]}, "geometry": {"type": "Polygon", "coordinates": [[[277355.0, 6976380.0], [277240.3919862902, 6976304.658118464], [277211.4379402587, 6976257.0668377085], [276954.34662998625, 6976189.152092749], [276942.2950819672, 6976094.461358313], [276877.5038296667, 6976080.4793198], [276885.0, 6976040.0], [276789.347826087, 6975972.826086956], [276698.08459055104, 6976049.7499233745], [276545.5623100304, 6975974.939209727], [276509.2605713173, 6976112.782157671], [276425.43153960665, 6976099.068982991], [276360.0, 6976165.0], [276320.0, 6976145.0], [276248.1818181818, 6976201.136363637], [276142.7730616865, 6976122.079796265], [276176.2, 6976058.8], [276065.0, 6975920.0], [276099.28571428574, 6975885.714285715], [276099.55825777503, 6975642.832612817], [276023.06451612903, 6975585.806451613], [276040.6378029275, 6975533.086591218], [275497.4843571073, 6975018.22512094], [275567.0, 6974916.666666667], [275499.6380294908, 6974840.283210148], [275503.0478879352, 6974710.8280436415], [275326.67076232325, 6974536.301515138], [275140.0, 6974535.0], [275027.5, 6974582.5], [274999.11330049264, 6974554.113300493], [274715.71428571426, 6974560.714285715], [274682.1227621483, 6974527.122762148], [274463.5294117647, 6974538.529411765], [274420.0, 6974495.0], [274360.10422380693, 6974512.169212114], [274235.6483469493, 6974413.519695687], [274193.259740603, 6974439.576833971], [273572.1567407485, 6973841.637969286], [273442.4850204983, 6973838.475244402], [273410.62215188897, 6973885.708332468], [273295.0, 6973760.0], [273277.9689908144, 6973710.92780963], [273142.1486093242, 6973710.821638558], [273097.7080561715, 6973506.496674058], [273133.09775763977, 6973450.212829647], [273163.64139911317, 6973157.705094383], [272991.75978975923, 6972945.895422044], [273057.85714285716, 6972844.285714285], [273001.47252181545, 6972745.894327155], [273143.0225709554, 6972589.868943678], [273004.60784313723, 6972494.31372549], [272999.3863040177, 6972413.795388651], [272913.1521139706, 6972318.483915441], [272824.81481481483, 6972291.543209877], [272813.76593279256, 6972185.0], [272750.27777777775, 6972185.0], [272695.1694465817, 6971961.528260399], [272568.9356923183, 6971916.064307681], [272476.6424593207, 6971723.929234466], [272462.5676391392, 6971541.155792013], [272287.2727272727, 6971275.454545454], [272300.60986472975, 6971192.583637031], [272110.0, 6971035.0], [272088.1070830054, 6971058.7966489075], [271815.6682390146, 6970854.088307287], [271585.62403698, 6970589.899845917], [271575.0, 6970470.0], [271615.0, 6970430.0], [271456.7822872369, 6970215.399507097], [271583.2245297692, 6969978.4542320175], [271255.87528980087, 6969597.582423174], [271308.4825403782, 6969261.384940112], [271256.7938050648, 6969195.119718164], [271214.4044881074, 6968889.823620257], [271259.68646579963, 6968840.825036256], [271191.98363723146, 6968708.482152159], [271557.08703636297, 6968490.2557860175], [271673.7237558866, 6968251.276244113], [271691.8988703604, 6968149.2879236145], [271755.0, 6968190.0], [271755.0, 6968208.482552995], [271856.5762096228, 6968282.576587929], [271993.3333333333, 6968100.0], [271965.0, 6967990.0], [272059.51512508764, 6967812.784140461], [271926.2803128414, 6967683.813286396], [271856.148647564, 6967485.039650052], [271877.0, 6967428.0], [271814.6067006555, 6967309.082301529], [271844.81523965724, 6967241.874362967], [271715.8592118713, 6967116.76072558], [271667.788076073, 6967108.571279713], [271614.8986367634, 6966954.853781882], [271685.0, 6966890.0], [271671.0, 6966848.0], [271767.10182001104, 6966678.677745695], [271849.8829987453, 6966751.784190715], [271931.6418107212, 6966662.768679451], [271934.007138152, 6966437.498843463], [272025.3005085077, 6966395.046527926], [271939.88699479157, 6966000.474818409], [272058.9968034316, 6965915.015837919], [272020.30253105727, 6965859.016407331], [272072.3263753414, 6965788.173039407], [272155.0, 6965780.0], [272113.04391217564, 6965679.880239521], [272061.28365207487, 6965666.352580634], [272070.0, 6965585.0], [272116.51911337336, 6965603.563218801], [272259.2993630573, 6965367.595541401], [272217.5, 6965293.75], [272275.99428819394, 6965067.201111956], [272435.23694293207, 6965049.763057068], [272490.0, 6964995.0], [272522.54523522314, 6965021.272617612], [272650.82734094793, 6964921.454877607], [272628.62441410817, 6964863.301103218], [272820.0, 6964745.0], [272870.0, 6964795.0], [272999.45126729674, 6964595.896384578], [273066.8339048501, 6964373.733180618], [273038.01369863015, 6964318.732876712], [273215.4470729839, 6964124.3156679785], [273230.0, 6964175.0], [273337.1951750818, 6964058.365789901], [273364.43774495024, 6964071.109436237], [273543.23943661974, 6963874.718309859], [273534.22923081345, 6963771.601716182], [273803.8248208711, 6963753.553625688], [273870.0, 6963835.0], [274039.55047662766, 6963809.786539566], [274069.40359977895, 6963664.739202353], [274109.2598779779, 6963611.233839338], [274038.5443037975, 6963449.3670886075], [274074.24678024894, 6963234.540557139], [274128.0905626115, 6963130.2800149545], [274137.808114426, 6962981.702994378], [274273.60681569955, 6962934.5182282515], [274320.8466253271, 6962781.680167748], [274437.29120009224, 6962760.30880217], [274406.98530746193, 6962491.682600522], [274559.1901313279, 6962378.018435194], [274627.32045149937, 6962391.043012796], [274977.25845850626, 6962167.165686575], [275079.11504424777, 6962231.9911504425], [275062.60869565216, 6962311.521739131], [275110.0, 6962355.0], [275167.85084745765, 6962321.583050847], [275165.0, 6962140.0], [275271.95557302155, 6962095.414875028], [275225.7947380952, 6961912.7037509605], [275438.7310754787, 6961850.454495722], [275435.0, 6961740.0], [275507.8106658978, 6961706.180556776], [275582.528171262, 6961598.936425943], [275760.0, 6961685.0], [275800.0686564895, 6961612.903880915], [275860.4837032153, 6961625.65513983], [275978.2201280233, 6961534.636504955], [275981.1371506279, 6961378.914348027], [276070.14745119156, 6961259.253414935], [276095.49607397843, 6961104.6798028825], [276291.21611283993, 6960773.843394997], [276278.2876990529, 6960609.863097158], [276554.70342113986, 6960318.678548326], [276611.04816514906, 6960161.604234669], [276695.9265081425, 6960126.227356143], [276665.70116190193, 6960032.828814826], [276711.19478117937, 6959855.909184302], [276777.1052631579, 6959884.2105263155], [276799.6760816865, 6959794.735317025], [276958.1792676693, 6959650.407754739], [276980.0228670744, 6959395.443164268], [277240.8988270934, 6959117.616463969], [277371.9023838836, 6958900.57975388], [277541.4554221823, 6958745.167023354], [277689.0062893082, 6958775.213836478], [277764.34872478794, 6958676.808793361], [277896.19496745715, 6958608.805032543], [277898.8356662907, 6958448.780801105], [277930.3703703704, 6958467.222222222], [277957.94521950884, 6958396.978083252], [278016.16918947134, 6958401.377227649], [278230.41441117687, 6958270.788552019], [278419.73568684724, 6958029.768440655], [278381.6004700487, 6957959.313216519], [278418.4687346135, 6957870.9330379125], [278520.0, 6957845.0], [278574.0, 6957899.0], [278611.2195121951, 6957869.146341464], [278731.8020526034, 6957950.2508358965], [278780.0973346161, 6957861.351113892], [279050.00056423445, 6958052.660022141], [279102.3296354992, 6958173.81141046], [279163.61755044636, 6958112.788960756], [279248.04270539706, 6958096.287167051], [279330.0, 6958245.0], [279354.75083056476, 6958229.817275748], [279512.38977315585, 6958482.583827339], [279531.85677252105, 6958572.806221646], [279610.0, 6958625.0], [279722.7157679301, 6958528.894976817], [279796.1589723357, 6958567.110526697], [280113.0, 6958263.137144642], [280085.0, 6958140.0], [280177.5687687032, 6957938.071178532], [280291.12087476393, 6958025.866630394], [280369.2412742968, 6957865.724811036], [280414.1904451329, 6957640.809554867], [280517.686773658, 6957435.492529053], [280632.87622109556, 6957525.0], [280756.36758545856, 6957432.1329439385], [280844.8986980973, 6957128.054781984], [280871.95710059174, 6957113.76183432], [280877.75, 6957182.75], [280964.6235263476, 6957087.01317559], [280580.30295649567, 6956655.302956495], [280602.0634450842, 6956533.453694236], [280461.44253817934, 6956328.093725688], [280400.0, 6956315.0], [280360.0, 6956355.0], [280382.71428571426, 6956210.285714285], [280280.5243992334, 6956015.250282569], [280198.608132028, 6955933.596567502], [280257.2683252044, 6955787.585353872], [280330.0, 6955825.0], [280438.9285714286, 6955731.785714285], [280420.0, 6955675.0], [280400.0, 6955695.0], [280285.0, 6955597.391304348], [280247.4887164868, 6955379.304505301], [280319.54545454547, 6955300.909090909], [280346.52582908166, 6955189.650829081], [280435.0, 6955060.0], [280457.9179714745, 6954933.72155037], [280419.84221302357, 6954805.47336093], [280542.74841201794, 6954278.603664732], [280465.0, 6954200.0], [280574.3347427089, 6954013.494533033], [280737.3420919099, 6953637.516005913], [280878.99477233354, 6953537.676371545], [280962.33689710667, 6953579.891264738], [281125.6585488846, 6953298.32223485], [281333.3024118738, 6953134.777365492], [281392.25903233036, 6953147.68364196], [281483.3333333333, 6953031.666666667], [281524.0909090909, 6953057.7272727275], [281640.0, 6952965.0], [281694.0580453013, 6953001.30466511], [281880.21590324905, 6952995.803897369], [282004.33425228833, 6952803.373368074], [282106.2183301638, 6952601.2183301635], [282084.24761291005, 6952519.5969721535], [282216.3333333333, 6952507.666666667], [282430.0, 6952335.0], [282454.9058676353, 6952486.916859], [282413.8888888889, 6952565.47008547], [282448.73941772134, 6952621.081106827], [282314.93292989535, 6952629.0996430665], [282195.0, 6952750.0], [282191.75675675675, 6952832.702702703], [282255.32742396015, 6952966.266568513], [282170.51587301586, 6953062.420634921], [282165.719035649, 6953195.791019196], [282036.75922359386, 6953288.732130627], [281949.9258832115, 6953509.851766423], [281999.28571428574, 6953608.571428572], [281946.2698412698, 6953682.53968254], [281973.0, 6953736.0], [281945.0, 6953780.0], [282108.67269965337, 6953935.0012983475], [282211.3793103448, 6953856.379310345], [282245.91159177176, 6953928.94081309], [282366.0380122198, 6953967.399156617], [282373.3861236802, 6954085.957767722], [282575.0, 6954320.0], [282575.0, 6954395.955392147], [282689.9884219869, 6954580.701199238], [282455.23283365933, 6954874.322183516], [282511.7701582517, 6955145.963828184], [282481.0, 6955186.0], [282541.36363636365, 6955246.363636363], [282345.0, 6955490.0], [282463.38021102623, 6955524.893797514], [282680.45416053286, 6955764.464849167], [282787.7497143573, 6955792.294373442], [282874.09212445974, 6955696.290393776], [283115.7879564327, 6955752.424389115], [283193.76584617957, 6955586.281422887], [283357.3267326733, 6955593.217821782], [283388.8375692521, 6955564.675691424], [283445.5417272227, 6955672.884268127], [283545.3846153846, 6955759.615384615], [283682.7903842281, 6955617.504288373], [283763.80856760376, 6955680.950468541], [283888.8445287707, 6955920.537949062], [283910.57962604286, 6956059.581243627], [283884.3333333333, 6956102.0], [283935.0, 6956140.0], [283905.0, 6956190.0], [283945.0, 6956240.0], [283881.5853658537, 6956366.341463415], [283907.16159927705, 6956492.475783988], [283745.0, 6956580.0], [283774.6551724138, 6956629.310344827], [283762.5770487031, 6956821.979785912], [283648.3333333333, 6956896.666666667], [283705.0, 6956960.0], [283663.82352941175, 6957032.94117647], [283763.7027482525, 6957144.642462105], [283721.25, 6957173.75], [283748.7701612903, 6957204.939516129], [283852.2888039102, 6957131.398280444], [283923.5496235056, 6957130.38644766], [284085.5088262865, 6957067.504011949], [284308.94718603365, 6957063.277528542], [284377.6596758818, 6957129.561487131], [284550.25400326663, 6956973.728460361], [284517.9639688575, 6957025.16386022], [284615.02994810493, 6957134.694911714], [284663.2677165354, 6957247.4015748035], [284600.3792281962, 6957375.184556548], [284633.46153846156, 6957478.461538462], [284589.40112074855, 6957532.3775759265], [284461.33134684147, 6958145.697428912], [284275.0, 6958489.805249633], [284275.0, 6958615.0], [284171.4603535246, 6958786.628218343], [284234.11485560535, 6958804.133098799], [284270.0, 6958978.333333333], [284226.4285714286, 6958963.80952381], [284026.7611751387, 6959356.063662581], [283929.8905574544, 6959469.043777018], [283847.57690128486, 6959479.257979137], [283810.531630982, 6959558.21071147], [283863.6104902157, 6959779.07969728], [284093.2645050215, 6959658.171190818], [284195.45454545453, 6959749.848484849], [284275.71404470806, 6959723.534103509], [284303.2044373392, 6959781.790724862], [284363.3333333333, 6959742.777777778], [284602.8884561869, 6959889.792044429], [284655.45454545453, 6959811.96969697], [284709.23245136824, 6959834.7356364075], [284796.5073823063, 6959698.149242134], [284857.0, 6959724.0], [284913.0, 6959686.0], [284930.00457195105, 6959710.749228483], [285044.0, 6959645.666666667], [285045.0, 6959570.0], [285155.2643556095, 6959488.117651521], [285211.7086263565, 6959611.665788729], [285345.91277391335, 6959539.087226086], [285502.1529190502, 6959700.551049647], [285665.5706709803, 6959727.804784497], [285617.22222222225, 6959802.222222222], [285654.8620689655, 6959850.413793104], [285607.660014167, 6960047.867259198], [285529.5013416464, 6960086.270978294], [285488.24427480914, 6960212.251908397], [285395.0, 6960188.763814982], [285395.0, 6960149.322245898], [285115.6379837603, 6960287.418757057], [285016.5762472143, 6960297.727531823], [285049.3176546333, 6960355.436629716], [284863.07350102434, 6960578.5767219635], [284844.93397680897, 6960753.491373963], [284608.6711164053, 6960986.814874852], [284493.8181818182, 6961160.818181818], [284360.0, 6961165.0], [284320.8108108108, 6961274.72972973], [284253.3333333333, 6961241.666666667], [284139.0427325434, 6961336.364593036], [284039.82352941175, 6961728.94117647], [284082.04098207864, 6961771.6709716935], [284065.0, 6961900.0], [283990.9634266715, 6962030.854070341], [283938.7856449794, 6962011.844164797], [283808.11787072243, 6962134.215100489], [283745.0, 6962125.714285715], [283748.0608365019, 6962186.292775665], [283663.87350123253, 6962185.203878683], [283647.9491577102, 6961986.671240186], [283594.5168107481, 6961991.757999617], [283497.81805622217, 6961837.852700052], [283343.92861110286, 6961950.850810676], [283230.0, 6961965.0], [283180.0, 6961935.0], [283164.7368421053, 6961965.52631579], [283012.2957957332, 6961935.989382857], [282935.0, 6961980.0], [282893.31447141164, 6962099.706774299], [282771.2110290622, 6962320.191653267], [282910.8815669635, 6962456.070047611], [282941.6443026538, 6962652.693975144], [282928.8986929372, 6962693.437691502], [283005.0, 6962953.333333333], [282978.73300190084, 6963189.118292148], [282769.08499345003, 6963370.944432316], [282559.7616487887, 6963313.061674025], [282683.1583529937, 6963492.535482733], [282568.5014104372, 6963676.858251058], [282505.0, 6963860.0], [282525.26501766784, 6963920.795053003], [282467.8454059514, 6964010.838253147], [282400.76923076925, 6964015.769230769], [282093.9063817297, 6964521.615668422], [282140.0, 6964605.0], [282216.1781817737, 6964567.605510899], [282301.2962962963, 6964635.555555556], [282357.83819628647, 6964549.310344827], [282494.0806836683, 6964625.368329779], [282418.5789473684, 6964788.947368421], [282515.5600827326, 6964974.987964319], [282433.2002949668, 6965327.616089931], [282519.7783351667, 6965303.441135311], [282572.95941501076, 6965349.349634382], [282564.1019053563, 6965716.515484676], [282846.65765022277, 6966129.008736366], [283039.3435180287, 6966233.390820872], [282984.40764113126, 6966567.193994223], [282905.0, 6966660.0], [282931.9990706772, 6966790.329306268], [283119.9818305077, 6966797.515396323], [282956.8894830659, 6967131.889483066], [283023.53384573886, 6967198.5338457385], [282846.9798088662, 6967411.862879284], [282761.40905321593, 6967423.281353993], [282670.53571428574, 6967574.107142857], [282725.0, 6967646.0], [282594.95884773665, 6967810.205761317], [282555.8687085796, 6968000.86870858], [282638.7181871626, 6968143.977518091], [282634.6179775281, 6968330.853932585], [282717.70379746833, 6968502.703797468], [282702.4991521978, 6968609.311522332], [282785.4707435218, 6968676.167311939], [282817.2580645161, 6968829.677419355], [282735.0, 6969010.0], [282748.5991961553, 6969120.34667583], [282913.7210756723, 6969299.971857411], [283029.1176470588, 6969374.117647059], [283035.6214119122, 6969492.5018150825], [283141.7642874081, 6969518.379179511], [283218.32439854584, 6969472.211499073], [283295.8096395703, 6969634.883583852], [283255.49491638393, 6969718.4517684225], [283435.0, 6969941.879815114], [283435.0, 6970006.292134832], [283502.9117468281, 6970044.916351403], [283481.0307359515, 6970135.129392027], [283581.8079201422, 6970329.0101187695], [283468.8328895092, 6970470.094348998], [283623.33772776934, 6970783.772537676], [283660.03101463977, 6971135.845812411], [283756.9347193094, 6971248.4435526235], [283618.6448363855, 6971259.025630739], [283491.3232916973, 6971151.462405094], [283394.54545454547, 6971121.363636363], [283411.76470588235, 6971076.764705882], [283314.9766573296, 6971026.325863679], [283170.0, 6971075.0], [283146.6692975069, 6971179.988161219], [282982.8137681785, 6971369.424455107], [282885.0, 6971428.026184573], [282898.22645725816, 6971510.984701043], [282856.7134359542, 6971735.164777845], [282712.87996641453, 6971864.312451572], [282693.7235575635, 6972062.0935105365], [282465.0, 6972046.683490996], [282418.35884648253, 6972206.836647725], [282164.8727655961, 6972377.940086157], [282120.4774998104, 6972348.555005604], [281980.0, 6972525.0], [281950.42188171274, 6972505.281254475], [281854.4605581191, 6972645.892111624], [281654.9209612428, 6972640.986709216], [281626.27182918286, 6972579.18443999], [281573.3425000547, 6972561.6850001095], [281550.4341914547, 6972515.868382909], [281424.2283969208, 6972452.031213566], [281304.61185340525, 6972543.807128641], [281178.1769614644, 6972498.0149297], [281090.0, 6972555.0], [281025.0, 6972540.0], [280965.29411764705, 6972599.705882353], [280795.80504853174, 6972579.29265268], [280710.0, 6972645.0], [280640.9629961648, 6972550.412683965], [280566.5284974093, 6972616.606217616], [280504.375, 6972593.125], [280408.58522253984, 6972724.549869079], [280326.6666666667, 6972696.111111111], [280265.16526694014, 6972757.284745002], [280164.7368421053, 6972729.2105263155], [280019.70828083577, 6972787.078617882], [279803.105244043, 6972925.649115041], [279641.8582109533, 6973099.805464986], [279613.1818181818, 6973329.090909091], [279578.4098841765, 6973344.180616301], [279611.96629213484, 6973478.426966292], [279551.8036261658, 6973514.789017153], [279560.4285714286, 6973654.0], [279525.0, 6973685.0], [279497.70377598476, 6973854.481032692], [279395.76923076925, 6973896.153846154], [279452.4769230769, 6974107.495384616], [279491.7668533754, 6974115.353370675], [279311.1979866781, 6974547.6633727765], [279250.0, 6974535.0], [278946.4117988499, 6974274.324522497], [278621.25, 6974552.5], [278567.19047837215, 6974550.098527474], [278344.3716363028, 6974740.61847318], [278395.0, 6974770.0], [278321.5626303931, 6974920.527413837], [278348.22817126714, 6974961.080041642], [278228.4363436455, 6975024.4057419365], [278265.35167213564, 6975207.282360836], [278220.0, 6975315.0], [278170.0, 6975285.0], [278093.25000334054, 6975393.0402343385], [277895.3409090909, 6975407.613636363], [277883.3439490446, 6975491.592356688], [277774.4647782047, 6975568.543203915], [277715.6856142819, 6975542.460679698], [277646.3157894737, 6975742.368421053], [277585.0, 6975770.0], [277629.4172932331, 6975898.02631579], [277480.45454545453, 6976094.545454546], [277544.33680104034, 6976124.928478544], [277505.0, 6976200.0], [277557.7000190949, 6976313.100057284], [277460.2787036578, 6976366.029229339], [277427.5317557877, 6976546.506351157], [277365.3947368421, 6976534.078947368], [277355.0, 6976380.0]]]}}]}