{"type": "FeatureCollection", "crs": {"type": "name", "properties": {"name": "EPSG:25833"}}, "features": [{"type": "Feature", "properties": {"station": "122.17.0", "name": "Hugdal bru", "series": ["1001.1"], "nodes": 128, "fine_vertices": 136, "fine_area_m2": 12750.0, "reduced_vertices": 4, "reduced_area_m2": 12750.0, "outline_tolerance_m": 20.0, "windows": [[493, 440], [834, 834], [1331, 1534], [2530, 3132], [4929, 5685], [9728, 9180]], "placed_on": "number", "distance_m": 32.96640629756257, "uncertainty_m": 32.96640629756257, "elvid": "122-62-3574", "objectid": 10788957, "lake": false, "confluence_near": false, "reach_up_m": 1000.0, "reach_down_m": 132.96640629756257, "reach_fork": false, "seeded_by": "river", "lake_rule": null, "lake_number": null, "lake_name": null, "lake_distance_m": null, "node_offset_m": 16.716531140176684, "chain_nodes": 104, "lowered_nodes": 13, "lowered_max_m": 0.019012451171875, "direction_ok": true, "end_extended_m": 0.0, "end_closed": true, "downstream_checked": "whole", "a0": 0.0128, "area_up": 546.077, "area_down": 546.0783, "swing": 42661.3671875, "largest_step": 546.0589, "largest_step_at_m": 24.142135623731065, "checked_up_m": 24.142135623731065, "checked_down_m": 24.142135623731065, "drains": false, "monotone": false, "causes": ["swing", "chain_not_draining"]}, "geometry": {"type": "Polygon", "coordinates": [[[259640.0, 6994145.0], [259315.0, 6993820.0], [259330.0, 6993805.0], [259656.40625, 6994112.1875], [259640.0, 6994145.0]]]}}]}