{"type": "FeatureCollection", "crs": {"type": "name", "properties": {"name": "EPSG:25833"}}, "features": [{"type": "Feature", "properties": {"station": "124.2.0", "name": "H\u00f8gg\u00e5s bru", "series": ["1001.1"], "nodes": 6439185, "fine_vertices": 30800, "fine_area_m2": 643919150.0, "reduced_vertices": 1425, "reduced_area_m2": 643919149.9999995, "outline_tolerance_m": 20.0, "windows": [[457, 484], [1255, 1223], [2495, 2422], [4894, 4821], [8758, 9620]], "placed_on": "number", "distance_m": 7.649248065984314, "uncertainty_m": 30.0, "elvid": "124-21-13", "objectid": 11615975, "lake": false, "confluence_near": false, "reach_up_m": 1000.0, "reach_down_m": 130.0, "reach_fork": false, "seeded_by": "river", "lake_rule": null, "lake_number": null, "lake_name": null, "lake_distance_m": null, "node_offset_m": 11.317483693104137, "chain_nodes": 104, "lowered_nodes": 20, "lowered_max_m": 0.7328262329101562, "direction_ok": true, "end_extended_m": 0.0, "end_closed": true, "downstream_checked": "whole", "a0": 643.9185, "area_up": 0.0013000000000000002, "area_down": 643.9356, "swing": 0.9999979811109636, "largest_step": 643.9169, "largest_step_at_m": -10.0, "checked_up_m": 20.0, "checked_down_m": 20.0, "drains": true, "monotone": true, "causes": ["swing"]}, "geometry": {"type": "Polygon", "coordinates": [[[335570.0, 7063865.0], [335514.3630976042, 7063922.224008962], [335420.0, 7063800.0], [335298.27350744756, 7063735.423187218], [335149.1182112438, 7063961.036180441], [335036.69975147943, 7063860.853246787], [334924.0, 7063921.0], [334870.0, 7063875.0], [334729.5227224353, 7063873.618254304], [334690.4399894855, 7063796.0575046], [334652.22222222225, 7063812.777777778], [334601.69668249827, 7063737.37812619], [334459.40497157164, 7063628.241857172], [334395.0, 7063707.5], [334405.0, 7063760.0], [334234.3861024571, 7063963.644955195], [334255.0, 7064053.333333333], [334205.0, 7064044.666666667], [334205.0, 7064102.94117647], [334127.285506572, 7064113.966416023], [334033.7091598927, 7064218.260499772], [333963.907056559, 7064129.164557365], [333939.48968802777, 7063931.183500844], [333865.0, 7063890.0], [333865.0, 7063852.857142857], [333781.97086367843, 7063823.823457294], [333772.9831932773, 7063742.352941177], [333717.0893247714, 7063703.934139179], [333651.1814684194, 7063548.291118949], [333549.3257780467, 7063612.77620198], [333415.0, 7063790.0], [333444.0909090909, 7063825.454545454], [333404.9795431438, 7063843.903754578], [333367.43443931383, 7063767.142009087], [333179.8883516138, 7063618.745724732], [333004.9548895018, 7063625.299203296], [332867.9078847056, 7063450.311677079], [332498.0266644137, 7063695.461317104], [332103.56800149573, 7063453.647810925], [332050.71428571426, 7063315.714285715], [331969.96078431373, 7063355.196078432], [331957.42362968647, 7063510.383529536], [331868.5784068418, 7063560.546622869], [331794.0376007162, 7063561.329453894], [331602.34101382486, 7063447.341013825], [331543.2145417307, 7063478.2145417305], [331454.08227807685, 7063432.654205473], [331414.0, 7063469.0], [331346.90171725745, 7063419.880447062], [331321.5, 7063590.5], [331278.70564618864, 7063615.764136587], [331169.70536368125, 7063441.620859981], [331083.071025329, 7063461.540620588], [330710.23086554976, 7063209.279845994], [330700.17387850274, 7063120.853837334], [330560.0, 7063215.0], [330515.71428571426, 7063170.714285715], [330390.12655424746, 7063250.342020174], [330396.81256344053, 7063311.738074961], [330326.2809587042, 7063378.733128948], [330232.366942913, 7063322.147566914], [330139.32978671504, 7063109.056938631], [330049.213836478, 7063184.245283019], [329545.00072311226, 7062679.999758963], [329460.1830670128, 7062724.3364176545], [329451.98925002996, 7062427.861541905], [329321.36363636365, 7062531.818181818], [329335.0, 7062580.0], [329245.12964563526, 7062654.89196197], [329275.625559549, 7062692.167891543], [329198.275862069, 7062766.724137931], [329120.0, 7062775.0], [329021.3704696144, 7062676.370469615], [328910.4477122038, 7062785.4477122035], [328836.09335296124, 7062721.302619948], [328682.77567520016, 7062852.591891733], [328568.90626373474, 7062845.223317689], [328443.46153846156, 7062492.307692308], [328464.2356747158, 7062470.791622615], [328373.3737470845, 7062170.87149078], [328396.4061009763, 7062078.552349886], [328156.482017022, 7061989.716603291], [327993.75, 7061795.972222222], [327853.52234823216, 7061910.681565488], [327752.85714285716, 7061843.571428572], [327599.9198193312, 7061917.515847733], [327555.77777777775, 7062009.222222222], [327600.22222222225, 7062064.777777778], [327473.88724035607, 7062136.364985163], [327492.3699943308, 7062194.472504252], [327447.55319148937, 7062228.085106383], [327463.3333333333, 7062275.0], [327352.7177944862, 7062240.354685221], [327294.7166666667, 7062271.3], [327210.0, 7062205.0], [327100.0, 7062195.0], [326754.10773823044, 7061937.188581257], [326663.88107277954, 7062041.118927221], [326510.6348246675, 7061922.294773613], [326492.136407816, 7061942.043374021], [326259.94756892556, 7061793.127497464], [326240.625, 7061808.75], [326050.7132867133, 7061764.048951049], [326017.0, 7061809.0], [325862.87891929096, 7061720.291848572], [325786.332961961, 7061583.402896516], [325671.43955276033, 7061704.294199861], [325460.0, 7061525.0], [325363.68459764234, 7061494.171629468], [325319.0188014101, 7061283.971797884], [325350.59604984714, 7061215.596049847], [325297.37681108766, 7061158.09364543], [325229.6026653333, 7061150.762307548], [325089.1379310345, 7061016.206896552], [325141.37040979246, 7060929.414582225], [324825.0, 7060890.0], [324837.9782046467, 7060842.51088689], [324727.6285290993, 7060736.65951076], [324432.27313922014, 7060578.18284805], [324472.4096417826, 7060487.877109252], [324540.0, 7060505.0], [324655.4348275822, 7060408.691965603], [324370.66520186164, 7060217.705844874], [324390.2710055838, 7060156.4532541875], [324326.8918918919, 7060108.918918919], [324305.0, 7060000.0], [324438.24841652665, 7059984.916591263], [324523.6330049261, 7059924.21182266], [324636.0, 7059989.0], [324917.6319144949, 7059707.368085505], [324681.89388319035, 7059589.776466184], [324670.54039352306, 7059495.572271112], [324322.5455103088, 7059292.598787296], [324261.0968065795, 7059172.637594433], [324296.93946235365, 7059126.554848861], [324432.582800873, 7059093.17833682], [324515.365448505, 7059200.512577124], [324695.0, 7059040.0], [324616.4079823628, 7058815.910462473], [324476.36968116404, 7058770.066902534], [324253.63636363635, 7058577.7272727275], [324115.3895365368, 7058540.291441569], [323979.531218623, 7058321.761873442], [324009.91443797224, 7058267.457218986], [323939.3165070265, 7058221.937985038], [323841.3850120747, 7058080.685917468], [323726.16161616164, 7058007.323232323], [323885.0, 7057830.0], [323885.0, 7057760.0], [323975.0, 7057670.0], [323930.38652576547, 7057597.840684375], [324116.3704398613, 7057414.706756691], [323847.1471071576, 7057207.852892842], [323774.4468984814, 7057280.553101518], [323226.9942644156, 7056913.213964919], [323115.0, 7056790.0], [323155.0, 7056755.0], [323122.75743371906, 7056611.378350667], [322938.03668889945, 7056569.125677995], [322868.2185995688, 7056585.864120965], [322656.64122137404, 7056458.282442749], [322710.1902955912, 7056375.866121675], [322601.7226266528, 7056203.046600307], [322734.6012791091, 7056283.661747995], [322913.8876039044, 7056147.079028608], [322811.3974325134, 7055987.046292575], [322931.95417730266, 7055843.817980059], [322860.0, 7055705.0], [322751.2070925194, 7055676.504768841], [322691.1904761905, 7055514.285714285], [322592.7739558783, 7055566.193657181], [322492.5, 7055427.5], [322403.30457004474, 7055414.861297121], [322346.3465376681, 7055315.507569888], [322420.61178401334, 7055245.080141317], [322379.81481481483, 7055218.148148148], [322408.3333333333, 7055173.333333333], [322335.0, 7055100.0], [322405.76069730584, 7055057.543581616], [322412.0588235294, 7054905.294117647], [322583.04545632075, 7054736.961484797], [322644.2105263158, 7054717.105263158], [322608.3606557377, 7054656.639344262], [322634.36634881573, 7054599.929811806], [322602.1375464684, 7054550.121662724], [322691.08570694795, 7054494.857996962], [322733.0253016232, 7054404.358090778], [322802.94150364277, 7054426.554260054], [322965.0, 7054330.0], [322955.0, 7054280.0], [323030.76923076925, 7054225.769230769], [323114.95854141895, 7054284.071211521], [323149.8493405195, 7054253.805189177], [323202.7432660789, 7054269.424411099], [323189.26936607924, 7054144.381327886], [323156.5517241379, 7054111.8965517245], [323173.3333333333, 7054078.333333333], [323383.0352229299, 7054079.071980355], [323418.3203594724, 7054002.675183665], [323290.8490566038, 7053853.20754717], [323308.3333333333, 7053803.333333333], [323194.2741619669, 7053695.097160125], [323031.90476190473, 7053655.0], [322954.1957402002, 7053578.675548838], [322897.1540837545, 7053402.60400722], [322694.69292681577, 7053430.882723656], [322450.4365841711, 7053253.8030394465], [322415.76923076925, 7053106.153846154], [322520.0381258964, 7053066.942463981], [322634.2338521297, 7053160.083572974], [322715.0, 7053110.0], [322728.3333333333, 7053043.333333333], [322780.0, 7053085.0], [322896.53213410283, 7053055.98381644], [322935.0, 7052967.30458221], [322772.3562612983, 7052933.517611608], [322692.12888377445, 7052875.0], [322546.4619883041, 7052900.409356725], [322574.3374417596, 7052841.402505456], [322410.0142158719, 7052727.188024634], [322376.8767777189, 7052599.874332411], [322147.95379537955, 7052497.541254126], [322080.0, 7052515.0], [322072.838427783, 7052350.277454199], [321956.51326532545, 7052234.952143384], [322030.3846153846, 7052154.102564103], [322005.7865616967, 7052116.492496507], [322100.09098486544, 7051997.733793892], [322333.3153716874, 7051823.562838944], [322190.0, 7051605.0], [322151.90692395007, 7051605.0], [322184.0960933482, 7051435.235214474], [322035.866652215, 7051293.615203277], [322111.59981027874, 7051235.875236691], [322458.8474902984, 7051114.1113434285], [322503.81730498804, 7051167.886732725], [322702.02664139186, 7051086.857361898], [322963.43120497995, 7051099.408326959], [323060.7292225877, 7050940.846333393], [322763.3045177538, 7050650.377733733], [322836.44506455417, 7050540.122912701], [322800.8459819726, 7050454.978489461], [322883.5753872459, 7050356.419691515], [322731.3407168817, 7050240.919797021], [322650.01113585744, 7050061.269487751], [322692.93168708106, 7049986.124232463], [322607.28571428574, 7049845.714285715], [322668.7282042089, 7049745.107746522], [322718.9314636535, 7049741.809440768], [322554.54545454547, 7049565.909090909], [322590.0, 7049541.153846154], [322590.0, 7049435.0], [322540.0, 7049485.0], [322287.600104848, 7049386.577148848], [322077.4791292546, 7049513.108846525], [321899.22750409617, 7049350.640594224], [321760.0, 7049275.0], [321533.06249761063, 7049340.250000869], [321506.7663912985, 7049284.341184773], [321441.30386207654, 7049290.714997516], [321341.7241379311, 7049384.655172414], [321220.0, 7049425.0], [321160.3154957478, 7049309.097239639], [321187.3857979385, 7049175.560048701], [321245.0, 7049115.503785673], [321245.0, 7049046.0], [321191.33507853403, 7049050.078534031], [321192.41045870277, 7048987.419535014], [321055.0975650045, 7048905.0], [320996.0, 7048905.0], [320870.35412120866, 7049092.473068315], [320385.3916719558, 7049008.523062833], [320105.495719711, 7048611.636976855], [320004.6160790563, 7048632.473586068], [319918.1257336755, 7048571.709386048], [319715.80331441003, 7048307.274476446], [319678.81711299805, 7048093.817112998], [319505.0, 7047920.0], [319505.0, 7047830.0], [319177.0, 7047602.0], [319078.9695128007, 7047463.139611676], [318877.3159553541, 7047450.535107455], [318827.82608695654, 7047507.608695652], [318846.9271125421, 7047444.379689675], [318749.0055502079, 7047267.257685991], [318833.82352941175, 7047118.235294118], [318756.1275782967, 7047025.818650541], [318732.78570309427, 7046817.127240013], [318666.98086700373, 7046581.934005718], [318714.054353758, 7046506.84359119], [318685.4811443433, 7046371.44343303], [318737.28571428574, 7046307.142857143], [318702.8695798956, 7046262.548680812], [318761.60539919586, 7046175.63141052], [318665.00536022783, 7046035.501588771], [318730.22799699684, 7045986.444962042], [318673.9647026888, 7045812.035949547], [318749.18460666836, 7045781.700955879], [318725.0, 7045650.0], [318780.80152671755, 7045565.597964376], [318749.89361702127, 7045533.191489362], [318795.0, 7045505.0], [318757.0496455497, 7045439.241400923], [318816.17911913496, 7045381.750260529], [318599.55040871934, 7045146.89373297], [318612.6862280182, 7045106.172693144], [318495.0787069539, 7045039.73969071], [318294.0282966378, 7045082.517685398], [318200.0, 7045035.0], [318098.599363282, 7045059.606492692], [317788.91479237954, 7044789.29804589], [317723.97959183675, 7044836.734693877], [317644.9817222247, 7044728.1524197105], [317290.1186071238, 7044429.651973006], [317197.768490146, 7044419.99176025], [317171.04980210756, 7044240.292586996], [317289.33683784876, 7044223.010513546], [317255.0, 7044120.0], [317285.0, 7044090.0], [317210.69832402235, 7043982.122905028], [317242.77777777775, 7043937.777777778], [317230.1676817949, 7043866.2390405685], [317423.3670520231, 7043651.430635838], [317441.3138719536, 7043533.9308098005], [317485.2820776687, 7043478.427986975], [317305.42512077297, 7043308.937198068], [317334.26829268294, 7043236.8292682925], [317255.7257584771, 7043161.518937141], [317335.0, 7043030.0], [317408.7025683903, 7043089.603946213], [317620.59401678445, 7042921.11836897], [317746.9776830209, 7043010.573053339], [317810.0, 7042985.0], [317849.06976744183, 7043037.0930232555], [317940.0, 7043015.0], [317953.4328358209, 7043052.611940298], [318146.42765725596, 7043141.3758873455], [318187.5, 7043072.5], [318285.2, 7043099.8], [318327.0, 7043058.0], [318275.0, 7043010.0], [318317.85302105336, 7042881.44093684], [318467.4331108128, 7042915.035612915], [318500.0, 7042995.0], [318556.7107874562, 7042986.878797276], [318684.90354722994, 7043064.533280191], [318693.0299152019, 7043128.595096369], [318840.16786845337, 7043065.730991138], [318947.07293291733, 7043182.87051482], [319024.54545454547, 7043159.545454546], [319075.2610441767, 7043228.815261045], [319345.68189125817, 7043251.737184847], [319495.8490566038, 7043208.962264151], [319550.0, 7043235.0], [319649.8325502256, 7043181.911943199], [319704.1222631472, 7043271.998334527], [319785.41736115445, 7043228.803643565], [319878.9759090499, 7043284.6977352705], [319920.0, 7043261.666666667], [319990.0, 7043355.0], [320074.77777777775, 7043299.555555556], [320045.0, 7043240.0], [320105.5813953488, 7043172.9069767445], [320209.4791687744, 7043260.047044778], [320526.442831216, 7043410.154264973], [320631.9550969049, 7043328.662275282], [320751.8661761123, 7043524.464643263], [320840.2853392126, 7043570.335204393], [320894.8841110417, 7043447.821048306], [321000.0, 7043475.0], [321161.090760837, 7043380.4520440595], [321260.35188408993, 7043582.398805125], [321348.9276373147, 7043507.214472537], [321489.2645027887, 7043491.31618699], [321486.0, 7043545.0], [321545.7683098154, 7043534.8551625535], [321814.67308329634, 7043711.751159665], [321920.0, 7043945.0], [322135.96404541633, 7043816.135503479], [322201.27854066476, 7043687.55708133], [322233.9534883721, 7043752.9069767445], [322327.0731707317, 7043697.926829268], [322393.13454076863, 7043747.001968336], [322447.4877441356, 7043722.426022143], [322550.0, 7043795.0], [322663.3333333333, 7043801.666666667], [322797.42405614606, 7043751.287971927], [322864.7071313385, 7043797.229618348], [322860.09834384616, 7043887.325295963], [323010.0, 7043805.0], [323087.60294117645, 7043805.0], [323247.25100513245, 7043988.102598339], [323388.00592868536, 7043947.555468618], [323551.08964667533, 7043798.914059211], [323680.2560983536, 7043748.889009928], [323865.28328906023, 7043614.367130977], [323943.0048895951, 7043674.384210565], [324054.6323529412, 7043519.632352941], [324119.6153846154, 7043584.615384615], [324125.87844839715, 7043813.882503956], [324194.88744344044, 7043944.235468762], [324177.2784810127, 7043966.582278481], [324297.07680825616, 7044088.923030214], [324299.6482635797, 7044165.351736421], [324442.313811881, 7044363.560789035], [324540.093708166, 7044316.231593039], [324619.7245246212, 7044439.140027133], [324904.4963381395, 7044342.911806077], [325085.24537520314, 7044193.024425083], [325243.23237601103, 7044370.269711269], [325413.7545309089, 7044426.764570414], [325467.5, 7044497.5], [325428.9675174014, 7044539.744779582], [325468.3333333333, 7044606.666666667], [325439.6875, 7044642.8125], [325558.0138320342, 7044697.752625422], [325680.0, 7044615.0], [325741.76470588235, 7044661.470588235], [325816.38531261095, 7044632.160784004], [325908.07692307694, 7044743.846153846], [325851.1345910226, 7044866.31700494], [326368.15789473685, 7045603.684210527], [326434.71643554175, 7045580.451352645], [326496.955017301, 7045708.9100346025], [326458.9101338432, 7045734.521988528], [326540.23187799193, 7045838.022390172], [326604.985802177, 7045756.999526739], [326857.88882615685, 7045665.17350286], [327047.9745030783, 7045906.799366495], [327130.0, 7046105.0], [327200.0, 7046085.0], [327255.55555555556, 7046112.777777778], [327340.0, 7046065.0], [327486.2170188021, 7046257.359473323], [327543.45213903894, 7046374.815638149], [327599.0522498001, 7046382.673584861], [327839.0227144734, 7046569.497465741], [327868.240293534, 7046551.679022052], [328016.8178500656, 7046641.09399439], [328004.0199245234, 7046739.803506914], [328117.39870856615, 7046914.196327693], [328187.3115356173, 7046890.640757519], [328355.55555555556, 7047069.444444444], [328433.7236875847, 7046995.798654023], [328729.15572889237, 7046989.555261316], [328796.8974347651, 7047018.801655156], [328904.96943064575, 7046859.912113107], [328885.0, 7046790.0], [328946.12518628914, 7046736.684053651], [329160.0, 7046735.0], [329154.91458325594, 7046596.529270459], [329102.7576463757, 7046500.598955573], [329171.1866540138, 7046385.119750683], [329102.62156642415, 7046315.989021712], [329127.0148982887, 7046039.975169519], [329200.1685898015, 7045822.44400776], [329205.48389325704, 7045453.413579739], [329125.0, 7045130.0], [329216.77469387755, 7045106.112653061], [329313.4847519017, 7045036.564688192], [329503.07692307694, 7045045.769230769], [329561.60144596116, 7045105.708463571], [329664.0, 7044945.0], [329705.4392657148, 7044971.456836344], [329833.9539594018, 7044897.916772333], [329902.25837922486, 7044841.405038158], [330208.26086956525, 7044814.565217392], [330310.0, 7044905.0], [330360.2043993998, 7044888.727316479], [330453.25134332513, 7045021.447396203], [330562.069610638, 7045005.040313423], [330660.0, 7045175.0], [330690.87730141106, 7045154.294044936], [330868.4699294779, 7045256.293596812], [331017.63157894736, 7045235.7894736845], [331075.0, 7045280.0], [331037.933716501, 7045368.261267939], [331221.884900016, 7045678.532984051], [331299.55336822046, 7045711.686963858], [331403.51143116126, 7045647.42471548], [331487.5, 7045857.5], [331421.80704912014, 7045949.868686234], [331497.0652633428, 7046222.540830591], [331644.05589159974, 7046259.197957647], [331718.7463976945, 7046395.619596542], [331757.76348826697, 7046367.749872438], [331947.9709897744, 7046493.848431596], [332166.3837182089, 7046530.457683094], [332340.41353383457, 7046402.180451128], [332302.4074074074, 7046316.666666667], [332375.0, 7046210.0], [332350.1541396938, 7046059.164388257], [332505.9601008056, 7045871.359834443], [332479.5755032937, 7045819.992649905], [332562.00218063773, 7045690.295780197], [332784.1304347826, 7045440.869565218], [332813.75, 7045468.75], [332845.9940351704, 7045297.590242324], [332900.7072924702, 7045277.952590044], [332940.0, 7045315.0], [333005.205294609, 7045278.794898156], [333086.8616100565, 7045339.78098427], [333176.0, 7045291.0], [333216.0, 7045331.0], [333265.6938603869, 7045242.132043734], [333341.5180904442, 7045221.327629925], [333523.81304091087, 7045073.851910968], [333578.6653579494, 7045301.168770324], [333690.0, 7045285.0], [333813.9901638788, 7045187.967108146], [334315.0, 7045850.0], [334295.5146579772, 7045957.301235709], [334226.8691037736, 7046052.305424528], [334388.21340061637, 7046480.282295082], [334276.77892090066, 7046592.452446304], [334286.08148464165, 7046657.570392491], [334182.14716908504, 7046736.703872037], [334412.12431016663, 7047189.590293111], [334388.55173846794, 7047313.276077019], [334424.48593800026, 7047398.776855976], [334380.2631578947, 7047457.368421053], [334512.1603701661, 7047678.363595516], [334387.8971962617, 7047787.53894081], [334592.0764071575, 7048121.763492523], [334643.16445024, 7048556.25962628], [334597.5370266025, 7048611.476518953], [334661.3498304848, 7048757.658418091], [334530.0, 7048845.0], [334469.3000560829, 7048996.485276699], [334600.08425356005, 7049191.29348868], [334421.13720942364, 7049440.281643645], [334036.18377765606, 7049630.285093306], [334110.0, 7049755.0], [333740.0, 7050125.0], [333605.8467177607, 7050139.0], [333397.93294513284, 7050224.227322997], [333285.0, 7050210.0], [333301.49052325235, 7050252.452616262], [333184.6911304348, 7050388.270608695], [333272.33260063815, 7050505.166767535], [333524.8245614035, 7050485.0], [333648.8, 7050413.8], [333776.2209707643, 7050493.950701705], [333930.75138604536, 7050660.1270349985], [333795.3104786546, 7050802.794307891], [333916.2623303594, 7050915.340010284], [333883.21428571426, 7050980.357142857], [333908.90239049116, 7051194.819886649], [334036.8007422229, 7051437.128522652], [334036.8550221682, 7051560.256180788], [333895.0, 7051720.0], [333903.72, 7051818.213333333], [334063.89592473645, 7052101.562532918], [334041.01744094404, 7052137.070246857], [334051.1267075299, 7052294.574042394], [334157.30061490065, 7052469.225461176], [334250.0, 7052465.0], [334433.58751407446, 7052637.023964036], [334478.96595744917, 7052610.808154238], [334688.31253303983, 7052842.37748647], [334830.4640553593, 7052887.284202557], [334902.38141289237, 7052971.407277101], [335040.90135410626, 7052906.543833385], [335165.0235613109, 7052753.764725819], [335129.28571428574, 7052731.428571428], [335181.931469416, 7052693.813816447], [335263.3752108215, 7052544.530986473], [335243.91054290015, 7052371.430628345], [335345.0, 7052250.0], [335262.00447214465, 7052167.004472145], [335322.4043186477, 7052126.75539831], [335324.98955331946, 7051958.131655794], [335484.6977738256, 7051657.780064852], [335751.25, 7051738.75], [335785.62441752094, 7051711.612301957], [335727.0249946497, 7051492.425007819], [335747.5, 7051462.5], [335680.80303455464, 7051370.8663713625], [335712.62952556164, 7051301.115081729], [335844.2431480186, 7051197.545888811], [335963.6537779354, 7051233.34929644], [336265.5172367359, 7051535.420296209], [336402.0813659071, 7051649.557927872], [336440.0, 7051595.0], [336443.92084486823, 7051637.6535425], [336625.51959686977, 7051836.28181455], [336601.28377013176, 7051885.502057101], [336744.28571428574, 7052010.714285715], [336708.3333333333, 7052046.666666667], [336818.75, 7052056.25], [336882.3076923077, 7051992.692307692], [336943.92895586655, 7052069.924291353], [336976.0, 7052035.8], [337053.8461538461, 7052098.076923077], [337104.98346889886, 7052066.537141937], [337203.100793901, 7052208.009163082], [337387.9213250031, 7052176.329212448], [337579.2501892263, 7052404.595551163], [337842.2793256667, 7052346.777190765], [337918.7265726365, 7052287.180573576], [337940.28571428574, 7052325.507936508], [337994.0, 7052281.0], [338062.81466199394, 7052324.035794808], [338304.51966855023, 7052232.293101524], [338325.6348075508, 7052266.3652576385], [338584.1758241758, 7052147.197802198], [338710.0, 7052285.0], [338781.22980520915, 7052203.233299573], [338662.36842105264, 7052011.052631579], [338770.64137077704, 7051904.603112744], [338592.40990270156, 7051594.385804867], [338765.72668505163, 7051431.533089012], [338852.2727272727, 7051523.636363637], [338891.5753424658, 7051496.575342466], [338920.0, 7051525.0], [339004.19870102184, 7051407.533570554], [338856.3758686616, 7051147.252861828], [338746.84117691364, 7051086.561049108], [338712.9010687947, 7050958.971292864], [338539.76653304725, 7050851.567396173], [338362.83631369035, 7050566.7592032775], [338319.1445769055, 7050577.488685732], [338165.0, 7050460.0], [338213.795862902, 7050354.537973728], [338140.625, 7050245.625], [338163.8429533071, 7050205.6110804705], [338539.67907522887, 7050153.311577698], [338621.55535719654, 7050190.27617452], [338739.09912822087, 7050141.278488216], [338914.10598078714, 7050123.946389835], [338980.0, 7050065.0], [339013.7315010571, 7050098.731501057], [339228.8576614524, 7049938.926129637], [339609.2482747057, 7049858.908473057], [339640.8569316844, 7049744.938484953], [339525.0, 7049548.805677924], [339626.1386138614, 7049501.138613861], [339665.6136561527, 7049540.613656153], [339837.7681327602, 7049468.376662179], [339972.4946793054, 7049550.124846702], [340274.0595009597, 7049375.0], [340312.5, 7049309.875], [340230.03254898434, 7049189.583027574], [340054.16675965686, 7049133.138585559], [339982.86722235836, 7048940.922066289], [340095.78852961276, 7048837.615371387], [340326.5120593692, 7048971.604823748], [340341.414333467, 7048943.38562386], [340527.4658316212, 7049043.77750125], [340579.87910339923, 7049032.965269035], [340546.4285714286, 7048971.428571428], [340586.3783933266, 7048913.501329676], [340556.8917676436, 7048873.337042412], [340648.29835064436, 7048716.8175370265], [340617.1470816468, 7048665.7143306555], [340755.9323463685, 7048598.463866043], [340869.7631815453, 7048477.579270892], [341041.11675126903, 7048591.294416243], [341121.0291039916, 7048576.162794964], [341314.0997501943, 7048767.87284109], [341486.03926108475, 7048748.191920786], [341830.0, 7048405.0], [341904.0, 7048381.0], [342250.88414824905, 7048073.1043261755], [342320.319086651, 7048042.854215457], [342331.51874630706, 7047961.24836271], [342701.38869313314, 7047629.75325089], [342944.769401802, 7047314.5034169555], [343200.4188480741, 7047219.475233803], [343167.5, 7047112.5], [343205.0, 7047070.0], [343163.6588511137, 7046990.881594373], [343290.0, 7046865.0], [343310.0, 7046885.0], [343582.91485808184, 7046674.325568954], [343380.55555555556, 7046445.555555556], [343425.0, 7046400.0], [343174.9157240637, 7046156.838687918], [343125.7272727273, 7046155.090909091], [343140.8208994872, 7046086.956667404], [343236.4780600462, 7046087.344110855], [343246.2328726865, 7045983.392072991], [343078.0312039594, 7045724.7961574895], [343033.32348842773, 7045551.273286988], [343049.1378526538, 7045401.728455464], [342995.0, 7045250.0], [343080.0, 7045165.0], [343176.31659056316, 7045181.194824962], [343210.0, 7045245.0], [343327.95324525377, 7045015.583147564], [343424.8910752541, 7044939.095618937], [343415.0, 7044810.0], [343571.3855421687, 7044637.831325301], [343635.0, 7044610.0], [343584.02823158196, 7044563.105973056], [343678.46406082006, 7044363.46406082], [343627.18097021774, 7044312.180970218], [343681.20659722225, 7044248.016493056], [343556.4997952513, 7044101.958248187], [343599.0, 7044034.0], [343553.5714285714, 7043988.571428572], [343618.2824427481, 7043877.124681934], [343485.0, 7043670.0], [343560.5882352941, 7043603.823529412], [343550.2988738462, 7043551.013758898], [343622.6923076923, 7043361.524083394], [343601.2322442008, 7043241.493715758], [343797.83042772, 7043029.646354625], [343695.9563324018, 7042913.825329607], [343635.0, 7042730.0], [343691.0493499602, 7042696.370390024], [343668.4181818182, 7042655.127272727], [343742.01812919934, 7042582.495427252], [343792.10185509274, 7042454.3472173605], [343667.0207928305, 7042284.309075031], [343769.0, 7042165.333333333], [343728.8545279104, 7042109.514834129], [343797.2727272727, 7041985.909090909], [343871.1055882412, 7041974.694121909], [344019.7824984621, 7041836.72339237], [343963.14814814815, 7041738.148148148], [344066.9017154304, 7041682.418037733], [344035.0, 7041607.528205128], [344092.36643148074, 7041521.174685543], [344038.5516844602, 7041479.571725943], [344061.4255136986, 7041376.16010274], [343971.84210526315, 7041295.263157895], [344065.6525870178, 7041249.674435826], [344219.6098310818, 7040945.684322194], [344008.09917847364, 7040684.536254316], [343995.58052878553, 7040589.986453704], [343782.60869565216, 7040473.695652174], [343655.63604852685, 7040552.181975736], [343633.4947368421, 7040639.357894737], [343665.0, 7040670.0], [343376.0576923077, 7040901.057692308], [343295.75809199316, 7040820.758091994], [343196.0055096419, 7040785.688705234], [343298.31037580594, 7040627.605147135], [343205.0, 7040520.0], [343231.2076381495, 7040440.059721766], [343303.58412094804, 7040407.076682237], [343133.92081116396, 7040151.079188836], [343211.0, 7040074.0], [343193.3783783784, 7040022.027027027], [343300.2829951675, 7039849.8689428475], [343227.97165490733, 7039624.461019615], [342975.0, 7039310.0], [342962.74816277286, 7039237.714160359], [342782.0, 7039083.0], [342744.2652329749, 7039097.150537634], [342695.56016900204, 7038908.566949322], [342845.33999404457, 7038723.720705949], [342758.63735262863, 7038555.893867651], [342768.26654297864, 7038444.132767403], [342896.58956473117, 7038347.459267063], [342849.2312071998, 7038282.029957316], [343036.7755064116, 7038143.228399226], [343180.0, 7038095.0], [343228.4300544764, 7038199.9237471325], [343498.16640592145, 7038476.702010033], [343663.3128387827, 7038578.608552746], [343993.8461538461, 7038271.923076923], [344045.85273159144, 7038293.014251782], [344372.3119832401, 7038199.16893441], [344597.1158016971, 7037964.688177758], [344579.3525480368, 7037935.82289056], [344735.0, 7037690.0], [344705.0, 7037640.0], [344810.7056103789, 7037527.021599613], [344759.3039378598, 7037442.974288926], [344931.16439887154, 7037259.456392452], [345059.89159671497, 7037234.610961679], [345096.6121842496, 7037270.289747399], [345165.37471040565, 7037184.059037072], [345268.43760942924, 7037276.241756912], [345318.9883932576, 7037463.399056268], [345465.5720338983, 7037398.199152542], [345633.75, 7037507.880434782], [345660.0, 7037485.0], [345733.3333333333, 7037558.333333333], [345779.4372102063, 7037528.994502596], [346016.8321142172, 7037705.587218116], [346226.74624226347, 7037718.023872679], [346364.0, 7037571.0], [346396.0, 7037599.0], [346595.95921968226, 7037464.896235917], [346734.9924031791, 7037657.620425557], [346918.0187320386, 7037561.844570005], [347120.0, 7037705.0], [347210.80097281025, 7037687.095582826], [347388.8933901518, 7037526.526770012], [347443.5113179126, 7037571.631417835], [347493.4485407066, 7037774.777265745], [347634.9918948975, 7037736.997688787], [347774.1304060499, 7037879.468858889], [347920.09537123167, 7037752.333989694], [347990.0, 7037815.0], [348039.0, 7037776.0], [348055.8959980757, 7037860.424246069], [348200.0, 7037975.0], [348254.51612903224, 7037944.354838709], [348289.4029850746, 7037990.870646766], [348392.32552399137, 7037977.817945582], [348517.63426789443, 7038212.244118276], [348703.319692011, 7038177.578075811], [348809.56990623294, 7038086.136103894], [348950.0, 7038145.0], [349004.4262295082, 7038101.393442623], [349075.4768727329, 7038149.171824817], [349150.0, 7038115.0], [349257.2470949365, 7038197.049672203], [349305.0, 7038141.329305136], [349290.3244823266, 7038075.965586697], [349351.2732351867, 7038057.662171066], [349476.34579301934, 7038137.322903335], [349559.28571428574, 7038151.428571428], [349784.1917993901, 7038064.874618773], [349802.10951070755, 7037929.534896877], [349920.0, 7037885.0], [349948.0, 7037803.666666667], [350007.6923076923, 7037843.461538462], [350030.0, 7037815.0], [350138.65567732765, 7037945.522283449], [350292.64705882355, 7037947.05882353], [350307.04545454547, 7037880.551948052], [350379.1392849378, 7037857.797321517], [350420.0, 7037905.0], [350596.9246031746, 7037710.853174604], [350575.0, 7037610.0], [350619.22152228886, 7037579.067715469], [350738.70546208805, 7037327.059230237], [350784.47727088147, 7037330.668218399], [350859.24646100425, 7037258.328659188], [350907.7027027027, 7037293.6486486485], [351004.92472550477, 7037229.523014229], [351135.55555555556, 7037239.444444444], [351250.0, 7037215.0], [351290.96632413025, 7037281.371796459], [351275.76923076925, 7037353.076923077], [351357.0330235495, 7037433.544891387], [351432.98322769196, 7037418.075280474], [351464.1364421416, 7037283.022452504], [351579.23076923075, 7037214.230769231], [351631.22886145243, 7037257.8979406385], [351746.84210526315, 7037085.0], [351800.0, 7037085.0], [351977.8384491115, 7036942.495961227], [352055.46973553754, 7036938.785454777], [352080.503875969, 7036889.069767442], [352180.0, 7036855.0], [352201.53846153844, 7036898.076923077], [352304.18838047714, 7036832.957116726], [352267.7875773097, 7036783.487755915], [352345.0, 7036710.0], [352306.61449478386, 7036599.439860656], [352408.8090807048, 7036563.984058056], [352488.10454025184, 7036586.428462419], [352570.2513586916, 7036530.13385446], [352570.6205651473, 7036297.726062672], [352431.09995585086, 7036225.282669384], [352628.3273616112, 7036076.782918998], [352575.2263575349, 7035994.648949895], [352785.4786571679, 7035788.033570801], [352948.196839868, 7035749.988518576], [353064.22346613376, 7035659.077607395], [353165.8463186742, 7035671.025221715], [353305.182315617, 7035586.080856565], [353352.2222222222, 7035642.777777778], [353553.125, 7035761.875], [353790.43023927975, 7035684.344932447], [353899.19105306524, 7035611.174971774], [354200.0, 7035475.0], [354210.0, 7035515.0], [354288.2089552239, 7035515.0], [354438.53185447265, 7035385.405320775], [354578.0676644386, 7035319.779860506], [354648.26401168667, 7035425.413507149], [354897.2758058741, 7035419.935872245], [355182.8536449638, 7035690.885364496], [355258.7201242015, 7035616.621418672], [355506.3167692849, 7036008.187115606], [355544.7363083164, 7036255.010141987], [355640.0, 7036255.0], [355657.8846153846, 7036296.730769231], [355755.0, 7036350.0], [355725.0, 7036416.0], [355869.0048154093, 7036655.4975922955], [355925.3846153846, 7036627.307692308], [356008.0011155779, 7036774.58067628], [356145.0, 7036822.5], [356251.95546245563, 7036744.497449355], [356405.25963849126, 7036679.740361509], [356595.7686695266, 7036811.70770457], [356676.4711885284, 7036753.653487026], [356710.1641045308, 7036861.989427227], [356770.625, 7036854.375], [356777.8906328102, 7036823.859342197], [357033.95070462243, 7036959.991965501], [357045.0, 7037036.41245849], [357166.4393916828, 7037057.855628623], [357381.1570247934, 7036967.148760331], [357529.8508963024, 7037062.098141346], [357600.81405976985, 7037023.943470446], [357670.0, 7037065.0], [357732.7272727273, 7037017.7272727275], [357800.5956508331, 7037042.492785064], [357923.9782016349, 7036958.978201635], [358005.11363636365, 7036990.068181818], [358087.12000868295, 7036905.920562505], [358250.0, 7037045.0], [358356.42626303725, 7037061.401359327], [358520.9194544384, 7037173.666296108], [358545.65805299126, 7037272.57253903], [358663.7318103026, 7037358.396289608], [358745.0, 7037513.333333333], [358718.51996217907, 7037594.315605448], [358919.28131504054, 7037824.514538372], [358997.51469730004, 7037748.901278327], [358972.85714285716, 7037633.571428572], [359074.9498954901, 7037624.182352423], [359170.97403061314, 7037586.3292789655], [359237.77777777775, 7037632.777777778], [359297.58214811183, 7037612.513487004], [359296.2295989216, 7037578.108207228], [359384.94697451254, 7037540.0071193185], [359409.53371685604, 7037599.5769238025], [359530.0, 7037665.0], [359757.0833333333, 7037649.861111111], [359980.5888874397, 7037423.912873353], [359982.9294415287, 7037118.820365043], [359951.15716752945, 7037058.993308529], [359982.71904569305, 7036902.280954307], [360158.85351710854, 7036727.663798283], [360405.75902975403, 7036780.141823488], [360640.0, 7036995.0], [360919.5701357466, 7037014.230769231], [361147.14285714284, 7037237.857142857], [362071.79708100343, 7036313.202918997], [362265.481767125, 7036466.36863223], [362400.1608947797, 7036473.686031314], [362409.4943820225, 7036790.730337079], [362342.9481165517, 7036920.427650394], [362370.1129676285, 7037109.991302203], [362452.55450073705, 7037348.064282568], [362388.0164123917, 7037469.63074089], [362421.6666666667, 7037686.666666667], [362949.63968267234, 7038214.639682672], [362973.3265890163, 7038327.549084773], [362835.0413369014, 7038409.917326197], [362765.0, 7038510.0], [362979.14634146343, 7038705.853658536], [362500.14300437836, 7039184.777075824], [362517.0696129223, 7039311.308913389], [362481.0408163265, 7039486.040816327], [362391.36363636365, 7039619.090909091], [362365.0, 7039740.0], [362403.75, 7039803.75], [362361.6964254878, 7040155.150784804], [362201.12355338, 7040231.059238223], [362275.43899657927, 7040600.4389965795], [362403.26271186443, 7040728.262711864], [362331.4705882353, 7040934.117647059], [362220.1215494352, 7041041.902393822], [362034.85616051615, 7041072.348576506], [361964.8902907296, 7041014.065825562], [361955.0249932362, 7041228.131209936], [361746.94805194804, 7041448.051948052], [361712.71746847423, 7041636.678217654], [361625.0, 7041670.0], [361608.75, 7041751.25], [361455.1960784314, 7041800.588235294], [361456.17704131844, 7041856.21853076], [361304.0, 7041945.0], [361258.4835164835, 7041909.065934066], [361170.0, 7041935.0], [361116.54135338345, 7041890.263157895], [361010.0, 7042005.0], [360980.0, 7041985.0], [360840.88064870326, 7042195.348038565], [360670.55528508686, 7042219.107351913], [360638.82466015284, 7042366.116400353], [360559.30696936004, 7042434.148525163], [360420.0, 7042385.0], [360357.9052159282, 7042479.938306225], [360415.0, 7042540.0], [360343.9088639805, 7042665.135321138], [360260.9292645202, 7042589.731084339], [360285.0, 7042530.0], [360208.61847720604, 7042489.908307531], [360095.4693877551, 7042590.469387755], [360021.1199964094, 7042601.719224367], [359928.9583333333, 7042713.125], [359843.6294740719, 7042678.4161312645], [359806.65319202485, 7042747.600266531], [359756.0, 7042745.0], [359742.88953731867, 7042883.807835167], [359591.33895195246, 7043016.573861424], [359491.5703996565, 7042910.684083832], [359447.35972402565, 7042913.979628353], [359347.3527095454, 7042800.882167636], [359267.0380964385, 7042806.398282015], [359213.7601408465, 7042884.123283869], [359174.84042553196, 7043039.94680851], [359093.2781008899, 7043008.930704789], [358986.2964652401, 7043093.530039504], [358896.91512105224, 7043118.850927369], [359089.4253865308, 7043465.13243333], [359197.12038293417, 7043534.825252318], [359165.60975609755, 7043599.146341464], [359229.3182329753, 7043675.409862746], [359257.9234340351, 7043668.961717018], [359394.5005730787, 7043856.263756511], [359327.97471273586, 7043882.426053301], [359355.0, 7043970.0], [359254.9269636248, 7044076.421475408], [359498.6878186091, 7044347.0814500665], [359522.5980808111, 7044425.347203944], [359427.9422777747, 7044457.606255357], [359504.387755102, 7044603.0612244895], [359455.95238095237, 7044658.571428572], [359485.0, 7044720.0], [359399.44215263455, 7044792.233264579], [359448.3333333333, 7044896.666666667], [359225.5151833267, 7044898.804238823], [359086.9419537008, 7044778.199334647], [358915.0, 7044905.0], [358724.6812274794, 7044851.797789162], [358733.5, 7044987.5], [358539.5337587118, 7044891.241716011], [358595.0, 7045040.0], [358475.9920146736, 7045066.220058422], [358509.5706106032, 7045175.514092751], [358435.9217493626, 7045301.243381055], [358555.0802536076, 7045536.794402983], [358461.4256979178, 7045646.202643982], [358395.0, 7045670.0], [358432.13242507813, 7045744.724560594], [358320.1886792453, 7045819.905660378], [358168.4650096698, 7045827.422032806], [358217.7600738863, 7045902.5534864925], [358465.1031617826, 7045846.117309684], [358688.75, 7046093.75], [358680.0, 7046125.0], [358635.2334876351, 7046101.6100929435], [358431.7477224604, 7046356.351219295], [358649.0674545837, 7046599.097250377], [358447.07251858135, 7046716.822966133], [358555.6666666667, 7046807.333333333], [358523.9408528198, 7046848.088033012], [358595.7792207792, 7046892.987012987], [358565.0, 7046970.0], [358722.409074904, 7047257.012588959], [358626.4285714286, 7047338.571428572], [358655.0, 7047380.0], [358559.50952209847, 7047476.863097377], [358367.10851557966, 7047408.366039502], [358295.0, 7047480.0], [358341.0, 7047534.0], [358324.0677966102, 7047561.101694915], [358151.2242156785, 7047541.725664608], [358092.1560887893, 7047611.582672862], [358169.6824591025, 7047822.800880659], [358088.3703705927, 7048003.988678888], [358120.9563288921, 7048172.049094046], [358030.650486872, 7048251.743870216], [357955.0, 7048390.0], [358004.23076923075, 7048483.076923077], [357891.338028169, 7048567.746478873], [357835.32651566976, 7048526.874257183], [357733.8998728194, 7048600.969355965], [357619.1948892197, 7048493.058029346], [357499.5304128054, 7048463.972752437], [357436.2499476446, 7048564.265727691], [357560.6544502618, 7048728.481675393], [357445.7788125052, 7048781.377874303], [357376.29215313593, 7048783.330870218], [357288.4999766026, 7048961.359320139], [357205.304899107, 7048908.378311708], [357136.4285714286, 7048938.571428572], [357172.81758957653, 7048991.335504886], [357119.8569013404, 7049049.87682647], [357092.14285714284, 7049122.857142857], [356991.09293749783, 7049062.611781615], [356872.2075737112, 7049257.238806504], [356933.98249510955, 7049364.1447255], [356945.47054884525, 7049499.956881484], [356712.14532636193, 7049691.4317663675], [356783.6316334522, 7049778.943374692], [356800.8143773695, 7049920.1975794695], [356713.2309703933, 7049998.808396377], [356725.0, 7050040.0], [356605.0, 7050160.0], [356567.4090855677, 7050335.690188395], [356396.5824270476, 7050314.836953336], [356255.4472289247, 7050369.35778314], [356190.0, 7050317.0], [356136.4845097711, 7050354.46084316], [356058.9184984584, 7050272.16995001], [355891.3233260913, 7050413.676673909], [355936.1243627094, 7050405.751092498], [356305.0, 7050760.0], [356320.2457496136, 7050836.144049459], [356439.6637756664, 7050943.704188912], [356468.0, 7050903.0], [356540.2578709382, 7050990.064811705], [356681.5662846612, 7050942.064316733], [356783.6470588235, 7050986.411764706], [356836.3626699066, 7050947.672944035], [357132.946483482, 7051182.445725154], [357133.3969465649, 7051274.65648855], [357186.71842650103, 7051401.718426501], [357245.0, 7051460.0], [357225.8133013647, 7051517.560095905], [357339.2015479387, 7051625.650653248], [357335.50426244404, 7051697.432097915], [357045.625, 7051950.833333333], [357093.6725663717, 7051992.256637168], [357200.0, 7051945.0], [357257.07617991365, 7052055.228263868], [357347.5692850316, 7051957.984995221], [357375.7252383417, 7051807.098846679], [357578.18892197707, 7051919.163527321], [357691.55820157286, 7051847.704242843], [357835.3927690206, 7052062.000350364], [357879.2644344846, 7052053.450905804], [357948.0245835497, 7052240.726435962], [357886.32248219737, 7052255.050138061], [357747.4358974359, 7052397.564102564], [357794.0, 7052507.0], [357723.01011241163, 7052578.337445802], [357594.4262295082, 7052500.409836066], [357514.1984965036, 7052493.673156195], [357503.5253456221, 7052685.898617512], [357465.0, 7052720.0], [357534.94475138123, 7052813.259668509], [357369.16331396217, 7052974.571598868], [357376.16883116885, 7052999.090909091], [357235.0, 7053164.139834407], [357235.0, 7053216.923076923], [357040.0, 7053375.0], [357010.0, 7053345.0], [356897.7352119236, 7053401.018863531], [356881.79382827895, 7053335.154964232], [356804.36761301674, 7053239.600660259], [356680.48780487804, 7053365.426829268], [356695.0, 7053417.647058823], [356622.3977040834, 7053526.42489319], [356532.8768926925, 7053563.992758393], [356505.4141160294, 7053493.882950607], [356251.49776781246, 7053744.198519146], [356200.8, 7053939.8], [356158.789790952, 7053914.900690705], [356080.2631578947, 7053981.052631579], [356139.68119017605, 7054110.2647273755], [356025.9317028592, 7054217.07531429], [356035.4975129522, 7054340.027736018], [356109.3962860799, 7054345.331892749], [355678.234658232, 7054708.410111403], [355681.22164760344, 7054786.454499725], [355719.22222222225, 7054815.777777778], [355617.2966653474, 7054917.310520902], [355514.2698100851, 7054818.274394237], [355440.0, 7054855.0], [355388.79250174493, 7054838.392162728], [355205.7267744491, 7054981.089225812], [355259.62794089335, 7055027.293389212], [355243.63495973975, 7055178.785876459], [355395.0, 7055410.0], [355375.0, 7055440.0], [355535.9057726532, 7055550.369216056], [355513.291870715, 7055651.173359452], [355441.74636459845, 7055720.175204798], [355416.4285714286, 7055888.571428572], [355498.4653465346, 7056013.0693069305], [355465.90909090906, 7056078.181818182], [355620.87421942176, 7056175.762393039], [355584.4071386245, 7056286.68827226], [355554.3950995406, 7056261.232771822], [355451.2229309287, 7056369.024081918], [355515.0, 7056530.0], [355449.8549464256, 7056547.249879083], [355388.58914728684, 7056487.5374677], [355330.1465377455, 7056515.146537745], [355270.0, 7056455.0], [355192.22222222225, 7056510.555555556], [355160.0, 7056495.0], [355101.09197884053, 7056608.736910288], [355123.9130434783, 7056650.217391305], [355061.5174129353, 7056664.527363184], [355088.3333333333, 7056706.666666667], [354950.6326122228, 7056865.948594212], [354852.613150227, 7056790.982810932], [354809.74930200505, 7056909.7326877285], [354691.5402267778, 7056960.9886468155], [354495.0, 7057170.0], [354513.8888888889, 7057188.888888889], [354337.0020139527, 7057263.117301013], [354070.31176879344, 7057158.886772237], [353973.7563546564, 7057194.596391517], [353712.08405843994, 7057081.554400714], [353610.2725024552, 7057097.166530593], [353582.0, 7057187.0], [353463.2572218, 7057264.783822012], [353361.19325441855, 7057475.05125856], [353507.8244105963, 7057832.376647529], [353484.8455130051, 7057969.7884787405], [353549.2674616695, 7058057.994037479], [353472.98905676114, 7058114.121465815], [353517.8070175439, 7058207.192982456], [353420.0, 7058305.0], [353334.31399317406, 7058279.075085324], [353245.7004224498, 7058331.570070958], [353148.63636363635, 7058105.454545454], [353057.81958276324, 7058083.03848887], [353016.18062966916, 7058137.648078975], [352900.0, 7058125.0], [352827.06505295006, 7058197.93494705], [352854.6153846154, 7058283.376068376], [352721.18830816797, 7058234.131798364], [352603.1088683459, 7058320.402990982], [352613.04139789974, 7058417.150640442], [352420.6286673917, 7058475.884078773], [352370.0, 7058365.0], [352322.0182805829, 7058386.113095597], [352174.4347628256, 7058141.250544315], [352150.0, 7057905.0], [352073.11097046983, 7057917.06199588], [352027.3363805493, 7057988.360820871], [351914.773049208, 7057869.097943288], [351792.7327125628, 7057840.545583001], [351669.1008724552, 7057633.1569769615], [351617.55675306724, 7057664.888489486], [351449.9044388451, 7057299.014792536], [351461.93856611516, 7057284.136847505], [351363.5863897264, 7057068.586389726], [351374.8876962661, 7057008.781906958], [351128.40082894213, 7056759.944630358], [351192.1981410841, 7056712.200734121], [351083.89647414227, 7056497.97298697], [351020.6850951171, 7056474.620863325], [350930.4333349751, 7056312.699442496], [350987.0806566453, 7056142.439085904], [350933.21890700754, 7056082.512202355], [350844.48164816224, 7055723.748618053], [350770.6286062427, 7055731.55079735], [350415.1007951354, 7056032.295244401], [350298.3333333333, 7055999.166666667], [350210.73942381097, 7056172.488561782], [350271.33002861583, 7056324.5753740035], [350160.24553810694, 7056539.64686386], [350063.0344827586, 7056527.183908046], [349933.86259715055, 7056591.136657857], [349924.42307692306, 7056692.115384615], [349777.5, 7056837.5], [349646.1099075411, 7056649.160086505], [349584.8463931798, 7056460.74496133], [349578.2877562369, 7056345.827529378], [349435.2380952381, 7056275.0], [349380.0, 7056315.0], [349316.6863507603, 7056293.146200739], [349343.7774956232, 7056485.883052029], [349182.85714285716, 7056612.142857143], [349130.0, 7056595.0], [349076.2686567164, 7056648.731343283], [349014.51437761943, 7056593.691433432], [348734.07838561694, 7056737.719896051], [348684.964990464, 7056657.486905752], [348705.0, 7056576.666666667], [348581.97757696896, 7056597.230046564], [348470.13693489396, 7056572.84470962], [348397.5125208681, 7056621.1213133], [348312.85714285716, 7056552.142857143], [348260.48364153627, 7056682.283072546], [348201.4285714286, 7056646.428571428], [348131.03720726894, 7056691.39862745], [347938.45588235295, 7056723.602941177], [347890.0, 7056675.0], [347868.0, 7056714.0], [347750.0717109497, 7056681.513744598], [347710.0, 7056865.0], [347676.5829774702, 7056894.786727532], [347760.33901755756, 7057004.283167552], [347805.6082564604, 7057300.099983721], [347598.2256072577, 7057445.471331441], [347484.07224363316, 7057637.857039217], [347475.0, 7057844.0], [347381.67415029305, 7057862.067884503], [347155.71428571426, 7058129.285714285], [347105.12380191695, 7058080.718849841], [346979.2792792793, 7058158.423423423], [346958.3428554196, 7058141.674284336], [346846.1505491963, 7058220.000489989], [346707.1929455372, 7058194.64938124], [346691.5517241379, 7058304.137931035], [346579.95484458684, 7058414.937690018], [346797.4557250737, 7058657.933133321], [346785.0, 7058690.0], [346954.15824915824, 7058911.306397307], [346885.0, 7059010.0], [346945.59690538805, 7059146.790716164], [347008.62011173187, 7059198.167597765], [346955.0052091791, 7059229.161780097], [346990.27847090224, 7059326.497828862], [347072.64705882355, 7059347.647058823], [347024.42564535263, 7059464.75010451], [346910.0, 7059515.0], [346824.7080298485, 7059456.504461027], [346781.57708135183, 7059534.333333333], [346635.6172338278, 7059443.634754028], [346580.8467741936, 7059482.2177419355], [346677.3782981975, 7059631.029352272], [346695.0, 7059760.0], [346619.28571428574, 7059812.857142857], [346603.1665814412, 7059894.679412221], [346478.58974358975, 7059889.316239316], [346462.3930102592, 7059821.633192365], [346174.59901776933, 7059928.003440176], [346115.55555555556, 7059889.444444444], [345926.15240531525, 7060042.623309295], [345906.06164674327, 7060197.538758804], [345971.7593878609, 7060222.038287495], [345920.411906874, 7060264.667162169], [345934.5115452931, 7060436.119005329], [345730.0, 7060445.0], [345698.4584980237, 7060395.750988143], [345593.9018798716, 7060435.784044016], [345525.0, 7060330.0], [345555.0, 7060300.0], [345446.6851737086, 7060059.511793227], [345339.71758568706, 7059921.358605397], [345300.0, 7059985.0], [345031.8181482025, 7059950.410294619], [345004.28042001236, 7059908.6689314395], [344803.76203731005, 7059965.906142083], [344623.86305650976, 7059764.209031645], [344665.0, 7059710.0], [344445.3209899488, 7059502.3356757], [344400.9152818011, 7059336.559688977], [344340.4847141445, 7059400.271756937], [344180.5119897245, 7059286.370956353], [344049.8714064909, 7059331.352114736], [343931.1979450431, 7059193.845226423], [343508.7544530394, 7059493.437148255], [343514.2075371384, 7059577.81878968], [343160.7418213952, 7059542.1445975695], [343088.17054068996, 7059573.416788064], [342813.03085278225, 7059334.460898448], [342725.7896426661, 7059204.685634723], [342542.2195377861, 7059268.14329087], [342508.948487886, 7059357.536488766], [342321.6581018185, 7059476.213243093], [342397.73758094024, 7059664.252035863], [342201.30198350165, 7059873.768528773], [342223.3333333333, 7060095.0], [342122.7229160035, 7060067.963156376], [342089.9252547441, 7060118.826499516], [342186.90898132196, 7060305.518216183], [342160.2051302369, 7060436.522786131], [342300.0, 7060605.0], [342363.8442387643, 7060841.206093994], [341978.417721519, 7061243.417721519], [342005.0, 7061270.0], [342004.3003258519, 7061472.044479124], [341963.783416355, 7061500.914797853], [341821.4285714286, 7061456.428571428], [341784.799357042, 7061481.690098592], [341710.8792624668, 7061439.956988482], [341338.9657230075, 7061749.956383028], [341416.50776053214, 7061877.095343681], [341351.6065718877, 7061986.332465399], [341125.4850012965, 7062134.616486872], [341082.11599939107, 7062120.391992693], [341140.0, 7062255.0], [340993.94048726646, 7062332.819717122], [340998.57632104395, 7062522.7232386265], [341089.9042145594, 7062683.601532567], [341061.0, 7062766.0], [341108.75, 7062813.75], [341079.0265486726, 7062841.017699115], [340952.00969767844, 7062765.093887695], [340755.0, 7062980.0], [340727.3527254004, 7063130.034595438], [340600.2378303241, 7063218.03925125], [340450.0, 7063125.0], [340403.7740052431, 7063155.284676373], [340309.4465389046, 7063064.143540336], [340233.0950606582, 7063055.309819441], [339776.55398120324, 7063468.78731011], [339500.0789179104, 7063523.533823438], [339426.5389180687, 7063406.113700634], [339295.5429710313, 7063437.461907598], [338965.5560656852, 7063422.131381358], [338807.374902509, 7063378.28462568], [338726.0712217719, 7063299.591777649], [338610.0, 7063235.0], [338490.0, 7063255.0], [338382.59518340963, 7063207.573427201], [338297.7412360455, 7063088.959221983], [338103.62547806493, 7063056.733742985], [338022.85714285716, 7063144.485714286], [337923.7851586464, 7063181.039718879], [337849.4576847123, 7063255.522547429], [337736.22072136804, 7063263.246874551], [337659.4906188837, 7063403.488128196], [337505.1587301587, 7063519.365079365], [337495.0, 7063590.0], [337284.7693920336, 7063800.230607967], [337323.37209302327, 7063872.558139535], [337210.6974129462, 7063942.763195761], [337141.6019203596, 7064169.450921016], [337167.85714285716, 7064245.714285715], [337060.2116027875, 7064379.731040736], [336926.38225359295, 7064429.066895893], [336887.16168268875, 7064300.092375273], [336843.97297297296, 7064274.486486486], [336699.8372553071, 7064020.141919442], [336558.3284393442, 7063929.251608251], [336318.94180033734, 7064036.2749834135], [336170.47107431595, 7064189.889709562], [336123.97725238244, 7064119.399493871], [335921.38510483876, 7064056.282725966], [335872.95930770494, 7064007.683670165], [335850.28901734104, 7064063.878612717], [335699.09462158097, 7063897.273655395], [335570.0, 7063865.0]]]}}]}