{"type": "FeatureCollection", "crs": {"type": "name", "properties": {"name": "EPSG:25833"}}, "features": [{"type": "Feature", "properties": {"station": "127.11.0", "name": "Veravatn", "series": ["1001.1"], "nodes": 1753726, "fine_vertices": 12638, "fine_area_m2": 175372550.0, "reduced_vertices": 482, "reduced_area_m2": 175372550.00000036, "outline_tolerance_m": 20.0, "windows": [[722, 742], [1520, 1530], [3110, 2854], [5327, 5253]], "placed_on": "number", "distance_m": 154.99364920041708, "uncertainty_m": 154.99364920041708, "elvid": "127-67-1133", "objectid": 10865729, "lake": true, "confluence_near": false, "reach_up_m": 99.67575109453891, "reach_down_m": 212.4845323578408, "reach_fork": false, "seeded_by": "lake", "lake_rule": "inside", "lake_number": 923, "lake_name": "Veresvatnet", "lake_distance_m": 0.0, "node_offset_m": null, "chain_nodes": null, "lowered_nodes": null, "lowered_max_m": null, "direction_ok": null, "end_extended_m": null, "end_closed": null, "downstream_checked": null, "a0": null, "area_up": null, "area_down": null, "swing": null, "largest_step": null, "largest_step_at_m": null, "checked_up_m": null, "checked_down_m": null, "drains": null, "monotone": null, "causes": []}, "geometry": {"type": "Polygon", "coordinates": [[[378550.0, 7088625.0], [378393.7311602277, 7088712.453203909], [378209.4689479522, 7088602.249078381], [378214.2033932466, 7088512.926857694], [378260.28662420384, 7088494.076433121], [378327.55619381566, 7088278.485326628], [378329.801778079, 7088064.801778079], [378295.05081874644, 7088030.050818747], [378326.2852664577, 7087894.733542319], [378313.9819335575, 7087717.067871877], [378235.24587847386, 7087630.307112576], [378303.8868552783, 7087510.520191634], [378065.3591522286, 7087227.406105578], [378069.30682251026, 7087134.8035295615], [377950.0, 7087115.0], [377916.97986577183, 7087170.033557047], [377820.5371716872, 7087161.481673839], [377760.0, 7087075.0], [377579.4736842105, 7087065.52631579], [377539.99027014174, 7087105.0097298585], [377435.8542559607, 7087099.761321949], [377385.0, 7087030.0], [377377.6144748053, 7086760.876033815], [377145.4142378745, 7086546.774644622], [377058.4936736341, 7086403.634035269], [376750.71428571426, 7086125.714285715], [376794.09722084214, 7086071.338868548], [376725.6827592758, 7086022.102146478], [376502.59213809593, 7085977.185141605], [376457.7419354839, 7085921.451612903], [376489.0567472203, 7085783.371162244], [376074.3234184091, 7085388.86548175], [376015.71428571426, 7085422.142857143], [375790.5505577546, 7085383.150413818], [375681.0695689966, 7085301.922583449], [375308.5040732925, 7084649.125732975], [375022.1935554817, 7084648.147800138], [374949.7826086957, 7084512.173913044], [375034.879290173, 7084433.982146765], [374935.0, 7084342.5], [374942.19746474776, 7084268.506416064], [374749.9813942767, 7084254.429766868], [374409.65713674395, 7083921.186362864], [374366.96480834746, 7083765.052388097], [374380.0, 7083655.0], [374220.24299085495, 7083652.246901541], [374054.9254843517, 7083471.430700447], [373973.86795166106, 7083432.924292185], [374023.5714285714, 7083337.142857143], [373970.2145133611, 7083174.5893601375], [373845.08919702383, 7083099.271612138], [373780.3310416087, 7082956.55227914], [373662.962962963, 7082887.962962963], [373611.4285714286, 7082913.571428572], [373418.35402618605, 7082839.75339395], [373245.46737467573, 7082651.577500388], [373184.1295952527, 7082662.486934087], [373002.0588235294, 7082526.470588235], [372949.9121904319, 7082561.756289121], [372907.3478111771, 7082521.750150506], [372827.06489675515, 7082556.401179941], [372790.0, 7082635.0], [372745.0847457627, 7082547.542372881], [372690.0, 7082585.0], [372658.2918670317, 7082550.19278347], [372450.0, 7082495.0], [372340.2631578947, 7082414.736842105], [372375.0, 7082380.0], [372293.3096174122, 7082172.650830638], [372367.3221571491, 7082150.969580057], [372366.5420396564, 7082031.420874084], [372309.08602150535, 7081896.129032258], [372330.6617778326, 7081842.511514332], [372275.92842967133, 7081802.367267195], [372198.4110296639, 7081894.724794239], [372065.0, 7081780.0], [372089.8381957322, 7081715.092590175], [372025.8008474824, 7081667.144887548], [372304.79938720434, 7081380.9893354485], [372210.0, 7081095.0], [372161.1615474138, 7081125.208084921], [372029.5246116414, 7081046.483249111], [371818.9560607845, 7081113.956060785], [371780.0, 7081075.0], [371720.0, 7081095.0], [371597.3629305881, 7081022.480133058], [371455.42817019403, 7081174.934507712], [371460.3623188406, 7081234.927536231], [371401.64245810057, 7081312.82122905], [371318.89090256934, 7081273.887882048], [371240.0, 7081295.0], [371219.0, 7081262.0], [371265.0, 7081170.0], [371159.1176470588, 7081085.294117647], [371105.05421797466, 7081102.379158243], [371064.28571428574, 7081042.857142857], [370971.2092742815, 7081118.1019751895], [370863.61438565195, 7081130.559893595], [370821.2617146824, 7081173.745227352], [370755.0, 7081170.0], [370803.93617021275, 7081072.127659574], [370787.85714285716, 7081037.142857143], [370825.0, 7080990.0], [370692.1166998683, 7080857.1856872775], [370819.64902519813, 7080708.732084037], [370885.0, 7080680.0], [370758.5460195797, 7080549.042615044], [370645.9425159481, 7080592.008547201], [370498.6156722872, 7080498.336353682], [370562.3715993656, 7080463.418933757], [370416.14275865525, 7080301.893878952], [370424.87404986366, 7080211.306732665], [370573.02114803623, 7080173.459214501], [370530.54228645295, 7080062.579346208], [370435.0, 7079954.4], [370531.9015846249, 7079828.02428519], [370351.04043694056, 7079569.981968526], [370248.6477403721, 7079604.853873645], [370170.0, 7079455.0], [370105.0, 7079470.0], [369965.3778513266, 7079363.438881849], [369877.14285714284, 7079437.857142857], [369558.61290259863, 7079220.679905457], [369489.471156127, 7079246.050834528], [369380.0, 7079215.0], [369303.9540251264, 7079352.488121607], [369155.0, 7079320.0], [369188.52459016396, 7079292.377049181], [369140.5397727273, 7079215.5397727275], [369053.21652412036, 7079263.743431139], [369015.0, 7079210.0], [369039.1397849462, 7079145.9677419355], [368962.8330828536, 7079045.151256252], [368821.2610852247, 7079023.025452177], [368721.3323791027, 7078935.100661205], [368555.0, 7078990.0], [368324.0029208208, 7078764.202400065], [368335.10204081633, 7078599.693877551], [368304.2334926854, 7078549.68040505], [368366.19109206356, 7078415.696886081], [368268.2697947214, 7078345.6158357775], [368225.97784003394, 7078150.391344684], [368107.8842207173, 7078027.564523554], [368243.93189751264, 7077923.6398042105], [368416.39872203633, 7077859.218430099], [368458.80756233045, 7077528.677546406], [368349.3910727016, 7077340.109418733], [368270.0, 7077335.0], [368185.0264396137, 7077224.752908213], [368179.8525466043, 7077128.304820954], [368340.34663531865, 7077164.843187441], [368235.578083555, 7077000.346850133], [368055.0, 7076850.0], [368248.026172409, 7076662.1864165], [368167.0476745361, 7076470.070816724], [368181.15055069927, 7076405.568051027], [368107.85371342977, 7076336.29723647], [367844.6990237236, 7076611.294527584], [367823.2417582418, 7076490.467032967], [367745.0, 7076400.0], [367775.39673913043, 7076338.559782608], [367664.65721638146, 7076248.8420658335], [367662.24887228216, 7076137.043177256], [367843.3508679242, 7076027.004946648], [367762.8471742741, 7075854.311570013], [367678.22580645164, 7075854.838709678], [367639.6649615198, 7075792.193997934], [367683.24954003183, 7075651.223263785], [367599.5856917114, 7075541.989019527], [367519.4365967729, 7075328.814124523], [367455.74150475557, 7075290.449655342], [367493.53896357096, 7075178.984812624], [367468.60962566844, 7075136.764705882], [367184.39270922076, 7075075.424500229], [367125.4644393154, 7074766.122797921], [367227.85714285716, 7074632.857142857], [367202.5, 7074607.5], [367367.09778378374, 7074248.837937536], [367488.0241615924, 7074267.459044652], [367704.44444444444, 7074140.555555556], [367670.0, 7074085.0], [367760.0, 7074025.0], [367793.44065261143, 7074086.246014594], [367924.3538461538, 7074001.753846154], [367860.47890309273, 7073899.892019836], [368033.0575539568, 7073729.856115108], [368002.29159126955, 7073636.522699186], [367947.8062895941, 7073656.870859729], [367841.98540655035, 7073628.791975925], [367790.73720423144, 7073716.982846366], [367420.86010010313, 7073992.937891908], [367328.5647583766, 7073860.007902615], [367246.06677647494, 7073786.928616931], [367283.11888118717, 7073608.078224629], [367181.8687664987, 7073522.569553936], [367034.4325719938, 7073307.786199974], [366935.0, 7073373.333333333], [366950.581975479, 7073297.0259673055], [366775.0, 7073160.0], [366751.9687063933, 7073051.714732968], [366266.18473474524, 7072468.815265255], [366298.1533620404, 7072373.660152368], [366193.1818181818, 7072251.818181818], [366219.0677966102, 7072224.06779661], [366156.6072841105, 7072176.239880195], [366156.3352685051, 7072090.30478955], [366035.0, 7071980.0], [366113.6614656961, 7071891.26825545], [365968.8461538461, 7071743.846153846], [366032.3280721533, 7071577.2266065385], [366072.52767527674, 7071543.72693727], [366043.75, 7071511.25], [365957.61827604956, 7071592.606956175], [365868.7483619078, 7071503.869092425], [365699.69459560065, 7071603.941880763], [365475.0, 7071424.0], [365465.83116426883, 7071372.007965378], [365382.9268292683, 7071377.926829268], [365304.54545454547, 7071225.0], [365228.4221588074, 7071211.893800526], [365131.69760839484, 7070974.892717459], [365316.3593959261, 7070884.260529202], [365132.0991405042, 7070659.462832354], [365011.25, 7070473.75], [365085.0, 7070421.694915255], [365058.7743016774, 7070349.019267098], [365097.5, 7070272.5], [365037.78647826123, 7070224.839527425], [365219.0842781249, 7070084.766275805], [365292.23526764836, 7070125.0], [365555.38031886227, 7069962.690159431], [365653.69039568433, 7070025.75767822], [365720.3384300729, 7069983.1333550215], [365819.25788879424, 7070100.125123628], [366084.4897101726, 7069960.537475562], [365985.2392580564, 7069788.847205992], [365758.30541909597, 7069565.469894385], [365795.8485755588, 7069328.201716141], [365920.0, 7069355.0], [365990.15077622666, 7069308.522934858], [366152.25563909777, 7069301.315789473], [366230.0, 7069235.0], [366293.63867684477, 7069331.106870229], [366335.71428571426, 7069290.714285715], [366395.54054054053, 7069350.540540541], [366448.23529411765, 7069316.176470588], [366522.91563887516, 7069361.299950666], [366515.0, 7069410.0], [366741.16279069765, 7069625.0], [366812.06877170666, 7069574.858073729], [366925.0657195243, 7069733.784870868], [366964.0, 7069725.0], [366980.49745304044, 7069784.945081185], [367120.43978627207, 7069698.871763255], [367115.72240059276, 7069760.722400593], [367151.39320279093, 7069796.393202791], [367206.4748953975, 7069758.525104603], [367358.2383119927, 7069804.241487496], [367457.1759731759, 7069745.02638009], [367645.24114792404, 7069527.688275118], [367699.0430501376, 7069566.687233875], [367833.42470487254, 7069516.87729683], [367717.0, 7069344.0], [367750.95016959385, 7069355.316723198], [368018.7526205451, 7069247.8301886795], [368040.3333333333, 7069316.0], [367973.3942114987, 7069366.204341376], [368050.3816667523, 7069475.513227166], [368494.15782411076, 7069164.9563812865], [368321.9943715315, 7068980.3737483565], [368222.2155688623, 7069047.215568862], [368199.44444444444, 7069024.444444444], [368210.6667928993, 7068896.0124724535], [368238.75, 7068873.75], [368194.8481025269, 7068779.884861613], [368296.8642487047, 7068658.711917099], [368425.3529186213, 7068667.452781856], [368675.5785123967, 7068525.619834711], [368903.18528290826, 7068861.814717092], [368875.092644821, 7068974.670159679], [369035.1421087493, 7069015.940868309], [369150.6923076923, 7068913.230769231], [369212.56170237507, 7068996.934067851], [369300.0, 7068965.0], [369431.7721518987, 7069096.645569621], [369570.55315070756, 7069086.8501729965], [369689.5222077656, 7069007.677914743], [370058.91747553146, 7069281.711340768], [370251.630422964, 7069487.065347396], [370236.5011661225, 7069654.156494871], [370342.38782193116, 7069851.55013718], [370180.4166666667, 7070014.583333333], [370408.1893356145, 7070215.724265754], [370460.0, 7070195.0], [370563.8219346271, 7070304.438855087], [370659.0710146714, 7070501.106522007], [370707.6187420387, 7070823.764887216], [370835.0, 7070900.0], [370795.0, 7070970.0], [370903.34452691715, 7071074.116841508], [371111.6252587992, 7071580.574534162], [371150.61951148306, 7071609.086743154], [371205.0, 7071810.0], [371313.6474501109, 7071964.279379157], [371240.0, 7071995.0], [371210.0, 7071965.0], [371097.0242000691, 7072145.645109401], [371167.3764399851, 7072189.284652545], [371180.0, 7072285.0], [371234.79725370754, 7072234.592241808], [371378.8461538461, 7072286.538461538], [371423.4446130501, 7072227.073849266], [371591.4285714286, 7072316.904761905], [371714.1959798995, 7072319.974874372], [371811.60116448323, 7072236.484716157], [372714.38882995734, 7073112.861490208], [372885.0434935857, 7073155.0095265135], [373042.15838315117, 7073106.806198254], [373492.7857776353, 7073572.214222365], [373386.5789473684, 7073678.421052632], [373325.0, 7074120.0], [373119.10160717124, 7074351.635691932], [373257.1839938447, 7074456.461259166], [373548.18048508215, 7074577.500569114], [373895.55555555556, 7074299.444444444], [374010.83785830525, 7074313.60883296], [374269.7576537725, 7074070.325401695], [374387.63409544685, 7074069.976506087], [374738.3992556032, 7073733.472862618], [374866.90807625174, 7073707.658476494], [374966.92665004986, 7073621.661198088], [375178.6996654799, 7073562.44819252], [375270.4898905409, 7073600.69443028], [375453.3333333333, 7073539.117647059], [375675.5379303422, 7073523.166768709], [375774.57298889215, 7073365.040225761], [375963.4573442698, 7073416.538295876], [375992.1761230966, 7073559.666540656], [376320.0, 7073835.0], [376620.32769762404, 7073829.546779437], [376810.0242698109, 7073928.853505867], [377236.65045106335, 7073916.867478543], [377583.5251597465, 7074309.998012324], [377835.0, 7074646.666666667], [377835.0, 7074760.0], [378340.9943379594, 7075235.789729944], [378397.5, 7075338.75], [378367.46858764975, 7075449.222811598], [378387.4802205706, 7075605.052745145], [378229.64423164335, 7075764.643838768], [378553.93857305415, 7076088.910746752], [378507.9032258064, 7076165.806451613], [378534.87592541816, 7076291.648786674], [378945.953802725, 7076742.000309454], [378698.9285714286, 7076893.928571428], [378848.5135135135, 7077043.513513514], [378947.96642489266, 7077230.374333933], [378984.28571428574, 7077209.285714285], [379295.0, 7077520.0], [379285.0, 7077550.0], [379365.0, 7077580.0], [379623.5891745718, 7077800.269264215], [379711.56230487576, 7078077.084521049], [380230.9932785661, 7078576.329350261], [380148.34217701363, 7078714.938828819], [380488.19524097577, 7078774.760746653], [380753.63636363635, 7079005.0], [380864.6979865772, 7078906.565995526], [380958.86747518147, 7078896.15002975], [381055.25096525095, 7078800.250965251], [381288.4210526316, 7079033.421052632], [381396.6666666667, 7079078.333333333], [381540.0, 7078935.0], [382034.076088252, 7079409.7342666155], [382145.81705231714, 7079310.987798144], [382305.5816947558, 7079330.581694756], [382698.3333333333, 7079723.333333333], [382671.6666666667, 7079766.666666667], [382893.7391418794, 7079988.73914188], [382995.2603791075, 7080297.482792325], [382657.3829787234, 7080665.957446809], [382818.3560618943, 7080904.690494027], [382732.68045580515, 7081034.51848264], [383032.64705882355, 7081397.647058823], [382944.5492703102, 7081499.8673456125], [382975.0, 7081720.0], [382442.6551724138, 7082252.344827586], [382450.8554736506, 7082320.1971657425], [382335.0, 7082550.0], [382380.92709572933, 7082676.43987724], [382332.0, 7082815.0], [382372.0408163265, 7082861.734693877], [382319.0, 7082924.0], [382505.0, 7083110.0], [382493.0, 7083222.044117647], [382432.3831682188, 7083282.883805428], [382462.47808576166, 7083832.810945273], [382512.08024584985, 7083843.775633293], [383027.5517139495, 7083406.007395641], [383533.3333333333, 7083905.0], [383824.5984703605, 7084019.435362804], [383953.1922828092, 7084142.071548605], [384180.0, 7084125.0], [384519.0929066983, 7084444.123733339], [384723.68806801405, 7084241.180247458], [384995.398982117, 7084172.141056171], [385095.24651941797, 7084088.763215744], [385239.44444444444, 7084077.777777778], [385211.5961945032, 7084217.019027485], [385099.1863278887, 7084384.186327889], [385225.0, 7084510.0], [385245.0, 7084610.0], [386577.7689243601, 7085908.53845003], [386652.75071633235, 7085846.1747851], [386782.8246310789, 7085855.965294813], [386893.6923076923, 7085991.769230769], [386820.0, 7086005.0], [386769.9043062201, 7085968.253588517], [386598.7203530061, 7086055.0], [386500.0, 7086055.0], [386220.0, 7086335.0], [386125.0, 7086350.0], [386472.5238711682, 7086697.5238711685], [386623.71395960945, 7086965.030988562], [386765.0, 7087130.0], [386726.4285714286, 7087254.285714285], [386538.9203354298, 7087432.641509434], [386565.0, 7087550.0], [386300.0, 7087815.0], [385983.61673630687, 7087821.735789343], [385890.0, 7087715.0], [385756.82131805876, 7087701.666666667], [385622.6405079258, 7087565.911249212], [385517.3333333333, 7087542.466666667], [385319.9767361887, 7087344.969602193], [385057.3033019586, 7087446.014529641], [384947.72386193095, 7087416.565782892], [384761.66399399284, 7087456.569810448], [384602.38378730864, 7087319.882540882], [384117.3819120308, 7087343.290012172], [382419.5659790805, 7089063.35380785], [382311.6862979679, 7089018.513006901], [382196.68504717294, 7089147.652948118], [382360.9466317537, 7089386.3842711], [382333.486531936, 7089413.421518873], [382419.0, 7089484.0], [382395.0, 7089510.0], [382517.00764818356, 7089632.007648184], [382424.680875416, 7089726.747218343], [382445.0, 7089780.0], [382371.2625647031, 7089797.765845869], [382156.71906909946, 7089620.70202585], [382017.449262877, 7089430.913973977], [381770.2045811956, 7089402.926289353], [381768.72734450415, 7089189.183043255], [381686.1245572093, 7089162.0511558], [381491.2042938611, 7089171.497819523], [381447.64705882355, 7089202.647058823], [381422.39208080515, 7089126.827316586], [381296.4705882353, 7088996.176470588], [381086.62853832584, 7088979.775504745], [381049.96961711365, 7089074.69958146], [380882.8978615274, 7089003.477930913], [380840.9488617073, 7088892.991838363], [380477.7027027027, 7088705.945945946], [380452.49063641136, 7088772.3373989705], [380398.2463465553, 7088765.127870563], [380367.6885867526, 7088673.870597242], [380217.5471698113, 7088675.0], [380165.71428571426, 7088599.285714285], [380036.80607191, 7088713.145552665], [379915.37272851495, 7088676.811911369], [379763.3333333333, 7088781.666666667], [379640.0, 7088755.0], [379564.32608035166, 7088679.326080352], [379513.7687736377, 7088721.231226362], [379356.99014212104, 7088673.508690828], [379267.70862997376, 7088747.726428698], [379135.2631578947, 7088691.842105263], [379080.5262204815, 7088753.898739199], [378759.38622226816, 7088670.61278843], [378676.2616686746, 7088689.490259711], [378550.0, 7088625.0]]]}}]}