{"type": "FeatureCollection", "crs": {"type": "name", "properties": {"name": "EPSG:25833"}}, "features": [{"type": "Feature", "properties": {"station": "128.9.0", "name": "Leksdalsvatn", "series": ["1001.1"], "nodes": 1777206, "fine_vertices": 12092, "fine_area_m2": 177720650.0, "reduced_vertices": 572, "reduced_area_m2": 177720650.00000107, "outline_tolerance_m": 20.0, "windows": [[1609, 836], [2212, 1634], [3012, 2863], [4656, 5102]], "placed_on": "number", "distance_m": 461.4947825842992, "uncertainty_m": 461.4947825842992, "elvid": "128-15-255", "objectid": 10965665, "lake": true, "confluence_near": false, "reach_up_m": 1000.0, "reach_down_m": 494.51581853449443, "reach_fork": false, "seeded_by": "lake", "lake_rule": "inside", "lake_number": 942, "lake_name": "Leksdalsvatnet", "lake_distance_m": 0.0, "node_offset_m": null, "chain_nodes": null, "lowered_nodes": null, "lowered_max_m": null, "direction_ok": null, "end_extended_m": null, "end_closed": null, "downstream_checked": null, "a0": null, "area_up": null, "area_down": null, "swing": null, "largest_step": null, "largest_step_at_m": null, "checked_up_m": null, "checked_down_m": null, "drains": null, "monotone": null, "causes": []}, "geometry": {"type": "Polygon", "coordinates": [[[339950.0, 7090255.0], [339687.12458290055, 7090387.643267317], [339477.3694658595, 7090520.670116412], [339321.94590664183, 7090449.606091972], [339213.3333333333, 7090465.0], [339076.8100535271, 7090385.534673006], [338850.0, 7090505.0], [338776.9514605995, 7090470.982390859], [338600.8344735488, 7090512.779124979], [338466.65946413134, 7090621.659464131], [338314.92424242425, 7090411.48989899], [338180.0, 7090325.0], [338160.0, 7090345.0], [338111.7726744864, 7090279.188617169], [337766.93506892683, 7090368.576894428], [337762.9590865842, 7090407.131303521], [337570.2647919126, 7090585.264791912], [337530.77940540045, 7090493.905120294], [337297.0178866893, 7090341.35830798], [337141.73400133837, 7090519.46635199], [337038.5714285714, 7090456.428571428], [336991.4285714286, 7090473.571428572], [336926.85725709714, 7090427.055177929], [336855.1738803585, 7090483.4253983935], [336808.0701754386, 7090475.8771929825], [336801.86054660124, 7090541.569726699], [336676.48129362334, 7090661.594674935], [336729.76439790573, 7090901.09947644], [336653.09037810354, 7090991.203787245], [336705.0, 7091110.0], [336655.75089450745, 7091159.249105493], [336753.3651008362, 7091424.220978849], [336642.85714285716, 7091506.428571428], [336539.3501805054, 7091414.422382671], [336539.3231779622, 7091467.211620906], [336214.3737571534, 7091580.461751237], [336163.6348454306, 7091730.0132425], [336181.9854132901, 7091747.179902756], [336131.5887602869, 7091815.031725768], [336143.612244898, 7091908.285714285], [336028.6651996483, 7092073.072482855], [336221.55307204626, 7092171.0223515835], [336215.2629939984, 7092227.633054014], [336124.64856914885, 7092279.648569149], [336226.84986595175, 7092381.849865952], [336161.97273967206, 7092458.47614079], [335979.4185684203, 7092557.8629904045], [335895.0, 7092670.0], [335926.7441457984, 7092700.219922924], [335806.4705882353, 7092918.529411765], [335631.8689477082, 7092890.480955455], [335640.0, 7092806.25], [335585.0, 7092710.0], [335635.0, 7092660.0], [335483.0556515643, 7092516.265506772], [335507.1102207585, 7092458.664478537], [335403.63234956015, 7092467.0638874825], [335298.9083474748, 7092382.705097297], [335044.7335194547, 7092382.223647476], [334891.0081743793, 7092527.286865404], [334694.67849796655, 7092589.844971682], [334433.72866770136, 7092451.0240977965], [334108.030227101, 7092626.969772899], [334023.4905983972, 7092633.106582681], [333880.05643321347, 7092743.513630658], [333742.35072185844, 7092655.821265687], [333625.71428571426, 7092659.285714285], [333582.18981119693, 7092702.810188803], [333301.46183872805, 7092649.389972194], [333204.5092575714, 7092663.537538085], [332918.02377363824, 7092486.155213945], [332598.04347826086, 7092206.521739131], [332366.54699319677, 7092354.349276056], [332252.993738722, 7092545.924864665], [332284.51294555975, 7092616.51371401], [332274.0, 7092695.0], [332217.9661016949, 7092689.06779661], [332127.26851687545, 7092794.82059836], [332196.99670927535, 7092908.003290725], [332033.31102839875, 7092885.396607409], [331820.7676322885, 7092704.079188304], [331674.81380691956, 7092733.395432749], [331651.8728146445, 7092839.487201062], [331590.0, 7092875.0], [331560.0, 7092825.0], [331489.86714009277, 7092960.590195821], [331303.6319267717, 7092844.214958524], [331129.4504809174, 7092981.155981162], [331051.65808156057, 7092930.287037163], [330930.0, 7092805.0], [330822.6683775333, 7092834.22530822], [330718.7433330246, 7092733.961866638], [330454.98949646286, 7092616.628364582], [330454.8387096774, 7092568.225806451], [330337.20930232556, 7092485.0], [330226.8436922028, 7092586.605462325], [330132.3834280053, 7092517.4673959715], [330001.5698223251, 7092596.258389201], [329907.6111581964, 7092730.9449804], [329688.8904795991, 7092657.111667859], [329655.5832191619, 7092720.502905466], [329623.68786813156, 7092452.097238949], [329664.2253104057, 7092401.2280994635], [329575.0, 7092160.0], [329616.25874125876, 7092061.8041958045], [329550.0, 7092005.0], [329421.73701104836, 7092055.598893982], [329365.0, 7091970.0], [329434.2798195096, 7091950.802707356], [329375.0, 7091820.0], [329404.63265306124, 7091712.9387755105], [329484.5172413793, 7091602.827586207], [329492.2422804596, 7091443.450171092], [329537.12933753943, 7091385.851735015], [329580.0, 7091415.0], [329623.36914616334, 7091251.438717019], [329707.5872406477, 7091122.5872406475], [329757.14285714284, 7091172.142857143], [329795.0, 7091140.0], [329766.93984505546, 7091012.834573902], [329815.46153846156, 7090943.076923077], [329799.6354274423, 7090806.522059681], [329890.400694473, 7090734.520481099], [329777.41224794625, 7090630.168035848], [329828.654839138, 7090576.629462908], [329760.0, 7090475.0], [329710.0, 7090525.0], [329589.20590443216, 7090508.227522111], [329393.897501839, 7090661.818051034], [329316.73772391485, 7090630.862826517], [329281.84210526315, 7090565.263157895], [329198.24304261606, 7090591.641532304], [329170.0, 7090675.0], [329068.63961813843, 7090666.050119332], [329010.0, 7090725.0], [328963.21428571426, 7090631.785714285], [329030.8547392295, 7090540.274708457], [328720.1197152188, 7090400.617982386], [328732.0689655172, 7090319.482758621], [328658.8730070631, 7090246.84503189], [328595.0, 7090140.0], [328699.69052224373, 7090058.520309478], [328665.0, 7089990.0], [328713.5714285714, 7089941.428571428], [328785.0, 7089940.0], [328753.8888888889, 7089881.111111111], [328795.0, 7089840.0], [328725.13230143033, 7089683.818438578], [328653.17342586105, 7089600.463408034], [328697.0, 7089531.0], [328629.6346623271, 7089501.634865745], [328605.0, 7089450.0], [328855.9599880273, 7089283.818661955], [328986.875, 7089321.875], [329045.4584260628, 7089280.154201405], [329147.83292945806, 7089300.99079609], [329160.0, 7089275.0], [329015.0, 7089090.0], [329051.566545393, 7089037.181656655], [329004.1421451568, 7088949.625878551], [328861.6823583228, 7089064.893870009], [328793.4285269747, 7089045.779139954], [328763.88338788116, 7088992.060705238], [328583.35773101554, 7089023.68252516], [328481.0449140166, 7088916.953327571], [328314.4151523315, 7088831.32595008], [328328.494217191, 7088656.786696267], [328272.5, 7088474.017500844], [328197.3477601916, 7088438.049643942], [328233.54738660646, 7088278.971613675], [328187.9690857674, 7088220.0012018485], [328340.0, 7088115.0], [328379.0220629914, 7088151.132183439], [328443.1058495822, 7088074.317548746], [328432.2654186287, 7088013.346732514], [328505.0, 7087880.0], [328454.23076923075, 7087863.076923077], [328493.46859562455, 7087811.721947777], [328425.0, 7087690.0], [328535.1978879136, 7087708.663165971], [328779.5520833333, 7087575.677083333], [328868.0983606557, 7087586.4754098365], [328953.5548194336, 7087539.883736036], [328925.0, 7087480.0], [328972.5047703301, 7087433.280432485], [328960.3847707196, 7087238.687004801], [328700.64436196565, 7086781.592373518], [328867.9938271605, 7086607.00617284], [328924.39030305843, 7086605.65648248], [328904.487454034, 7086435.807538724], [329051.87604198896, 7086394.574108793], [329095.61369509046, 7086248.158914729], [329164.5945945946, 7086250.405405405], [329222.14285714284, 7086192.857142857], [329208.26848249027, 7086150.077821012], [329321.3157894737, 7086000.421052632], [329326.9145240388, 7085899.862551047], [329119.5529019969, 7085775.69566359], [329214.4224568027, 7085547.279717838], [329025.7144269019, 7085313.541990957], [329000.5337690632, 7085199.831441348], [329195.0, 7085160.0], [329151.714718779, 7085048.341109274], [329433.8888888889, 7084928.888888889], [329376.3603925067, 7084873.367528992], [329507.81797661044, 7084721.446439577], [329520.7235113814, 7084627.198992512], [329400.3799071338, 7084519.2929506125], [329335.540464961, 7084508.11091825], [329096.2464847067, 7084291.349975213], [328891.1005167015, 7083908.0808345415], [328891.0465058945, 7083765.923337121], [329028.44536774757, 7083709.704414376], [329180.0, 7083775.0], [329271.8181818182, 7083695.606060606], [329513.90757416736, 7083733.014436283], [329758.22580645164, 7083468.70967742], [329789.21319796954, 7083357.106598984], [329725.0113386064, 7083330.451591687], [330038.00096630084, 7082998.787907396], [329985.0480577831, 7082908.933131434], [330042.9069767442, 7082863.837209302], [330000.8840331334, 7082807.840616967], [330142.6303489479, 7082566.345189999], [330091.4738320266, 7082346.637252072], [329965.0708006977, 7082221.459452064], [330017.0393575468, 7082147.742438272], [330007.1453693534, 7081978.5049306], [330055.0787332113, 7081790.143572327], [329833.0011110082, 7081567.997407648], [329937.80109709036, 7081358.085233855], [329867.14225614734, 7080968.761516412], [329916.83767064847, 7080952.213410125], [330042.3860680304, 7080759.444079536], [330216.020812507, 7080791.260978477], [330268.87350633676, 7080725.389257695], [330333.23377646727, 7080730.529854351], [330518.15789473685, 7080546.842105263], [330511.1660262356, 7080459.543085553], [330680.22754841746, 7080266.886634944], [330866.867949318, 7080351.588606903], [331225.70799441665, 7080243.861531255], [331429.65885114856, 7080356.6272919085], [331615.0449279232, 7080344.047613454], [331797.14285714284, 7080502.142857143], [331944.5745008198, 7080477.725795075], [332123.679052108, 7080293.9235703545], [332396.8711729714, 7080186.034313459], [332540.4312510397, 7080247.397814639], [332637.6376057357, 7080100.880168991], [332643.49742752843, 7080007.088057552], [332896.9541778976, 7079861.954177897], [332909.0458221024, 7079924.045822103], [332973.65030674846, 7079988.650306748], [333032.8167744985, 7079920.735619959], [333110.0728155658, 7079998.995041742], [333075.0, 7080020.0], [333137.048270646, 7080234.247554518], [333445.52145111375, 7080086.866799494], [333512.68537382374, 7079998.010199963], [333500.28024091985, 7079933.7514162045], [333574.03592542064, 7079874.192814915], [333589.6116504854, 7079928.009708738], [333654.1254327021, 7079916.624923641], [333730.02773409616, 7079974.563610481], [333830.8695652174, 7079955.0], [333956.6666666667, 7079801.666666667], [334081.68068028067, 7079720.801215105], [334150.0, 7079755.0], [334407.86174150975, 7079401.450721606], [334425.3479605982, 7079283.285108259], [334660.4004483755, 7079096.048947775], [334826.2144448547, 7079111.865227922], [335009.382657322, 7078996.29123848], [335307.7147332926, 7079002.776193821], [335473.2140669036, 7079077.2803577995], [335685.0464814755, 7079080.385936691], [335875.5826355156, 7078957.504433704], [336018.485354977, 7078920.656903318], [336072.41252302023, 7078956.60834868], [336248.1818181818, 7078909.242424242], [336319.82412060304, 7078852.989949749], [336449.0586146157, 7078848.612485536], [336594.02366863907, 7078924.408284023], [336680.0, 7078865.0], [336755.82089552237, 7078946.194029851], [336823.09668287623, 7078940.720952394], [337125.0, 7079260.0], [337085.0, 7079290.0], [337139.0, 7079444.0], [337249.47599809314, 7079554.475998093], [337389.1438118505, 7079537.079874472], [337605.0, 7079411.666666667], [337654.802834107, 7079453.335695089], [337645.0718807083, 7079395.952051325], [337720.0, 7079345.0], [337821.0420988506, 7079345.049623755], [337919.1900054915, 7079467.808896211], [337863.09523809527, 7079497.142857143], [337965.17901210696, 7079618.759877616], [337999.51590052433, 7079763.196917181], [337968.58395306446, 7079846.416046935], [337830.8602021919, 7079907.320879148], [337691.28739975323, 7079903.528685996], [337620.0, 7079985.0], [337584.01605696674, 7079986.209555159], [337636.03648227075, 7080193.548041059], [337507.45730604965, 7080244.443706169], [337383.1464071371, 7080348.170187601], [337298.07692307694, 7080483.076923077], [337401.49842978915, 7080571.801256169], [337455.15736794705, 7080571.519524141], [337368.2146766496, 7080739.288059898], [337415.0, 7080850.0], [337332.5194911777, 7080849.427574887], [337271.3545908651, 7080899.910154582], [337240.24524468667, 7081232.172417862], [337431.825335116, 7081355.293802659], [337331.9902467689, 7081521.7703523], [337555.56141282304, 7081765.147418448], [337646.9810747659, 7081766.7516171485], [337828.081902738, 7081943.525897736], [337908.1299408238, 7081963.129940824], [338156.36807403114, 7081841.613974855], [338117.94871697796, 7081722.655417336], [338169.9708085051, 7081614.550354415], [338269.95971126406, 7081622.749064373], [338410.43136247166, 7081711.336725753], [338517.1222893988, 7081665.553192543], [338554.5569620253, 7081695.506329114], [338632.65389865317, 7081599.43350185], [338746.81616085663, 7081701.816160857], [338927.8255634149, 7081663.062733838], [339110.2380922454, 7081776.505885086], [339306.6498655168, 7081706.56581002], [339532.4566516101, 7081668.671863616], [339717.77777777775, 7081807.222222222], [339778.23529411765, 7081773.235294118], [339925.0, 7081920.0], [339875.0, 7081970.0], [339893.84729768155, 7082042.623178751], [339820.6568861618, 7082097.113955084], [339964.6875, 7082270.3125], [339933.46561346477, 7082301.534386535], [339958.2798570652, 7082506.411741181], [340126.7833330964, 7082672.342592725], [340230.0, 7082615.0], [340361.7054102076, 7082702.635660261], [340590.0, 7082585.0], [340672.70822634164, 7082637.765626695], [340878.1382978723, 7082614.095744681], [340945.59321344295, 7082698.262673936], [340982.6053660657, 7082926.150508603], [341065.0, 7083050.0], [341030.22944785276, 7083164.917791411], [341118.838554897, 7083253.852667231], [341045.0, 7083310.0], [341080.0907067306, 7083351.009320937], [340757.51213014376, 7083645.793672621], [340784.13754546276, 7083861.947620747], [340925.0, 7083860.0], [340905.0, 7083840.0], [340980.0, 7083765.0], [341075.5223880597, 7083812.76119403], [341145.1612903226, 7083761.129032258], [341214.28571428574, 7083816.428571428], [341271.2358208955, 7083778.03880597], [341405.1573508118, 7083838.118854377], [341568.81242375926, 7083761.920373331], [341545.2868085649, 7083900.694114512], [341623.39295992523, 7084016.476767832], [341749.36, 7083944.36], [341800.0, 7083995.0], [341960.7225920046, 7083955.404126177], [342150.35378959903, 7084081.986959963], [342206.61435742496, 7084090.615359024], [342332.14574898785, 7084176.963562753], [342442.0, 7084177.0], [342445.69514237856, 7084255.234505863], [342492.1052631579, 7084254.47368421], [342550.0, 7084185.0], [342606.6666666667, 7084218.333333333], [342741.23305681866, 7084232.90325713], [342839.6351791531, 7084145.312703583], [342956.875, 7084181.875], [342999.6906347468, 7084153.516592571], [342998.98696374474, 7084066.3613944845], [343128.0019167749, 7084046.312990787], [343214.1878037218, 7084192.818956484], [343334.3187705378, 7084173.3738599755], [343517.3333333333, 7084047.0], [343503.025856185, 7083921.161119364], [343423.95046179683, 7083804.668345928], [343465.0, 7083790.0], [343365.0, 7083690.0], [343365.0, 7083566.666666667], [343335.0, 7083550.0], [343390.07575757575, 7083494.924242424], [343367.42424242425, 7083357.575757576], [343468.4841954023, 7083363.670977011], [343588.111926701, 7083318.048141457], [343758.07234855485, 7083433.062488445], [343908.33811510523, 7083484.149909935], [344180.89242499234, 7083858.474263826], [344168.49251520983, 7083907.9645968005], [344340.54669496114, 7084006.499044563], [344409.58156608645, 7083988.346566406], [344499.26517052815, 7084043.21151733], [344649.439631668, 7083976.059445812], [345057.3171300797, 7083931.893252965], [345307.5460085301, 7083962.194342917], [345355.0, 7084030.0], [345314.1499429381, 7084036.248705135], [345431.10599576234, 7084180.765997203], [345662.7912856376, 7084144.7915252745], [345753.24316928047, 7084183.651198175], [345922.1932992447, 7084114.15430273], [346018.71644226846, 7084214.206854345], [345905.2643831061, 7084230.922846691], [345916.045352251, 7084265.47001371], [345672.5, 7084397.5], [346001.25544267055, 7084765.616835995], [345997.3011620738, 7084839.184338177], [345742.63279457635, 7085019.239911143], [345593.84737696603, 7085026.680601712], [345519.9563225702, 7085196.967915677], [345528.75, 7085301.25], [345643.0214189318, 7085295.71310885], [345692.12765957444, 7085362.872340426], [345941.13690458424, 7085509.265168206], [346057.42574257427, 7085441.732673267], [346233.6254396023, 7085470.777527436], [346462.39675690705, 7085646.155425182], [346491.76470588235, 7085755.0], [346540.0, 7085755.0], [346620.0, 7085675.0], [346714.43665325857, 7085776.173828864], [346566.1111111111, 7085871.111111111], [346613.8888888889, 7085898.888888889], [346596.1111111111, 7085941.111111111], [346648.66264714784, 7085998.307660449], [346412.69300590566, 7086232.367500964], [346493.05678537034, 7086393.302998142], [346465.0, 7086521.095890411], [346566.7087066497, 7086624.322141231], [346683.42668363464, 7086941.797473884], [346930.41452677915, 7087169.090242113], [346915.0, 7087240.0], [346982.36842105264, 7087362.631578947], [346833.0543478261, 7087511.945652174], [346963.17668647435, 7087704.7427547015], [347061.25, 7087913.75], [347014.1304347826, 7087960.869565218], [347028.3333333333, 7088023.333333333], [346967.4528301887, 7088099.433962264], [347013.7543241287, 7088148.164387033], [347048.7912427486, 7088340.245737522], [347210.04811102257, 7088498.994649715], [347182.7798171952, 7088675.471168776], [347015.0, 7088890.0], [347014.8387096774, 7088941.774193549], [346937.25483178237, 7088979.923645908], [347055.0, 7089150.0], [347016.62995594717, 7089292.070484581], [346968.3333333333, 7089346.666666667], [347005.0, 7089420.0], [346967.22222222225, 7089472.222222222], [347035.0, 7089540.0], [347026.70579029736, 7089620.4538341155], [347120.11627906974, 7089724.883720931], [347037.39468087704, 7089812.359098716], [347115.6666666667, 7089946.0], [347084.5499021526, 7089956.712328767], [347115.0, 7090030.0], [346994.3854674931, 7090167.006461822], [347046.0099800399, 7090198.023952096], [346998.2548486352, 7090258.81613184], [347039.38989123155, 7090304.920178445], [346965.32840771467, 7090419.029346888], [347033.6666666667, 7090531.333333333], [346876.20047747897, 7090602.200459356], [346828.50573535846, 7090753.967683673], [346705.0, 7090910.0], [346695.0, 7090980.0], [346608.6842105263, 7091088.245614035], [346560.0, 7091085.0], [346493.5643564357, 7091223.349834983], [346422.0, 7091205.0], [346393.24942791765, 7091252.917620137], [346245.71428571426, 7091290.714285715], [346222.1791113081, 7091271.738126225], [346120.0, 7091315.0], [346064.6865203762, 7091242.006269593], [346083.47173081664, 7091200.737319247], [345831.4652723226, 7091373.396368034], [345724.73166734946, 7091288.154444899], [345653.5417232778, 7091317.592956785], [345510.7389902848, 7091249.137232103], [345387.6603092411, 7091387.215005153], [345296.15600891557, 7091275.703644966], [345146.7761180195, 7091180.531739666], [344963.90705571783, 7091351.350404852], [344812.1578687659, 7091302.667861652], [344543.44690966717, 7091323.106180666], [344565.0, 7091290.0], [344480.55555555556, 7091205.555555556], [344356.6666666667, 7091201.666666667], [344209.9633960682, 7091117.836226325], [344110.34340401576, 7091190.685869769], [344048.1696587743, 7091365.339766713], [343881.6497059432, 7091522.608611054], [344016.39728096675, 7091668.143882175], [343977.8950009615, 7091716.373590065], [344003.50197165064, 7091803.57812617], [343916.76775603474, 7091919.312984139], [343719.0094858399, 7091899.505642805], [343627.1239339915, 7092050.556186255], [343705.3333333333, 7092144.333333333], [343670.57363507943, 7092183.504077207], [343429.07181376225, 7092066.731068718], [343402.1186440678, 7091992.542372881], [343207.1272109218, 7091852.992533786], [343147.9730224312, 7091742.148489183], [342999.59004490566, 7091786.564803666], [342497.7749508041, 7091811.698574336], [342357.5, 7092002.5], [342390.5268124758, 7092086.165451591], [342335.0, 7092190.0], [342349.84558841976, 7092286.96319711], [342151.7972111967, 7092570.244530208], [342032.7373942152, 7092598.313760771], [341925.25974025973, 7092692.807192807], [341811.94061202084, 7092596.485176875], [341749.7993800587, 7092595.062597396], [341753.3991019287, 7092548.141905482], [341597.8560631189, 7092589.511373555], [341566.51524796605, 7092704.242376017], [341467.4430065913, 7092692.507800689], [341442.9511164982, 7092785.163682397], [341273.7405357461, 7092748.740535746], [341146.72417302, 7092816.744415277], [340906.7442482611, 7093019.605136436], [340912.1065097215, 7093138.975603257], [340776.552061293, 7093192.117916573], [340571.5733214953, 7093422.226203173], [340431.08241649094, 7093282.223309056], [340362.3257211539, 7093262.674278846], [340482.19677883486, 7093170.892988801], [340411.56947154825, 7092797.357512433], [340473.51851851854, 7092738.641975309], [340427.9953917051, 7092677.004608295], [340520.5149133507, 7092542.684690473], [340579.79541947524, 7092539.763711178], [340577.26583512774, 7092323.185416501], [340518.8273689509, 7092226.459514658], [340598.26733710367, 7092029.186981366], [340733.13465653145, 7091826.9939185055], [340701.36363636365, 7091794.545454546], [340827.5105504379, 7091672.739145833], [340852.674156398, 7091517.674156398], [340842.2074531849, 7091466.974929629], [340883.7782397581, 7091319.226877563], [340740.4880429478, 7091275.268423622], [340611.1497354015, 7091155.073046205], [340477.2993088294, 7090960.603270458], [340599.28200863005, 7090846.465371109], [340508.1228830782, 7090630.066386668], [340576.73358098156, 7090483.2979785595], [340397.18447508605, 7090312.149083402], [340299.2293928188, 7090429.813312656], [340183.3333333333, 7090391.666666667], [340150.9771689498, 7090426.000913242], [339950.0, 7090255.0]]]}}]}