{"type": "FeatureCollection", "crs": {"type": "name", "properties": {"name": "EPSG:25833"}}, "features": [{"type": "Feature", "properties": {"station": "133.7.0", "name": "Krinsvatn (Kringsvatnet)", "series": ["1001.1"], "nodes": 2054186, "fine_vertices": 14452, "fine_area_m2": 205418850.0, "reduced_vertices": 681, "reduced_area_m2": 205418849.99999854, "outline_tolerance_m": 20.0, "windows": [[529, 483], [1262, 1269], [2570, 2478], [4827, 4877]], "placed_on": "name", "distance_m": 77.6160332048666, "uncertainty_m": 77.6160332048666, "elvid": "133-25-1", "objectid": 11215489, "lake": true, "confluence_near": false, "reach_up_m": 1000.0, "reach_down_m": 177.61603320486665, "reach_fork": false, "seeded_by": "lake", "lake_rule": "inside", "lake_number": 67922, "lake_name": "Kringsvatnet", "lake_distance_m": 0.0, "node_offset_m": null, "chain_nodes": null, "lowered_nodes": null, "lowered_max_m": null, "direction_ok": null, "end_extended_m": null, "end_closed": null, "downstream_checked": null, "a0": null, "area_up": null, "area_down": null, "swing": null, "largest_step": null, "largest_step_at_m": null, "checked_up_m": null, "checked_down_m": null, "drains": null, "monotone": null, "causes": []}, "geometry": {"type": "Polygon", "coordinates": [[[283065.0, 7094700.0], [283006.724137931, 7094642.413793104], [283048.2456349534, 7094580.13154757], [282936.4832055125, 7094463.9708417915], [282660.0, 7094445.0], [282534.914004914, 7094390.921375921], [282500.0, 7094415.0], [282477.85714285716, 7094364.285714285], [281865.02724747016, 7094126.564746938], [281991.47301356134, 7094029.709520342], [281955.9441164192, 7093976.416174629], [281818.9748353319, 7093919.630974498], [281857.4804472496, 7093879.008415638], [281734.3443092567, 7093806.684093941], [281684.8040478381, 7093696.289788408], [281530.92920353985, 7093594.911504425], [281494.0, 7093629.0], [281314.0270289955, 7093455.411105407], [281318.8346959918, 7093369.307946833], [281016.641509434, 7093277.377358491], [280936.90476190473, 7093338.095238095], [280980.1324919187, 7093390.1846527625], [280892.6325523483, 7093468.68504487], [280839.07472649537, 7093422.778336996], [280664.26880164223, 7093449.287265904], [280637.8354162007, 7093484.345051866], [280524.17910447763, 7093496.641791045], [280272.61488415365, 7093372.225366973], [280047.4301660074, 7093215.964233508], [280060.128991251, 7093142.620377454], [279840.63411694375, 7093052.120273267], [279785.0053895952, 7092978.2189930035], [279507.288646984, 7092846.243712808], [279454.79840138054, 7092891.365617938], [278959.6925185174, 7092670.470002526], [278774.74086162343, 7092518.580360205], [278222.5743224419, 7092359.678426419], [278108.1395348837, 7092273.837209302], [278010.9090909091, 7092287.7272727275], [277970.0, 7092215.0], [277930.0, 7092255.0], [277861.8097754293, 7092186.80977543], [277804.74452554743, 7092240.255474453], [277584.7469456442, 7092157.711304451], [277514.62443563243, 7092265.25230072], [277413.27785748447, 7092185.06599713], [276922.9032258064, 7091945.322580645], [276830.0, 7092015.0], [276772.85714285716, 7091992.142857143], [276562.9951174855, 7092225.782728105], [276597.6737027265, 7092273.693931398], [276246.8494234835, 7092099.9982628105], [276215.0, 7092010.0], [276079.24290764506, 7092037.797325205], [275968.43109540635, 7092022.109540636], [275800.9090909091, 7092064.696969697], [275723.47826086957, 7091995.869565218], [275544.6141234711, 7091935.447737687], [275417.63636363635, 7091818.818181818], [275304.4975676262, 7091792.703033496], [275325.0, 7091740.0], [275146.970435666, 7091757.085142424], [275119.537037037, 7091858.796296297], [275055.42091042316, 7091867.721240154], [275023.3333333333, 7091961.666666667], [274930.0, 7091935.0], [274897.95510536386, 7092025.749653721], [274664.92063492065, 7091970.079365079], [274646.57449060597, 7091988.425509394], [274552.0761515609, 7091946.944474575], [274558.78326484194, 7091898.2028821], [274416.8136191719, 7091778.744834419], [274246.9023374224, 7091736.707682977], [273838.1141868512, 7091516.885813149], [274017.6724162172, 7091337.327583782], [274041.3775327237, 7091154.207907477], [273813.97958366113, 7090954.2337588025], [273723.4146341463, 7090941.585365853], [273683.3333333333, 7090981.666666667], [273577.5227635807, 7090890.847832067], [273421.72820424754, 7090840.274486233], [273316.3284348029, 7090755.331233963], [273234.067953893, 7090764.544390043], [272976.9767441861, 7090928.2558139535], [272940.0, 7090895.0], [272826.6990291262, 7091010.9546925565], [272737.5, 7090972.5], [272666.16161401133, 7091017.145740868], [272566.78534031415, 7090969.062827225], [272452.85714285716, 7090966.428571428], [272316.1561915918, 7090887.313865112], [272166.71695908904, 7090702.641048462], [271935.19416964636, 7090600.194169646], [271987.5, 7090652.5], [271955.0, 7090700.0], [272051.36709780555, 7090799.413554232], [272008.63636363635, 7090844.860933277], [271985.0, 7090980.0], [272025.0, 7091020.0], [271893.2047450028, 7091196.3374342825], [271922.5935436537, 7091254.856933235], [272031.3427649712, 7091290.441107147], [271929.57515052677, 7091426.637466364], [271957.0864736216, 7091466.870289568], [271654.6417779647, 7091724.235241485], [271549.79348798475, 7091749.479400731], [271427.5, 7091722.5], [271424.4915254237, 7091755.593220339], [271473.72368320916, 7091789.130562723], [271353.2883817427, 7091902.39626556], [271295.95238095237, 7092028.571428572], [271350.0974867344, 7092039.43626342], [271471.5938386029, 7092163.9460146725], [271637.3881108545, 7092246.888122313], [271532.14285714284, 7092405.714285715], [271656.41093772586, 7092574.432879983], [271639.6130449476, 7092583.102399459], [271388.0125160511, 7092397.898282788], [271237.8761615161, 7092391.451635747], [270777.33506466605, 7092255.251152759], [270592.3894551576, 7092233.280588582], [270451.83900004317, 7092152.787894572], [270383.3333333333, 7092185.0], [270289.0950070447, 7092130.280971833], [270149.33737362904, 7092126.361454506], [270018.2170764565, 7092093.3296443755], [269997.27769110765, 7092202.028081123], [270083.5466154411, 7092300.428633838], [270006.4388780335, 7092380.65763409], [269899.8281579321, 7092331.791867981], [269647.01508010726, 7092308.547232871], [269542.8856974824, 7092484.91002389], [269678.25847417105, 7092616.5414403025], [269807.7871442758, 7092640.57342339], [269796.0225871413, 7092748.174794733], [269697.64661067043, 7092885.525066136], [269773.1976169417, 7093022.60769463], [269696.8181818182, 7093115.454545454], [269717.5925925926, 7093177.777777778], [269587.71066213516, 7093318.081831791], [269387.22222222225, 7093337.777777778], [269446.55002668226, 7093499.08201926], [269576.7069650485, 7093575.634133546], [269636.7726283023, 7093560.583586634], [269656.6666666667, 7093619.444444444], [269600.0, 7093695.0], [269485.48223350255, 7093693.433647571], [269390.0, 7093755.0], [269290.4886790906, 7093724.95148349], [269092.80195287627, 7093931.758649969], [269083.74450260884, 7093999.372251305], [269153.16056396655, 7094022.74806458], [269094.28571428574, 7094130.714285715], [268945.1879699248, 7094089.812030075], [268885.71428571426, 7094149.285714285], [268782.489502584, 7094094.513081395], [268755.0, 7094040.0], [268815.76541459956, 7093975.967399008], [268780.1205510907, 7093811.653272101], [268825.3153516404, 7093732.894189551], [268739.158244781, 7093557.097763047], [268775.98717792804, 7093529.012822072], [268390.8386385584, 7093396.099888623], [268157.5862068966, 7093422.586206896], [268115.71428571426, 7093380.714285715], [268075.6140350877, 7093419.2105263155], [267862.0914675962, 7093313.016220929], [267628.18253750575, 7093340.75925418], [267655.0, 7093403.333333333], [267600.36697247706, 7093388.853211009], [267452.7042332648, 7093447.889328864], [267312.0161867547, 7093412.6029411], [267244.2979539923, 7093347.574460233], [267130.18591549294, 7093399.095774648], [266962.31606295495, 7093332.129885708], [266953.7210112019, 7093243.218891917], [267089.28571428574, 7093074.285714285], [267045.0, 7093030.0], [267105.99450708297, 7092961.612219331], [267017.85714285716, 7092760.952380952], [266987.03591699427, 7092768.5927809775], [266912.7272727273, 7092620.454545454], [266765.77140279784, 7092588.167651748], [266695.0, 7092460.0], [266774.6, 7092374.8], [266722.9109895447, 7092348.955494773], [266580.21316783596, 7092383.162439288], [266508.106918239, 7092325.534591195], [266559.05978067324, 7092157.880985066], [266657.9411764706, 7091964.705882353], [266791.3094032628, 7091963.771821309], [266934.3748435825, 7091819.369254264], [266824.51595054613, 7091776.566936246], [266445.0, 7091361.666666667], [266478.8200674674, 7091250.288953604], [266362.35294117645, 7091146.764705882], [266260.0, 7091215.0], [266176.69339453697, 7091122.437105041], [266306.03361369367, 7090885.98553791], [266397.3493308912, 7090799.830436946], [266450.6451612903, 7090668.548387097], [266395.0, 7090650.0], [266335.0, 7090580.0], [266415.61317876755, 7090489.454952206], [266388.18644067796, 7090458.644067797], [266518.3948155991, 7090291.700801226], [266240.1114590313, 7090160.259102275], [266100.63088830747, 7090053.2133964235], [265877.14285714284, 7090025.0], [265553.61847578007, 7089728.613358072], [265330.1482534596, 7089923.595857395], [264968.2760110266, 7089899.662509707], [264816.34780128096, 7090061.048296091], [264644.39024390245, 7090103.536585365], [264560.541058766, 7090031.308289427], [263945.8245159135, 7089801.23677387], [263922.53653444676, 7089766.30480167], [264051.5943097998, 7089628.410677906], [264032.11996953073, 7089602.880030469], [264137.29491161706, 7089465.71198154], [264316.7829457364, 7089313.705426357], [264367.8445577837, 7089213.624666744], [264368.4482758621, 7089093.448275862], [264505.0, 7088940.0], [264462.57232280954, 7088839.780127514], [264112.32620320853, 7088680.855614973], [264065.0, 7088610.0], [264117.0, 7088608.0], [264206.0914028748, 7088482.752242937], [264175.5882352941, 7088451.764705882], [264225.0, 7088390.0], [264187.63157894736, 7088352.631578947], [264205.1309635173, 7088225.098222638], [264134.83050847455, 7088172.372881356], [264170.0, 7088125.0], [264446.002085311, 7088156.880484137], [264628.6333280371, 7087926.366671963], [264626.481069548, 7087855.438819056], [264676.11405835545, 7087792.490421456], [264606.98715006886, 7087671.987150068], [264613.01284993114, 7087498.012849932], [264545.0, 7087430.0], [264551.9962785752, 7087376.528442318], [264501.6666666667, 7087313.333333333], [264616.23456790124, 7087222.469135802], [264565.0, 7087170.0], [264614.8828998409, 7087161.388160266], [264749.1036414566, 7087205.0], [264752.56319237646, 7087115.237996695], [264556.6659441342, 7086992.65759888], [264625.7765338101, 7086880.4125955505], [264366.2642433489, 7086741.863872645], [264218.15789473685, 7086703.684210527], [264375.0, 7086580.0], [264300.5172413793, 7086517.931034483], [264325.7584974712, 7086435.876395106], [264021.14313680574, 7086267.693837599], [263877.8596024141, 7086263.851998739], [264136.511627907, 7085878.488372093], [264208.0, 7085893.0], [264402.3379957515, 7085782.87053063], [264337.8132287815, 7085729.03423673], [264300.12602117704, 7085503.619909509], [264102.8205128205, 7085435.0], [263995.0, 7085240.0], [264072.45668223593, 7085230.602681935], [264300.0, 7085325.0], [264347.2127292679, 7085309.262423578], [264813.8317757009, 7085551.168224299], [264998.00048427423, 7085405.816426725], [264960.0684931507, 7085331.616438356], [264656.9816603122, 7085143.382048494], [264704.6960189677, 7085099.934950354], [264930.41262325476, 7085040.157199265], [265160.21971642383, 7084728.96832863], [265015.0, 7084570.0], [265059.44444444444, 7084524.444444444], [264932.86220871325, 7084422.299898683], [264959.9376384194, 7084395.78272526], [264871.0, 7084306.0], [264920.9436834094, 7084242.435312024], [264879.6666666667, 7084215.333333333], [264955.5502494595, 7084165.769076809], [265109.6320700733, 7084264.201049537], [265197.55222638417, 7084115.688852669], [265008.7931034483, 7083991.379310345], [265075.0, 7083900.0], [264895.42136512045, 7083748.0861818455], [264935.6060606061, 7083583.82445141], [264895.0, 7083420.0], [264931.10195304, 7083383.89804696], [264784.4793974302, 7083265.77536553], [264667.20930232556, 7083251.7441860465], [264664.52820313483, 7083176.814519188], [264755.8734409254, 7083065.447467694], [264729.477062823, 7082939.687035193], [264836.8041975349, 7082917.013828608], [264955.5254492999, 7082776.212668273], [264864.59384651243, 7082751.667734981], [264826.17647058825, 7082688.235294118], [264882.80188093334, 7082613.119953864], [264877.5, 7082552.5], [264915.0, 7082540.0], [264851.7117354738, 7082449.784107326], [264796.6503136976, 7082491.419693268], [264301.0936258494, 7082300.748160208], [263942.1701220742, 7082011.703007], [264015.18518518517, 7081875.37037037], [263952.6200873362, 7081809.192139738], [263786.925345877, 7081740.628426004], [263671.87197911687, 7081577.044397964], [263370.1848269732, 7081383.530188625], [263365.57038108783, 7081326.24661981], [263181.5731193549, 7081168.654996893], [263230.8413235024, 7081071.948731294], [263082.3780487805, 7080955.799651568], [263355.20263066515, 7080722.612181926], [263345.53051559883, 7080591.7763150595], [263483.80165289255, 7080622.520661157], [263545.71428571426, 7080582.142857143], [263625.3333333333, 7080598.066666666], [263705.3655199044, 7080487.511276612], [263690.0, 7080435.0], [263741.6666666667, 7080383.333333333], [263685.0, 7080320.0], [263971.3697874386, 7079991.520940557], [264433.47308580636, 7080153.778468645], [264510.0, 7080215.0], [264607.3259097616, 7080127.666279027], [264801.92535625905, 7080257.670416122], [264966.46230874007, 7080257.466044241], [265115.25695408345, 7080393.583752588], [265470.0694322271, 7080193.400343445], [265658.98183975444, 7080277.50874743], [266142.6876802122, 7080347.054334295], [266222.19925260014, 7080427.935223252], [266702.67595123424, 7080479.905610179], [267043.2325971609, 7080554.20799553], [267092.0793378558, 7080516.35698789], [267055.76923076925, 7080456.153846154], [267108.6707819971, 7080443.533154553], [267201.561305581, 7080489.211213799], [267283.8596491228, 7080450.380116959], [267358.16964449506, 7080506.289542048], [267402.9326876782, 7080350.368304459], [267352.35294117645, 7080310.882352941], [267579.9803437445, 7080281.643622635], [267675.0, 7080340.0], [267655.97535934293, 7080356.786447639], [267790.0, 7080525.0], [267868.44361953554, 7080449.635863388], [268060.4992541897, 7080555.081600421], [268060.4251682581, 7080671.778107932], [268025.0, 7080710.0], [268053.81802902697, 7080796.45408708], [268018.96106388816, 7080869.058404168], [268095.2037617555, 7080897.601880877], [268104.31977160077, 7080951.497949722], [268005.0, 7081065.317857873], [268154.3867509613, 7081171.648559081], [268478.31144732604, 7081266.024160799], [268855.36581663886, 7081152.163510079], [268886.21463574335, 7081106.316370083], [268872.50580758834, 7080714.646724114], [268943.24949014274, 7080642.60707002], [269056.4009851436, 7080653.229838042], [269168.5174807208, 7080771.700585436], [269353.800458097, 7080626.204945948], [269445.7120792153, 7080514.13919141], [269630.7524271845, 7080551.286407767], [269665.0, 7080650.0], [269652.9176201373, 7080695.308924485], [269895.0, 7080880.0], [269846.9594330993, 7081107.599852635], [270060.79038504674, 7081276.743320161], [270233.5454450805, 7081272.645933678], [270353.16349361686, 7081147.988360491], [270556.01304422074, 7081172.484439197], [270664.36882129277, 7081046.692015209], [270582.378183252, 7080988.127273751], [270519.9123717852, 7080773.762776516], [270798.6510125657, 7080756.271659948], [270871.4385590614, 7080682.833498511], [270745.47003427317, 7080569.876042916], [270850.36296450533, 7080406.136509919], [270788.85010661837, 7080323.466808825], [270586.30429363745, 7080305.075715087], [270576.16687447886, 7080216.7403143095], [270761.8219191115, 7080095.846734558], [270929.0, 7079856.0], [270897.6726279789, 7079812.902798617], [271102.3661769025, 7079598.070468207], [271285.04420387006, 7079345.317819861], [271227.20472440944, 7079282.519685039], [271261.4197530864, 7079176.419753087], [271195.0, 7079110.0], [271220.848469123, 7078995.299793826], [271255.3508520693, 7078972.105112416], [271243.43818411767, 7078822.369040071], [271159.217008026, 7078584.240465644], [271195.0, 7078560.0], [271163.0, 7078478.0], [270949.935543126, 7078249.0196796], [271041.2337662338, 7078082.121212121], [270916.3846080657, 7077905.149339134], [270927.85714285716, 7077877.142857143], [271103.4421924016, 7078050.345729307], [271189.68070694525, 7078094.512428914], [271620.7160262799, 7078008.316588124], [271695.0, 7078080.0], [271665.00996510877, 7078134.511459875], [271895.0, 7078310.0], [271869.0, 7078336.0], [271970.0244895784, 7078491.318277194], [271943.79447273014, 7078514.844006669], [272064.1898527005, 7078586.227495909], [272025.0, 7078640.0], [272125.7296491618, 7078718.4341102], [272094.00921658985, 7078772.004608295], [272243.98558646825, 7078805.826785949], [272301.62931429414, 7079097.814110071], [272391.4605971328, 7079205.1686023455], [272322.23273942096, 7079261.809576837], [272448.5083208487, 7079332.900554723], [272563.9012126771, 7079349.340727606], [272629.32356435905, 7079401.58564924], [272584.7511835215, 7079488.330662255], [272679.4117647059, 7079515.0], [272715.0, 7079600.0], [272668.92092257, 7079620.642504118], [272834.82694227376, 7079739.0797271365], [272844.84675408254, 7079768.730190652], [272942.22222222225, 7079775.0], [273005.0, 7079820.0], [272989.3501805054, 7079868.537906137], [273037.0, 7079892.0], [273002.99477806786, 7079911.127937336], [273071.7605077046, 7079992.048401127], [273113.1229170809, 7079947.528106163], [273235.0, 7080050.0], [273220.72364178457, 7080071.414537324], [273330.72355145577, 7080164.564716057], [273307.58330713504, 7080334.041687251], [273370.0, 7080285.0], [273580.43035726616, 7080489.339453295], [273639.569810154, 7080615.273757175], [273674.2310469314, 7080593.216606498], [273793.6735374363, 7080700.098222195], [273862.5304271438, 7080680.517745024], [273907.5, 7080707.5], [273875.1418439716, 7080755.1773049645], [273935.0, 7080830.0], [273901.44194756553, 7080816.741573034], [273840.3023293879, 7080863.600404483], [273946.47631968796, 7080951.572959615], [273937.45522698876, 7081042.276134944], [274052.44897959183, 7081067.244897959], [274067.5267424699, 7081169.108196313], [274012.76844182797, 7081230.902864543], [274195.0, 7081310.802840821], [274213.51746416435, 7081468.924790904], [274291.25, 7081496.25], [274285.8494434681, 7081546.151142355], [274340.2879963728, 7081580.671014304], [274402.05349063704, 7081750.568653142], [274568.3146301406, 7081921.085555623], [274619.6773079794, 7081900.332508184], [274757.65150693187, 7082040.91272934], [274895.5630630631, 7081972.8153153155], [274869.7462034533, 7081885.203037238], [274923.125, 7081842.5], [274947.397881997, 7081880.885022693], [275076.9309070005, 7081861.583013688], [275175.638213394, 7081635.080595473], [275302.05055131385, 7081707.358123948], [275516.0, 7081899.0], [275607.0308352052, 7081805.671839902], [275663.07461822924, 7081841.089559833], [275699.9507208109, 7081808.664021356], [275691.00371747214, 7081683.996282528], [275570.0490020108, 7081469.760538893], [275605.3645871687, 7081400.138385296], [275748.0851679641, 7081481.400637375], [275929.3600676809, 7081269.505228272], [275940.0, 7081165.0], [276053.91891891893, 7081255.945945946], [276093.3333333333, 7081185.0], [276185.6914167396, 7081207.128115735], [276276.5088152304, 7081300.608626098], [276317.28571428574, 7081296.0], [276371.78208078834, 7081378.415120377], [276355.0, 7081430.0], [276446.6916016521, 7081501.418081689], [276544.6153846154, 7081493.461538462], [276627.0026555571, 7081399.231605825], [276902.6083923187, 7081592.225504138], [276933.67654209613, 7081561.855515029], [276953.6707675191, 7081673.13388436], [277053.05715884495, 7081751.181847448], [277100.0, 7081725.0], [277278.42489240185, 7081852.463708338], [277329.5081360263, 7081938.916794545], [277426.55555555556, 7081859.555555556], [277584.64356435643, 7081984.465346535], [277635.0, 7082060.0], [277603.8888888889, 7082091.111111111], [277632.99351340346, 7082179.553695855], [277886.21205761825, 7082300.613773717], [277962.1052631579, 7082253.421052632], [278105.22222222225, 7082299.777777778], [278164.31122753, 7082280.579475134], [278430.0, 7082475.0], [278565.8513214218, 7082468.108158594], [278803.9717038669, 7082642.8163821045], [279037.68542793626, 7082717.557831614], [279105.0, 7082790.0], [279088.32297844085, 7082885.673439471], [279200.5892558438, 7082970.771534017], [279185.55106984254, 7083109.331853048], [279331.2881659637, 7083218.212724095], [279514.477629169, 7083221.343432379], [279553.4598163641, 7083149.933860399], [279774.0407371484, 7083282.181377304], [279790.0, 7083325.0], [279849.96930240246, 7083318.973587146], [280003.6687741408, 7083426.342093505], [280034.8231966054, 7083370.530410184], [280128.7893875834, 7083397.265590564], [280109.80489225395, 7083506.103669191], [280173.1818181818, 7083553.636363637], [280180.48387096776, 7083647.67950052], [280142.3793451517, 7083671.648476437], [280211.8390325964, 7083716.872596381], [280451.71929998486, 7083788.319173696], [280475.21254713746, 7083768.947548851], [280600.678650056, 7083915.952918561], [280661.63150480035, 7083897.97890288], [280778.89911001176, 7084008.243558355], [280873.280587188, 7084164.939265227], [280836.62294030737, 7084223.448270512], [280890.97356195183, 7084320.578008822], [280846.66580587596, 7084503.501444483], [280976.37899576704, 7084608.565537877], [281010.0, 7084585.0], [281080.0, 7084655.0], [281149.40980354336, 7084644.965282561], [281199.8356560018, 7084573.392656745], [281347.7282724727, 7084631.640262644], [281397.85714285716, 7084827.142857143], [281365.0, 7084860.0], [281383.92572758265, 7085024.732220557], [281525.65279451304, 7085144.7561839], [281490.9459459459, 7085230.810810811], [281728.99996017636, 7085564.0308133075], [281666.12346237415, 7085609.799499209], [281752.1121090121, 7085675.783524311], [281776.1538461539, 7085635.769230769], [281887.4214199938, 7085705.239643504], [281972.311150039, 7085617.311150039], [282025.0, 7085670.0], [281998.3333333333, 7085750.0], [282111.41288411274, 7085881.556820224], [282215.0348388427, 7085837.128817158], [282392.3868628473, 7085994.592502373], [282476.976744186, 7086127.790697674], [282498.52459016396, 7086101.393442623], [282618.5940319223, 7086191.445523942], [282655.58813356125, 7086159.35672597], [282815.0, 7086240.0], [282790.0, 7086265.0], [282881.5122160835, 7086425.682407619], [282875.2117487292, 7086490.635246187], [283049.9900174124, 7086689.53771385], [283064.6139011374, 7086749.532617167], [283289.05262619955, 7086985.249692053], [283303.5085011005, 7087060.949795742], [283056.69726747705, 7087175.149148102], [283112.2727272727, 7087234.545454546], [283038.88268156425, 7087323.882681564], [283020.0, 7087305.0], [282997.27326271695, 7087387.366060154], [283040.56962025317, 7087505.5696202535], [282902.3477197208, 7087712.129047148], [282913.9793784902, 7087980.733931266], [282809.04260238184, 7088109.890060593], [282915.5162427133, 7088291.645895497], [282826.2298884314, 7088295.827719503], [282681.74302998744, 7088653.278557626], [282450.53882666246, 7088695.538826662], [282376.29363685986, 7088671.202804616], [282279.3096456162, 7088737.541879828], [282354.68200243684, 7088912.270636649], [282460.40275585925, 7088996.456403291], [282331.1565774843, 7089047.076157841], [282349.24748598255, 7089186.655144072], [282222.9508951874, 7089180.203095598], [282125.66122447496, 7089407.484533002], [282176.46222927026, 7089670.571891546], [282123.40413917246, 7089723.8680659365], [281948.74166347913, 7089582.704797864], [281897.2584436951, 7089887.405683015], [282120.606044863, 7089961.693457231], [282155.0, 7089920.0], [282473.02495555195, 7090018.028911927], [282571.08680423093, 7090137.565142721], [282736.6666666667, 7090201.666666667], [282810.0, 7090275.0], [282863.02521008404, 7090224.663865546], [283023.4588103817, 7090394.7729961965], [283028.7912045889, 7090509.261950287], [283138.3333333333, 7090616.666666667], [283142.4175139828, 7090717.664236718], [283291.28509968397, 7090753.691737976], [283559.8626640734, 7090936.00910438], [283721.7407542254, 7091143.963450376], [283776.8197333742, 7091131.138415659], [283798.25493138307, 7090964.884005148], [283908.52782124386, 7090949.620611406], [283853.37229853444, 7091140.038769676], [284083.20850969205, 7091379.896534962], [284105.6383549729, 7091494.8357373625], [284545.9851952443, 7091582.354162691], [284600.84568232537, 7091560.498869733], [284867.21927148825, 7091600.621086029], [284787.83431418875, 7091766.686283775], [284865.0, 7091840.0], [284852.2727272727, 7091937.2727272725], [284891.6738827573, 7092051.354196721], [284864.5744680851, 7092181.914893617], [285051.5733013395, 7092259.030616304], [285027.41287532105, 7092292.410213752], [285055.0, 7092400.0], [285015.0, 7092440.0], [285033.91891891893, 7092517.783783784], [285109.8943301222, 7092559.078860746], [285224.5794434727, 7092520.493401346], [285399.2700729927, 7092644.854014599], [285470.95527332963, 7092597.810601877], [285517.1471451823, 7092653.956709497], [285620.0, 7092645.0], [285700.19813216693, 7092744.236316349], [285682.84431012924, 7092832.0414756145], [285607.79025484447, 7092866.550977142], [285675.0, 7092910.0], [285663.61386138614, 7092944.673267326], [285745.66329947894, 7093067.705986304], [285653.3841344933, 7093247.144183344], [285780.0, 7093335.0], [286044.77474793023, 7093421.117915223], [286076.20450856554, 7093541.162718746], [286004.76372178557, 7093641.71996693], [286135.0, 7093680.0], [285925.7819045388, 7093873.2898291135], [285760.13531030604, 7093827.3217346165], [285688.19376853533, 7093879.42634934], [285503.3333333333, 7093761.666666667], [285466.0379471701, 7093798.96205283], [285366.9917221112, 7093798.898148027], [285345.0, 7093883.444730077], [285179.0278293301, 7094024.733252111], [285196.44164919836, 7094118.931910481], [284748.3373166757, 7093966.608365019], [284714.693218584, 7094135.0], [284753.3333333333, 7094135.0], [284730.9769474561, 7094253.518125106], [284483.9925313472, 7094338.074302037], [284357.8753092603, 7094482.337402454], [284217.5800146228, 7094479.866511017], [284128.3333333333, 7094576.666666667], [284038.46153846156, 7094555.0], [283998.06096035533, 7094605.622411121], [283962.73356689943, 7094559.373707039], [283634.64950749424, 7094482.955968872], [283569.47883917775, 7094579.862152358], [283610.3333333333, 7094604.666666667], [283492.5, 7094722.5], [283586.1111111111, 7094771.111111111], [283501.7013017615, 7094845.171065239], [283224.0563866513, 7094810.9436133485], [283160.9436133487, 7094834.0563866515], [283041.1953158151, 7094735.707026278], [283065.0, 7094700.0]]]}}]}