{"type": "FeatureCollection", "crs": {"type": "name", "properties": {"name": "EPSG:25833"}}, "features": [{"type": "Feature", "properties": {"station": "138.1.0", "name": "\u00d8yungen", "series": ["1001.1"], "nodes": 2392523, "fine_vertices": 17074, "fine_area_m2": 239252350.0, "reduced_vertices": 799, "reduced_area_m2": 239252349.9999997, "outline_tolerance_m": 20.0, "windows": [[566, 799], [1364, 1597], [2962, 2871], [5499, 5270]], "placed_on": "name", "distance_m": 285.9653061948436, "uncertainty_m": 285.9653061948436, "elvid": "138-66-1", "objectid": 11192072, "lake": true, "confluence_near": false, "reach_up_m": 1000.0, "reach_down_m": 385.9653061948436, "reach_fork": false, "seeded_by": "lake", "lake_rule": "inside", "lake_number": 679, "lake_name": "\u00d8yungen", "lake_distance_m": 0.0, "node_offset_m": null, "chain_nodes": null, "lowered_nodes": null, "lowered_max_m": null, "direction_ok": null, "end_extended_m": null, "end_closed": null, "downstream_checked": null, "a0": null, "area_up": null, "area_down": null, "swing": null, "largest_step": null, "largest_step_at_m": null, "checked_up_m": null, "checked_down_m": null, "drains": null, "monotone": null, "causes": []}, "geometry": {"type": "Polygon", "coordinates": [[[310840.0, 7137815.0], [310759.932885906, 7137777.818791946], [310649.85511488316, 7137792.289819072], [310522.82664648147, 7137596.671240007], [310574.2429952619, 7137438.845649249], [310435.0243166691, 7137130.367519784], [310459.0538218631, 7137081.264202347], [310356.9176542998, 7136882.685067955], [310426.6129032258, 7136798.064516129], [310413.7037037037, 7136733.518518519], [310324.44784293126, 7136665.538764093], [310257.71541881986, 7136707.358061359], [309799.2192058394, 7136295.78079416], [309752.6666666667, 7136342.333333333], [309600.0, 7136345.0], [309567.73569131835, 7136312.735691318], [309453.82974634896, 7136348.23405073], [309244.23045723035, 7136177.897825168], [309037.87313432834, 7136161.251696065], [308959.9205351253, 7136244.973511709], [308897.3374714146, 7136224.112490471], [308697.9166666667, 7136441.064814814], [308605.6363637987, 7136374.953228354], [308513.8266796495, 7136381.17332035], [308417.6131215547, 7136301.314176213], [308227.2755496672, 7136344.446367325], [307996.1538461539, 7136502.692307692], [307970.0, 7136555.0], [307917.6666666667, 7136548.0], [307899.52940748085, 7136493.588222442], [307661.5511976815, 7136315.132892627], [307685.0, 7136220.0], [307608.4410339257, 7136127.816755135], [307767.6791670541, 7135922.118534462], [307755.0, 7135780.0], [307829.778857666, 7135757.747376576], [307930.5839416058, 7135669.817518248], [307858.94827762747, 7135569.5275886785], [307889.7083918239, 7135376.044188248], [307494.3223346248, 7135008.453938947], [307639.56730694976, 7134802.175480212], [307270.0, 7134525.0], [307194.895474958, 7134580.520502005], [307051.06128126476, 7134571.086955654], [306969.61416126444, 7134779.2316960115], [306888.5981308411, 7134840.607476636], [306845.00604594924, 7134800.392986699], [306710.95987744885, 7134967.503291477], [306720.8305187819, 7135116.991782889], [306613.17031070194, 7135322.600690449], [306253.04000721837, 7135701.673871687], [306298.1002777641, 7135774.929841015], [306246.8687175681, 7135875.90790197], [305900.3067484663, 7135594.877300614], [305820.0, 7135615.0], [305748.6982248521, 7135563.579881657], [305670.0, 7135605.0], [305601.88679245283, 7135553.679245283], [305328.20511782786, 7135577.234523474], [305254.89119788323, 7135622.226476804], [305093.1231989269, 7135429.124559174], [304899.06878616655, 7135329.052039686], [304687.5, 7135457.5], [304640.0, 7135425.0], [304466.00414192525, 7135431.109229589], [304368.4189580866, 7135537.96507168], [304256.2738435471, 7135544.108501389], [303918.45654305513, 7135183.068040278], [303952.2297297297, 7135024.797297297], [303853.8043216124, 7134831.538838368], [303659.7696269313, 7134632.658083156], [303613.21595024376, 7134540.06307205], [303523.9211597374, 7134657.90688166], [303349.85223670996, 7134605.69736364], [303250.33234405355, 7134505.411833944], [303148.2723416323, 7134522.3060062155], [303008.7971698113, 7134640.353773585], [302875.0170682816, 7134542.810111805], [302771.5501890592, 7134363.760357466], [302675.77669902914, 7134332.427184466], [302751.955602537, 7134243.55179704], [302673.0, 7134178.0], [302708.2653061224, 7134124.081632653], [302651.44408661546, 7134053.569942912], [302720.8416462472, 7133970.099782775], [302750.10798680026, 7133825.325808013], [302463.38690561685, 7133445.801910217], [302376.4285714286, 7133421.428571428], [302416.24604132964, 7133363.693240072], [302227.8301886793, 7133222.8301886795], [302122.1698113207, 7133217.1698113205], [302020.6834391708, 7133166.848982324], [302323.90843062464, 7132933.662470473], [302370.0, 7132945.0], [302567.3229382299, 7132763.300156261], [302763.85259961657, 7132498.503292219], [302725.0, 7132370.0], [302870.512104283, 7132168.874700719], [302804.76744186046, 7132063.023255814], [302917.439236074, 7132031.1410663165], [303071.6023116334, 7131836.548439105], [303095.43037974683, 7131660.835443038], [303019.4536997898, 7131498.92173584], [303287.4639017587, 7131349.334351519], [303290.0, 7131315.0], [303365.79581055103, 7131295.8272506995], [303410.9130434783, 7131178.173913044], [303362.8873263718, 7131108.627652531], [303515.0, 7131008.4900270365], [303515.0, 7130960.0], [303712.10861167917, 7130783.0754374005], [303698.8557215482, 7130724.393892386], [303534.0450868103, 7130583.090173621], [303418.18359960115, 7130560.164207277], [303377.35934910586, 7130437.314226925], [303260.2920110193, 7130444.834710744], [303143.37824696826, 7130404.828428921], [302978.91604817874, 7130523.401121568], [302818.8358625592, 7130461.725128528], [302655.0, 7130477.142857143], [302501.4920374642, 7130362.574970123], [302138.64618924237, 7130435.465382178], [301988.35966355185, 7130365.636618521], [301877.5605164727, 7130440.143403403], [301600.0929428357, 7130407.543152031], [301520.0, 7130295.0], [301431.7494356659, 7130310.0112866815], [301275.8851255907, 7130219.54230884], [301268.0, 7130263.0], [301125.2, 7130288.2], [301051.0019006245, 7130223.354602226], [300890.14781425474, 7130172.1533344025], [300790.4289814724, 7129853.819095113], [300660.0, 7129775.0], [300578.08510638296, 7129810.106382979], [300550.75528700906, 7129784.697885197], [300450.0, 7129805.0], [300423.60474192793, 7129778.604741928], [300321.2121620068, 7129799.256050355], [300579.1450059852, 7129543.117151591], [300590.0, 7129495.0], [300640.0, 7129545.0], [300798.5714285714, 7129527.857142857], [300938.6511627907, 7129639.23255814], [300976.36363636365, 7129614.090909091], [301183.79282240354, 7129632.609723377], [301315.54983528575, 7129490.216677765], [301202.8359190113, 7129362.910859847], [301256.59777947486, 7129291.206396319], [301230.35714285716, 7129186.785714285], [301422.9184229803, 7129012.049911029], [301693.8505747126, 7129025.270453009], [301777.06374681264, 7128966.078446078], [301872.85714285716, 7129032.142857143], [301948.54481802345, 7128980.45469273], [302144.67253633344, 7129135.623850898], [302227.87344413187, 7128936.0424293475], [302429.7520621933, 7128837.082322454], [302428.89242449496, 7128747.876892279], [302338.1086884165, 7128711.217376833], [302411.31357349723, 7128608.940720492], [302424.6228231825, 7128391.62822327], [302477.44569519896, 7128378.44328303], [302599.46327683615, 7128265.141242938], [302560.66268527845, 7128190.843286804], [302595.0, 7128080.0], [302512.09504561726, 7127875.932209262], [302509.4503650258, 7127666.167784419], [302449.23076923075, 7127593.461538462], [302465.0, 7127560.0], [302348.2184342347, 7127304.616611148], [302226.36363636365, 7127113.181818182], [302235.0, 7127070.0], [302175.0, 7127010.0], [302233.8095238095, 7126951.19047619], [302189.44444444444, 7126902.222222222], [302229.4513137558, 7126820.958268934], [302177.5013471086, 7126785.401067348], [302147.82691393245, 7126668.480741797], [302186.04910714284, 7126595.379464285], [302114.5610418792, 7126487.355769787], [302198.43456753594, 7126364.294077328], [302130.0251981086, 7126135.63719184], [302030.0, 7125965.0], [301937.3134328358, 7126047.388059702], [301760.84621026204, 7125945.965579179], [301763.8776929837, 7125877.776240873], [301573.9407643211, 7125741.652421471], [301415.0, 7125800.0], [301415.0, 7125833.333333333], [301307.23206340225, 7125814.555886315], [301115.320754717, 7125970.320754717], [301070.0, 7125925.0], [301053.2, 7125958.6], [300985.1824313966, 7125912.1845776485], [300855.0, 7125916.666666667], [300855.0, 7125949.440197225], [300484.40648534615, 7126153.016315593], [300509.64720497455, 7126254.467280129], [300460.97420261643, 7126331.095714979], [300384.2, 7126374.4], [300266.37422899756, 7126287.742394455], [300207.7753377439, 7126412.775337744], [300283.5714285714, 7126488.571428572], [300248.6960622027, 7126604.228867563], [300183.6138896627, 7126627.52260158], [299979.68901692727, 7126814.954978232], [299649.8642825425, 7126775.883826761], [299654.0, 7126855.0], [299495.17778593255, 7126792.864132493], [299434.94482272834, 7126828.296548486], [299364.7100644554, 7126804.734087802], [299202.84342157346, 7126895.935286087], [299185.0, 7126980.0], [299017.3745819398, 7127145.150501672], [298840.9419235025, 7127226.807483298], [298760.3935685145, 7127378.42212623], [298785.0, 7127400.0], [298461.0981982267, 7127564.29719086], [298349.7285518586, 7127513.140554842], [298223.8965968635, 7127532.707176253], [298150.4626242441, 7127475.316103386], [297941.60045792785, 7127532.327990841], [297890.0, 7127495.0], [297842.6129705035, 7127534.406097924], [297768.940816284, 7127448.5100798085], [297626.1224489796, 7127452.346938776], [297581.78525886254, 7127486.2139760265], [297498.9271941051, 7127414.899667826], [297243.0157850342, 7127588.137228171], [297225.5841280826, 7127634.314092705], [297138.4479271992, 7127698.554095046], [297050.86410195334, 7127695.864101953], [297030.0, 7127675.0], [296883.3394347556, 7127741.997799854], [296788.0, 7127653.0], [296710.0, 7127675.0], [296612.7272727273, 7127629.848484849], [296462.4738861808, 7127661.472967567], [296405.1724137931, 7127701.8965517245], [296357.14285714284, 7127637.857142857], [296117.04520891584, 7127658.027632838], [295907.1979072318, 7127454.265747035], [296084.135824771, 7127284.414140631], [296065.0, 7127220.0], [296228.7653417204, 7127078.090486778], [296304.3277717043, 7127104.732310702], [296488.21021971625, 7126901.512774645], [296479.4394733781, 7126727.359082853], [296602.17391304346, 7126667.173913044], [296665.0, 7126684.0], [296756.5, 7126547.8], [296801.2082953658, 7126411.746386076], [296738.60273576726, 7126324.776033138], [296764.5150901496, 7126285.299251888], [296632.8509719222, 7126199.060475162], [296660.23060445813, 7126105.592074436], [296562.6923076923, 7126042.307692308], [296613.8522090686, 7126009.882402703], [296693.004882134, 7125680.576456292], [296841.2347885535, 7125553.098138014], [296913.46153846156, 7125555.427852266], [296935.0, 7125400.0], [296902.6923076923, 7125366.923076923], [296935.20812923845, 7125199.834463213], [296832.40270138485, 7125089.947438476], [296892.14285714284, 7124987.142857143], [296855.1096687556, 7124982.22694718], [296705.0, 7125160.0], [296731.0, 7125192.0], [296655.272780305, 7125292.96962626], [296347.03591906134, 7125137.937956081], [296244.9124457005, 7125230.659671945], [296073.87142647064, 7125081.838497214], [295950.0, 7125155.0], [295867.2648055188, 7125072.264805519], [295950.3978181329, 7124903.010909336], [295956.8641855452, 7124783.032347664], [296066.6877181847, 7124607.288479848], [296008.62708335917, 7124483.997435866], [296165.0, 7124380.0], [296165.0, 7124320.0], [296076.1545778762, 7124214.19863462], [296200.6364402437, 7124041.104400826], [296155.0, 7123990.0], [296231.0, 7123964.0], [296319.28571428574, 7123875.714285715], [296235.7844774398, 7123782.601395707], [296176.19800789683, 7123773.804121087], [296198.5544839036, 7123668.263697915], [296470.72709018446, 7123443.15813915], [296638.62126245844, 7123231.22923588], [296597.0, 7123158.0], [296493.62398663285, 7123132.694164243], [296347.64778439555, 7122994.472374157], [296293.64289944054, 7122984.464102792], [296095.35099064285, 7123188.038534131], [295915.50305914343, 7123220.948334467], [295719.89389903744, 7123096.5510029895], [295545.6199994858, 7123081.307186716], [295328.7437054014, 7122863.681799275], [295160.0, 7122845.0], [295052.1978463747, 7122907.411773152], [294967.4556213018, 7122848.0177514795], [294647.1497399865, 7122928.566430215], [294509.4624393772, 7123055.603456245], [294328.09734513273, 7123086.194690266], [294355.0, 7123140.0], [294205.0968401797, 7123213.460290582], [294238.3071749743, 7123318.775913042], [294162.99954368436, 7123516.759399316], [293976.45104612526, 7123566.622176323], [293969.9941263043, 7123647.850243211], [293679.74025974027, 7123560.194805195], [293473.37815466226, 7123570.14234959], [293436.2557263155, 7123637.941704226], [293340.0, 7123695.0], [293270.0, 7123625.0], [293184.1580171251, 7123640.928828566], [293100.0, 7123575.0], [293014.4910061934, 7123617.193121129], [292940.1841155235, 7123511.891696751], [292758.4840492969, 7123571.437222808], [292633.9667302026, 7123362.99236912], [292450.0, 7123425.0], [292414.72993990243, 7123322.6100303875], [292289.74768769863, 7123151.248127571], [292324.29676965665, 7123006.106529352], [292228.4168314656, 7122857.354427598], [292020.3370108659, 7122903.24714889], [291966.2901893164, 7122869.663337764], [291975.0, 7122700.0], [291916.1538461539, 7122690.384615385], [291972.628960009, 7122619.738452761], [292062.3729373606, 7122605.14306196], [292226.32670878165, 7122370.954448414], [292305.4062937635, 7122445.38103033], [292490.71428571426, 7122434.285714285], [292609.28571428574, 7122355.714285715], [292595.0, 7122300.0], [292710.5477510733, 7122224.147090129], [292419.42007973517, 7122012.97472052], [292355.55186560657, 7122004.451709582], [292212.6610962874, 7121793.6761513725], [292136.1979166667, 7121769.357638889], [292155.0, 7121726.666666667], [292020.0, 7121605.0], [291966.0909269442, 7121618.914964651], [291859.67958987504, 7121525.320410125], [292009.6247449993, 7121379.326697795], [291961.0724637681, 7121345.0], [291684.9966771315, 7120983.075173302], [291638.7241736814, 7121020.663759924], [291549.00981266727, 7120979.8438893845], [291273.0192527674, 7120916.425683876], [291049.9672995781, 7120684.580168776], [291253.49460376194, 7120499.353684859], [291278.0047951415, 7120383.709341325], [291442.81252642354, 7120269.447203829], [291518.58956276445, 7120321.5162200285], [291639.04569708597, 7120207.652677095], [291854.0011785488, 7120247.687848488], [292007.4657534247, 7120113.767123288], [292241.59238389827, 7120287.495923637], [292389.80443871126, 7120248.613048321], [292466.6336633663, 7120268.366336633], [292584.6341463415, 7120199.634146341], [292789.55418609845, 7120410.284390452], [292991.052485131, 7120190.208667683], [292956.82875440276, 7120143.873044003], [293009.2469667869, 7120100.215784105], [293262.23817891907, 7120088.08512595], [293296.6986075055, 7120034.358036913], [293238.6466638691, 7119953.922226885], [293217.1736204576, 7119829.3472409155], [293145.0, 7119750.0], [293193.3765924739, 7119671.145896459], [293099.6961906197, 7119595.305595376], [293125.8512761551, 7119470.9313105345], [293012.4838698182, 7119335.128208129], [293200.0, 7119335.0], [293285.02040816325, 7119405.775510204], [293330.0, 7119375.0], [293457.39659367397, 7119398.163017032], [293573.07692307694, 7119304.230769231], [293725.53982883476, 7119267.885433162], [293790.05215234094, 7119304.932742871], [293852.31707317074, 7119224.634146341], [293818.4910783553, 7119156.982156711], [293835.6802721088, 7119103.673469388], [293715.0, 7119060.0], [293811.1327039846, 7118913.791060233], [293947.85714285716, 7118887.142857143], [293905.0, 7118860.0], [294000.8977422275, 7118836.220588655], [294147.3950913366, 7118909.538967535], [294255.0, 7118870.0], [294288.75, 7118801.25], [294331.48, 7118815.28], [294375.5714285714, 7118749.142857143], [294325.0, 7118650.0], [294385.0, 7118600.0], [294468.47826086957, 7118432.608695652], [294420.8620689655, 7118396.8965517245], [294565.29485750676, 7118347.150135329], [294633.34808259585, 7118267.728613569], [294575.1852201852, 7118169.814779814], [294696.67596671736, 7118081.775061554], [294615.0, 7117970.0], [294821.52353540657, 7117903.619334482], [294811.17344476486, 7117814.261373668], [294706.10554645647, 7117799.423431157], [294455.9752608902, 7117576.524355955], [294460.4483828491, 7117441.105718322], [294672.7010190955, 7117323.122514988], [294791.6675186483, 7117144.108335552], [294753.9655172414, 7117004.827586207], [294835.0, 7116938.595744681], [294843.8512614004, 7116713.600515655], [294885.0, 7116620.0], [294845.0, 7116580.0], [295026.0410023616, 7116643.577043104], [295229.33589506353, 7116441.945699019], [295287.4167967179, 7116514.230616689], [295505.6790123457, 7116410.679012346], [295572.0594399957, 7116443.1044768095], [295615.71428571426, 7116343.571428572], [295674.79326607834, 7116370.798803778], [295762.70610381884, 7116521.54068165], [295925.0191474755, 7116653.679946406], [295909.00473470334, 7116709.932809611], [296016.80031191726, 7116835.088155476], [296205.0, 7116890.0], [296252.7868852459, 7116848.1147540985], [296336.06857811165, 7116878.016741065], [296389.24623735505, 7117106.846780163], [296475.2631578947, 7117218.684210527], [296457.7057016438, 7117294.775510672], [296596.70299940254, 7117289.142262756], [296699.1208791209, 7117395.879120879], [296846.0244420433, 7117270.709229107], [296914.84668509476, 7117318.355397373], [297055.0218272387, 7117249.978172761], [297185.45258502127, 7117361.802913444], [297298.70663108194, 7117274.028946828], [297272.0, 7117245.0], [297323.3333333333, 7117245.0], [297380.0, 7117335.0], [297443.4088754734, 7117284.272899621], [297775.2880921895, 7117605.0], [297845.0, 7117599.620718156], [297825.7769445962, 7117690.080897071], [297916.69734704925, 7117688.974011911], [297974.28571428574, 7117739.285714285], [298130.0, 7117755.0], [298190.0, 7117815.0], [298407.825931998, 7117806.451279492], [298545.0, 7117900.0], [298530.12551794207, 7117929.748964116], [298666.80043668736, 7118051.611674756], [298853.11388413527, 7117923.43585073], [298567.66310927103, 7117626.652398336], [298596.1813477124, 7117596.592633492], [298645.9673683532, 7117444.859955277], [298554.7982951486, 7117366.580481774], [298590.28054460225, 7117026.872595003], [298684.74820143887, 7116991.402877698], [298631.6666666667, 7116843.333333333], [298665.0, 7116810.0], [298580.88849820755, 7116669.534682283], [298433.7464942172, 7116564.813832684], [298509.5459960179, 7116429.519171409], [298495.71428571426, 7116225.0], [298550.0, 7116225.0], [298610.4347826087, 7116273.695652174], [298624.02481187717, 7116220.451833774], [298779.4146083202, 7116116.839517552], [298871.1111111111, 7116243.888888889], [298935.0, 7116180.0], [298917.5640375349, 7116099.794572661], [298980.6382978723, 7116054.361702127], [298961.50592803163, 7115965.403522152], [299266.59515355725, 7115827.571850755], [299542.5215351312, 7115948.901166912], [299748.5297577652, 7115850.497961287], [299874.5893451703, 7115751.839304235], [299960.03677531175, 7115993.039087841], [300105.8887257171, 7116007.973427434], [300308.66072214494, 7116148.086632748], [300277.66864966316, 7116193.987339877], [300303.7764633787, 7116303.695731664], [300479.8767132537, 7116437.541785782], [300795.7239895617, 7116475.861953659], [300875.0, 7116430.0], [300647.00449975964, 7116131.615197921], [300643.8138415999, 7116041.49259808], [300790.1800903881, 7115862.49637314], [301002.89398299175, 7116041.4510111585], [301140.07980209164, 7115978.550952881], [301749.9149452729, 7116274.126254345], [301895.55137337104, 7116300.098329179], [301917.9675738274, 7116374.195136074], [302099.7276129862, 7116424.461491534], [302479.55694727774, 7116378.293930959], [302650.0, 7116175.0], [302693.3333333333, 7116203.888888889], [302732.6567164179, 7116174.223880597], [302912.0174835478, 7116229.034967096], [303155.8929743385, 7116334.390247174], [303467.25056264066, 7115915.146286571], [303685.0, 7115740.0], [303714.3617021277, 7115585.780141844], [303805.0, 7115593.333333333], [303808.8543023849, 7115535.011046281], [303894.9962543626, 7115534.925672691], [304254.825656504, 7115156.884327683], [304616.0353478552, 7114931.563184828], [304689.7377697741, 7114845.583542493], [305205.2997916049, 7115054.4004167905], [305224.9009995543, 7115015.198000891], [305529.10494345584, 7115168.862178287], [305537.36559139786, 7115233.691756273], [305495.0, 7115270.0], [305654.5543393719, 7115300.192308462], [305834.1037652648, 7115459.5174120655], [305827.7536934255, 7115505.150064041], [305950.3794251545, 7115522.078545981], [305937.2436452188, 7115669.461457677], [306259.47562256677, 7115928.652111973], [306105.0, 7116090.0], [306160.7894736842, 7116145.7894736845], [305892.3696538672, 7116475.515054817], [306084.73913043475, 7116618.695652174], [306099.04978940106, 7116746.093617909], [306172.22222222225, 7116697.222222222], [306177.28731860965, 7116765.605011717], [306397.3941946015, 7116935.211610797], [306318.7060483568, 7117017.152965173], [306264.5273756274, 7117140.6071125725], [306196.36363636365, 7117202.2727272725], [306215.4824905499, 7117222.279081378], [306110.10242097726, 7117325.521337644], [306085.96475424926, 7117420.578852549], [306175.2437451858, 7117502.462602746], [306523.2664247886, 7117643.00882734], [306558.1267142509, 7117685.8711030735], [306485.0, 7117780.0], [306535.0, 7117830.0], [306516.6666666667, 7117865.0], [306587.8316787145, 7117972.880348876], [306532.64705882355, 7118042.94117647], [306552.9682590832, 7118320.318214775], [306525.75938460615, 7118425.835557259], [306638.13208060653, 7118582.662626905], [306770.25213860953, 7118592.478480377], [307055.31687248737, 7118703.10287531], [307270.13685005513, 7118643.7341887755], [307437.4324324324, 7118646.337126601], [307582.8122389578, 7118869.21363973], [307703.5714285714, 7118898.571428572], [307636.5653435316, 7119000.366609521], [307657.3378166393, 7119075.364520145], [307568.7304121987, 7119144.921648795], [307670.2459768337, 7119382.142559912], [307735.4698180914, 7119338.281890855], [307811.6328773237, 7119374.998448481], [307884.3760399335, 7119288.072656684], [307940.0, 7119335.0], [308044.43776824034, 7119183.532188841], [308045.0, 7119120.0], [308097.9310344828, 7119075.344827586], [308182.95081967214, 7119143.360655738], [308254.1733118791, 7119070.745058549], [308440.98903603136, 7119161.780689487], [308594.8952143727, 7119176.073035784], [308629.1589218159, 7119128.480191713], [308693.50559682254, 7119189.895021627], [308864.0332326284, 7119247.688821753], [308883.7802907246, 7119342.132914488], [308996.13333333336, 7119409.622222222], [309053.73872052674, 7119387.839028422], [309107.5272017822, 7119442.673591249], [309216.6149369712, 7119428.982758368], [309289.44, 7119554.04], [309416.30864197534, 7119551.308641976], [309595.0, 7119730.0], [309572.6563084987, 7119757.109696743], [309627.33667675, 7119882.33667675], [309735.1612903226, 7119990.161290322], [309818.5427085425, 7119884.47260715], [309912.4070657847, 7119940.061956144], [309980.0, 7119895.0], [310027.29537611385, 7119996.613296493], [310116.8058383873, 7120098.091386822], [310124.02017291065, 7120243.0259366], [310220.6976744186, 7120367.325581395], [310170.0, 7120425.0], [310198.9226325638, 7120517.627203652], [310133.6941560837, 7120624.997292981], [310133.7877949533, 7120806.36338486], [310105.4969296308, 7120844.472366678], [310230.9589446949, 7120927.868326915], [310138.1395348837, 7121016.627906977], [310066.2653101654, 7120999.352637989], [309926.6666666667, 7121085.0], [309948.0288251733, 7121147.002011127], [309810.37293088454, 7121296.5483153695], [309920.35899105127, 7121416.382235714], [309920.0701317033, 7121537.91703143], [310304.6065536494, 7121894.821426026], [310481.94841104094, 7121821.934775598], [310625.0266304419, 7121968.549930995], [310573.96238907805, 7122060.062831875], [310759.0102389759, 7122200.119366419], [310807.6550327943, 7122371.017450809], [310766.63137254905, 7122598.17254902], [310831.7306753275, 7122736.128682669], [310735.0, 7122940.0], [310794.6296296296, 7122985.555555556], [310748.03563572373, 7123104.980202376], [310685.0, 7123140.0], [310699.7157810552, 7123189.338628655], [310631.34226645133, 7123226.624349294], [310639.73391231766, 7123561.582609603], [310545.0, 7123680.0], [310561.00277264323, 7123764.024953789], [310517.7194456111, 7123807.108357833], [310642.1761851067, 7123944.323976389], [310605.7787406115, 7124050.718594828], [310650.3604943262, 7124184.136228452], [310587.4786324786, 7124247.58974359], [310762.762930202, 7124503.79636401], [310737.91095890413, 7124531.815068494], [310988.8464723391, 7124769.910809054], [310887.5762726122, 7124891.492685074], [310987.0, 7125005.428571428], [310951.4203439883, 7125062.3221677495], [311058.48999818315, 7125186.432832518], [311134.1666666667, 7125130.833333333], [311265.8333333333, 7125339.166666667], [311384.1666666667, 7125220.833333333], [311433.3333333333, 7125251.666666667], [311524.28571428574, 7125160.714285715], [311738.4878671775, 7125252.724137931], [311795.2589228415, 7125321.357802241], [312053.69900608296, 7125108.699006083], [312140.0, 7125195.0], [312203.0571428572, 7125179.885714286], [312389.8060429319, 7125361.062862073], [312266.7163375142, 7125528.283662486], [312339.9987096256, 7125692.693068682], [312370.0, 7125675.0], [312616.70716574683, 7125903.8747107], [312566.4285714286, 7125978.571428572], [312619.94036837923, 7126051.12014185], [312589.7935125394, 7126237.148220453], [312615.94421694527, 7126326.99860607], [312573.39219173545, 7126386.487514522], [312606.22121782904, 7126547.149597259], [312506.9717271051, 7126560.344862267], [312605.326927321, 7126763.669874386], [312539.8717948718, 7126804.871794872], [312586.4285714286, 7126851.428571428], [312564.38076267915, 7127043.070003857], [312517.5488157873, 7127095.468314163], [312691.7729083665, 7127291.434262948], [312554.3896899072, 7127540.613470275], [312585.0, 7127560.0], [312559.4, 7127611.2], [312866.43264749786, 7127846.367120636], [312831.051307843, 7127913.959840116], [313060.0, 7128075.0], [313140.5564247741, 7128039.165022868], [313225.8736864988, 7128219.700644413], [313541.98176788975, 7128444.350376473], [313511.9452565521, 7128507.5387769155], [313281.3754776066, 7128598.564349465], [313060.67421598133, 7128596.519981564], [312890.5281575761, 7128739.636181083], [312885.0, 7128833.333333333], [312986.0107081507, 7128947.57935771], [312959.7826086957, 7129035.652173913], [312836.28073394496, 7129158.686238532], [312863.0, 7129194.0], [312804.8820747917, 7129343.425020903], [312885.08290395146, 7129419.088056534], [312860.0, 7129485.0], [312820.0, 7129485.0], [312810.0, 7129535.0], [312780.88536522404, 7129501.726131684], [312122.9790932396, 7129613.046167428], [312006.0869565217, 7129711.0869565215], [311856.7180752622, 7129730.848241826], [311823.0456852792, 7129710.38071066], [311649.8526113425, 7129725.147388658], [311584.7521644739, 7129790.247835526], [311440.96812988573, 7129704.140108238], [311264.887467339, 7129885.515335833], [311150.13481508946, 7129914.9654011205], [311089.25752441696, 7130016.045445485], [310881.7925143795, 7129988.762401765], [310831.29489168606, 7130013.670167518], [310839.347826087, 7130094.347826087], [310726.90275369195, 7130242.224168559], [310603.1841228267, 7130236.949843118], [310407.5054945055, 7130452.505494505], [310427.7258193445, 7130487.274180655], [310326.74023786624, 7130575.260145789], [310248.0, 7130527.0], [310112.52105223935, 7130662.478947761], [309942.3817712812, 7130601.852966466], [309850.0, 7130665.0], [309755.56282722513, 7130648.04973822], [309703.654693335, 7130686.641527945], [309679.0, 7130666.0], [309655.0, 7130790.0], [309674.88233353494, 7130941.000164953], [309635.0, 7130960.0], [309713.78108077776, 7131003.170906111], [309690.22129208816, 7131072.009669404], [309776.14020518266, 7131106.117063832], [309825.0, 7131190.0], [309699.32003765454, 7131327.9425739525], [309703.3333333333, 7131430.555555556], [309586.2560239809, 7131471.76990105], [309438.50780532596, 7131638.347107438], [309416.8818356072, 7131647.512684632], [309284.06976744183, 7131800.930232558], [309239.1666666667, 7131774.166666667], [309136.4783200682, 7131989.271491311], [309180.49594795116, 7132105.476543774], [309138.0227001195, 7132146.786140979], [309188.51264921355, 7132202.402671172], [309138.0458388724, 7132344.188028449], [309215.0, 7132470.0], [309181.34693203354, 7132533.470239819], [309505.2206496224, 7132854.709795778], [309730.627156405, 7133037.238050004], [309758.35311131005, 7133183.893303649], [309549.05797101447, 7133504.057971015], [309602.2653642459, 7133566.481499389], [309614.4438499943, 7133734.696767646], [309512.095810746, 7133848.037321398], [309585.85714285716, 7133946.0], [309666.7324617421, 7133926.498502195], [309730.5736139111, 7133994.352526786], [310024.9202975558, 7134146.3496280555], [310053.03142242925, 7134105.200595826], [310359.0677884516, 7134079.011836458], [310416.6304347826, 7134131.847826087], [310405.0, 7134190.0], [310536.7494530326, 7134262.799046174], [310572.1674621533, 7134373.112898824], [310737.5489667009, 7134385.753403018], [310831.70807453414, 7134485.0310559], [310910.36775301705, 7134496.032746173], [310968.6, 7134556.8], [311028.9222614841, 7134503.922261484], [311394.0606816292, 7134891.408977556], [311366.5789473684, 7134932.631578947], [311420.4991300709, 7134975.974836341], [311425.0, 7135110.0], [311363.86605578766, 7135181.76593451], [311398.09278350516, 7135274.639175258], [311307.0525303888, 7135408.628134326], [311188.3186578802, 7135448.5464176815], [311206.9230787339, 7135534.983639283], [311281.09668644145, 7135566.341514236], [311210.0, 7135685.0], [311293.8095238095, 7135680.238095238], [311236.7280980945, 7135801.513020943], [311302.25600795, 7135884.383038751], [311224.02216085425, 7136164.105931451], [311371.6665714818, 7136243.377112753], [311266.25, 7136388.333333333], [311342.0588235294, 7136489.411764706], [311295.0, 7136540.0], [311393.5426373821, 7136600.066078404], [311451.7569940302, 7136687.708650357], [311520.0, 7136665.0], [311568.5714285714, 7136713.571428572], [311610.0, 7136685.0], [311600.00851788756, 7136764.957410562], [311751.28662982397, 7136914.691868295], [311543.07692307694, 7137131.153846154], [311560.0, 7137165.0], [311689.2146242383, 7137186.096817874], [311666.5097411111, 7137289.391132491], [311739.31809331867, 7137309.837265424], [311721.22582331416, 7137471.662310507], [311611.48942168977, 7137704.741773759], [311466.8343849934, 7137728.219051676], [311437.19304877706, 7137772.193048777], [311377.64835164836, 7137712.648351648], [311257.9310344828, 7137749.827586207], [311192.8452649861, 7137699.037848887], [311093.6830107744, 7137834.858276252], [311005.6391225296, 7137815.97806324], [310961.51194149745, 7137759.293831262], [310840.0, 7137815.0]]]}}]}