{"type": "FeatureCollection", "crs": {"type": "name", "properties": {"name": "EPSG:25833"}}, "features": [{"type": "Feature", "properties": {"station": "139.35.0", "name": "Trangen", "series": ["1001.0"], "nodes": 5, "fine_vertices": 20, "fine_area_m2": 450.0, "reduced_vertices": 4, "reduced_area_m2": 450.0, "outline_tolerance_m": 20.0, "windows": [[468, 472]], "placed_on": "number", "distance_m": 86.54329722354716, "uncertainty_m": 86.54329722354716, "elvid": "139-16-12494", "objectid": 11684627, "lake": false, "confluence_near": true, "reach_up_m": 1000.0, "reach_down_m": 20.20798992229902, "reach_fork": false, "seeded_by": "river", "lake_rule": null, "lake_number": null, "lake_name": null, "lake_distance_m": null, "node_offset_m": 2.854206455995126, "chain_nodes": 97, "lowered_nodes": 7, "lowered_max_m": 1.45941162109375, "direction_ok": true, "end_extended_m": 0.0, "end_closed": true, "downstream_checked": "partly", "a0": 0.0005, "area_up": 0.00030000000000000003, "area_down": 0.0002, "swing": 0.39999999999999997, "largest_step": 0.002, "largest_step_at_m": 14.142135623731065, "checked_up_m": 20.0, "checked_down_m": 28.28427124746213, "drains": false, "monotone": false, "causes": ["swing", "downstream_unread", "chain_not_draining"]}, "geometry": {"type": "Polygon", "coordinates": [[[378750.0, 7147495.0], [378745.0, 7147490.0], [378790.0, 7147445.0], [378795.0, 7147450.0], [378750.0, 7147495.0]]]}}]}