{"type": "FeatureCollection", "crs": {"type": "name", "properties": {"name": "EPSG:25833"}}, "features": [{"type": "Feature", "properties": {"station": "140.2.0", "name": "Salsvatn", "series": ["1001.0"], "nodes": 4322555, "fine_vertices": 21904, "fine_area_m2": 432255650.0, "reduced_vertices": 1132, "reduced_area_m2": 432255649.9999985, "outline_tolerance_m": 20.0, "windows": [[1414, 2765], [2212, 3398], [3450, 4597], [5281, 6996]], "placed_on": "number", "distance_m": 448.0850035745028, "uncertainty_m": 448.0850035745028, "elvid": "140-223-1", "objectid": 10989254, "lake": true, "confluence_near": false, "reach_up_m": 1000.0, "reach_down_m": 548.0850035745029, "reach_fork": false, "seeded_by": "lake", "lake_rule": "lake_line", "lake_number": 723, "lake_name": "Salsvatnet", "lake_distance_m": 11.99795491288537, "node_offset_m": null, "chain_nodes": null, "lowered_nodes": null, "lowered_max_m": null, "direction_ok": null, "end_extended_m": null, "end_closed": null, "downstream_checked": null, "a0": null, "area_up": null, "area_down": null, "swing": null, "largest_step": null, "largest_step_at_m": null, "checked_up_m": null, "checked_down_m": null, "drains": null, "monotone": null, "causes": []}, "geometry": {"type": "Polygon", "coordinates": [[[364640.0, 7188965.0], [364592.22222222225, 7189026.333333333], [364488.777173913, 7188966.222826087], [364438.3654495035, 7189016.634550497], [364229.5526510214, 7188840.474223311], [364233.70696239686, 7188730.371649912], [364024.8720932028, 7188474.024078193], [363979.82720887987, 7188514.03581002], [363816.6666666667, 7188432.777777778], [363769.3578657967, 7188494.13419157], [363594.0, 7188489.0], [363511.5789473684, 7188533.421052632], [363479.2325292662, 7188382.584651409], [363396.5363445071, 7188358.091505429], [363166.90476190473, 7188140.952380952], [363087.7896377845, 7188125.975171355], [362959.17625728337, 7188235.437227914], [363035.0, 7188320.0], [362908.8125, 7188310.6875], [362798.97445357975, 7188382.134329344], [362716.5228378938, 7188345.768325018], [362600.1212172827, 7188438.773846023], [362663.3333333333, 7188562.5], [362547.4518538491, 7188691.686334353], [362322.60042502044, 7188522.163172705], [362210.0, 7188645.0], [362186.1619904711, 7188608.124404447], [361937.1995780127, 7188804.798324284], [361640.0, 7188865.0], [361552.3174718489, 7188789.182104371], [361496.0, 7188795.0], [361513.6879751066, 7188727.297750454], [361427.2018348624, 7188555.688073395], [361388.1668179456, 7188543.165964771], [361348.09251511097, 7188427.819046598], [361265.79073744646, 7188350.7186804265], [361272.5301204819, 7188303.554216867], [361218.0, 7188317.0], [361090.8689367145, 7188234.691119657], [360953.24324324325, 7188292.297297297], [360874.2311966268, 7188260.692478651], [360729.36743011913, 7188377.649556917], [360556.10921816004, 7188309.133898149], [360502.62927839207, 7188340.1485252045], [360320.9163410821, 7188195.123618491], [360246.9782521559, 7188268.474498045], [360093.3333333333, 7188342.777777778], [359997.0005221825, 7188275.321807776], [359865.4340836013, 7188289.4372990355], [359709.33272529504, 7188218.631962495], [359788.16379583784, 7188129.117821687], [359804.841142975, 7187924.425565925], [359869.9249746961, 7187906.977559975], [359980.00943826075, 7187742.504719131], [359905.0, 7187705.0], [359895.0, 7187640.0], [359979.7497412826, 7187571.140835208], [359971.4558814585, 7187447.709520947], [360025.0, 7187320.0], [359949.14410083974, 7187081.252863815], [360010.79143102816, 7187034.989406352], [359955.9555291857, 7187021.659226611], [359865.0, 7186950.0], [359865.0, 7186896.0], [359785.1677447648, 7186896.659357526], [359790.17679349886, 7186826.526826759], [359653.4018000165, 7186688.522277191], [359398.59590934217, 7186696.973466003], [359337.10463237367, 7186652.085799143], [359169.7640974066, 7186594.861712273], [359126.5078915043, 7186634.586720174], [359145.9791290919, 7186692.935641705], [358931.5351812367, 7186793.464818764], [358954.31192660553, 7186856.743119266], [358775.50674344343, 7186838.6758837225], [358694.7617098857, 7186880.922610442], [358755.0, 7186980.0], [358634.0868689802, 7187037.462729607], [358625.0, 7187093.333333333], [358513.5852869846, 7187050.662894099], [358438.8780956338, 7187144.414831109], [358400.0, 7187095.0], [358369.7753176992, 7187139.448062208], [358270.397032006, 7187153.184343648], [358189.03729189426, 7187129.767068339], [358080.0, 7187195.0], [358036.01906062115, 7187115.340255717], [357901.8617097021, 7187188.88583146], [357662.1860259528, 7186975.703493512], [357625.0, 7186985.0], [357489.60459598934, 7186896.579590005], [357424.2160014405, 7186975.435187231], [357275.6691847614, 7186889.011847487], [357237.6023391813, 7186945.350877193], [357104.57292744814, 7186828.823088754], [356961.11286022817, 7186864.721525693], [356804.56603773584, 7186777.075471698], [356609.6880996703, 7186853.895507525], [356492.85714285716, 7186762.142857143], [356354.13128107996, 7186844.512173426], [356288.6842105263, 7186783.157894737], [356263.5950413223, 7186795.702479339], [356304.7180312209, 7187089.34383395], [356255.3629097846, 7187234.082653748], [356165.0, 7187338.0], [356102.8971962617, 7187305.523364486], [355970.0, 7187465.0], [355821.88737469574, 7187438.291165928], [355633.47332576616, 7187481.980703746], [355524.1096009379, 7187443.972599765], [355358.18089069787, 7187455.066609505], [355268.8550082389, 7187504.5380037045], [355111.28585451696, 7187511.142436449], [355100.0, 7187545.0], [354957.52166610165, 7187520.555555556], [354879.03322437225, 7187463.75793279], [354745.98062953993, 7187570.012106538], [354704.26514180953, 7187554.403322587], [354605.07502420136, 7187640.786544046], [354540.0, 7187635.0], [354421.75125261233, 7187508.938587521], [354431.086995963, 7187333.063703195], [354330.7244312052, 7187211.36819994], [354266.6666666667, 7187268.333333333], [354175.92776268715, 7187206.127561269], [354100.173799184, 7186995.714119183], [354117.8422548555, 7186941.236380862], [354041.00682894164, 7186903.828814755], [354115.98, 7186872.46], [354147.90291803307, 7186746.060917208], [353985.32258064515, 7186681.612903226], [353972.14285714284, 7186615.714285715], [353866.6484725045, 7186562.021438826], [353636.1101455104, 7186402.409109844], [353536.95652173914, 7186443.695652174], [353476.8386401967, 7186374.60295044], [353389.742703206, 7186435.5423618965], [353306.0973495148, 7186345.031589794], [353215.5263157895, 7186409.47368421], [353182.9866624325, 7186401.225785964], [353140.0, 7186445.0], [353050.0, 7186395.0], [352967.5806451613, 7186431.29032258], [352925.0, 7186410.0], [352968.63636363635, 7186349.834710744], [352825.48496351455, 7186196.9776738025], [352872.5325774962, 7186117.232340817], [352743.0, 7186058.0], [352821.9301340861, 7185986.894848271], [352795.0, 7185850.0], [352861.5286792634, 7185750.177412376], [352846.30349794833, 7185696.683491645], [352989.96294338134, 7185530.877993339], [353098.647308776, 7185480.162003407], [353043.8447077845, 7185318.48640777], [352988.9768362965, 7185354.729063309], [352919.5258495231, 7185323.544307618], [352610.5263157895, 7185354.298245614], [352561.78265371965, 7185402.468635566], [352436.33740259166, 7185319.326835126], [352350.7560275379, 7185361.656283182], [352129.9396579933, 7185156.379747693], [351985.01220814895, 7185222.046390966], [351968.19327731093, 7185286.806722689], [352020.7458836436, 7185338.540910538], [351948.2252121614, 7185418.402698181], [351875.0, 7185550.0], [351951.54362416104, 7185696.275167786], [351897.2727272727, 7185768.636363637], [351715.34856113547, 7185770.964953745], [351407.6319235266, 7185539.630373135], [351321.33221850614, 7185565.0], [351261.65898617514, 7185523.66359447], [351216.0490262061, 7185663.081468691], [351003.37276903266, 7185773.133790629], [350776.3661719043, 7185542.140800355], [350719.4630872483, 7185561.845637584], [350641.4023228828, 7185509.735769006], [350551.33169423335, 7185573.537773804], [350476.3513649613, 7185396.595542075], [350497.2972972973, 7185369.864864865], [350382.5102711586, 7185319.03040263], [350352.85714285716, 7185275.0], [350265.94007364055, 7185256.406560612], [350154.18487230834, 7185148.119331999], [350165.0, 7185120.0], [350109.71418014023, 7185053.482164205], [349871.30856569007, 7185052.819057183], [349837.28788229637, 7185109.520196172], [349775.8783074359, 7185091.519374611], [349648.75, 7185213.75], [349619.7584745763, 7185195.300847458], [349541.4183993765, 7185296.0346779805], [349429.219186882, 7185232.917811673], [349096.0647390164, 7185553.589255489], [349010.46431758424, 7185522.902517009], [348717.9178597799, 7185643.2824508855], [348667.2389937107, 7185613.86163522], [348698.3333333333, 7185563.333333333], [348647.3563218391, 7185512.356321839], [348603.1390577671, 7185520.770048765], [348520.04868670204, 7185451.094409644], [348350.4852038694, 7185472.076927744], [348290.0, 7185535.0], [348216.34801069496, 7185506.698215249], [347905.296428903, 7185737.6788678765], [347824.08190937486, 7185650.17280898], [347566.92737430165, 7185768.0726256985], [347339.1453178859, 7185759.171253129], [347320.5109489051, 7185715.510948905], [347238.7694615055, 7185720.654192259], [347191.7163541622, 7185606.716354162], [347166.1451482146, 7185618.612094606], [346865.45454545453, 7185390.454545454], [346843.2091332584, 7185417.825628663], [346544.28418424196, 7185383.748912853], [346497.74411554437, 7185323.794535014], [346353.679245283, 7185387.547169811], [346062.9171919461, 7185242.654466331], [346138.7247591392, 7185006.750479315], [345890.4068024007, 7184834.255438675], [345738.3486154161, 7184663.104479252], [345811.53234092, 7184526.85669621], [345898.8081601743, 7184444.247505052], [345732.6170798898, 7184272.768595042], [345662.2164410423, 7184299.911334565], [345544.23589093215, 7184275.107799619], [345380.2350070197, 7184112.970117464], [345398.30901460996, 7184038.385877582], [345290.0, 7183935.0], [345215.4666094703, 7183916.453588671], [344988.798938288, 7183793.075646981], [344841.0979636538, 7183855.742726977], [344770.234670704, 7183912.872823618], [344711.728161555, 7183855.617470756], [344600.0, 7183945.0], [344463.9276977511, 7183941.620946327], [344409.8083453614, 7183822.38022169], [344352.2727272727, 7183863.636363637], [344231.3581948621, 7183825.528256888], [344134.40476190473, 7183700.198412699], [344090.0, 7183715.0], [344034.3163318477, 7183616.466258384], [343845.2427109444, 7183508.558587555], [343600.5996160522, 7183245.900041001], [343524.50308209064, 7183317.218413184], [343455.97668705997, 7183276.744456422], [343310.0, 7183355.0], [343176.27906976745, 7183355.0], [343117.39573456533, 7183418.262804642], [343134.016424864, 7183227.39587834], [342810.03105598036, 7183016.46540754], [342802.816223284, 7182964.260811653], [342655.0, 7182910.0], [342668.3333333333, 7182840.69317868], [342761.6237691946, 7182757.021853643], [342673.8888888889, 7182668.333333333], [342727.2392086331, 7182627.895683453], [342642.1443145699, 7182605.547953154], [342394.54545454547, 7182642.2727272725], [342310.727094881, 7182573.461036844], [342244.50875365874, 7182562.471213687], [342237.95408858865, 7182520.4695040705], [342095.0, 7182486.666666667], [342030.0, 7182505.0], [341883.91928109725, 7182370.844237742], [341588.772632779, 7182263.772632779], [341551.40748398955, 7182226.407483989], [341414.7689393939, 7182221.666666667], [341250.27777777775, 7182310.213675214], [340877.6311639908, 7182264.351843684], [340754.85840113705, 7182382.048995168], [340462.59628323116, 7182248.228040461], [340293.4188034188, 7182224.05982906], [340187.5, 7182292.5], [340132.0, 7182237.0], [339988.86666666664, 7182237.2], [339965.1849962585, 7182342.091211454], [339843.3333333333, 7182408.333333333], [339722.8402366864, 7182322.810650888], [339633.9212091901, 7182330.82002237], [339495.1219512195, 7182418.902439024], [339475.2167673833, 7182483.539549308], [339300.54462706455, 7182492.050088219], [339022.7659574468, 7182577.765957447], [338896.36363636365, 7182451.363636363], [338838.35439453344, 7182489.131836697], [338717.8303647383, 7182457.519432664], [338796.3221104496, 7182352.644220899], [338740.31322374917, 7182281.289099593], [338828.71343276923, 7182179.259423574], [338722.0, 7182077.0], [338628.9053254438, 7182152.396449704], [338512.2035856666, 7182055.468094408], [338452.40105778835, 7182137.969347389], [338368.0590405904, 7182157.782287823], [338323.7623740995, 7182098.308408043], [338229.62025316455, 7182150.189873418], [338181.4285714286, 7182220.714285715], [338035.1723324346, 7182309.650170522], [338017.5836475538, 7182069.856822274], [337977.5, 7182027.5], [338004.2899408284, 7181979.408284023], [337887.10157180036, 7181872.990476429], [337703.8173012911, 7181898.751935148], [337671.53774893645, 7181970.55008212], [337554.83312731766, 7182008.226205192], [337509.2319432745, 7181979.854949729], [337450.1142654709, 7182046.711103509], [337187.7638629474, 7182081.574910439], [337152.3748785796, 7182139.289435047], [337001.6666666667, 7182133.333333333], [336918.97090594843, 7182245.89514619], [336872.5698741504, 7182380.400619079], [336712.61000507226, 7182430.440020289], [336674.36573042267, 7182226.74939299], [336238.6956521739, 7182505.434782608], [336180.0, 7182435.0], [336100.83569979714, 7182448.054766734], [335961.92047116, 7182397.711229175], [335826.41798911715, 7182431.1311565135], [335840.1469693011, 7182583.081876969], [335634.6017341093, 7182719.6311472785], [335565.74528070685, 7182576.684235859], [335321.7599283792, 7182294.175235582], [335351.7327972365, 7182163.044653657], [335146.68, 7181961.6], [335138.003924287, 7181878.922442226], [335175.0, 7181830.0], [335115.576992427, 7181735.4345474215], [335027.69917791535, 7181676.791332589], [334974.0, 7181719.0], [334849.3960984916, 7181684.823061057], [334713.57897528657, 7181548.673875466], [334410.3716923734, 7181504.628307627], [334236.523217833, 7181526.413023485], [334134.89115566894, 7181443.103127207], [334011.6666666667, 7181426.666666667], [333940.0, 7181475.0], [333849.2792792793, 7181387.972972973], [333810.0896860987, 7181424.147982063], [333600.0, 7181275.0], [333535.4512635379, 7181287.996389892], [333497.4495260717, 7181361.239017532], [333450.0, 7181315.0], [333410.0, 7181335.0], [333284.2290487336, 7181266.457695108], [333274.68535739655, 7181005.683672029], [333069.26830501354, 7181121.623710658], [333073.15446789406, 7181070.77233947], [333023.09566787, 7181094.232851986], [332801.5436241611, 7181086.140939597], [332779.58005249343, 7181035.0], [332631.133912435, 7181131.1976476405], [332651.96636344405, 7181286.399407658], [332596.6666666667, 7181268.333333333], [332555.3333333333, 7181309.666666667], [332410.1496146032, 7181293.932470548], [332241.6598524522, 7181159.066022416], [332138.5202548346, 7181152.697486764], [332052.0949994689, 7181091.841189199], [331971.88680462644, 7181094.175581054], [331726.52908023185, 7180821.460888147], [331678.48286452796, 7180697.321909686], [331293.28168736154, 7180719.506965633], [331268.3242443533, 7180702.02027844], [331216.5714170676, 7180725.192284463], [331160.0, 7180665.0], [331066.25, 7180731.25], [330914.9223073648, 7180733.076841209], [330872.54872121144, 7180659.869633156], [330722.733976177, 7180714.337217896], [330556.81818958756, 7180632.423033699], [330577.5, 7180557.5], [330393.0947267337, 7180240.819852211], [330406.0863142174, 7180138.179367338], [330367.7272727273, 7180052.7272727275], [330417.04774796945, 7179987.282795964], [330405.66311033233, 7179865.213269079], [330512.5, 7179747.5], [330497.4901736774, 7179620.646042044], [330689.89156398515, 7179510.772562436], [330746.7314111654, 7179518.268588834], [330897.55430312036, 7179437.44569688], [330882.0698197869, 7179275.264072106], [330947.5581395349, 7179263.720930233], [330926.5836177474, 7179152.252559727], [330990.3393226436, 7179001.346300081], [331193.7166195162, 7178747.229138848], [331064.1298527443, 7178664.350736278], [331074.01808365976, 7178578.977897749], [331011.62108615355, 7178422.3193268925], [331050.4799881724, 7178354.906476104], [330883.3333191313, 7178062.866888505], [331308.46932686015, 7177765.440465044], [331461.45454545453, 7177769.363636363], [331567.59155927476, 7177659.904526286], [331808.23529411765, 7177793.235294118], [331842.6961081775, 7177765.645171958], [331969.15783507586, 7177854.157835076], [332183.2860982068, 7177913.74015144], [332336.13678373385, 7178050.545286506], [332380.0, 7178025.0], [332433.76094404265, 7178107.626570232], [332427.61904761905, 7178195.0], [332602.78372591006, 7178223.779443255], [332650.0, 7178195.0], [332717.31110833125, 7178292.60382787], [332777.95454545453, 7178232.954545454], [332759.54545454547, 7178214.545454546], [332953.161651417, 7178039.521737069], [333166.19967153005, 7178058.184965155], [333310.36905517237, 7178025.446520219], [333381.1267605634, 7178111.056338028], [333437.9202074118, 7178117.180834007], [333512.7272727273, 7178237.7272727275], [333614.3860247833, 7178125.65990988], [333632.55895988713, 7178120.888933683], [333724.196158204, 7177976.902990123], [333813.3333333333, 7178013.888888889], [333856.6666666667, 7177986.111111111], [333981.46211972577, 7178029.318004934], [334226.8921161826, 7177813.385892116], [334184.80295105005, 7177769.795924741], [334234.3317930092, 7177701.874375346], [334164.87026799336, 7177603.919136633], [334233.3331525701, 7177499.286101636], [334345.88860110275, 7177453.0142080095], [334356.6666666667, 7177355.0], [334414.28571428574, 7177355.0], [334411.5838150289, 7177296.895953758], [334529.25624879857, 7177161.837626399], [334303.1131289298, 7177028.812544259], [334335.51596679393, 7177014.509180149], [334384.12535564735, 7176874.693948469], [334356.69712793734, 7176853.211488251], [334403.31873076013, 7176823.716552214], [334723.0461662599, 7176327.938134842], [334907.375404007, 7176281.418230553], [334971.2879300655, 7176097.110435568], [334771.67716373754, 7175927.197886178], [334785.0, 7175783.279220779], [334741.8678368197, 7175755.568906528], [334763.46153846156, 7175691.538461538], [334690.49864344916, 7175602.254918957], [334781.69806801854, 7175516.084943318], [334712.8301886792, 7175475.0], [334605.0, 7175504.444444444], [334605.0, 7175440.0], [334537.8900343127, 7175353.12505366], [334619.89824014815, 7175241.466849508], [334678.3333333333, 7175213.333333333], [334635.44484940293, 7175170.444849403], [334658.1529451211, 7174999.768822388], [334881.29942695727, 7174525.256484644], [334859.79334458214, 7174502.960074724], [335078.0344048618, 7174361.923810238], [335038.6551191225, 7174254.356850473], [334930.6277955239, 7174302.611844999], [334934.19203747076, 7174134.039812647], [334799.8459557197, 7174031.165018206], [334678.84101080993, 7174101.310057358], [334658.80882883084, 7174074.377940297], [334873.4210526316, 7173792.631578947], [334845.0, 7173750.0], [334915.98248193046, 7173660.68880463], [334985.64567616105, 7173687.6048186645], [335175.0, 7173560.0], [335156.4599561274, 7173525.740919161], [335405.0, 7173300.0], [335393.40256662737, 7173233.23263036], [335614.06648921693, 7172993.281384108], [335635.0, 7172830.0], [335789.0540836288, 7172757.503960645], [335916.8244567916, 7172792.2787680365], [335966.320754717, 7172633.018867925], [336044.0909090909, 7172612.7272727275], [336044.50826555304, 7172469.940806711], [336145.0, 7172440.0], [336109.7697368421, 7172381.282894737], [336016.6666666667, 7172395.0], [335926.70063167677, 7172328.631613532], [336002.2868166754, 7172274.502309596], [336185.4307116105, 7172265.898876404], [336362.59085434786, 7172295.026424028], [336548.9124707203, 7172230.884451841], [336552.3908854523, 7172102.609114547], [336605.0, 7172050.0], [336581.0, 7172012.0], [336632.2727272727, 7171986.363636363], [336664.35294117645, 7172025.0], [336711.7802130296, 7172006.724103358], [336806.3210702341, 7172086.839464883], [336862.7272727273, 7172058.636363637], [337040.0, 7172135.0], [337169.4119712747, 7172051.255961495], [337293.07692307694, 7172045.769230769], [337371.9983786072, 7172113.538712928], [337417.2418968696, 7172035.0785400765], [337473.8888888889, 7172069.444444444], [337545.0, 7171970.0], [337493.02987861814, 7171859.29038282], [337523.6666666667, 7171762.666666667], [337586.13893376413, 7171771.591276252], [337733.63636363635, 7171712.2727272725], [337760.5889565699, 7171766.630804525], [337916.6666666667, 7171838.333333333], [337952.5, 7171802.5], [338000.2964448902, 7171835.202830714], [338115.31895066774, 7171806.926185865], [338298.0274450259, 7171943.035266374], [338305.2988836874, 7171990.622974433], [338396.22024326766, 7172029.22956368], [338355.0, 7172080.0], [338493.02861995716, 7172137.742327291], [338541.1887957548, 7172238.370861039], [338504.20792448334, 7172261.332951336], [338530.6240584094, 7172410.49922393], [338613.3333333333, 7172395.0], [338585.4411764706, 7172522.279411765], [338500.0, 7172565.0], [338455.48374410067, 7172724.996067121], [338505.0, 7172720.0], [338455.0, 7172798.0], [338457.0540835533, 7172909.170240402], [338295.0, 7172960.0], [338336.6172107824, 7173025.535148013], [338290.13862633903, 7173226.54694392], [338168.47563974425, 7173303.475639745], [338195.0, 7173330.0], [338023.02001412364, 7173457.986657251], [338051.65960028034, 7173486.507125534], [337972.49036230246, 7173532.320220027], [338151.6666666667, 7173723.333333333], [338125.0, 7173790.0], [338150.0, 7173815.0], [338371.4270874706, 7173783.690538022], [338565.90595777746, 7173881.357942898], [338608.5148282464, 7173854.487224972], [338638.3209648788, 7173921.239708435], [338730.6451612903, 7173924.354838709], [338737.39130434784, 7173863.695652174], [338840.0, 7173775.0], [338947.641282347, 7173764.37339415], [338985.6432463992, 7173787.413761298], [339095.8659217877, 7173789.134078212], [339079.04078176146, 7173823.9791238485], [339120.0, 7173885.0], [339198.60655737703, 7173890.163934426], [339220.0, 7173945.0], [339300.98025700427, 7173874.991261686], [339450.2240896358, 7173875.224089636], [339594.0486908719, 7173933.159393512], [339739.1930363578, 7173944.532725209], [339867.0084404601, 7174145.693357325], [339768.03532670793, 7174296.849579221], [339810.0, 7174345.0], [339842.2005571031, 7174324.2200557105], [339991.80719980673, 7174360.578642184], [340084.14634146343, 7174334.756097561], [340122.02333294577, 7174375.505096749], [340236.48667383473, 7174264.692605413], [340478.89304543944, 7174156.362376987], [340551.46612310305, 7174181.007252486], [341115.7330722722, 7173662.9686241895], [341343.39550804347, 7173880.049264214], [341481.8772119544, 7173880.289520252], [341633.4014137666, 7173811.243699022], [341569.95229007635, 7173797.31870229], [341569.44444444444, 7173715.555555556], [341651.5, 7173633.5], [341612.5, 7173572.5], [341685.6313408123, 7173468.942022732], [341965.64053537283, 7173405.095602294], [342040.0, 7173495.0], [342083.3333333333, 7173495.0], [342065.4851828758, 7173402.113304236], [342141.7692985621, 7173304.996072281], [342118.49717504886, 7173230.774900996], [341841.48453636066, 7173174.522016783], [341724.40005381766, 7173030.453614282], [341903.27179774165, 7172959.23296217], [342147.4189294807, 7172982.97532869], [342263.61549328937, 7172890.503885095], [342335.0, 7172933.571428572], [342331.9077401998, 7172986.768216191], [342500.30227399257, 7173055.597270313], [342697.6510067114, 7173052.114093959], [342720.0, 7173095.0], [342816.98334335006, 7173077.3246254865], [342884.28571428574, 7172895.0], [342798.4451336488, 7172889.353178156], [342804.29880376684, 7172809.55841181], [342960.0, 7172755.0], [343024.3606333647, 7172787.943007944], [343146.92296523, 7172707.170279147], [343129.8132912007, 7172579.208696636], [343028.7540326438, 7172521.679502065], [343090.9191919192, 7172420.202020202], [343075.8823529412, 7172385.0], [343197.12991038186, 7172404.657623491], [343176.4285714286, 7172308.571428572], [343218.63636363635, 7172266.363636363], [343157.3930402579, 7172221.743500759], [343328.8272332128, 7172061.177032133], [343420.0, 7172075.0], [343443.5714285714, 7172028.571428572], [343412.60932944604, 7172020.942662779], [343464.2753901019, 7171997.666297536], [343743.3333333333, 7172055.0], [343631.3248942384, 7171856.908801791], [343480.03469008155, 7171863.395193552], [343348.8181221274, 7171815.472751149], [343107.3214285714, 7171857.678571428], [343060.0, 7171905.0], [342929.50825395243, 7171768.718517779], [342838.07602907455, 7171767.031039063], [342916.73913043475, 7171604.782608695], [342855.0, 7171560.0], [342877.3397016488, 7171502.211462968], [342755.0, 7171380.0], [342814.8581560284, 7171346.737588652], [342869.7456340167, 7171187.372817009], [342835.0, 7171170.0], [342946.4387217942, 7171100.60838209], [342939.6939593937, 7171007.855855852], [343100.1278861958, 7170846.313719106], [343155.0, 7170832.420382165], [343177.2909694233, 7170696.624976058], [343320.0, 7170545.0], [343436.28571428574, 7170555.571428572], [343483.7457934248, 7170470.304167746], [343741.11589008896, 7170505.005076625], [343835.801415146, 7170323.353530816], [344029.0298507463, 7170297.164179104], [344135.0, 7170170.0], [344106.09051706217, 7170146.635775593], [344229.32960061694, 7170054.847407122], [344295.0, 7170056.666666667], [344265.0, 7170000.0], [344310.8546785154, 7169872.524830109], [344553.3333333333, 7169945.0], [344617.2762329002, 7169918.206700229], [344752.52327483473, 7169977.811268463], [344737.484503966, 7170134.191992534], [344972.5055261473, 7170293.103670408], [345131.70460615394, 7170260.710447707], [345399.4032186491, 7170471.776737489], [345505.1933809016, 7170616.813057153], [345477.4820143885, 7170658.741007194], [345627.17236029677, 7170713.917141003], [345815.34768183465, 7170599.815942916], [346038.8422264756, 7170599.9948531], [346142.18096698204, 7170658.369497744], [346059.38611880067, 7170866.841643598], [346147.43755509844, 7170916.379175237], [346170.35486402316, 7170894.363900612], [346414.15771007334, 7171038.211988928], [346594.0490029729, 7170956.977600209], [346859.2387402845, 7170984.070972544], [346965.5857278878, 7170885.569255493], [347107.648329635, 7170897.351670365], [347140.0, 7170865.0], [347223.8036809816, 7170879.601226994], [347548.5788452827, 7170808.312609061], [347660.4081632653, 7170713.1632653065], [347761.1820096207, 7170741.530564544], [348055.8931105423, 7170441.398547078], [348207.77777777775, 7170477.222222222], [348297.07951086614, 7170588.660386188], [348367.9515418502, 7170404.096916299], [348407.2727272727, 7170428.636363637], [348444.39024390245, 7170379.146341464], [348415.0, 7170350.0], [348470.0, 7170295.0], [348571.04225158034, 7170306.004357786], [348725.42943318543, 7170087.696096226], [348613.4353893524, 7170033.931515694], [348571.3388656934, 7170072.918991232], [348423.32898050616, 7169943.090120534], [348395.6854324697, 7169971.167139276], [348273.9358414511, 7169851.072892173], [348263.73163014423, 7169739.921134901], [348132.5, 7169537.5], [348247.34463333583, 7169379.349312839], [348215.5310093706, 7169335.693363094], [348363.7595064002, 7169190.782707597], [348333.125, 7169158.125], [348556.9628349238, 7169019.245657971], [348673.07692307694, 7168987.307692308], [348636.8397059249, 7168852.3664939655], [348755.0, 7168800.0], [348783.0918495386, 7168667.862973746], [348961.8192936659, 7168606.83373824], [348997.22222222225, 7168493.333333333], [349071.1950224824, 7168426.226436035], [349125.10638297873, 7168480.957446809], [349497.70058781916, 7168273.40494908], [349866.93103341927, 7168508.718496535], [349735.73580888356, 7168603.909045475], [349791.7267067606, 7168678.568406419], [349894.6943231441, 7168609.694323144], [350006.601562099, 7168652.17953207], [350069.84624542715, 7168577.576047523], [350178.57394145336, 7168545.0], [350326.3445965496, 7168672.269881441], [350331.2, 7168737.4], [350395.9377993739, 7168795.008592338], [350330.5882352941, 7168842.647058823], [350358.2905970179, 7168874.546748081], [350533.00976884976, 7168707.536048432], [350656.9787602621, 7168778.217967047], [351107.1984090082, 7168549.54902097], [351203.48684232874, 7168551.052630685], [351220.0, 7168485.0], [351447.72480913246, 7168506.257556171], [351523.2857771657, 7168387.35063798], [351625.2734324023, 7168424.630749977], [351882.0, 7168647.0], [351895.14573822456, 7168623.629798712], [352107.15980309545, 7168773.320632161], [352225.07491885166, 7168776.613658695], [352547.89337833185, 7168561.989504298], [352620.0, 7168655.0], [352712.596627604, 7168601.64330934], [352776.4537984447, 7168633.105787738], [353040.72804349865, 7168417.895147084], [353107.0551956964, 7168394.848241245], [353281.0425764192, 7168247.625545852], [353326.25, 7168288.75], [353305.0, 7168310.0], [353436.11686390534, 7168327.581360946], [353596.8458317144, 7168429.244268877], [353682.35294117645, 7168357.352941177], [353740.625, 7168415.625], [353671.3482863812, 7168462.6118861325], [353752.056, 7168594.416], [353738.7551242719, 7168682.383501312], [353833.76688578085, 7168789.4432488], [353877.4196821711, 7168786.223089296], [353962.09026128263, 7168877.090261282], [354077.6670525956, 7168815.053468122], [354264.2734545034, 7168934.153007121], [354582.89204000874, 7168814.699042672], [354665.2896850757, 7168909.902710252], [354864.44019536854, 7168977.218975913], [354948.09148742806, 7168942.7521963045], [355024.42307692306, 7169032.653846154], [354986.02869853587, 7169077.203276641], [354962.77777777775, 7169274.444444444], [355018.1302023756, 7169404.708084489], [354929.9193548387, 7169476.5322580645], [355007.9622899254, 7169577.58173342], [355155.0, 7169580.0], [355105.4761904762, 7169641.428571428], [355121.287593985, 7169699.520676692], [355075.2160756966, 7169764.060823419], [355173.8965727607, 7169897.0648743985], [355602.4800340995, 7169796.78381873], [355848.7576980214, 7169668.9414314795], [356009.5410447391, 7169738.330884951], [356254.0, 7169725.0], [356235.562319369, 7169797.188403155], [356346.26794509846, 7169742.594897952], [356465.0, 7169940.0], [356333.040713176, 7170064.387550127], [356250.14180063206, 7170173.488515845], [356320.6769731308, 7170228.883609864], [356410.0, 7170225.0], [356443.0524314853, 7170249.610235049], [356354.23076923075, 7170346.153846154], [356371.43149982917, 7170398.0645712335], [356236.3154788845, 7170478.4821397485], [356294.63297458127, 7170588.986867435], [356232.95673076925, 7170683.918269231], [356317.62423155736, 7170678.823002049], [356285.30878645316, 7170807.382626737], [356558.901252312, 7170770.9219273], [356598.06192660553, 7170824.162844037], [356375.9346237141, 7170940.934623715], [356426.8582717679, 7171036.506517512], [356334.0064716793, 7171088.32990693], [356304.63135463663, 7171161.7921508765], [356240.5917356183, 7171169.924570784], [356068.07692307694, 7171288.461538462], [356056.26662810874, 7171378.577212261], [356172.64034332114, 7171433.712142364], [356165.0164179825, 7171497.376502969], [356266.90476190473, 7171572.857142857], [356207.3072747014, 7171604.022801303], [356268.81052115595, 7171725.967113032], [356403.0563422039, 7171726.932276622], [356464.0548680491, 7171680.045416942], [356545.0, 7171709.714285715], [356507.0813033153, 7171788.6571977185], [356530.0, 7171845.0], [356580.0, 7171845.0], [356635.71428571426, 7171915.0], [356720.3614959566, 7171898.948191374], [356800.20312929695, 7171993.65934664], [356797.82441685395, 7172034.91859088], [356956.92307692306, 7172123.461538462], [357036.8141063957, 7172092.346084878], [357026.6666666667, 7172155.0], [357086.18286563834, 7172155.0], [357172.0234113712, 7172244.983277592], [357077.1480440852, 7172312.751397082], [357201.52935372473, 7172382.686235816], [357236.51429207425, 7172353.9480055105], [357383.914269424, 7172399.206038405], [357365.7467973983, 7172476.98267555], [357444.1538461539, 7172450.282051282], [357528.71016691957, 7172518.520485585], [357614.8618746466, 7172409.93906173], [357765.0, 7172405.714285715], [357774.36936936935, 7172498.06949807], [357845.0, 7172560.0], [357818.8461538461, 7172638.461538462], [357888.3333333333, 7172646.666666667], [357899.6296296296, 7172703.148148148], [358049.88823533646, 7172648.842921638], [358075.0653594771, 7172711.895424836], [358170.0, 7172685.0], [358290.8768667391, 7172826.770612805], [358215.2111613876, 7172889.8190045245], [358247.50371523603, 7172944.8036232395], [358130.70014872175, 7173026.035777224], [358205.5054967744, 7173247.022418581], [358221.15448506287, 7173253.907973427], [358175.0, 7173471.583372256], [358269.73451327434, 7173437.920353983], [358321.4285714286, 7173473.571428572], [358382.71698113205, 7173449.528301887], [358324.7984313237, 7173610.646253835], [358362.2727272727, 7173637.2727272725], [358319.6941686294, 7173693.771199319], [358358.4427388027, 7173783.442738803], [358439.0360831368, 7173801.575577399], [358437.7144795503, 7173867.967047878], [358530.9734530126, 7173921.018934282], [358495.2409638554, 7173974.742606791], [358635.0, 7174020.0], [358599.209074523, 7174104.774401001], [358519.70925625344, 7174113.887891059], [358412.72156315425, 7174205.830425681], [358374.0927931542, 7174177.953603423], [358194.80388233793, 7174200.196117662], [358158.65079365077, 7174236.349206349], [358241.4182617789, 7174420.85168898], [358207.6944971537, 7174471.973434535], [358250.0, 7174535.0], [358335.2704121817, 7174554.751903387], [358293.0, 7174588.0], [358390.60247438686, 7174684.147081101], [358348.88196984684, 7174749.443032755], [358416.7590076254, 7174760.280858124], [358416.73640520935, 7174917.672756542], [358806.47019818577, 7174920.845950179], [358872.4613686534, 7175037.06401766], [358925.0, 7175040.0], [358867.29893403244, 7175152.254801064], [358903.7169891288, 7175326.256602175], [359010.0, 7175305.0], [359019.4454049005, 7175340.53712147], [359102.68667237525, 7175344.897991526], [359130.64402442024, 7175413.937727562], [359036.25, 7175468.75], [359161.180188536, 7175533.272216452], [359000.41622543713, 7175689.963651015], [359140.1151295072, 7175668.16415886], [359310.0808715156, 7175716.506921327], [359434.13808408583, 7175809.969484642], [359363.67445742904, 7175869.759599332], [359399.73656689486, 7176003.018162163], [359595.3670341094, 7175974.258453134], [359767.6068719726, 7175994.690097156], [360024.30093209055, 7175946.051930759], [360305.6738840694, 7176134.053490113], [360382.9411764706, 7176072.647058823], [360423.59444648394, 7176143.203151173], [360849.63063152763, 7176098.815445125], [360912.08764942567, 7176043.138993567], [361006.59479040885, 7176051.594790408], [361175.73355916137, 7175893.307216839], [361251.94315796933, 7175989.563059945], [361593.65633350017, 7176221.432947613], [361825.0727982507, 7176315.0823700745], [361810.1515151515, 7176344.545454546], [361936.12827132037, 7176486.269305236], [362048.5909204306, 7176473.978030202], [362118.46496398165, 7176524.655907943], [362235.1612903226, 7176419.838709678], [362444.325646543, 7176480.689375178], [362561.0482090487, 7176374.995716216], [362607.4594048252, 7176399.943331857], [362726.4871981115, 7176588.114266054], [362844.87486260093, 7176640.423031497], [362833.6956521739, 7176766.521739131], [362915.0, 7176820.0], [362898.1952662722, 7176874.615384615], [362955.38232436316, 7177013.053102953], [363031.27316917275, 7177066.2890580315], [363004.5236163107, 7177111.4291510675], [363114.7360746942, 7177201.595219747], [363312.1819527151, 7177255.930877375], [363265.83165005816, 7177356.72010717], [363065.0, 7177570.0], [363129.47831184056, 7177722.274325908], [363195.0, 7177770.0], [363180.6455127993, 7177872.147788667], [363550.3253504363, 7178091.724147451], [363606.6478986527, 7178058.581339232], [363793.5227272727, 7178131.4772727275], [363826.7407145394, 7178098.25928546], [364137.2592854606, 7178187.74071454], [364177.5675675676, 7178147.432432433], [364227.4879719897, 7178165.377999861], [364398.82352941175, 7178083.823529412], [364454.9167733675, 7178129.250960307], [364425.07498592563, 7178175.252439074], [364585.0, 7178250.0], [364595.6268182229, 7178386.504419519], [364761.0275857851, 7178474.657471405], [365001.4396531876, 7178543.845598138], [365158.15470343427, 7178437.920949957], [365337.14285714284, 7178577.857142857], [365374.0625, 7178540.9375], [365432.9836401864, 7178579.290430383], [365517.97389331175, 7178541.915875941], [365591.80769634055, 7178595.0], [365671.6143913885, 7178516.614391388], [365710.0, 7178555.0], [365874.37070598017, 7178570.071833885], [366010.7818181818, 7178395.2727272725], [366004.44444444444, 7178365.0], [365930.0, 7178365.0], [365791.6552996782, 7178219.695389023], [365732.7774307062, 7178229.736163835], [365573.4901903832, 7178171.451618872], [365587.83150325617, 7177836.128840842], [365657.7169429257, 7177607.147815408], [365918.54545454547, 7177343.545454546], [365969.0377845576, 7177384.744191504], [366070.0, 7177295.0], [366097.41878425534, 7177388.337684384], [366261.74834256555, 7177521.200675162], [366305.14504697546, 7177664.405801879], [366457.39636058325, 7177790.702729562], [366402.04697986576, 7177832.214765101], [366460.0, 7177975.0], [366500.5809411174, 7177970.1625273265], [366540.90909090906, 7178115.0], [366580.0, 7178115.0], [366758.6912682902, 7178262.89623788], [366706.1111111111, 7178411.111111111], [366825.0, 7178530.0], [366812.1508640822, 7178608.9304063525], [366981.78743922076, 7178854.9843310965], [367168.59872611467, 7178696.252653928], [367261.1399802905, 7178694.629123153], [367428.64762366953, 7178548.536074077], [367520.0, 7178535.0], [367593.7341772152, 7178621.898734177], [367558.9454256967, 7178710.649164435], [367746.01327218604, 7178757.050893261], [367822.85714285716, 7178716.428571428], [367852.0634920635, 7178746.587301588], [368074.59899016976, 7178702.2719281865], [368174.6664803745, 7178794.320267003], [368493.5308180132, 7178813.916051759], [368534.7802550996, 7178970.2197449], [368447.0479492147, 7179014.311252181], [368720.5208262917, 7179181.383795825], [368707.4858757062, 7179267.514124294], [368807.08685139706, 7179380.22010022], [368835.0, 7179510.0], [368765.0, 7179580.0], [368770.15789473685, 7179655.894736842], [368685.0, 7179760.0], [368705.0, 7179820.0], [368620.3846153846, 7179904.615384615], [368665.0, 7179990.0], [368625.0, 7180040.0], [368777.004048583, 7180044.95951417], [368980.0, 7180195.0], [369033.87096774194, 7180181.451612903], [369050.07141458313, 7180208.452357639], [369223.8760831364, 7180212.432285039], [369215.5970149254, 7180312.537313432], [369343.1138148145, 7180356.397037753], [369352.60757578455, 7180379.351005282], [369630.58303886926, 7180542.791519434], [369684.6116504854, 7180624.757281553], [369378.07023089053, 7180914.291723464], [369318.4383227944, 7180888.634877665], [369277.47992540937, 7180986.693578676], [369162.57175950415, 7180977.232680357], [368942.27883911115, 7181191.821577284], [368862.4271805145, 7181080.59449391], [368836.7910447761, 7180945.671641791], [368732.39537838066, 7180860.562968016], [368631.75501652405, 7180879.934118499], [368574.95957873925, 7180811.925847503], [368556.2012577625, 7180662.828169774], [368510.0, 7180555.0], [368451.1111111111, 7180586.111111111], [368417.0833333333, 7180552.083333333], [368350.87468557054, 7180645.499656986], [368415.57947323116, 7180716.08669807], [368428.9454517548, 7180826.985527431], [368244.2881554458, 7180951.438020304], [368129.29416886333, 7180795.0], [368055.98432101554, 7180779.476207574], [367879.74385732686, 7180961.507598136], [367735.1785714286, 7180968.392857143], [367643.7860362899, 7180911.104873901], [367446.7696309543, 7181125.030889287], [367310.0, 7181105.0], [367247.3833532729, 7181167.616646727], [367076.46952323476, 7181161.976463488], [367109.72108677635, 7181206.291952879], [367003.9130908263, 7181179.051112238], [366822.85714285716, 7181185.0], [366770.0, 7181255.0], [366706.828868234, 7181209.707490432], [366663.592905637, 7181245.32274479], [366677.41081387165, 7181306.594282478], [366453.37061014044, 7181352.186547751], [366483.8888888889, 7181556.666666667], [366436.16409537167, 7181632.987377279], [366493.5884291278, 7181785.722287794], [366574.3247290254, 7181885.43648759], [366641.63383710827, 7181840.307069686], [366810.1129756039, 7181950.283546506], [366796.6548350762, 7181999.499976516], [366679.9002629837, 7181988.515532236], [366595.0, 7182100.0], [366655.0, 7182160.0], [366544.74936696875, 7182221.5582075035], [366635.0877044742, 7182339.960659221], [366612.35294117645, 7182383.823529412], [366724.1376354207, 7182500.05756923], [366701.84210526315, 7182534.736842105], [366621.9993862151, 7182527.561940582], [366687.3961733644, 7182744.597504755], [367038.8991786024, 7183028.7169917505], [367109.693877551, 7183225.714285715], [367057.0926243568, 7183292.092624357], [367138.57371794875, 7183373.573717949], [367116.0416666667, 7183481.041666667], [367208.18781087076, 7183528.487145682], [367210.0, 7183575.0], [367244.0, 7183559.0], [367304.3875663938, 7183649.934856355], [367168.76282304566, 7183726.52057506], [367096.0555049153, 7183846.2878155885], [366948.1818181818, 7183866.818181818], [366965.15337676316, 7183911.870101129], [366777.983684759, 7184040.248597037], [366672.6771653543, 7184011.535433071], [366615.74393607, 7184127.196658152], [366669.74095519766, 7184226.561357828], [366893.58038619556, 7184384.08786015], [366941.3535297387, 7184461.881600889], [366877.0822115913, 7184550.804781575], [366902.8283925009, 7184731.017070006], [367044.0, 7184814.333333333], [367044.90717821784, 7184882.976485148], [366968.5844336606, 7184964.366512433], [366974.113549977, 7185030.886450023], [366885.58453220874, 7185070.984466855], [366638.22290912323, 7185329.623291157], [366689.55902642565, 7185376.542788538], [366623.8330341113, 7185461.166965889], [366654.649122807, 7185625.7894736845], [366694.44970283954, 7185649.669821704], [366657.95081967214, 7185776.721311475], [366705.0, 7185870.0], [366675.0, 7185900.0], [366710.0, 7185935.0], [366662.0045210672, 7186029.174831078], [366704.9520679328, 7186085.429424921], [366674.62962962966, 7186191.851851852], [366778.5553679856, 7186296.225981979], [366970.0, 7186195.0], [367013.4482758621, 7186224.655172414], [367080.0, 7186155.0], [367174.0540540541, 7186255.27027027], [367198.3761682243, 7186346.623831776], [367363.31753050117, 7186569.371784387], [367495.1037611737, 7186669.132946206], [367856.8181818182, 7187046.363636363], [367815.0, 7187110.0], [367877.89399610256, 7187191.148195119], [367808.8181818182, 7187326.181818182], [367710.0, 7187425.0], [367636.03485652024, 7187414.388383103], [367464.4041802596, 7187562.672992413], [367355.9225873925, 7187538.28155048], [367269.7028677041, 7187632.530906389], [367155.0, 7187678.817204301], [367181.18536045315, 7187784.779343258], [367047.6738689842, 7187910.361207247], [366998.0, 7187865.0], [366941.84210526315, 7187921.578947368], [366830.53740409284, 7187848.587229385], [366785.0, 7187920.434782608], [366813.75, 7187961.25], [366646.61134983937, 7187993.97764717], [366535.7431738009, 7188152.132809113], [366451.5789473684, 7188211.842105263], [366378.29225352115, 7188137.975352113], [366352.93843085377, 7188269.144098086], [366304.77353385894, 7188245.98635113], [366064.9455820377, 7188440.44299294], [365928.9393939394, 7188457.878787879], [365955.7907563936, 7188528.096494262], [365848.422839275, 7188510.003237388], [365780.66930854, 7188513.186940981], [365904.9982493171, 7188650.879539127], [365829.23076923075, 7188685.769230769], [365454.90896075923, 7188485.2514268635], [365398.3404255319, 7188561.978723404], [365497.60068823124, 7188632.236200963], [365455.0232915131, 7188733.652598695], [365351.21213965485, 7188850.193580341], [365491.31809302006, 7188982.130044183], [365173.40099683474, 7189071.801993669], [365150.0, 7189025.0], [364944.5929251416, 7188948.4974843245], [364886.2774268501, 7188978.934121482], [364675.13586956525, 7188992.907608695], [364640.0, 7188965.0]]]}}]}