{"type": "FeatureCollection", "crs": {"type": "name", "properties": {"name": "EPSG:25833"}}, "features": [{"type": "Feature", "properties": {"station": "148.2.0", "name": "Mevatnet", "series": ["1001.1"], "nodes": 1098283, "fine_vertices": 9628, "fine_area_m2": 109828250.0, "reduced_vertices": 453, "reduced_area_m2": 109828250.00000094, "outline_tolerance_m": 20.0, "windows": [[473, 459], [1082, 1145], [2281, 2293], [4344, 4865]], "placed_on": "number", "distance_m": 20.279178452454307, "uncertainty_m": 30.0, "elvid": "148-25-1", "objectid": 10754147, "lake": false, "confluence_near": false, "reach_up_m": 1000.0, "reach_down_m": 130.0, "reach_fork": false, "seeded_by": "river", "lake_rule": null, "lake_number": null, "lake_name": null, "lake_distance_m": null, "node_offset_m": 4.293435955052098, "chain_nodes": 116, "lowered_nodes": 97, "lowered_max_m": 1.6121950149536133, "direction_ok": true, "end_extended_m": 14.142135623730951, "end_closed": true, "downstream_checked": "whole", "a0": 109.8283, "area_up": 109.82600000000001, "area_down": 109.8289, "swing": 2.094177912242188e-05, "largest_step": 0.0014000000000038426, "largest_step_at_m": -10.0, "checked_up_m": 24.142135623731065, "checked_down_m": 24.142135623731065, "drains": true, "monotone": true, "causes": []}, "geometry": {"type": "Polygon", "coordinates": [[[384570.0, 7251735.0], [384537.304964539, 7251658.7115839245], [384476.6666666667, 7251673.888888889], [384436.6666666667, 7251620.555555556], [384397.9381443299, 7251650.87628866], [384240.1990847349, 7251431.697228501], [384170.0, 7251445.0], [384072.9411764706, 7251372.05882353], [383896.6945126891, 7251487.7424077215], [383736.8731988473, 7251336.042267051], [383693.04347826086, 7251350.652173913], [383583.529117737, 7251238.232330826], [383528.63636363635, 7251255.454545454], [383430.7520492944, 7251096.702600206], [383341.6510495019, 7251144.4197219135], [383244.33183364675, 7251033.94576968], [383245.39646034606, 7250929.025451085], [383161.6558782023, 7250788.457400674], [383172.422241541, 7250723.7382086385], [383007.76748697273, 7250513.418660378], [383064.9069767442, 7250440.139534884], [383023.0557946433, 7250381.107285707], [383025.38947579556, 7250261.270662203], [382986.82579869893, 7250222.032602459], [382977.9875193531, 7249896.288530094], [382916.6500156787, 7249705.757800581], [382761.436369418, 7249425.021436618], [382705.96798040235, 7249473.419211758], [382609.19514786534, 7249340.213838762], [382610.7922568413, 7249183.092986923], [382484.5671096448, 7248994.0546950605], [382485.0546712745, 7248843.069752087], [382339.74945566995, 7248680.528558977], [382381.85714285716, 7248608.571428572], [382335.0, 7248550.0], [382539.32584269665, 7248377.106741573], [382488.3333333333, 7248293.333333333], [382514.22247099533, 7248268.180337879], [382312.95013838646, 7247968.630460981], [382460.866241866, 7247843.3050990645], [382573.5714285714, 7247551.428571428], [382544.54313865927, 7247502.133949481], [382630.1327433628, 7247355.309734513], [382562.51214172144, 7247312.002158181], [382656.2072460794, 7247210.695875902], [382670.29627857055, 7247131.229650073], [382751.8784189528, 7247173.121581047], [382909.33582518686, 7247085.569292697], [382844.86150770664, 7246879.464277409], [382852.61681421194, 7246811.347288806], [382885.2433284451, 7246837.729256491], [382935.7812784471, 7246695.390639223], [382857.3076923077, 7246656.153846154], [382795.0, 7246560.0], [382824.9874877596, 7246516.470641566], [382787.8390074565, 7246358.3634942], [382654.97860537865, 7246230.149179829], [382641.22614146984, 7246101.334332309], [382482.04423191166, 7246168.480133684], [382235.1385908227, 7245872.603943117], [382212.5849210461, 7245710.702307774], [382159.8947368421, 7245691.736842105], [382093.3333333333, 7245841.666666667], [382060.0, 7245815.0], [382002.0833333333, 7245868.75], [381919.2218935456, 7246107.265147909], [381777.0993652511, 7245988.469387015], [381670.0, 7246075.0], [381653.0, 7246058.0], [381760.4755069069, 7245921.883189699], [381755.66417412105, 7245706.506676157], [381528.16021324415, 7245437.395848937], [381271.3559699825, 7245386.909410882], [381238.89089439146, 7245405.919961644], [381143.52652526007, 7245244.966295991], [381013.93136539636, 7245185.844692902], [380931.7293868393, 7245187.769784565], [380865.0, 7245120.0], [380888.3333333333, 7245096.666666667], [380850.0974025974, 7244971.071428572], [380875.0, 7244950.0], [380807.85714285716, 7244866.571428572], [380582.702310084, 7244827.616596751], [380605.92939341837, 7244725.825856791], [380756.97419859265, 7244625.0], [381190.79237516853, 7244531.069087093], [381427.26772197505, 7244575.941218567], [381600.1223882086, 7244468.055074694], [381710.0, 7244495.0], [381797.6448162586, 7244363.176081592], [381904.22425552324, 7244392.822695487], [381989.77237265435, 7244257.765565237], [382045.99520383694, 7244047.446043165], [382021.7520985197, 7244014.364271927], [382042.9573524614, 7243937.898284024], [381960.5348523894, 7243813.29582308], [381996.5435522506, 7243560.540148723], [382086.19757178164, 7243511.7002731655], [382049.6472628031, 7243356.553054553], [382280.664701798, 7243242.06919494], [382316.8556701031, 7243250.412371134], [382503.22248043143, 7243127.134713579], [382588.3333333333, 7242956.666666667], [382653.7721533821, 7242976.871350089], [382713.4950704589, 7242919.723068188], [382729.4736842105, 7242941.315789473], [382779.56953642383, 7242911.258278145], [382835.0, 7242928.333333333], [382833.2567896779, 7242817.630605432], [382979.4637994593, 7242825.51002512], [383123.573869206, 7242582.0781403165], [383092.40590105526, 7242521.0079631135], [383132.0734407659, 7242259.655081094], [383068.4033254533, 7242252.6448541535], [383072.23732472106, 7242098.079574345], [383210.1140858497, 7241964.429570751], [383246.035011356, 7241845.176714801], [383325.4424548434, 7241853.52456118], [383392.3251868922, 7241757.7552813385], [383529.2491517923, 7241908.611643802], [383590.0, 7241865.0], [383765.11528522696, 7242012.420574713], [383763.9575011804, 7242084.528781621], [384058.5249649937, 7242193.150734097], [384235.5246150126, 7242374.007934099], [384496.81029514153, 7242427.46394977], [384901.9990793847, 7242352.294318103], [385090.30170763365, 7242466.764705882], [385230.0, 7242345.0], [385260.0, 7242375.0], [385323.70967741933, 7242324.0322580645], [385470.0, 7242455.0], [385485.8823529412, 7242412.450980392], [385583.45093715546, 7242499.1786108045], [385626.1111111111, 7242481.111111111], [385793.5294117647, 7242500.294117647], [385819.59024390246, 7242465.546341463], [385934.8, 7242448.6], [385981.12921638077, 7242394.334641285], [386031.00845670037, 7242145.423155282], [386107.2921592324, 7241927.65534724], [386086.4549629003, 7241657.983511784], [385913.4153862449, 7241550.821516357], [385833.6668624678, 7241325.661849601], [385992.4036979969, 7241280.993836672], [386047.58232284954, 7241189.0294619175], [386185.6753458096, 7241102.0260374285], [386155.0, 7241050.0], [386261.8511916672, 7240979.497288263], [386394.0677966102, 7240978.898305085], [386442.38636363635, 7241012.613636363], [386433.55807654187, 7240870.526171329], [386554.4457588747, 7240843.097777555], [386692.5830771413, 7240636.374615712], [386678.2813106921, 7240549.5529328445], [386775.0, 7240520.0], [386754.7173144876, 7240500.706713781], [386815.0, 7240420.0], [386770.71428571426, 7240375.714285715], [386800.0, 7240335.0], [386978.18636578496, 7240306.430713189], [387058.8616848724, 7240333.366133689], [387247.5975680765, 7240326.225853046], [387339.8702751062, 7240375.0], [387476.19201726, 7240519.692556635], [387582.52920905553, 7240570.199241057], [387703.9030804105, 7240500.106795499], [387900.21575009206, 7240652.406080366], [387988.0272290947, 7240764.144141587], [388139.19085822866, 7240862.037369366], [388093.5434173669, 7240948.767507003], [388122.122917455, 7241102.125729043], [388010.00272414373, 7241164.794040659], [388001.26168224297, 7241250.5607476635], [388086.4701378254, 7241351.745788667], [388125.0, 7241493.529411765], [388188.97223683866, 7241569.897652973], [388377.2164357041, 7241613.369098242], [388478.35867683316, 7241569.704699498], [388621.2325026271, 7241790.6933355825], [388786.59055626474, 7241896.50687422], [388734.64351005486, 7241953.708104814], [388883.43782902556, 7242071.875658051], [388969.93721068115, 7242094.1731428765], [388935.1089108911, 7242135.277227723], [388983.5714285714, 7242212.857142857], [388824.962512036, 7242401.666247542], [388953.1429322749, 7242569.025630688], [388909.2201104187, 7242590.183860482], [388708.0, 7242595.0], [388678.9506541348, 7242633.222823507], [388604.45325974474, 7242642.140393239], [388357.11233957653, 7242488.111334468], [388210.0, 7242445.0], [388186.73913043475, 7242490.869565218], [388302.6920429084, 7242590.033679646], [388259.3308190687, 7242644.554578336], [388296.513335817, 7242810.831647858], [388436.8917668825, 7242918.1082331175], [388470.0, 7242885.0], [389042.90067474154, 7243217.210632532], [389204.93982972833, 7243100.994398771], [389470.35499448417, 7243159.894865765], [389591.0869565217, 7243294.782608695], [389565.0, 7243360.0], [389682.50569824676, 7243473.340377052], [390079.7368421053, 7243072.631578947], [390227.4060150376, 7242578.796992481], [390265.0, 7242560.0], [390295.0, 7242450.0], [390402.86856127885, 7242313.428063943], [390387.85714285716, 7242267.142857143], [390443.94052750565, 7242150.626306502], [390526.7000265056, 7242231.991492483], [390761.2629146618, 7242239.254907928], [390850.0, 7242295.0], [390972.28571428574, 7242261.285714285], [390980.0, 7242215.0], [391052.7272727273, 7242113.181818182], [391100.0, 7242135.0], [391178.7090558767, 7242034.749518304], [391280.0, 7242015.0], [391379.82618088415, 7242092.521624617], [391683.79218313645, 7242214.491174612], [391795.0594123199, 7241981.401164558], [391829.2348635352, 7241966.75122983], [391881.8907563025, 7241738.27264239], [391844.57066465885, 7241696.880951831], [391974.22228935355, 7241322.403952467], [392257.29317295586, 7240923.2644975465], [392294.06114508957, 7240959.354879366], [392526.9381473968, 7240936.938164895], [392613.6937366765, 7240998.039085999], [392701.0055268319, 7240954.9019433055], [392760.0, 7240985.0], [392830.15444015444, 7240934.922779922], [392866.5625, 7240972.1875], [392855.0, 7241030.0], [392941.93333333335, 7241073.466666667], [392985.84, 7241028.67], [393161.55715427716, 7241235.518078687], [393092.51277683134, 7241375.025553662], [393129.93826128315, 7241441.06787807], [393017.89184902346, 7241737.680889309], [393115.5255114037, 7241769.679050082], [393160.0, 7241695.0], [393272.57156662625, 7241754.248192961], [393295.8108108108, 7241710.997920998], [393353.142510932, 7241724.1674839435], [393340.8704506883, 7241833.245898548], [393389.6843413575, 7241868.802834663], [393497.99123904883, 7241835.719649562], [393512.5, 7241876.25], [393565.0, 7241850.0], [393547.9012345679, 7241798.703703703], [393591.29825559864, 7241764.16936617], [393667.86190273054, 7241798.964943089], [394006.5475268517, 7241604.759579664], [394096.25, 7241481.25], [394151.9085673871, 7241577.982071599], [394015.8947663775, 7241689.13922478], [394004.8072523353, 7241883.99514814], [394075.0, 7241940.0], [394059.74576271186, 7241985.762711864], [394215.0, 7242110.0], [394315.19083969464, 7242081.8593238825], [394374.44444444444, 7242120.555555556], [394427.75454913004, 7242067.24545087], [394479.14325506025, 7242348.756131925], [394430.86544528184, 7242366.570477822], [394595.49459994916, 7242529.14924752], [394766.5737450417, 7242567.6099452], [394862.4473929987, 7242535.111782629], [394938.511832405, 7242569.900182037], [395030.0, 7242535.0], [395108.95762132603, 7242680.01367054], [395092.2801015855, 7242763.638119425], [395245.0, 7242785.714285715], [395238.0416839333, 7242903.131773001], [395395.0, 7243020.0], [395372.94871794875, 7243262.564102564], [395440.0, 7243305.0], [395515.0, 7243254.0], [395515.0, 7243200.0], [395695.50597038347, 7243092.869996494], [395833.5350811181, 7243199.60593392], [395812.77888286614, 7243220.897718545], [395862.38057679194, 7243310.666005803], [395975.717638362, 7243255.543018645], [396043.984582177, 7243406.300770891], [396180.0, 7243255.0], [396252.0, 7243283.0], [396371.3606468225, 7243221.346767985], [396429.01369863015, 7243272.324200913], [396560.0, 7243185.0], [396843.1182059122, 7243092.694849788], [396945.02831457736, 7242975.042471866], [396975.0, 7243020.0], [396944.96755353664, 7243047.7222582735], [396984.23076923075, 7243193.846153846], [397251.6445858865, 7243501.951770561], [397134.85364066, 7243844.855331886], [397209.4827586207, 7243986.8965517245], [397249.66747279326, 7243994.933494559], [397245.4761904762, 7244072.857142857], [397406.25451916124, 7244201.936327676], [397362.83867287764, 7244268.701872801], [397459.23357664235, 7244326.934306569], [397476.6332835813, 7244496.253786916], [397410.2555548795, 7244619.912691248], [397260.0, 7244675.0], [397113.5576837814, 7244791.355929655], [397007.13498622586, 7244741.584022039], [396975.376344086, 7244792.397849462], [396695.12070664286, 7244543.031807984], [396570.0, 7244625.0], [396506.56645435246, 7244610.223779193], [396097.15440533735, 7244968.46217156], [396005.0735234216, 7245102.214052953], [395842.0115041, 7245127.682005467], [395813.8273785628, 7245090.1031714175], [395734.1439594626, 7245162.049493012], [395632.34331728803, 7245153.52074157], [395598.0542502776, 7245095.739409452], [395649.8710553105, 7245003.069222938], [395533.3333333333, 7244947.222222222], [395382.1220294365, 7245047.781366618], [395225.9090909091, 7244973.636363637], [395139.53926179797, 7245165.909548836], [395013.43935141875, 7245236.936389149], [394929.5294117647, 7245211.823529412], [394910.0, 7245245.0], [394835.0, 7245210.0], [394743.33904354036, 7245107.107066381], [394645.0, 7245150.0], [394649.0, 7245196.0], [394587.961403646, 7245217.419667141], [394563.9584506085, 7245317.203017689], [394440.0, 7245435.0], [394387.6923076923, 7245418.076923077], [394254.28824720555, 7245505.908939739], [394248.616640398, 7245554.141621007], [394104.52376383217, 7245532.314955715], [393857.3539778756, 7245334.899577614], [393553.13198343467, 7245586.629684459], [393462.0059097122, 7245701.410053127], [393644.92962120875, 7246059.033833104], [393787.1430323632, 7246167.294510347], [393805.67679385963, 7246136.805515464], [393966.4307809193, 7246199.2158633685], [394147.93029344594, 7246110.300067147], [394174.916550006, 7246301.9678949425], [394249.3157044866, 7246331.258009987], [394285.0, 7246493.333333333], [394240.4547842993, 7246481.552204298], [394197.6711120538, 7246839.403485121], [394278.9501037274, 7246801.6330618085], [394321.39570297964, 7246892.30088033], [394287.9499356544, 7246955.58326904], [394343.60016366484, 7247282.493879312], [394551.857737417, 7247509.930040407], [394612.71525287617, 7247644.534454021], [394534.1601866252, 7247827.7916018665], [394315.0, 7247960.0], [394285.54054054053, 7248033.6486486485], [394335.96340673405, 7248129.193100561], [394288.39884479216, 7248277.991166463], [394145.13914233574, 7248377.219434307], [393919.22818996606, 7248397.803846441], [393755.38036821655, 7248515.296971168], [393581.01677923615, 7248816.056827726], [393612.984461244, 7248870.849519538], [393421.40254278516, 7249262.195711669], [393365.93109919457, 7249413.766169117], [393475.0, 7249570.0], [393393.02313492657, 7249770.5433327025], [393201.6201271543, 7249998.910265663], [393150.0, 7250135.0], [393072.1003510575, 7250079.133915575], [392896.3391506852, 7250236.732494595], [392923.63636363635, 7250317.7272727275], [392857.0248613158, 7250370.866990955], [392742.82212056033, 7250329.842061678], [392775.5613032387, 7250201.6085773185], [392637.3169262411, 7250030.853540993], [392592.4461850399, 7250079.490181993], [392490.4561085973, 7250005.097737556], [392353.6468367578, 7250206.665446301], [392307.3663050646, 7250375.2117778985], [392140.4024767802, 7250465.340557275], [392160.0, 7250515.0], [392100.0, 7250615.0], [392050.0, 7250595.0], [391990.0, 7250655.0], [391840.0, 7250735.0], [391810.0, 7250705.0], [391706.54477202607, 7250724.394101898], [391693.95278509473, 7250770.089773779], [391576.2987733963, 7250718.803489101], [391536.0822728649, 7250825.4955833275], [391361.9321340538, 7250537.513344374], [391144.2876637976, 7250351.011023113], [391049.3550448489, 7250355.0], [391003.24533265794, 7250398.316022976], [390937.23188733874, 7250398.110295795], [390880.1561343423, 7250462.265798487], [390933.19136617024, 7250658.6697815955], [390775.9328358209, 7250801.044776119], [390705.2173913043, 7250786.043478261], [390550.94759232085, 7250863.170172559], [390440.3392438692, 7250796.992653052], [390190.0, 7250815.0], [390148.21428571426, 7250856.785714285], [390085.0, 7250780.0], [390085.0, 7250710.0], [390004.90895848704, 7250639.424725795], [390053.7848855867, 7250497.430228827], [390025.9738192572, 7250438.614305181], [390121.9420409252, 7250298.222146396], [390070.71428571426, 7250175.714285715], [390105.0, 7250090.0], [390004.7935103245, 7250065.368731563], [389897.9899474544, 7250000.679172134], [389651.08032813895, 7250034.932265333], [389532.3350253807, 7249999.416243655], [389483.4166844532, 7250052.088510025], [389173.6509972737, 7250122.162723127], [389144.0394302721, 7250179.959992201], [388747.0531350227, 7250340.642508018], [388229.0466574257, 7250478.964203624], [387945.697071202, 7250605.171617079], [387903.50763290125, 7250579.21561642], [387512.2154140785, 7250778.914583863], [387398.1694054671, 7250932.270014747], [387023.0001220909, 7251068.825076752], [386773.3725573837, 7251027.447272224], [386636.0570975376, 7251047.674413926], [386548.54871913244, 7251104.616967943], [386436.01555887156, 7251104.9280773355], [386187.81830480986, 7251221.287597922], [385963.5294117647, 7251455.0], [385902.85714285716, 7251455.0], [385850.0, 7251525.0], [385701.1235955056, 7251541.179775281], [385509.32728647016, 7251435.67271353], [385387.6629892766, 7251495.464296833], [384964.44423930126, 7251333.024833819], [384897.136276776, 7251379.766474461], [384853.15543953783, 7251339.886336075], [384727.05805955554, 7251476.863084642], [384710.6977486583, 7251547.415511152], [384611.6666666667, 7251623.333333333], [384645.1618604298, 7251705.966214048], [384570.0, 7251735.0]]]}}]}