{"type": "FeatureCollection", "crs": {"type": "name", "properties": {"name": "EPSG:25833"}}, "features": [{"type": "Feature", "properties": {"station": "15.21.0", "name": "Jondalselv", "series": ["1001.1"], "nodes": 1275066, "fine_vertices": 10432, "fine_area_m2": 127506650.0, "reduced_vertices": 554, "reduced_area_m2": 127506650.00000031, "outline_tolerance_m": 20.0, "windows": [[427, 476], [1225, 1060], [2597, 2263], [4725, 4662]], "placed_on": "number", "distance_m": 17.244259155474655, "uncertainty_m": 30.0, "elvid": "015-18-6390", "objectid": 11453274, "lake": false, "confluence_near": false, "reach_up_m": 1000.0, "reach_down_m": 130.0, "reach_fork": false, "seeded_by": "river", "lake_rule": null, "lake_number": null, "lake_name": null, "lake_distance_m": null, "node_offset_m": 5.949846848309272, "chain_nodes": 105, "lowered_nodes": 90, "lowered_max_m": 1.03790283203125, "direction_ok": true, "end_extended_m": 0.0, "end_closed": true, "downstream_checked": "whole", "a0": 127.5066, "area_up": 127.50450000000001, "area_down": 127.51700000000001, "swing": 8.156440529356272e-05, "largest_step": 0.009500000000002728, "largest_step_at_m": 14.142135623731065, "checked_up_m": 30.0, "checked_down_m": 24.142135623731065, "drains": true, "monotone": true, "causes": []}, "geometry": {"type": "Polygon", "coordinates": [[[178475.0, 6640670.0], [178455.05199306758, 6640567.590987869], [178395.0, 6640530.0], [178429.70588235295, 6640495.294117647], [178315.0, 6640270.0], [178418.37838330324, 6640219.23474053], [178408.78318020367, 6640046.105482177], [178317.8260869565, 6639967.173913044], [178476.24682643003, 6639820.803217979], [178368.89046400663, 6639685.091279995], [178441.0, 6639625.0], [178415.0, 6639580.0], [178475.0, 6639490.0], [178402.26715825297, 6639417.12195122], [178474.34449409042, 6639252.944612894], [178396.61350506236, 6639124.222608552], [178451.86152550898, 6639111.34785929], [178457.9897472805, 6638826.435675688], [178530.0, 6638845.0], [178551.42476304382, 6638782.242580812], [178743.19865068156, 6638641.660176194], [178745.4347826087, 6638409.565217392], [178829.75516799805, 6638374.033985812], [178870.61354760343, 6638268.947151437], [178807.74303845083, 6638104.963567615], [178847.95331061792, 6637994.597108389], [178906.2658227848, 6638006.075949367], [178921.6621083334, 6637968.209409234], [178856.5570014117, 6637879.977641653], [178835.0, 6637750.0], [178912.02380952382, 6637672.976190476], [178836.5967024465, 6637544.860481331], [178679.54545454544, 6637456.363636363], [178693.1012658228, 6637398.101265823], [178565.7013240137, 6637260.719470395], [178512.3777699613, 6637282.048892016], [178438.64759767408, 6637208.82564672], [178453.29175582028, 6637106.610082074], [178366.48940743748, 6636990.853853687], [178460.70119164142, 6636904.791998319], [178419.40443213296, 6636853.795013851], [178414.40140761447, 6636617.278675027], [178508.1858928662, 6636568.322821458], [178432.4836046302, 6636474.297838296], [178627.36162361625, 6636347.158671587], [178639.84410367397, 6636264.569789291], [178840.05049397092, 6636068.328223203], [178848.0, 6636023.0], [178965.88922167997, 6635952.58031517], [178935.7380315267, 6635900.390600603], [178981.4, 6635714.0], [178910.48282215238, 6635608.082800477], [178992.8154461341, 6635505.528128499], [179023.70008647625, 6635252.239540361], [178843.431372549, 6634970.784313725], [178886.84410324856, 6634893.891831427], [178853.85085604512, 6634590.513875509], [178946.66666666666, 6634474.385148696], [178878.44926496953, 6634425.285048405], [178960.08165992235, 6634381.575806407], [179261.94209538054, 6634514.736582673], [179346.41726226214, 6634472.740005401], [179432.7874439115, 6634360.658100654], [179412.18594985563, 6634271.557849566], [179319.7030077275, 6634283.822245542], [179267.96173729657, 6634212.90119877], [179271.09187844925, 6634036.57946736], [179217.0, 6634042.0], [179194.8977008074, 6633878.857110337], [179271.68293751506, 6633869.990702372], [179394.65581926296, 6633760.306986562], [179337.7027027027, 6633654.054054054], [179447.76434080742, 6633515.402251106], [179433.38235294117, 6633451.911764706], [179490.2142161423, 6633394.784671047], [179693.66027737968, 6633470.848740676], [180009.37729084227, 6633768.771623086], [180092.5981423445, 6633741.3059741715], [180106.42857142858, 6633647.142857143], [180075.0, 6633600.0], [180134.1907599132, 6633619.529393578], [180276.86087808936, 6633540.899771215], [180288.50227339682, 6633452.631496751], [180385.7353019336, 6633390.179957163], [180573.59625988186, 6633579.907042822], [180706.91739058786, 6633502.659910069], [180815.0, 6633630.0], [180792.8947368421, 6633718.421052632], [180852.0, 6633767.0], [180872.19512195123, 6633731.097560976], [180908.47706422018, 6633787.464831804], [180990.53524311303, 6633714.524228344], [181111.554138907, 6633686.008977453], [181237.09610811638, 6633808.495111816], [181300.0, 6633745.0], [181336.66666666666, 6633781.666666667], [181443.33333333334, 6633688.333333333], [181535.35320842042, 6633744.345431212], [181560.22958749754, 6633711.882360924], [181238.7558859316, 6633340.443004189], [181147.61904761905, 6633333.095238095], [180903.80998775296, 6633184.485917852], [180946.38013127912, 6633031.4872632045], [180899.45187763785, 6632859.689047701], [180981.41025298875, 6632915.721043304], [181087.16599190285, 6632882.611336032], [181149.56392159945, 6632930.680218135], [181315.54363855234, 6632828.674360574], [181420.0, 6632855.0], [181465.0, 6632810.0], [181433.53773584907, 6632703.537735849], [181443.26272765436, 6632508.721409063], [181520.67565600004, 6632418.524694385], [181485.50884955752, 6632389.290024135], [181559.5918367347, 6632338.0612244895], [181580.0, 6632365.0], [181617.25572213344, 6632296.971502558], [181589.7518093454, 6632255.592526691], [181691.40959725794, 6632136.598114824], [181657.7504553734, 6632101.948998178], [181750.4202368345, 6632005.420236834], [181717.25859585224, 6631966.612106222], [181755.0, 6631910.0], [181648.50906061413, 6631859.718534469], [181676.4814814815, 6631712.592592592], [181653.48642217502, 6631677.894690603], [181649.09377817853, 6631498.981064022], [181690.0, 6631425.0], [181763.33333333334, 6631471.666666667], [181815.32348076097, 6631389.760905525], [181922.36890902088, 6631499.246755244], [182316.64632995552, 6631695.261296931], [182310.0, 6631715.0], [182350.32258064515, 6631634.354838709], [182415.0, 6631660.0], [182536.42857142858, 6631514.285714285], [182535.4447739066, 6631476.901408451], [182844.48586124077, 6631290.892649168], [182990.54523779545, 6631111.339117659], [182905.0, 6631040.0], [183048.50115768294, 6630931.767081686], [183216.94673164174, 6631050.031087212], [183386.3251638374, 6630992.398048634], [183355.0, 6630930.0], [183400.87706146928, 6630869.715142429], [183320.4347826087, 6630736.739130435], [183353.90796703298, 6630701.160714285], [183305.0, 6630570.0], [183370.9228149058, 6630486.417887361], [183495.20844189683, 6630487.410109432], [183509.07082800308, 6630407.713885335], [183638.53386555024, 6630485.733067225], [183736.54822335026, 6630436.725888325], [183823.08410003886, 6630509.610599974], [183860.0, 6630485.0], [183957.09624387688, 6630574.452925468], [183975.0, 6630738.461538462], [184040.0, 6630785.0], [184079.8467429971, 6630744.968353323], [184212.21893491125, 6630859.1715976335], [184292.91608081758, 6630664.435689779], [184255.67567567568, 6630599.594594595], [184380.0, 6630525.0], [184544.72151140348, 6630612.147674269], [184657.74196677367, 6630513.477390568], [184593.84955752213, 6630432.448377581], [184713.51739725872, 6630317.564471955], [184750.04590304592, 6630173.268983269], [184708.3976965733, 6630118.515569459], [184727.61663625407, 6629969.745069728], [184784.6875, 6629990.15625], [184873.88888888888, 6629803.333333333], [184842.4709527498, 6629739.283501162], [185050.0, 6629605.0], [185070.8454908594, 6629616.49276112], [185152.53056765863, 6629553.708558944], [185224.40923754525, 6629624.553674861], [185290.08921513244, 6629612.078274422], [185340.0, 6629715.0], [185421.9642857143, 6629742.321428572], [185482.43689303278, 6629865.168250369], [185659.426834899, 6629806.412464066], [185682.67605633804, 6629820.070422535], [185813.33067751102, 6629736.0402840655], [185824.73889143046, 6629798.951030899], [185944.17926475883, 6629853.153577728], [186061.36288998357, 6629773.637110016], [186186.93725659786, 6629878.344143708], [186280.42124525196, 6629854.266177029], [186282.03424338799, 6629774.873904594], [186397.20092135674, 6629458.7642890625], [186473.41860465117, 6629453.953488372], [186515.0, 6629350.0], [186422.2701153527, 6629236.631542458], [186520.75609756098, 6629216.972040452], [186575.8332314893, 6629251.469504613], [186622.14803105767, 6629099.80852295], [186674.91129752013, 6629055.351816069], [186808.59027777778, 6628812.118055556], [186890.3152388315, 6628822.21832315], [186906.3631406761, 6628857.121046892], [187039.8506214474, 6628878.843136111], [187083.97840163036, 6628918.169879428], [187127.14527027027, 6628897.077702703], [187211.7857142857, 6629008.214285715], [187214.2542787286, 6629106.418092909], [187270.0, 6629125.0], [187350.6338028169, 6629044.366197183], [187326.81818181818, 6629003.636363637], [187400.2658954911, 6628878.674509308], [187549.41176470587, 6628947.352941177], [187488.24379632104, 6628996.945559792], [187606.06826376423, 6629235.49556927], [187794.99123076894, 6629430.126514724], [187923.33333333334, 6629435.0], [187968.0, 6629363.0], [188034.10646492336, 6629398.659150685], [188159.65055385514, 6629292.824532356], [188351.38439549727, 6629252.839461739], [188372.56277926307, 6629349.385054893], [188433.0957361575, 6629337.055943851], [188570.47714636486, 6629474.674242096], [188674.4370975497, 6629369.061599651], [188695.0, 6629144.4186046515], [188741.49304249717, 6629138.617901467], [188867.98421490128, 6629262.120383567], [188886.72038272693, 6629315.633035558], [189106.4784542611, 6629349.953625102], [189173.07692307694, 6629298.076923077], [189251.5454423931, 6629306.228778944], [189325.4224645857, 6629169.21649743], [189311.11111111112, 6629090.555555556], [189400.0, 6629135.0], [189436.44428672816, 6629085.844570617], [189541.2901032496, 6629156.656666593], [189586.87975756306, 6628865.1357779745], [189666.55069393595, 6628785.318432061], [189679.20381833724, 6628507.797750843], [189796.66666666666, 6628528.333333333], [189859.02569976164, 6628417.659619733], [189901.60327905093, 6628396.747989013], [189933.11648030876, 6628301.785318277], [190098.10344827586, 6628430.344827586], [190146.17387493033, 6628321.12673649], [190207.57160777057, 6628258.1152334465], [190388.25225760025, 6628144.621960442], [190455.05440088495, 6628167.319183222], [190582.38118369738, 6627978.797589114], [190617.05320167227, 6627806.003698914], [190667.62702352865, 6627789.235687836], [190760.91944325189, 6627918.987454461], [190829.2405063291, 6627867.151898734], [190991.22845429982, 6627948.966738097], [190943.82352941178, 6628032.94117647], [191162.3508380483, 6628204.0692467755], [191258.0, 6628131.0], [191434.80835470295, 6628145.519983573], [191719.74103585657, 6627837.888446216], [191700.26704793292, 6627757.340910193], [191615.0, 6627700.0], [191659.9514563107, 6627466.1165048545], [191828.65355688424, 6627538.999300939], [191974.2857142857, 6627411.571428572], [192015.12201253846, 6627492.294578922], [192183.66816097332, 6627602.410047865], [192184.49793767696, 6627662.642905406], [192264.1243264632, 6627715.201004314], [192307.77760461497, 6627704.30053076], [192408.07432821975, 6627878.915331612], [192579.85454175566, 6627812.330892076], [192600.0, 6627905.0], [192727.50358680057, 6627919.2467718795], [192766.0, 6627895.0], [192880.0, 6627995.0], [192983.01886792452, 6627936.132075472], [193038.65284974093, 6627968.678756476], [193080.0, 6627915.0], [193133.591160221, 6627936.436464088], [193090.7142857143, 6628048.571428572], [193105.0, 6628140.0], [193052.03904136064, 6628157.653652879], [193008.02222222224, 6628248.977777778], [192945.0, 6628280.0], [193103.29061015745, 6628445.2245500935], [193123.11178634808, 6628503.6083115125], [193331.42857142858, 6628515.0], [193389.2349726776, 6628371.661698957], [193446.5996046966, 6628309.31004549], [193599.72443219027, 6628417.3171438975], [193740.0, 6628385.0], [193909.80276141124, 6628516.634805139], [193830.73527800987, 6628606.0515908385], [193815.32387647982, 6628696.948799743], [193684.02407676878, 6628775.982141089], [193760.61177821507, 6628816.812418112], [193714.1600750328, 6628975.620088208], [193774.43755752037, 6629021.73771599], [193661.0, 6629174.0], [193677.9038850565, 6629483.301898849], [193594.78675914338, 6629632.234281498], [193689.77836006306, 6629718.145315279], [193770.13797634692, 6629896.491458607], [193851.17647058822, 6629848.05882353], [193800.98201153375, 6629951.541429173], [193812.93721973093, 6630033.811659193], [193691.0067590772, 6630317.77649578], [193499.32047850714, 6630534.136862036], [193509.22700532465, 6630738.487887917], [193473.84250474384, 6630778.8425047435], [193545.0, 6630850.0], [193515.9856350448, 6631117.797498297], [193640.0, 6631145.0], [193675.29411764705, 6631214.411764706], [193747.7257048846, 6631194.089564269], [193818.125, 6631255.208333333], [193725.0, 6631340.0], [193862.5043395224, 6631341.133944102], [193852.9570858287, 6631454.065373562], [193712.157469844, 6631615.0674095405], [193607.1312923015, 6631874.236906382], [193660.33333333334, 6631980.0], [193635.0, 6632020.0], [193685.33707865168, 6632084.7191011235], [193572.0238599891, 6632148.982316962], [193480.60446780553, 6632260.02847131], [193324.45272885062, 6632182.236448026], [193170.8510638298, 6632254.14893617], [193096.0, 6632235.0], [193098.0381197044, 6632310.039861844], [192995.98103574035, 6632351.411378556], [192908.64717389067, 6632286.938638938], [192763.33333333334, 6632261.666666667], [192721.50427350428, 6632300.982905983], [192649.47913236788, 6632235.812533244], [192558.75, 6632323.75], [192504.375, 6632269.375], [192420.26570048308, 6632403.004830918], [192445.0, 6632480.0], [192335.29713794854, 6632554.441227821], [192238.80636604773, 6632535.0], [192253.49149461775, 6632748.398654328], [192165.0, 6632850.0], [192185.0, 6632880.0], [192089.2628205128, 6632905.096153846], [192010.0, 6632835.0], [191797.01913924012, 6632898.230660093], [191804.57290015416, 6632969.357405029], [191852.77777777778, 6632992.222222222], [191768.90066033194, 6633302.110967624], [191710.5626594715, 6633384.483972197], [191715.0, 6633450.0], [191634.73684210525, 6633559.736842105], [191600.0, 6633525.0], [191550.45454545456, 6633574.545454546], [191585.0, 6633650.0], [191444.87068965516, 6633835.732758621], [191205.93504654284, 6633945.762184793], [191121.93671280556, 6633899.417694174], [191013.79137274539, 6633922.1017673], [190873.15789473685, 6633862.894736842], [190726.9122826452, 6633984.021263222], [190740.4262788365, 6634054.383149449], [190684.24760048924, 6634130.693111383], [190811.96795795232, 6634211.475642601], [190594.33333333334, 6634566.192872117], [190729.786105139, 6634790.616203124], [190708.75572245772, 6634873.772203136], [190797.5, 6635012.5], [190699.44827586206, 6635067.9655172415], [190607.14285714287, 6635006.428571428], [190569.00713069193, 6635049.80339129], [190450.17969305025, 6635012.990317353], [190406.99601012166, 6635144.0408163415], [190265.50013300724, 6635356.236900939], [190253.29787234042, 6635704.127659574], [190145.10057680577, 6635743.782011605], [190011.65808900842, 6635655.09645772], [189877.4240511162, 6635528.166649847], [189829.54147375308, 6635565.458526247], [189852.09003579844, 6635613.007295256], [189732.98761827644, 6635844.7803254705], [189657.2523410547, 6635917.432232627], [189594.49377736636, 6636074.771102884], [189606.74925913732, 6636211.749259138], [189437.21208665907, 6636319.247434435], [189458.86692118898, 6636446.6975729475], [189321.2819904088, 6636596.281990409], [189222.18678150992, 6636549.04397415], [189068.84573399895, 6636663.242473682], [188875.37290010147, 6636895.323548643], [188935.0, 6636960.0], [188859.44444444444, 6637064.444444444], [188885.0, 6637090.0], [188721.40448725419, 6637292.263543031], [188881.85777360963, 6637397.475579089], [188787.7142857143, 6637517.285714285], [188814.2857142857, 6637540.714285715], [188797.77220630372, 6637606.26790831], [188828.9027642321, 6637659.561842096], [188782.13498791232, 6637800.205421568], [188882.68084469636, 6637988.52982588], [188790.0, 6638205.0], [188745.85817060637, 6638167.192531689], [188661.66477759604, 6638231.65130546], [188474.5556349401, 6638103.694907303], [188407.6468240417, 6638157.544482691], [188330.17537800292, 6638083.354823855], [188354.4232601242, 6637990.047464223], [188321.29843740579, 6637864.2700147955], [188215.14867070346, 6637799.397736415], [188181.81858871208, 6637726.642764484], [187993.5696821516, 6637894.413202934], [187838.3772633509, 6637901.12422645], [187740.64365614962, 6637815.828164925], [187555.86367953636, 6637769.136320463], [187401.2693715609, 6637835.722508315], [187317.28803392986, 6637894.182528627], [187230.0, 6637785.0], [187168.81578947368, 6637821.7105263155], [187159.6072676556, 6638008.496881568], [186974.1651364515, 6638232.970420011], [186856.16863131884, 6638220.604686435], [186865.4104497808, 6638256.196077724], [186689.30800435893, 6638445.716403369], [186666.98165137615, 6638542.201834862], [186805.74397447213, 6638706.57003191], [186801.64673003188, 6638765.548910011], [186845.0, 6638780.0], [186819.88077119723, 6638857.244598885], [186721.6157043, 6638795.02706471], [186605.0754121361, 6638819.591371449], [186595.0, 6638892.0], [186525.0, 6638932.285714285], [186551.35762693183, 6639038.882311669], [186502.14285714287, 6639219.428571428], [186416.79104477612, 6639228.208955224], [186346.25, 6639298.75], [186308.75, 6639256.25], [186169.10844017094, 6639275.109508547], [186147.6193548387, 6639343.483870967], [186062.32906787057, 6639427.633763322], [185931.55452436194, 6639481.542923434], [185890.0, 6639445.0], [185777.69978108414, 6639469.685920552], [185677.0338983051, 6639606.949152542], [185645.0, 6639753.333333333], [185731.30722278738, 6639802.990844354], [185753.87083152746, 6639953.303375823], [185675.0, 6639964.3935752595], [185666.93447515857, 6640094.759156832], [185465.0187559396, 6640037.822006196], [185366.79452220362, 6640110.790256134], [185236.89371257485, 6640333.510479042], [185381.66960663255, 6640443.330393367], [185431.55251141553, 6640393.447488585], [185635.0, 6640502.857142857], [185487.63246550926, 6640726.831586295], [185285.16821111293, 6640699.831788887], [185139.21545713587, 6640757.811148757], [185084.2857142857, 6640699.285714285], [185035.0, 6640720.0], [185049.6423693124, 6640763.927107938], [184933.33641846667, 6640838.795919452], [184792.56532076828, 6641072.513040921], [184819.0, 6641094.0], [184747.3556419451, 6641222.226616173], [184700.0, 6641215.0], [184505.87628865978, 6641408.917525773], [184314.70707235677, 6641279.555669221], [184166.42857142858, 6641421.428571428], [184183.57142857142, 6641468.571428572], [184116.4355700808, 6641635.174361615], [184144.74413646056, 6641730.756929638], [184105.0, 6641850.0], [184138.33333333334, 6641906.666666667], [184105.0, 6641940.0], [184131.0, 6641966.0], [184102.0395738204, 6642073.645357686], [183999.0486868922, 6642146.830172867], [183979.67484296393, 6642353.294915158], [183900.0, 6642345.0], [183893.572112684, 6642442.762571085], [183849.8042637521, 6642523.230196171], [183660.27095254124, 6642527.463816897], [183593.12973320333, 6642663.360324262], [183505.63780568406, 6642593.909451421], [183469.13580246913, 6642666.481481481], [183360.19611776725, 6642624.528002229], [183372.63157894736, 6642587.631578947], [183252.0944741533, 6642480.64171123], [183217.41870273248, 6642324.159809604], [183150.3417545332, 6642328.910438321], [182980.0, 6642085.0], [182899.62719428446, 6642122.188594668], [182917.53579052613, 6642245.048400135], [182633.4818448098, 6642271.815802795], [182380.0, 6642045.0], [182320.73705179282, 6642137.768924302], [182081.43253916572, 6642112.038588282], [181903.6725817424, 6641918.898722646], [181864.16641128436, 6641916.545910716], [181845.78672024122, 6642004.232343964], [181780.0, 6641948.333333333], [181753.55555555556, 6642010.037037037], [181640.0, 6641825.0], [181518.66242038217, 6642014.617834395], [181450.0, 6641995.0], [181420.0, 6642025.0], [181350.0, 6641945.0], [181310.0, 6641985.0], [181200.0, 6641875.0], [181092.2405436168, 6641987.102697776], [181118.00212448937, 6642109.653335737], [181008.3390969571, 6642236.041279302], [181004.51096526138, 6642470.021583133], [180930.8193277311, 6642505.819327731], [180863.33333333334, 6642438.333333333], [180786.66666666666, 6642501.666666667], [180663.43443162626, 6642433.420834168], [180588.86474594387, 6642320.263663671], [180496.67229212617, 6642099.124252493], [180307.14034765676, 6642087.859652343], [180280.0, 6642115.0], [180179.03225806452, 6641997.580645162], [180100.0, 6641975.0], [179918.89456586144, 6642095.552717069], [179860.0, 6642095.0], [179848.7524641853, 6642173.732750703], [179683.78671017502, 6642269.115989321], [179618.74685244047, 6642418.7147961175], [179503.3256930208, 6642370.624088131], [179407.59789357785, 6642460.1622356195], [179341.68098004546, 6642405.420560747], [179285.0, 6642642.0], [179249.81905258633, 6642668.737520034], [179169.66635205285, 6642971.71024068], [179108.46153846153, 6643088.076923077], [179011.18190654257, 6643021.485315677], [178987.29394387003, 6642916.273264402], [178879.92005680743, 6643061.077335528], [178835.75672993113, 6643004.941001315], [178806.66666666666, 6642815.0], [178755.0, 6642784.0], [178730.57511076267, 6642554.260729352], [178770.6206161219, 6642106.448193251], [178812.2228258684, 6642049.772497889], [178825.0, 6641940.0], [178730.72727272726, 6641831.7272727275], [178754.11764705883, 6641797.94117647], [178703.20811866614, 6641508.581214969], [178470.54655870446, 6641265.344129555], [178519.84958004983, 6641215.234664737], [178486.69573761593, 6640800.710357537], [178410.01506024096, 6640762.123493976], [178475.0, 6640670.0]]]}}]}