{"type": "FeatureCollection", "crs": {"type": "name", "properties": {"name": "EPSG:25833"}}, "features": [{"type": "Feature", "properties": {"station": "15.49.0", "name": "Halledalsvatn", "series": ["1001.1"], "nodes": 1027077, "fine_vertices": 10386, "fine_area_m2": 102708050.0, "reduced_vertices": 502, "reduced_area_m2": 102708050.00000066, "outline_tolerance_m": 20.0, "windows": [[481, 481], [1172, 1279], [2400, 2524], [4043, 5327]], "placed_on": "number", "distance_m": 10.70691480014032, "uncertainty_m": 30.0, "elvid": "015-18-3128", "objectid": 11453116, "lake": false, "confluence_near": false, "reach_up_m": 1000.0, "reach_down_m": 130.0, "reach_fork": false, "seeded_by": "river", "lake_rule": null, "lake_number": null, "lake_name": null, "lake_distance_m": null, "node_offset_m": 1.7114799493859159, "chain_nodes": 121, "lowered_nodes": 103, "lowered_max_m": 0.4000244140625, "direction_ok": true, "end_extended_m": 0.0, "end_closed": true, "downstream_checked": "whole", "a0": 102.7077, "area_up": 102.4674, "area_down": 102.709, "swing": 0.00233964931548467, "largest_step": 0.23919999999999675, "largest_step_at_m": 0.0, "checked_up_m": 28.28427124746213, "checked_down_m": 24.142135623731065, "drains": true, "monotone": true, "causes": []}, "geometry": {"type": "Polygon", "coordinates": [[[147415.0, 6731070.0], [147465.0, 6731020.0], [147465.0, 6730965.555555556], [147406.53676899683, 6730964.833787272], [147390.7588337005, 6730869.963511106], [147291.96721311475, 6730593.032786885], [147248.8006682968, 6730635.231870699], [147131.2450756446, 6730536.857764756], [147076.9174556874, 6730415.391391748], [147160.0, 6730305.0], [147203.75, 6730348.75], [147242.15865184434, 6730203.949940904], [147167.25174367434, 6730177.894884587], [147120.0, 6730065.0], [146992.3977427942, 6730170.7741887355], [146871.66678054852, 6730324.891897226], [146677.64233729764, 6730076.44657241], [146682.77777777778, 6730007.777777778], [146547.22222222222, 6729982.222222222], [146609.47622835258, 6729889.090035402], [146527.4463744257, 6729711.130015455], [146643.0, 6729582.5], [146605.0, 6729530.0], [146636.95454545456, 6729461.045454546], [146600.0, 6729425.0], [146551.2095895387, 6729454.596803487], [146433.5613797569, 6729385.94990729], [146465.0, 6729310.0], [146410.0, 6729255.0], [146342.0, 6729287.0], [146180.73033707865, 6729176.853932585], [146140.0, 6729185.0], [146014.34782608695, 6729080.652173913], [145848.38346735676, 6729098.875320968], [145842.88463072624, 6729050.230224977], [145742.46064845956, 6728993.047894524], [145581.40589256058, 6729093.476883929], [145558.22597351234, 6729005.772575867], [145418.774454186, 6729084.8158844765], [145435.0, 6729170.0], [145366.6747656097, 6729266.131477732], [145200.0, 6729265.0], [144968.75944741874, 6729168.871587167], [144871.05263157896, 6729209.736842105], [144839.6799819716, 6729261.409441459], [144717.76587255506, 6729312.765872555], [144613.96169548787, 6729280.175689582], [144420.61576168088, 6729311.926654932], [144274.65252784587, 6729103.634200196], [143945.49454053416, 6729395.767513826], [143944.2857142857, 6729455.0], [143746.70681783085, 6729415.688368109], [143697.14710789465, 6729371.38856578], [143462.57794113902, 6729562.9421915775], [143374.73333333334, 6729689.733333333], [143405.50733064534, 6729720.507330645], [143314.80140136648, 6729890.431478342], [143173.32542269767, 6729866.213571016], [143125.0, 6729940.0], [143139.78260869565, 6729969.565217392], [142985.0, 6730120.0], [142907.93637395397, 6730339.793392234], [142815.4617414248, 6730280.461741425], [142719.51039472956, 6730351.914413861], [142732.24892187066, 6730392.206684109], [142626.29057187017, 6730457.225656878], [142581.14654002714, 6730423.249660787], [142540.6749727788, 6730493.822998828], [142377.37186056806, 6730485.0121504245], [142270.0, 6730535.0], [142243.4693877551, 6730492.959183673], [142183.33333333334, 6730528.333333333], [142147.90322580645, 6730492.903225807], [141952.5, 6730607.5], [141768.4380103329, 6730392.971519411], [141752.27272727274, 6730286.363636363], [141564.8939310546, 6729990.986049061], [141456.64009111616, 6729968.185269552], [141335.0, 6729830.0], [141441.22425183546, 6729755.643023715], [141420.52816744059, 6729646.645889046], [141285.19094774223, 6729629.22118849], [141124.73684210525, 6729493.421052632], [141064.55172413794, 6729509.551724138], [141010.0, 6729455.0], [140891.5120367866, 6729435.116310522], [140715.99915655836, 6729587.213228009], [140647.9507864377, 6729561.575057773], [140497.4100687054, 6729869.07069483], [140399.47526377023, 6729904.618373651], [140338.4, 6729860.2], [140243.81851534103, 6729913.37994717], [140168.40586002803, 6729826.2626061095], [140048.85714285713, 6729777.571428572], [139983.2969402376, 6729914.102523801], [140040.91820684233, 6729988.434919386], [140000.33333333334, 6730156.0], [139855.082815735, 6730269.751552795], [139880.97309826475, 6730309.262195628], [139795.703125, 6730450.703125], [139835.0, 6730490.0], [139776.918429003, 6730530.438066465], [139639.25834004916, 6730549.306905707], [139587.8342800669, 6730666.680053993], [139455.4260651629, 6730749.573934837], [139404.40184049078, 6730739.401840491], [139298.93149284253, 6730813.931492843], [139235.55555555556, 6730750.555555556], [139197.67968544405, 6730787.5076239575], [138951.88373551227, 6730746.430510471], [138910.0, 6730825.0], [138848.54545454544, 6730790.090909091], [138797.27272727274, 6730819.545454546], [138737.16601433372, 6730722.973075877], [138763.57142857142, 6730672.857142857], [138743.1655735061, 6730624.648463751], [138525.0, 6730693.333333333], [138426.29355182115, 6730679.499762451], [138346.23575410727, 6730569.715857432], [138234.11051985095, 6730715.101663679], [138174.44069871653, 6730712.726317941], [138013.7837837838, 6730545.810810811], [137847.6645151276, 6730637.052741097], [137751.49656114244, 6730643.498104217], [137584.44444444444, 6730529.444444444], [137443.29443565654, 6730583.63735929], [137367.85714285713, 6730661.428571428], [137292.65846854926, 6730556.646440883], [137105.43250753783, 6730538.098790646], [137213.05376499787, 6730432.065034612], [137126.31397235228, 6730241.838893101], [137040.52448894922, 6730206.12344003], [136937.46346989734, 6730109.791223527], [136663.65073553586, 6730170.312086951], [136514.64213137273, 6730009.488330167], [136548.16623790842, 6729933.98572945], [136392.81636940208, 6729955.922051205], [136208.73991588972, 6729795.088597806], [135977.97283857584, 6729744.987553733], [135910.11111111112, 6729604.888888889], [135947.5, 6729567.5], [135922.10186915888, 6729545.055140187], [135780.0, 6729575.0], [135611.38802444102, 6729434.523101237], [135527.04379562044, 6729439.604302728], [135485.0, 6729390.0], [135580.57053163627, 6729278.094579814], [135692.96552201238, 6729274.916137356], [135834.72660647996, 6729074.478907502], [135736.53380883203, 6728927.101056578], [135645.0, 6728970.0], [135677.0, 6728922.0], [135645.9917355372, 6728835.041322314], [135707.9670846803, 6728648.321912209], [135672.77777777778, 6728633.333333333], [135704.23076923078, 6728586.153846154], [135583.83135419924, 6728535.753063583], [135530.89285714287, 6728566.245421246], [135415.54617952334, 6728481.124844731], [135388.38572743066, 6728422.958672554], [135300.8152173913, 6728404.184782608], [135617.1788016613, 6728048.776259794], [135520.8255192467, 6727989.260751189], [135385.0, 6728012.727458072], [135362.39864242796, 6727941.881745213], [135136.23961264148, 6728171.776810835], [134910.92248012917, 6728016.142516814], [134839.86872108158, 6728076.264928316], [134876.23711340205, 6728184.604810997], [134667.26765624955, 6728198.310533808], [134555.71418884504, 6728319.158308646], [134589.9188109965, 6728346.384273091], [134545.0, 6728450.0], [134493.37284449735, 6728450.0], [134376.82471576988, 6728535.461995977], [134426.40383665738, 6728675.031269531], [134287.03198003446, 6728763.683261064], [134242.4002587351, 6728736.497707901], [134162.8157340416, 6728794.5636047255], [134150.8, 6728745.8], [133991.2123462028, 6728891.23462028], [133885.7142857143, 6728905.0], [133910.99133589593, 6728790.292547833], [133806.28087831655, 6728669.734675206], [133730.0, 6728665.0], [133640.0, 6728585.0], [133542.43147853858, 6728770.274793687], [133403.87775107825, 6728823.434945549], [133245.1003361296, 6728763.241712238], [133110.0, 6728855.0], [133080.0, 6728825.0], [133025.67828843105, 6728875.147385103], [132830.19963102313, 6728756.831355619], [132804.77592845357, 6728705.955185691], [132433.55335841424, 6728395.898146703], [132401.3432835821, 6728442.76119403], [132304.17316253678, 6728468.6883770125], [132043.59550561797, 6728242.97752809], [132025.0, 6728150.0], [131965.0, 6728120.0], [132020.08227194188, 6728078.89234978], [131924.99441644704, 6727806.693785806], [131831.39839034204, 6727722.535211268], [131906.74080427559, 6727639.175286331], [131887.3123123123, 6727577.357357358], [131955.0, 6727490.0], [131897.36524179447, 6727423.736303523], [132002.5, 6727332.5], [131965.0, 6727290.0], [131945.2503213171, 6727014.363180121], [131893.5, 6727002.5], [131855.0, 6726920.0], [131883.05970149254, 6726863.880597015], [131758.30101569713, 6726757.363804247], [131785.0, 6726670.0], [131731.66666666666, 6726616.666666667], [131757.38371482238, 6726565.988355724], [131690.0, 6726505.0], [131474.46183125395, 6726769.208077818], [131369.01335201642, 6726665.583184222], [131369.97640243603, 6726562.045609306], [131401.72692382353, 6726457.1218795255], [131520.0, 6726398.846153846], [131666.7762401355, 6726419.162147936], [131700.24206703473, 6726250.439172392], [131932.18181818182, 6726271.363636363], [131895.0, 6726150.0], [131997.2269112109, 6726068.04950093], [132010.123298449, 6725917.263568522], [132255.4389300871, 6725927.922135345], [132387.64632685672, 6726095.857942296], [132553.07591952058, 6725951.592017415], [132590.0, 6725985.0], [132711.4637000434, 6725899.909858429], [132696.0, 6725835.0], [132884.38356164383, 6725865.136986301], [132956.55524650225, 6725934.724099008], [133185.13216360332, 6725604.9609132465], [133163.55957669276, 6725373.941106661], [133220.0, 6725315.0], [133386.8805588972, 6725325.476227685], [133381.97674457164, 6725219.9447955], [133447.7981488074, 6725184.314702741], [133441.2382730116, 6725110.395828024], [133501.39446839422, 6725059.239785691], [133695.3206088608, 6725108.115615777], [133769.34288991205, 6725223.701806899], [133805.3228287406, 6725191.614143703], [133800.35568623221, 6725138.51681868], [133978.45394736843, 6724985.756578947], [133876.09569181682, 6724936.072481781], [133892.4668251846, 6724848.482980855], [134049.9072107302, 6724760.000509444], [134005.83948054578, 6724650.839480545], [134133.24562492178, 6724505.0], [134184.0992318918, 6724505.0], [134226.16300245965, 6724414.678622195], [134383.82548108825, 6724347.93629728], [134415.0, 6724270.0], [134525.0, 6724160.0], [134607.84333359575, 6724251.563684501], [134805.40202966126, 6724298.916458987], [134966.66666666666, 6724378.333333333], [135030.35378128427, 6724290.774853464], [135049.13267078967, 6724179.989892968], [135159.86510974448, 6724203.146660477], [135191.25, 6724088.75], [135371.55758842622, 6724013.773891027], [135490.42539267015, 6723885.176701571], [135751.15800067363, 6723839.400784769], [135793.25757782717, 6723757.676481747], [135724.46944396256, 6723579.98142545], [135955.0, 6723324.0], [135922.3970829717, 6723282.316566821], [135961.9270017524, 6723277.736791407], [136054.90906527563, 6723343.561962498], [136165.9339564069, 6723311.432846067], [136296.3365298117, 6723343.778843271], [136585.0926311939, 6723334.074656927], [136675.6201753692, 6723364.50036816], [136714.52462143212, 6723329.763116379], [136710.0, 6723115.0], [136788.36582205468, 6723149.335344802], [136977.6756642353, 6722959.639137724], [137061.4192158543, 6722991.015179693], [137028.1802825504, 6722832.467468906], [137207.9498972284, 6722713.650789515], [137350.42973412914, 6722728.951166576], [137510.0, 6722805.0], [137530.0, 6722785.0], [137533.2002156649, 6722867.342049532], [137713.33333333334, 6722981.666666667], [137743.2, 6722951.8], [137930.0, 6723015.0], [138020.52284687117, 6722914.503516908], [137949.7469328739, 6722790.820077435], [138052.0, 6722703.0], [138151.75, 6722763.25], [138214.8824006488, 6722700.117599351], [138311.6488172194, 6722733.042589898], [138330.0, 6722785.0], [138362.38410596026, 6722763.410596026], [138469.83647638388, 6722883.634129872], [138611.14942528735, 6722866.149425288], [138675.28317928992, 6722963.110446692], [138719.02268967146, 6722983.33018199], [138717.9201309071, 6723145.678933796], [138981.24061060813, 6723319.5892564645], [139060.0, 6723275.0], [139108.0, 6723307.0], [139200.77067966037, 6723283.8097783765], [139297.88537448028, 6723383.605708104], [139430.0, 6723335.0], [139461.96988588938, 6723366.969885889], [139676.16696915703, 6723373.618544356], [139781.85984343765, 6723304.016652208], [139890.39908137513, 6723469.83054124], [140088.15399250182, 6723398.355715964], [140193.3297755498, 6723409.576962856], [140262.89207574923, 6723366.867377582], [140235.0, 6723330.0], [140280.07246376813, 6723238.627002289], [140340.02028397567, 6723258.286004057], [140360.0, 6723185.0], [140392.04797343691, 6723203.410944212], [140508.8453741804, 6723076.087422346], [140702.8996355022, 6723002.967449352], [140912.30487355107, 6723001.204005327], [140949.72593323843, 6723193.807619289], [141042.85714285713, 6723277.285714285], [141180.78062867612, 6723227.766043252], [141372.7349106167, 6723469.9610734545], [141297.85714285713, 6723547.142857143], [141305.13698630137, 6723663.561643835], [141330.0, 6723705.0], [141314.34697476448, 6723794.725893085], [141680.68768718236, 6724125.577599198], [141850.0, 6723995.0], [141870.0, 6724015.0], [141916.34927352236, 6723953.200968637], [142015.02779628613, 6724002.702902763], [142015.19150899863, 6724077.519612367], [142110.0, 6724065.0], [142191.59350654014, 6724083.491527281], [142224.56312238073, 6724136.536103458], [142427.3637922402, 6724146.208257049], [142650.14285714287, 6724355.142857143], [142735.0, 6724336.296296297], [142873.03442888596, 6724517.110514024], [143649.72900118146, 6725204.638340791], [143838.54639783278, 6725073.290720433], [144101.10203025592, 6724983.577230854], [144133.65559018456, 6724910.445615949], [144398.58564128168, 6724632.751696085], [144635.0, 6724590.0], [144316.98401392845, 6724924.195394112], [144331.43504140788, 6724988.208462733], [144295.0, 6725040.0], [144440.33254591885, 6725080.695549468], [144564.70565710904, 6725209.810362058], [144659.45680971237, 6725176.372605897], [144840.42402804294, 6725332.806751502], [144849.75286624205, 6725284.554140127], [144985.20689247313, 6725345.20387324], [145176.42590286426, 6725217.141967622], [145219.37089526444, 6725231.456965088], [145208.9424640258, 6725382.887643098], [145324.55703834872, 6725581.946297936], [145732.89715189722, 6725278.279339577], [145810.92235057932, 6725323.856177799], [145990.0, 6725245.0], [146052.15655780197, 6725294.725246241], [146005.0, 6725340.869565218], [146120.0, 6725475.0], [146225.16087761108, 6725400.806213309], [146302.02362651654, 6725472.768523733], [146488.4459118124, 6725461.6388220005], [146610.25475877913, 6725644.099524122], [146704.48142066653, 6725593.355743987], [146682.02487288782, 6725488.642368464], [146805.74047320784, 6725346.094072306], [146907.27089505122, 6725406.903686513], [147312.87550935708, 6725121.106706265], [147340.52336434397, 6725070.556202841], [147526.06162170574, 6725225.050121021], [147600.36, 6725325.04], [147697.31257393977, 6725247.999360212], [147733.80638620735, 6725032.6071714545], [148046.52058160966, 6724777.688920746], [147873.70785491457, 6724584.987210888], [148234.7854077253, 6724170.615164521], [148185.0, 6724120.0], [148285.6342948202, 6724039.684810039], [148337.67759752358, 6723930.153036214], [148580.91708812912, 6723768.36801823], [148952.79395361594, 6723615.566284256], [149024.92849197926, 6723738.359792815], [149340.0, 6723605.0], [149583.55730768322, 6723552.97078641], [149638.48484848486, 6723650.252525252], [149909.48318293685, 6723625.516817063], [149930.8216408693, 6723604.17835913], [150082.3611384782, 6723653.059770708], [150608.94766461215, 6723588.158078093], [150804.1237661785, 6723529.426906055], [150937.36729217548, 6723674.265831174], [151114.16096207214, 6723675.804810361], [151121.6559139785, 6723713.279569892], [151680.0, 6723715.0], [151980.58050750257, 6724015.580507503], [152160.2094837309, 6723940.74037245], [152452.5426637052, 6724086.242592341], [152624.18432463842, 6724463.809720966], [152559.13965364668, 6724573.083766834], [152929.284750976, 6724718.709215663], [153007.5, 6724797.5], [152955.0, 6724850.0], [153053.20380999267, 6725010.835886643], [152916.07280747814, 6725037.52113724], [152841.33913477111, 6724966.804689944], [152777.86407766992, 6725027.13592233], [152533.60267907078, 6724988.975722168], [152475.0, 6725090.0], [152503.66620275468, 6725132.999304132], [152360.40198532338, 6725232.477964154], [152241.22505800464, 6725166.522041763], [151956.66666666666, 6725248.333333333], [151911.3715566676, 6725293.628443332], [151524.8065902741, 6725408.513120465], [151485.0, 6725530.0], [151556.42857142855, 6725572.857142857], [151574.99999999994, 6725640.0], [151501.66666666674, 6725676.666666667], [151504.89582586344, 6725718.645736225], [151371.05660972433, 6725865.733960669], [151067.5183565307, 6725994.396799036], [151020.5194805195, 6726073.441558441], [150932.85714285713, 6726006.428571428], [150786.68128028454, 6726092.351216474], [150748.53178084377, 6726063.06443895], [150532.5, 6726105.0], [150288.159639936, 6726226.662424025], [150304.004461202, 6726305.453608172], [150090.91836734692, 6726424.081632653], [150138.430593153, 6726559.071696749], [150031.0314533794, 6726681.729908887], [150027.14314825286, 6726766.869918666], [150074.82910547397, 6726818.56341789], [150095.0, 6726900.0], [149970.62119327238, 6726985.54053594], [149914.5744680851, 6727193.404255319], [149968.45193864108, 6727237.192543659], [149925.59294365457, 6727462.924697209], [149856.7006355468, 6727537.578347579], [149886.33315642917, 6727583.250275485], [149790.0, 6727675.0], [149720.88016967126, 6727642.69883351], [149725.88235294117, 6727769.117647059], [149561.78048555553, 6727933.2195144445], [149736.7265805867, 6728076.944587954], [149706.27337013965, 6728224.34042033], [149610.06025894318, 6728371.274280511], [149540.22648083622, 6728215.296167247], [149413.35648802397, 6728342.787076763], [149301.21617015588, 6728615.705036314], [149328.1731260865, 6728742.974741793], [149378.40685103473, 6728790.005974906], [149336.11111111112, 6728921.111111111], [149372.86052009457, 6728957.860520095], [149306.48993919895, 6729085.576022827], [149140.73081173017, 6729134.030784071], [149145.97973311928, 6729267.831630094], [149102.12972677976, 6729285.057034755], [149030.688613807, 6729401.78659661], [149083.69156190453, 6729522.237275745], [148993.24427480917, 6729747.862595419], [149005.0, 6729810.0], [148920.27638190956, 6729880.603015075], [148934.0, 6730035.0], [148852.38095238095, 6730032.619047619], [148780.2659965678, 6730178.869821034], [148794.25925925927, 6730229.012345679], [148697.97228283834, 6730230.0588313155], [148564.44575547345, 6730357.934005537], [148638.58974358975, 6730434.615384615], [148557.23202170964, 6730542.23202171], [148462.0735834602, 6730501.96211247], [148353.08791118464, 6730532.368627321], [148327.30810945062, 6730660.649613293], [148252.30263157893, 6730646.842105263], [148194.37753724863, 6730696.709480704], [148150.04900065024, 6730880.072356993], [148001.56918718174, 6731034.63386979], [147955.0, 6731020.0], [147900.83435857287, 6730898.414606867], [147800.0, 6730925.0], [147766.49590163934, 6731003.381147541], [147805.0, 6731070.0], [147745.5868839454, 6731119.043235382], [147665.21573888673, 6731069.056860911], [147553.18181818182, 6731127.2727272725], [147500.75575274476, 6731066.7935027825], [147415.0, 6731070.0]]]}}]}