{"type": "FeatureCollection", "crs": {"type": "name", "properties": {"name": "EPSG:25833"}}, "features": [{"type": "Feature", "properties": {"station": "150.1.0", "name": "S\u00f8rra", "series": ["1001.1"], "nodes": 58592, "fine_vertices": 1620, "fine_area_m2": 5859150.0, "reduced_vertices": 61, "reduced_area_m2": 5859150.000000239, "outline_tolerance_m": 20.0, "windows": [[458, 457], [1167, 1136]], "placed_on": "number", "distance_m": 0.4503303427162908, "uncertainty_m": 30.0, "elvid": "150-70-1", "objectid": 11001166, "lake": false, "confluence_near": false, "reach_up_m": 1000.0, "reach_down_m": 130.0, "reach_fork": false, "seeded_by": "river", "lake_rule": null, "lake_number": null, "lake_name": null, "lake_distance_m": null, "node_offset_m": 1.4500584396179559, "chain_nodes": 88, "lowered_nodes": 56, "lowered_max_m": 3.8412227630615234, "direction_ok": true, "end_extended_m": 0.0, "end_closed": true, "downstream_checked": "whole", "a0": 5.8592, "area_up": 5.8518, "area_down": 0.0001, "swing": 0.001262971054068903, "largest_step": 0.0052000000000003155, "largest_step_at_m": 0.0, "checked_up_m": 24.14213562373095, "checked_down_m": 28.284271247461902, "drains": false, "monotone": false, "causes": ["chain_not_draining"]}, "geometry": {"type": "Polygon", "coordinates": [[[387235.0, 7319760.0], [387353.0, 7319642.0], [387297.69736770715, 7319418.896277693], [387267.99604654027, 7319391.892908299], [387605.95335173374, 7318965.1075562835], [387575.02875195467, 7318897.915249008], [387813.1666666667, 7318823.666666667], [387865.8823529412, 7318862.005347594], [387927.4159566706, 7318816.973116762], [387800.9229898075, 7318582.446206115], [387850.28301886795, 7318552.8301886795], [387857.22617017245, 7318346.691143958], [387940.88096023013, 7318355.7446926655], [387979.0185009833, 7318202.284537428], [388213.1884057971, 7318252.971014493], [388400.00456098694, 7318211.949388084], [388477.2727272727, 7318263.181818182], [388467.4463128616, 7318313.514617815], [388553.5621170493, 7318467.916288266], [388535.547678887, 7318514.379757187], [388886.40732318436, 7318654.611162286], [388961.338028169, 7318648.591549296], [388943.4341637011, 7318679.21708185], [389081.5355099356, 7318799.5433052685], [388921.19649384817, 7318880.63240837], [389065.1589227002, 7319074.254098677], [389126.6432301335, 7319076.095896171], [389139.6166134185, 7319208.290734825], [389180.0, 7319195.0], [389323.0766039015, 7319330.066037846], [389308.7855946399, 7319404.857621441], [389425.4593543563, 7319549.788256209], [389507.88144947274, 7319598.048777624], [389750.0, 7319845.0], [389795.9488469722, 7319845.0], [390070.21192788513, 7320107.643853549], [390435.0, 7320572.496765492], [390435.0, 7320614.992366413], [390594.756097561, 7320779.756097561], [390413.6022362277, 7320979.966845998], [390212.769971837, 7320995.173932872], [390076.12903225806, 7321035.0], [390011.4009894785, 7321182.274515454], [389936.763076701, 7321154.591024184], [389645.0, 7321450.0], [389713.98399470386, 7321533.308540052], [389622.14285714284, 7321622.857142857], [389690.71236260183, 7321707.010626829], [389563.85566844704, 7321882.673587406], [389468.5714285714, 7321843.571428572], [389375.59652966843, 7321720.937423526], [389023.008371717, 7321482.642452158], [388859.76258562214, 7321278.667619871], [388556.4033235667, 7321106.892363194], [388373.1503975981, 7320913.747650171], [388409.8819347409, 7320857.796122662], [388369.6112127601, 7320785.839099053], [388254.24117475055, 7320766.077127738], [388015.78808608424, 7320619.06093173], [387429.25627575873, 7319985.743724241], [387448.3333333333, 7319966.666666667], [387235.0, 7319760.0]]]}}]}