{"type": "FeatureCollection", "crs": {"type": "name", "properties": {"name": "EPSG:25833"}}, "features": [{"type": "Feature", "properties": {"station": "151.13.0", "name": "\u00d8vre Glugvatn", "series": ["1001.1"], "nodes": 605424, "fine_vertices": 5792, "fine_area_m2": 60542350.0, "reduced_vertices": 264, "reduced_area_m2": 60542350.000000015, "outline_tolerance_m": 20.0, "windows": [[488, 500], [1171, 1273], [2370, 2678]], "placed_on": "number", "distance_m": 137.49177356171984, "uncertainty_m": 137.49177356171984, "elvid": "151-3-6087", "objectid": 11736666, "lake": true, "confluence_near": false, "reach_up_m": 1000.0, "reach_down_m": 237.4917735617198, "reach_fork": false, "seeded_by": "lake", "lake_rule": "lake_line", "lake_number": 65848, "lake_name": "\u00d8vergluggvatnet", "lake_distance_m": 12.442109039959586, "node_offset_m": null, "chain_nodes": null, "lowered_nodes": null, "lowered_max_m": null, "direction_ok": null, "end_extended_m": null, "end_closed": null, "downstream_checked": null, "a0": null, "area_up": null, "area_down": null, "swing": null, "largest_step": null, "largest_step_at_m": null, "checked_up_m": null, "checked_down_m": null, "drains": null, "monotone": null, "causes": []}, "geometry": {"type": "Polygon", "coordinates": [[[432695.0, 7283240.0], [432714.80891719746, 7283198.662420382], [432418.417721519, 7282913.670886076], [432446.70306136477, 7282869.399176017], [432279.9152542373, 7282619.322033898], [432305.9436106047, 7282585.5458512595], [432212.6551121468, 7282481.48266822], [432214.7548945151, 7282387.18570969], [432051.23293023836, 7282273.991876669], [432048.85069948604, 7282134.208946968], [431961.59865227697, 7282123.238113188], [431902.0512820513, 7282039.871794872], [431840.31330788555, 7282072.734450183], [431748.9285714286, 7281906.071428572], [431570.06581082067, 7282030.680685574], [431515.0, 7282010.0], [431548.137254902, 7281923.9215686275], [431473.4101945559, 7281808.712953398], [431552.0893970894, 7281685.77962578], [431527.53634894994, 7281650.177705977], [431560.03794837045, 7281602.516280004], [431513.4210526316, 7281482.631578947], [431471.5789473684, 7281499.868421053], [431328.6341635269, 7281225.107020594], [431301.7400978287, 7281015.450430863], [431105.0, 7280801.666666667], [431023.881001175, 7280854.714485852], [430944.54545454547, 7280735.0], [430678.9595375722, 7280710.520231213], [430610.0, 7280745.0], [430483.9267063915, 7280721.275047592], [430389.11098140356, 7280629.462811638], [430440.5433865306, 7280601.160324369], [430415.8320980882, 7280398.620682444], [430175.0, 7280220.0], [430197.29607250757, 7280175.4078549845], [430058.8702862398, 7279990.825174096], [430083.5683485006, 7279781.463854014], [429959.0406268432, 7279540.970806079], [429905.0, 7279305.392552384], [429744.0430523343, 7279075.906201077], [429698.38428871206, 7278505.96242077], [429463.5030721011, 7278352.348175469], [429488.4367068951, 7278321.248043877], [429396.0869565217, 7278285.0], [429266.1175695461, 7278179.06193265], [429287.1875, 7278064.6875], [429351.88987533055, 7278076.901208916], [429471.84996965394, 7277944.526538275], [429259.44334037305, 7277565.921141616], [429394.65119829314, 7277530.962582516], [429521.1232856892, 7277543.982767523], [429721.92307692306, 7277343.076923077], [429782.01561068627, 7277321.863548132], [429783.52816225844, 7277154.161984378], [429883.96220353775, 7277040.31806213], [429935.7909087371, 7277064.82709874], [430143.98262626183, 7276958.457103957], [430252.61941448384, 7277003.597842835], [430194.1022409731, 7276780.897759027], [430236.58392799395, 7276687.1468147095], [430192.0540412813, 7276450.812252781], [430253.6177009361, 7276298.656253261], [430361.2017167382, 7276215.0], [430409.0639364452, 7276269.57111072], [430438.02302975924, 7276257.590847914], [430607.7213719074, 7276400.361518999], [430732.1338935221, 7276682.313695196], [430839.10419214715, 7276654.374713694], [431092.43942211964, 7276363.73553349], [431181.7938195053, 7276104.404406463], [431312.3227620495, 7276022.85259144], [431547.19363312103, 7276032.655431382], [431597.9983444086, 7276086.721572181], [431734.2984370785, 7275924.115978577], [431710.71428571426, 7275643.571428572], [431666.1111111111, 7275576.666666667], [431697.324779716, 7275527.516471275], [431865.26601713867, 7275563.167858227], [432026.4919016709, 7275446.588588022], [431963.6489684814, 7275202.88115536], [432147.15243173874, 7275126.355076804], [432165.0, 7275010.0], [432500.0363858859, 7274998.993611712], [432516.5703179796, 7274889.480741382], [432560.0, 7274885.0], [432639.81412639405, 7275030.501858736], [432700.0, 7275045.0], [432707.0049050165, 7274981.955854852], [432856.750222606, 7274968.737891584], [432870.0, 7274895.0], [432958.7476266323, 7274872.76404453], [432989.84802009584, 7274954.413730427], [433199.99419659947, 7274988.679343526], [433342.36808157695, 7274937.878437405], [433469.2336301619, 7274961.949153851], [433610.77771761554, 7275051.27506864], [433733.7892444997, 7275270.011568981], [433712.0860006331, 7275317.494328214], [433798.29613141756, 7275513.158233537], [433829.9229434935, 7275655.491231336], [433905.0, 7275740.0], [433924.10750918806, 7275961.237334549], [434035.0, 7276120.0], [433992.5, 7276136.25], [434061.6157871784, 7276213.748364588], [434047.22222222225, 7276272.222222222], [434100.0, 7276325.0], [434157.6627442739, 7276283.06345871], [434354.1134261744, 7276308.853973094], [434417.7058152794, 7276256.936145952], [434579.4351191408, 7276268.694932098], [434895.1956434046, 7276230.1956434045], [434921.5032536336, 7276260.477685011], [434999.375, 7276235.625], [434963.9538040518, 7276082.278073375], [434990.0, 7276035.0], [435077.15088605095, 7276124.293238215], [435274.0548992356, 7276135.810979847], [435500.91397849465, 7276335.913978495], [435566.91745436296, 7276324.522651925], [435627.4409916872, 7276508.383153531], [435691.1904761905, 7276583.80952381], [435668.1081081081, 7276619.662162162], [435727.72879576887, 7276723.483749666], [435889.73565900687, 7276823.548396558], [435972.7885051134, 7276976.874674811], [436125.1273136414, 7276864.671731445], [436315.18518518517, 7276856.481481481], [436360.0, 7276905.0], [436395.5982791073, 7276881.267813928], [436625.0, 7277092.94117647], [436625.0, 7277140.0], [436925.4224454381, 7277566.189031632], [437049.173549114, 7277821.637383269], [437130.0, 7277865.0], [437168.1818181818, 7277814.090909091], [437233.5562616213, 7277897.754795058], [437338.8461538461, 7277865.769230769], [437419.3886573224, 7277934.665853359], [437538.11968662235, 7277939.641995063], [437649.95814149897, 7278054.129364699], [437826.4286393436, 7278165.938954667], [437914.4670688788, 7278115.598290598], [438098.8245966798, 7278265.825892558], [438204.44444444444, 7278255.0], [438300.0725260505, 7278342.366611254], [438455.7913669065, 7278210.035971223], [438575.3754337266, 7278349.624566274], [438557.22222222225, 7278367.777777778], [438628.12986747763, 7278511.788603031], [438771.55465962697, 7278607.923624379], [439022.7042119187, 7278911.563052507], [438891.6666666667, 7279043.333333333], [439073.222251504, 7279304.588637656], [439209.14084947424, 7279432.024641993], [439239.48979591834, 7279602.244897959], [439280.0, 7279622.5], [439290.49164612434, 7279739.879485073], [439479.30890755507, 7279944.5760105075], [439471.6666666667, 7279976.666666667], [439542.8282352255, 7280022.188866432], [439525.1388361108, 7280067.584562176], [439625.7258242538, 7280146.796879196], [439689.13333333336, 7280257.6], [439665.0, 7280330.0], [439730.6358958448, 7280451.965496248], [439687.5553483843, 7280568.153075668], [439614.7819281949, 7280588.070245101], [439735.0, 7280770.0], [439664.78723404254, 7280828.510638298], [439746.07246229623, 7280834.500076169], [439952.79324070655, 7281038.896620354], [439990.82063312543, 7281104.605843129], [440087.11998410354, 7281161.281828186], [440075.0, 7281275.0], [440190.2787702933, 7281382.0359224], [440275.956631797, 7281350.994218213], [440285.0, 7281440.0], [440384.22015463194, 7281488.13374118], [440460.9853308664, 7281624.014331462], [440551.0, 7281664.0], [440448.45588235295, 7281804.779411765], [440331.6474705924, 7281796.150343677], [440250.0, 7281855.0], [440195.671980603, 7281807.873750834], [440133.89830508473, 7281849.06779661], [440061.484159332, 7281795.85552115], [439915.84353277326, 7281804.610431149], [439911.064549951, 7281891.799082871], [439987.73859418184, 7282106.04126965], [439871.36363636365, 7282152.545454546], [439943.09798408236, 7282242.945082528], [439891.303657245, 7282331.929183799], [439806.6834446407, 7282379.282632617], [439765.15807659086, 7282503.673440007], [439663.0575491567, 7282601.662914764], [439609.63071232033, 7282534.2479651775], [439529.3888991514, 7282529.805537267], [439561.373546449, 7282707.414309559], [439440.0, 7282825.0], [439384.95364098146, 7282795.832629138], [439289.0321090808, 7282888.542278811], [439227.2018348624, 7283054.311926605], [439038.73874219606, 7283074.957774581], [438970.2547853654, 7282993.441631332], [438777.8318294756, 7282986.484242187], [438720.07650971564, 7282857.744171861], [438591.4356435643, 7282764.316831683], [438520.8987338336, 7282771.488148829], [438361.01754008903, 7282654.983754274], [438232.73993702786, 7282423.93786454], [437907.2045344248, 7282595.633048104], [437607.34015341545, 7282567.846209115], [437430.77007541934, 7282332.923035597], [437340.0, 7282355.0], [437259.5238095238, 7282305.952380952], [437260.57475865365, 7282347.473610238], [436851.77618529263, 7282448.092264105], [436823.0, 7282428.0], [436690.4441633779, 7282525.565673125], [436630.0, 7282655.0], [436590.0, 7282615.0], [436476.2758264873, 7282659.552129222], [436396.973203856, 7282609.316003923], [436234.8199228174, 7282794.90055645], [436304.5624152311, 7282901.559529452], [436279.76408110716, 7282970.72288381], [436306.6796910226, 7283154.97655616], [436229.07681834797, 7283320.944773382], [436180.0, 7283285.0], [436075.71428571426, 7283389.285714285], [435979.04767879547, 7283382.102885822], [435971.5690724033, 7283474.577829832], [435696.6923076923, 7283818.461538462], [435705.71794871794, 7283863.58974359], [435636.8522571273, 7283977.809938952], [435488.2807830606, 7283980.931113195], [435446.6666666667, 7284055.0], [435523.17069728277, 7284102.422513792], [435489.6528304835, 7284188.246926695], [435560.18518518517, 7284347.777777778], [435490.0, 7284445.0], [435555.0, 7284550.0], [435366.08477651945, 7284563.155848735], [435188.37497282785, 7284414.257033028], [434815.7016039029, 7284285.763385447], [434711.06194726704, 7284384.498367473], [434751.9692012816, 7284627.466672965], [434873.78504672897, 7284757.97790994], [434814.5330222649, 7284791.257778192], [434547.72869674186, 7284818.016917293], [434464.4810146377, 7284870.377217566], [434418.5405037721, 7284815.248604527], [434115.3633876681, 7284663.114009926], [433950.00438548403, 7284507.944852538], [433757.0241981276, 7284473.092783374], [433603.6409245667, 7284259.774321893], [433361.6737934777, 7284008.891777059], [433399.6526893401, 7283956.276209175], [433201.4516129032, 7283767.096774193], [433242.86213009193, 7283652.940208237], [433078.66308338736, 7283525.764831612], [433056.38520356995, 7283529.626450139], [432695.0, 7283240.0]]]}}]}