{"type": "FeatureCollection", "crs": {"type": "name", "properties": {"name": "EPSG:25833"}}, "features": [{"type": "Feature", "properties": {"station": "151.15.0", "name": "Nervoll", "series": ["1001.1"], "nodes": 6536785, "fine_vertices": 23014, "fine_area_m2": 653678650.0, "reduced_vertices": 918, "reduced_area_m2": 653678649.9999996, "outline_tolerance_m": 20.0, "windows": [[510, 439], [1179, 1237], [2777, 2835], [5184, 5676]], "placed_on": "number", "distance_m": 27.80082443710181, "uncertainty_m": 30.0, "elvid": "151-3-1", "objectid": 11731683, "lake": false, "confluence_near": true, "reach_up_m": 1000.0, "reach_down_m": 130.0, "reach_fork": false, "seeded_by": "river", "lake_rule": null, "lake_number": null, "lake_name": null, "lake_distance_m": null, "node_offset_m": 5.278096788748623, "chain_nodes": 120, "lowered_nodes": 59, "lowered_max_m": 1.79656982421875, "direction_ok": true, "end_extended_m": 38.2842712474619, "end_closed": true, "downstream_checked": "whole", "a0": 653.6785, "area_up": 652.9237, "area_down": 653.6797, "swing": 0.0011546960776588674, "largest_step": 0.7536999999999807, "largest_step_at_m": 0.0, "checked_up_m": 28.28427124746213, "checked_down_m": 24.142135623731065, "drains": true, "monotone": true, "causes": []}, "geometry": {"type": "Polygon", "coordinates": [[[446895.0, 7261500.0], [447016.3793103448, 7261405.172413793], [447000.33864541835, 7261334.661354582], [447048.69475814496, 7261294.536463521], [447021.34846674354, 7261232.849651083], [447117.5352112676, 7261191.006036217], [447106.30335499736, 7261139.348322501], [447200.2611172505, 7261069.856168893], [447204.4928632662, 7260901.796306749], [446945.0, 7260577.574794537], [446654.3129635856, 7260289.004113772], [446117.84599847824, 7260264.606987741], [445967.587373168, 7260366.330326945], [445785.935218509, 7260219.064781491], [445755.5493593702, 7260249.45064063], [445313.87272727274, 7259748.872727273], [445413.4, 7259628.4], [445300.78582983534, 7259426.441268565], [445336.2121212121, 7259336.363636363], [445298.15789473685, 7259311.578947368], [445324.5332671301, 7259267.408142999], [445472.14285714284, 7259262.857142857], [445457.4925333495, 7259160.910488722], [445485.0, 7259130.0], [445451.05263157893, 7259094.736842105], [445633.2683982684, 7258851.731601732], [445625.50349388557, 7258774.118441423], [445671.2567534876, 7258704.938311427], [445746.0443718868, 7258658.692607899], [445680.0238981881, 7258536.220127265], [445582.9039357154, 7258452.096064284], [445609.0, 7258426.0], [445422.1219546514, 7258174.757251028], [445392.00626541895, 7257965.058739126], [445696.0840761083, 7257691.227259523], [445594.2763445562, 7257575.972890249], [445763.66262347, 7257318.572941516], [445616.7286371636, 7257190.760776217], [445673.1587006119, 7256984.566371517], [445565.1567431106, 7256882.2366590295], [445519.61375844164, 7256795.386241558], [445655.69306930696, 7256659.306930693], [445769.8484848485, 7256483.939393939], [445645.0, 7256310.0], [445681.1783508506, 7256184.394842344], [445752.09228095284, 7256087.944852975], [445864.6252295336, 7256193.240254703], [445926.1058072224, 7255991.049332208], [446044.7411792454, 7256009.056250442], [446305.3171788132, 7255706.617415189], [446260.9257837492, 7255641.737683941], [446243.1818181818, 7255433.636363637], [446270.1807228916, 7255382.409638554], [446240.4844014953, 7255221.635944151], [446123.3610081928, 7255133.710408947], [445945.0, 7255110.0], [446147.16964503296, 7254920.957641531], [446337.23529059876, 7254900.441965582], [446392.85714285716, 7254992.142857143], [446421.724137931, 7254963.275862069], [446640.0, 7255035.0], [446672.5537954821, 7254967.4581590695], [446820.0, 7254895.0], [446874.0, 7254949.0], [446880.0, 7255005.0], [447010.0, 7254965.0], [447061.2506959754, 7254993.308752509], [446981.6828087167, 7254696.731234867], [446945.85714285716, 7254661.428571428], [446998.87096774194, 7254595.161290322], [446947.2810947856, 7254504.132722308], [447021.2121212121, 7254492.2727272725], [446942.78813949565, 7254341.002434905], [446828.0, 7254364.333333333], [446661.3667403038, 7254318.186644777], [446547.0309130122, 7254211.117900791], [446370.0, 7254095.0], [446384.00426219613, 7254034.314863817], [445999.6170421467, 7253505.33261933], [445899.13678837527, 7253529.642077965], [445849.5267247043, 7253495.387504048], [445430.87177803315, 7253475.157609588], [445290.0, 7253565.0], [445262.8608132728, 7253531.353504841], [445133.5714285714, 7253567.142857143], [445085.2702702703, 7253495.585585586], [444944.8754771537, 7253509.183182802], [444936.904131895, 7253453.904946062], [444753.93605735817, 7253435.98401434], [444708.232358228, 7253483.819137018], [444558.62868047255, 7253436.9300069725], [444474.355090148, 7253490.218793481], [444254.9053205977, 7253548.45525451], [444035.9574468085, 7253443.510638298], [443965.9702198062, 7253476.92389506], [443910.084148367, 7253295.417484947], [443688.9605587225, 7253307.889124888], [443564.88790031336, 7253358.822609411], [443470.71482108784, 7253354.069429254], [443422.5862068966, 7253103.1034482755], [443357.71184316406, 7252978.679639887], [443485.9577503511, 7252907.302012324], [443447.763626112, 7252751.9088460095], [443548.63636363635, 7252590.909090909], [443533.9655172414, 7252559.310344827], [443565.0, 7252470.0], [443512.3076923077, 7252468.076923077], [443406.180361993, 7252367.959167602], [443512.94365275814, 7252085.484212348], [443461.52336169576, 7251997.598148977], [443524.35991886107, 7251806.227052559], [443586.51832460734, 7251705.514834206], [443570.7138636289, 7251656.784412856], [443782.1802964782, 7251507.436059295], [443919.09435263457, 7251490.886707875], [443933.3333333333, 7251398.333333333], [443997.4905695852, 7251345.819225082], [444093.5531100478, 7251068.535885167], [444030.3846153846, 7251004.615384615], [444171.51082431985, 7250842.975000222], [444303.17624867207, 7250465.556857182], [444387.0790806081, 7250368.362440421], [444457.36079715117, 7250408.854701095], [444474.455173722, 7250093.425890783], [444199.1021743784, 7249835.1094223065], [444132.8630031539, 7249698.399592247], [443972.15285443026, 7249570.219604577], [443851.636840941, 7249626.198962746], [443750.0, 7249565.0], [443739.99435650284, 7249600.21774847], [443540.0987965242, 7249651.662716574], [443641.2748011008, 7249489.190019122], [443533.22141714155, 7249323.311431538], [443555.0779085378, 7248929.922091463], [443719.5833333333, 7248765.416666667], [443741.6666666667, 7248583.333333333], [443793.0, 7248532.0], [443707.5209722521, 7248408.165196816], [443580.0, 7248299.848484849], [443562.97435619653, 7248117.401143265], [443510.76470588235, 7247961.176470588], [443525.0, 7247890.0], [443475.0, 7247860.0], [443515.0, 7247810.0], [443442.9415301638, 7247711.296675176], [443632.1491875923, 7247544.254062039], [443659.734722826, 7247445.358164223], [443781.7025176861, 7247322.941958352], [443709.3217550274, 7247185.762340036], [443804.32773109246, 7247092.605042017], [443839.78436229227, 7246975.724770899], [444098.93423049623, 7246725.499318696], [444101.92307692306, 7246665.384615385], [443977.6290346271, 7246498.804079609], [443869.51919210085, 7246235.721352873], [443921.8602253118, 7246063.391405597], [443865.0, 7245990.0], [443859.05628327216, 7245840.911772078], [443627.3509502734, 7245538.74251497], [443548.94645273616, 7245378.019954422], [443368.65492319665, 7245211.470762709], [443016.2295776779, 7245057.61602967], [442836.8831740698, 7245080.172372643], [442759.5634795745, 7245020.939132624], [442704.57869195455, 7244840.631962068], [442745.0, 7244780.0], [442269.5421870454, 7244349.369764927], [442236.9066069542, 7244168.0933930455], [442654.9127399651, 7244096.910994764], [442671.74706649286, 7244033.349413299], [442730.0, 7244045.0], [442821.8181818182, 7243953.363636363], [442880.0, 7243965.0], [443024.64185954066, 7243824.48783838], [443091.49665804853, 7243801.362385733], [443124.05054753827, 7243745.011109968], [443013.1480218281, 7243613.20941337], [443189.1666666667, 7243444.166666667], [443263.661253582, 7243480.91349142], [443298.35465471767, 7243383.226726412], [443534.79983995046, 7243428.38792864], [443536.5904203367, 7243337.855933394], [443890.0, 7243065.0], [443954.4099378882, 7243128.167701864], [444110.0, 7243155.0], [444123.79238174966, 7243087.808706571], [444210.59521627653, 7243068.336249393], [444360.0, 7243105.0], [444402.0, 7243069.0], [444510.0, 7243105.0], [444607.7358490566, 7242993.301886792], [444760.0, 7242895.0], [444764.9885776287, 7242925.694461867], [444885.1610724306, 7242974.5848488], [444937.5407113251, 7243056.841949772], [445031.01595298067, 7242991.738035264], [445094.97872340423, 7242994.44680851], [445095.2, 7242948.2], [445172.22153465345, 7242901.132425742], [445242.5153259418, 7242942.273145713], [445328.1301352274, 7242909.107926261], [445413.92363974825, 7243029.39368333], [445537.77777777775, 7243062.777777778], [445595.23663574917, 7243021.817157738], [445664.31600609305, 7243056.041887786], [445669.82799796556, 7242907.569367314], [445549.59323966905, 7242754.77372949], [445330.6803579951, 7242719.079383707], [445168.38129496406, 7242533.381294964], [445223.3333333333, 7242472.5], [445179.5821153101, 7242358.510548375], [444934.1776975874, 7242125.70005214], [444947.5925925926, 7242002.592592592], [444842.0588235294, 7241944.705882353], [444855.25034913333, 7241878.748254334], [444742.7013333005, 7241756.7341121165], [444695.05899705016, 7241530.05899705], [444445.4166666667, 7241280.416666667], [444254.1975111641, 7241227.513602271], [444046.50892412424, 7241055.615976985], [443928.8810791872, 7241054.066937572], [443808.9315009354, 7240954.041588718], [443837.00710865605, 7240848.867075584], [443775.0, 7240747.5], [443821.7160449254, 7240719.937533494], [443780.02967125864, 7240461.933047878], [443698.0132800736, 7240340.175760199], [443580.0, 7240275.0], [443475.0, 7240355.0], [443361.926078643, 7240256.393846974], [443356.6597895298, 7240194.545170587], [443246.42201450124, 7240005.938664931], [443278.5, 7239892.5], [443133.56041131105, 7239740.077120823], [443145.6060606061, 7239655.757575758], [443105.0, 7239610.0], [443135.0, 7239580.0], [443122.84352399735, 7239506.357659435], [443189.67065875605, 7239452.819194149], [443195.0, 7239247.5], [443125.0, 7239100.0], [443265.8052434457, 7238942.790262172], [443282.42208095145, 7238765.557586263], [443177.02898550726, 7238636.666666667], [443261.5276276513, 7238522.344974354], [443233.21763965534, 7238425.399361023], [443156.72314555006, 7238374.49169005], [443170.0, 7238335.0], [443233.61464968155, 7238373.168789809], [443254.6804159821, 7238350.705626075], [443433.39959559316, 7238414.805467905], [443630.7498352167, 7238428.485783586], [443819.0442629742, 7238248.842850848], [444090.0, 7238265.0], [444156.087534172, 7238224.832239839], [444329.4476421746, 7238295.076053815], [444546.0, 7238285.0], [444556.445182021, 7238337.225910105], [444705.1725250171, 7238335.431312542], [444829.4017538806, 7238471.500931274], [444975.6964859934, 7238377.715895709], [445008.23529411765, 7238403.823529412], [445257.8296629525, 7238299.830732638], [445425.1432326563, 7238384.103650595], [445515.14925373136, 7238327.164179104], [445610.0, 7238385.0], [445690.0, 7238365.0], [445734.44444444444, 7238409.444444444], [445780.0, 7238365.0], [445954.9170179064, 7238340.0553726675], [446130.84516327694, 7238412.451565591], [446168.6153918604, 7238592.290175251], [446291.14649044245, 7238579.53928756], [446411.8403925299, 7238668.954980777], [446484.6805896806, 7238625.356265356], [446615.0, 7238680.0], [446597.0062695925, 7238575.956112852], [446635.0, 7238540.0], [446595.24137505936, 7238396.205917767], [446783.75, 7238314.75], [446796.6666666667, 7238348.333333333], [446935.6284628971, 7238264.507058566], [446965.0, 7238150.0], [446927.5, 7238107.5], [446970.8823529412, 7238064.117647059], [446918.70585986885, 7237975.399723619], [446979.9000392003, 7237869.949039592], [446954.7573326378, 7237808.076919303], [447178.91449950915, 7237547.571083503], [447000.0, 7237315.0], [446866.7953115449, 7237269.326548496], [446775.0, 7237288.0], [446671.06631697936, 7237214.069128035], [446590.0, 7237065.0], [446568.44444444444, 7237065.0], [446517.85714285716, 7236968.571428572], [446577.1, 7236944.2], [446528.73983364966, 7236801.093175877], [446766.62529681716, 7236253.105254375], [446705.8944860302, 7236087.082436413], [446626.3461538461, 7235997.115384615], [446480.0323275862, 7235964.967672414], [446444.23796791444, 7236000.762032085], [446258.0505415162, 7235862.906137184], [446220.0, 7235885.0], [446022.2434444804, 7235716.333764972], [445936.4733489775, 7235797.174544642], [445713.7855641972, 7235848.10514091], [445338.707246106, 7235834.284221196], [445059.29854343936, 7235777.787458005], [444870.0, 7235585.0], [444769.4656731075, 7235571.898882246], [444648.3115217974, 7235269.252438711], [444458.8376118931, 7235225.251388544], [444199.6990106559, 7234966.64552339], [443936.1524623018, 7234824.991678753], [443925.71129707113, 7234742.217573222], [443776.4285714286, 7234617.142857143], [443637.1173125439, 7234330.0699050035], [443655.2450133924, 7234201.43459788], [443551.4450128316, 7234103.846897496], [443498.27653349994, 7233784.969532501], [443510.8350951374, 7233595.095137421], [443450.20133919304, 7233507.513045501], [443480.03248039534, 7233130.052913655], [443608.18267419963, 7232874.124293786], [443645.0, 7232686.0], [443782.38624822104, 7232478.766000182], [443940.1728583228, 7232515.172858323], [443998.75, 7232573.75], [444357.54449354945, 7232657.634337386], [444642.9505704868, 7232591.604634108], [445073.1135805803, 7232773.0596007565], [445357.595248788, 7233045.081987346], [445716.27831318264, 7233300.16669587], [445751.88103999087, 7233359.411065519], [445890.0, 7233395.0], [446027.04451583297, 7233482.737494264], [446320.0, 7233555.0], [446627.33644859813, 7233247.663551402], [446678.6666666667, 7233053.666666667], [446766.73413063475, 7232979.314627415], [446884.68283801246, 7233111.077782061], [446855.0, 7233160.0], [446890.0, 7233195.0], [447033.6842105263, 7233148.684210527], [447073.45864661655, 7233188.458646617], [447175.32369144063, 7233219.593351393], [447274.1461373897, 7233076.201483387], [447368.3944153578, 7233130.881326352], [447466.4059587569, 7233019.744884451], [447460.7916692183, 7232923.1606869595], [447585.0, 7232900.0], [447640.0, 7232845.0], [447738.6194346269, 7232866.915429917], [447860.61282212444, 7232714.902576996], [447792.3645336557, 7232672.069988177], [447859.65722627135, 7232554.344036011], [447840.0, 7232468.333333333], [447875.0, 7232491.666666667], [447940.0, 7232455.0], [448112.2105263158, 7232564.1228070175], [448120.0, 7232655.0], [448200.1999930923, 7232625.452634124], [448411.16294725763, 7232686.162947258], [448576.47992163466, 7232691.268424534], [448823.0690391459, 7232754.779359431], [448819.65044887975, 7232810.719927423], [449274.8676202695, 7233011.090143154], [449456.8300305504, 7233015.290053873], [449502.800296123, 7233191.126336888], [449623.56835152494, 7233259.3215021165], [449773.1325301205, 7233274.156626506], [449810.0, 7233225.0], [449944.14681262075, 7233235.592401803], [450022.44359722425, 7233159.603397455], [449950.3227796053, 7233066.556332237], [449887.76566089405, 7233055.198374547], [449858.3333333333, 7232946.666666667], [449765.0, 7232880.0], [449951.8693432351, 7232692.019029938], [449898.5336032389, 7232621.443454791], [449950.7894736842, 7232592.105263158], [449898.65422113094, 7232510.007221781], [450003.0, 7232356.0], [450146.54887218046, 7232255.203007519], [450661.57440193894, 7231692.367771706], [450747.74396000814, 7231704.677708573], [450872.21043446846, 7231623.569324714], [451103.4241231291, 7231782.4572639605], [451214.28571428574, 7231686.428571428], [451320.0, 7231675.0], [451352.24009536207, 7231708.542532345], [451503.84684527735, 7231665.683593281], [451920.0, 7232085.0], [452008.0, 7232069.0], [452154.48015929456, 7232155.052624093], [452250.62250854296, 7232071.92150006], [452358.16143073427, 7232157.150832702], [452508.0, 7232196.6], [452568.8444094916, 7232275.086729494], [452791.5425404126, 7232231.038221734], [452890.0, 7232125.0], [452999.37377893477, 7232145.833100749], [453209.45503217675, 7231965.760367211], [453353.71438621177, 7232067.70137179], [453560.74485392723, 7231825.717620803], [453617.82608695654, 7231840.652173913], [453720.1149425287, 7231765.0], [453790.0, 7231765.0], [453831.3187836574, 7231825.516765086], [453933.6668100813, 7231862.676949451], [454047.0170735767, 7231766.744253456], [454232.0886584772, 7231774.954314105], [454315.0372347172, 7231819.3485282], [454566.28137931036, 7231780.710344828], [454702.1951219512, 7231904.268292683], [454760.0, 7231845.0], [454814.95238095237, 7231872.476190476], [454854.6092169911, 7231829.800445904], [454975.60885608854, 7231895.442804428], [455046.6666666667, 7231865.0], [455103.0, 7231904.0], [455210.0, 7231855.0], [455240.0, 7231875.0], [455310.08849543263, 7231769.19153623], [455270.03937007877, 7231722.913385827], [455380.0, 7231595.0], [455474.6808510638, 7231615.212765957], [455516.55021692073, 7231674.23343831], [455565.0, 7231645.746268657], [455523.125, 7231591.25], [455659.70057753345, 7231530.7122215275], [455790.5835414997, 7231296.6968514975], [456373.95441757, 7230741.976603398], [456446.33566014003, 7230717.441812746], [456654.0075851032, 7230881.949536281], [456927.27356481843, 7230961.147703523], [457118.7109375, 7231153.7109375], [457221.1538461539, 7231059.230769231], [457300.0, 7231075.0], [457610.5589075897, 7230704.139409336], [457650.0, 7230715.0], [457860.0, 7230545.0], [458134.73954752344, 7230243.785349982], [458270.68655779987, 7230267.33126508], [458380.0, 7230245.0], [458521.76076379325, 7230392.672817405], [458590.0, 7230365.0], [458737.6378198886, 7230525.173120867], [458841.5918367347, 7230676.591836735], [459129.28571428574, 7230964.285714285], [459270.0, 7230825.0], [459310.0, 7230725.0], [459476.8630442925, 7230779.264404648], [459736.34468871105, 7231012.076436851], [459927.8356713427, 7231115.877755511], [460149.0536929667, 7230964.065869503], [460267.6942561629, 7231055.9658574695], [460422.1600328557, 7231017.613322382], [460731.0925985779, 7231308.684091793], [460832.04547230207, 7231243.257277113], [460942.85714285716, 7231337.285714285], [460990.693798499, 7231304.524853149], [461550.9783498342, 7231929.680903255], [461496.724137931, 7232081.724137931], [461562.49942883657, 7232149.788527818], [461266.1297003023, 7232465.916169893], [461186.0, 7232599.0], [461163.88778281386, 7232578.588722598], [460947.4209079564, 7232658.920264424], [460771.52427402174, 7232865.8534894865], [460931.6955449995, 7233074.507014166], [461125.0, 7233430.0], [461110.1219512195, 7233504.390243903], [461231.7511274888, 7233635.69696765], [461249.95366978407, 7233762.264362367], [461346.0, 7233861.0], [461377.9744680851, 7233987.017021277], [461530.0, 7233895.0], [461543.83425935847, 7233907.770085562], [461764.3274834423, 7233770.4193941085], [461896.29032258067, 7233762.903225807], [461947.5, 7233797.5], [462064.48024643067, 7233692.83346372], [462184.28571428574, 7233777.857142857], [462226.12903225806, 7233762.096774193], [462309.02595027786, 7233842.843646281], [462351.17647058825, 7233799.117647059], [462383.87417218543, 7233825.231788079], [462461.1116241073, 7233794.558541622], [462714.4935096445, 7233903.185126774], [462714.7649312037, 7233919.69841443], [462845.3846153846, 7233970.384615385], [462920.0, 7233915.0], [462977.2598080582, 7233998.345248141], [463043.1719477951, 7233993.445464844], [463215.641340526, 7233830.691016594], [463350.0, 7233755.0], [463403.70106761565, 7233804.750889679], [463445.19234090415, 7233775.967527665], [463602.2038880125, 7233855.936141721], [463740.29411764705, 7233765.294117647], [463896.3759348804, 7233930.397936882], [464146.37600386364, 7233903.1390264975], [464228.4677419355, 7233926.20967742], [464275.98636656406, 7233883.831496458], [464311.060813832, 7233929.132253159], [464465.2838427948, 7233933.995633188], [464491.24972203694, 7233973.828107627], [464538.3333333333, 7233928.333333333], [464660.1481447108, 7233931.696041521], [464734.39223756234, 7233995.748596477], [464934.9573863357, 7233937.014200525], [465168.69696012913, 7234083.191943876], [465279.91128634795, 7234072.437161163], [465635.96626844694, 7234431.008432888], [465670.0, 7234415.0], [465946.5597084403, 7234664.2250636695], [466035.6133069445, 7234673.501399219], [466222.85714285716, 7234532.142857143], [466404.7958004553, 7234515.962796036], [466544.70529451827, 7234559.358246716], [466681.637673022, 7234487.027230782], [466779.68508998764, 7234550.647835992], [466970.8751723988, 7234391.814891497], [467261.0393258427, 7234216.9662921345], [467345.5437259405, 7234302.207047412], [467442.20512889104, 7234260.19658074], [467704.3228887573, 7234494.267751548], [467723.39436117193, 7234589.417522593], [467567.02702702704, 7234713.378378378], [467526.1909090909, 7234821.19090909], [467564.57509978063, 7234859.57509978], [467516.6230295634, 7234972.708623091], [467830.13311737496, 7235246.468901346], [467912.14285714284, 7235237.142857143], [467878.5495473812, 7235365.52466948], [468039.4336331288, 7235523.708229595], [468260.2328358806, 7235520.714647226], [468430.24083769636, 7235681.881675392], [468695.9215747657, 7235768.742957229], [468876.0, 7235901.0], [469010.0, 7235935.0], [469052.28453005, 7235904.411191028], [469901.381959115, 7236715.606051817], [470027.2171054237, 7236639.835711822], [470376.8746167762, 7236755.131043534], [470393.93258426967, 7236711.853932585], [470516.69995760114, 7236629.329391812], [470598.4482813553, 7236626.26666964], [470670.0, 7236665.0], [470719.1862610616, 7236602.723846882], [470715.83789654827, 7236467.21293987], [470845.0, 7236350.0], [470847.9537106776, 7236241.417307799], [471038.7885996695, 7236116.21140033], [471060.2500930984, 7235941.965055175], [471173.0639293455, 7235794.303866081], [471487.1169354839, 7236012.116935484], [471693.6, 7235821.8], [471787.65998679365, 7235817.61385471], [472014.160609821, 7235579.160609821], [472055.0, 7235620.0], [472030.0, 7235675.0], [472243.0427982219, 7235888.042798222], [472198.2110722607, 7235980.266000718], [472252.6299562265, 7236044.740087547], [472232.94871794875, 7236084.102564103], [472381.22686096886, 7236225.470657739], [472330.97651654016, 7236266.651755909], [472394.0909090909, 7236417.2727272725], [472315.3137047021, 7236530.587363414], [472326.3404147728, 7236619.195751136], [472250.0, 7236665.0], [472217.43348982785, 7236632.433489827], [472110.54347826086, 7236664.456521739], [472350.0, 7236885.0], [472393.0188679245, 7236876.886792453], [472406.6789490666, 7236993.0042377245], [472577.05908393796, 7237245.282855354], [472553.5623207896, 7237292.836020415], [472920.0, 7237615.0], [473224.5479489642, 7237397.136095487], [473382.5, 7237337.5], [473612.7272727273, 7237567.7272727275], [473690.0, 7237535.0], [473733.9588688946, 7237564.305912596], [474129.3051274718, 7237155.1968832705], [474064.974798992, 7236899.943597744], [474085.052348832, 7236809.947651168], [474186.4864864865, 7236708.513513514], [474444.47859937954, 7236866.782487984], [474558.37773807906, 7237084.164950103], [474488.006993007, 7237376.993006993], [474375.0, 7237490.0], [474381.6849664706, 7237865.710016032], [474278.748907289, 7238145.792694306], [474120.20522858895, 7238323.722333719], [474222.58439930924, 7238535.168798618], [474172.43878226343, 7238651.399735275], [474195.2687312083, 7238746.34286556], [474145.1797752809, 7238891.146067415], [474371.4640345662, 7239135.389731462], [474421.6693856835, 7239304.784826897], [474386.83864915575, 7239602.645403377], [474757.9484327803, 7240030.28518578], [474663.3333333333, 7240151.666666667], [474737.06401766004, 7240166.412803532], [474854.2105263158, 7240094.47368421], [474993.115942029, 7240107.101449275], [475290.0, 7240385.0], [475412.0, 7240407.0], [475683.3333333333, 7240678.333333333], [475768.7695842494, 7240663.474854914], [476076.5432098765, 7240338.950617284], [476190.0, 7240325.0], [476464.22811781906, 7240049.72320869], [476590.0, 7240015.0], [477340.0, 7239265.0], [477461.26307320996, 7239283.592115848], [477624.3276709696, 7239121.137105371], [477886.7595155872, 7239147.758803056], [477992.9784912763, 7239092.0215087235], [478170.8333333333, 7238914.166666667], [478291.1680911681, 7239017.421652421], [478370.25041673926, 7239028.022790038], [478410.55555555556, 7239094.444444444], [478062.13483146066, 7239442.865168539], [478065.71077764285, 7239668.343767295], [477925.6179335498, 7239860.7943812935], [478196.0332507911, 7240132.883998702], [478109.29169840063, 7240260.734958111], [478095.8978891908, 7240598.1851633955], [478252.69573520054, 7240777.250159134], [478229.15942028986, 7240912.8019323675], [478295.0, 7241103.9210507], [478270.8422773045, 7241291.78888099], [478308.07692307694, 7241366.923076923], [477709.9981185624, 7241965.001881437], [477739.1764880518, 7242224.48670402], [477695.0, 7242380.0], [477739.44444444444, 7242425.555555556], [477425.78566909576, 7242772.251798392], [477224.4996855783, 7243084.202642044], [477181.6966140836, 7244256.375407341], [477980.63303184166, 7245055.635312644], [477935.0, 7245128.333333333], [477916.36473762686, 7245345.229889608], [477605.0, 7245720.0], [477590.71428571426, 7245915.714285715], [477689.0, 7246014.0], [477429.4213897494, 7246407.26067383], [477541.5099138282, 7246862.987208916], [477525.78480910807, 7247255.920186385], [477464.3548387097, 7247447.32718894], [477512.3447301064, 7247604.176004378], [477235.4155124654, 7247869.390581718], [477175.0, 7247840.0], [477102.59532932536, 7247696.0339464145], [476872.46146229876, 7247628.226753615], [476754.2001935199, 7247458.19922592], [476735.6573506789, 7247532.370597284], [476628.43381084554, 7247537.560479851], [476289.52105055394, 7247234.4454205455], [475972.56939041667, 7247332.430609583], [475825.0, 7247480.0], [475795.0, 7247410.0], [475636.7215189873, 7247621.037974684], [475543.023255814, 7247669.4186046515], [475356.10328638495, 7247519.882629108], [475120.1507897763, 7247498.109236116], [474927.8555552587, 7247536.07245976], [474815.0, 7247707.333333333], [474815.0, 7247767.328417471], [474681.4393939394, 7247858.106060606], [474590.0, 7247845.0], [474469.37036583124, 7247629.724860592], [474427.98311857064, 7247496.596368698], [474326.0290066601, 7247436.176794672], [474263.08191938896, 7247494.39413795], [474102.08326593693, 7247378.780861702], [473980.0, 7247475.0], [473913.63636363635, 7247351.7272727275], [473830.0, 7247335.0], [473775.0, 7247375.0], [473737.6923076923, 7247347.307692308], [473526.34971864783, 7247467.446150176], [473460.92779969133, 7247448.999314011], [473339.3939393939, 7247507.424242424], [473200.4442877292, 7247400.0], [473260.6502421901, 7247262.23102993], [473181.8181818182, 7247216.212121212], [473195.23403210484, 7247169.179542621], [473099.4539171029, 7247186.684067693], [473028.493987625, 7247149.84868532], [472686.0661097916, 7247310.963941104], [472507.71169746364, 7247437.239266407], [472231.27138202067, 7247445.49034774], [472073.3959183673, 7247498.542857143], [471981.4693304086, 7247406.47164209], [471856.6666666667, 7247508.333333333], [471720.8333333333, 7247564.166666667], [471646.8001324801, 7247551.362001869], [471439.6583043219, 7247722.230479483], [471408.3249595771, 7247705.874057791], [471261.60633484164, 7247731.538461538], [471222.2285795328, 7247842.950341153], [470989.2992629914, 7247993.249241315], [471022.6936381014, 7248016.663349326], [470665.71631428535, 7248495.856764102], [470339.35531530617, 7248576.559219218], [470015.26148407534, 7248874.661919409], [469915.43971469766, 7248887.685079799], [469792.13601158594, 7248967.440507023], [469666.7122038834, 7248897.191864078], [469550.46482546837, 7248935.425792312], [469406.71515781415, 7248856.086083197], [469284.7273967468, 7248859.487945684], [469170.0, 7248805.0], [469027.7799607073, 7248829.715127701], [468945.0, 7248900.0], [468923.58161980694, 7249019.389844733], [468953.01674987643, 7249102.004698635], [468816.6901408451, 7249238.169014084], [468810.8611870694, 7249405.860925966], [468555.0, 7249670.0], [468324.7774796372, 7250084.121057087], [468425.0, 7250280.0], [468369.06853209337, 7250320.745561599], [468402.67019667174, 7250382.329803328], [468243.49417320883, 7250637.53535431], [468279.0, 7250676.0], [468128.6681672855, 7250814.6714778645], [467945.6667487437, 7250857.734963395], [467919.10155905824, 7250896.507954906], [467734.63026473846, 7250989.129227862], [467697.2005009781, 7251087.617074141], [467602.79197080294, 7251208.832116788], [467566.34309384885, 7251313.46188274], [467420.0, 7251445.0], [467401.6447845681, 7251426.644784568], [466961.7057082, 7251684.735055124], [466870.0, 7251655.0], [466781.3583379345, 7251763.391483366], [466339.2685733912, 7251796.481846197], [465280.0, 7250755.0], [465118.3961011266, 7250823.22591551], [464850.0, 7251048.333333333], [464545.87412587414, 7251220.874125874], [464466.199523566, 7251141.199523566], [464233.5667684766, 7251278.672913201], [464100.2815759044, 7251238.666686735], [463902.94389808236, 7251369.314632694], [463827.83629848796, 7251357.420254006], [463665.9198345234, 7251503.5141675165], [463570.0, 7251435.0], [463536.6666666667, 7251461.666666667], [463470.0, 7251395.0], [463384.91535972117, 7251480.0846402785], [463294.04761904763, 7251458.431372549], [463110.27380006126, 7251552.527217003], [462902.4852071006, 7251507.01183432], [462850.0, 7251545.0], [462795.7433973081, 7251517.871698654], [462497.92008879024, 7251709.6881243065], [462459.2067702236, 7251676.946096353], [462383.8095238095, 7251779.285714285], [462332.5, 7251777.5], [462260.17535218206, 7251845.441335829], [462073.94174267794, 7251868.106801437], [461933.1895001084, 7251946.947071332], [461856.8407500513, 7252094.078200492], [461530.0, 7252285.0], [461459.04761904763, 7252214.047619048], [461375.0, 7252340.0], [461395.0, 7252400.0], [461294.04761904763, 7252509.047619048], [461323.6538461539, 7252538.653846154], [461201.03425117576, 7252696.544729028], [461040.7496315014, 7252587.760581175], [460897.2727272727, 7252663.181818182], [460799.0537367744, 7252587.590070691], [460710.57163672824, 7252602.714158135], [460565.0, 7252690.0], [460595.0432900433, 7252740.12987013], [460536.6666666667, 7252797.5], [460595.56804134365, 7252903.9457703475], [460578.8500825571, 7253128.856512675], [460514.6202712986, 7253334.24877344], [460608.20297701523, 7253715.520155678], [460534.422380221, 7254010.968255864], [460664.44713587174, 7254120.220151084], [460579.91228070174, 7254258.245614035], [460533.54353897955, 7254472.745977721], [460434.9136083076, 7254636.667647702], [460199.04761904763, 7254856.428571428], [460071.7721518987, 7254833.227848101], [459948.2278481013, 7254916.772151899], [459881.9209571648, 7254916.556788056], [459755.0, 7255060.0], [459770.45454545453, 7255091.818181818], [459653.2341069627, 7255245.893037336], [459645.0, 7255320.0], [459547.28496634256, 7255382.930067315], [459581.0470383887, 7255521.783049186], [459290.611681824, 7255898.61072779], [459098.60943128617, 7256019.692295721], [458937.54950832174, 7256076.2012748225], [458863.3333333333, 7256015.0], [458749.7658583542, 7256048.430815546], [458448.61718414596, 7256268.02051878], [458251.42131979694, 7256473.020304568], [458150.98190608737, 7256455.864573477], [457908.9282053709, 7256629.773547104], [457805.15118428937, 7256576.765272736], [457672.2147329349, 7256626.216414429], [457225.0, 7256587.700969419], [457225.0, 7256551.926605505], [456827.63574834674, 7256396.050800485], [456726.3005044066, 7256474.982518074], [456641.7131185754, 7256483.2868814245], [456427.5098574831, 7256622.509857483], [456278.1818181818, 7256473.181818182], [456150.0, 7256455.0], [456073.776150672, 7256378.776150672], [456030.3439389461, 7256388.126835079], [455854.1645790757, 7256304.29513955], [455671.8604651163, 7256273.372093023], [455597.1863879838, 7256347.804506476], [455349.2667331008, 7256257.433981067], [455301.2068965517, 7256336.8965517245], [455325.8910891089, 7256500.891089109], [455487.48623496114, 7256623.3584295595], [455311.385102287, 7256774.246082931], [455329.9791027515, 7256855.2797288485], [455267.5581594619, 7256940.851934364], [455300.9495798319, 7256981.899159664], [455232.4162679426, 7257092.583732057], [455010.0, 7257315.0], [454950.6695593438, 7257299.849542702], [454866.95822586067, 7257399.70713678], [454948.06940578, 7257521.071062066], [454823.43038266985, 7257674.662720806], [454660.0, 7257685.0], [454476.143872623, 7257616.17127223], [454263.91128538817, 7257629.441658912], [454003.4028910811, 7257981.01186096], [453690.2253777349, 7257880.003530147], [453370.0905562204, 7257623.87932368], [453226.7996334853, 7257639.799826388], [453080.0, 7257545.0], [453063.75, 7257587.5], [453024.0807174888, 7257561.053811659], [452899.16615534684, 7257664.999528012], [452735.277513716, 7257713.6568537345], [452536.0064318285, 7257632.850322367], [452349.18704364524, 7257795.2088962365], [452198.23065208364, 7257871.89325765], [452155.7813507187, 7257843.750142313], [451867.3139039082, 7258027.585984357], [451790.0, 7258015.0], [451610.0, 7258195.0], [451450.0, 7258155.0], [451302.1621621622, 7258302.837837838], [451251.76470588235, 7258266.176470588], [451067.823183342, 7258349.5393051235], [450934.5112107623, 7258459.511210762], [450916.6666666667, 7258441.666666667], [450770.18457582523, 7258514.695560228], [450504.729631766, 7258738.054073647], [450435.74392803153, 7258751.851214394], [450115.4749263882, 7258978.519994947], [449920.4399602018, 7259195.105246644], [449936.7472218503, 7259211.78738787], [449636.8716677265, 7259562.0911834305], [449434.5257229712, 7259653.596820571], [449331.78192814556, 7259619.791154792], [449105.0699149912, 7259664.837892555], [449115.35098474775, 7259936.064475858], [449198.10483804444, 7260066.963175209], [449242.641509434, 7260071.79245283], [449290.4545095824, 7260150.7924835], [449168.00985442766, 7260220.75906733], [449169.88109105616, 7260336.675341355], [449045.0, 7260500.0], [449106.00120669923, 7260673.44723004], [449152.0833333333, 7260737.604166667], [449065.56611706363, 7260828.413579463], [449058.21158598555, 7261032.5255456045], [448910.2834881291, 7261194.753622967], [448857.7272727273, 7261297.2727272725], [448932.59267497034, 7261411.001705219], [448898.5922330097, 7261448.737864078], [448969.0, 7261556.0], [448915.9811785694, 7261628.157258091], [448993.57848961046, 7261809.909727572], [448883.92613761267, 7261945.704550451], [448908.3734939759, 7262043.493975904], [448838.81322957197, 7262026.8482490275], [448806.17647058825, 7262139.411764706], [448741.8028516924, 7262176.7343719425], [448945.0, 7262410.0], [448883.6842105263, 7262471.315789473], [448893.3333333333, 7262525.0], [448794.1176470588, 7262510.882352941], [448685.8823529412, 7262419.117647059], [448583.66626418545, 7262410.819586822], [448423.18728632986, 7262557.6026179325], [448335.0108673784, 7262507.828548321], [448212.22222222225, 7262522.777777778], [448093.38924256206, 7262465.738339613], [447289.6497797978, 7261597.004328001], [447294.9713684366, 7261477.1376966005], [447221.38490566035, 7261493.698113208], [447171.84210526315, 7261673.684210527], [446985.49764280487, 7261622.053580291], [446959.1725054723, 7261550.078411578], [446895.0, 7261500.0]]]}}]}