{"type": "FeatureCollection", "crs": {"type": "name", "properties": {"name": "EPSG:25833"}}, "features": [{"type": "Feature", "properties": {"station": "152.4.0", "name": "Fustvatn", "series": ["1001.1"], "nodes": 5275950, "fine_vertices": 21048, "fine_area_m2": 527595050.0, "reduced_vertices": 951, "reduced_area_m2": 527595049.9999995, "outline_tolerance_m": 20.0, "windows": [[794, 1174], [1592, 1972], [3190, 3475], [6388, 5874]], "placed_on": "number", "distance_m": 224.68144344678026, "uncertainty_m": 224.68144344678026, "elvid": "152-2-1", "objectid": 12383627, "lake": true, "confluence_near": false, "reach_up_m": 1000.0, "reach_down_m": 324.68144344678035, "reach_fork": false, "seeded_by": "lake", "lake_rule": "lake_line", "lake_number": 495, "lake_name": "Fustvatnet", "lake_distance_m": 6.697010520009295, "node_offset_m": null, "chain_nodes": null, "lowered_nodes": null, "lowered_max_m": null, "direction_ok": null, "end_extended_m": null, "end_closed": null, "downstream_checked": null, "a0": null, "area_up": null, "area_down": null, "swing": null, "largest_step": null, "largest_step_at_m": null, "checked_up_m": null, "checked_down_m": null, "drains": null, "monotone": null, "causes": []}, "geometry": {"type": "Polygon", "coordinates": [[[436800.0, 7328135.0], [436662.7147766323, 7328258.986254295], [436699.15986380534, 7328358.810337562], [436667.6133230801, 7328472.22554796], [436586.2823011404, 7328429.974159088], [436530.0, 7328475.0], [436404.0272570609, 7328429.1756887715], [436296.79557732376, 7328265.40229131], [436121.4689725737, 7328286.585251901], [436069.27314221405, 7328230.257760965], [435750.0, 7328485.0], [435720.0, 7328455.0], [435675.0, 7328500.0], [435581.1538461539, 7328463.846153846], [435540.0, 7328505.0], [435478.9569771949, 7328443.956977195], [435331.5957930778, 7328525.843310612], [435153.8130105026, 7328354.255180209], [435175.8624511732, 7328170.316981374], [435073.1977271002, 7328046.515137883], [435078.3333333333, 7327890.0], [434991.60512221063, 7327810.137224655], [435086.89591078064, 7327665.940520446], [434963.5227923609, 7327593.891100388], [434861.79411764705, 7327672.179144385], [434822.37307071924, 7327648.4165119985], [434813.8239705451, 7327445.656124719], [434739.07797375746, 7327433.814537688], [434680.0, 7327385.0], [434580.9702170051, 7327439.457184084], [434561.0675686494, 7327714.716195661], [434580.20744100865, 7327795.756073416], [434413.4029981863, 7327922.442949569], [434173.1391361258, 7328014.828005429], [434159.20338451467, 7327758.347754694], [434049.7684612809, 7327646.6770907305], [433940.0, 7327735.0], [433855.0, 7327650.0], [433870.38007380074, 7327603.859778598], [433687.0746757109, 7327442.128453911], [433546.0834925066, 7327258.471556141], [433371.17647058825, 7327136.176470588], [433220.0, 7327155.0], [433166.4145524174, 7327103.262326472], [433081.10055630107, 7327136.597321232], [432812.3274204586, 7327137.765105608], [432777.3712797705, 7327163.014324403], [432686.33714880334, 7327048.465140479], [432642.91746128415, 7327075.032479153], [432428.1426994649, 7326965.073628869], [432231.6375379724, 7326898.7499464825], [432106.1795354038, 7326735.692643392], [432049.33147514303, 7326555.214737737], [431803.3112128959, 7326339.81027682], [431680.0, 7326185.0], [431599.18032786885, 7326234.262295082], [431466.6666666667, 7326115.0], [431395.0, 7326145.0], [431339.27948687645, 7325943.156822046], [431274.0689206762, 7325924.7802340705], [431212.9965635899, 7325756.511878023], [430888.2062705685, 7325397.47127839], [430785.0, 7325330.0], [430796.9948270288, 7325292.020691885], [430650.95965628594, 7325149.287619762], [430519.5027045741, 7325087.2963344], [430445.6505036231, 7324962.61659872], [430294.44173278596, 7325078.670462221], [429923.94554345554, 7324897.675739043], [429827.77777777775, 7324952.777777778], [429800.0, 7324925.0], [429631.0212716982, 7325000.887684689], [429412.3310933998, 7325026.24489458], [429135.11152662744, 7324869.254844218], [428988.74482475105, 7324705.077103842], [428943.89676893596, 7324601.12096117], [428741.55832589214, 7324611.273578577], [428700.6007188343, 7324486.50613821], [428378.8011088011, 7324473.5100485105], [428160.0, 7324285.0], [428053.0156969561, 7324303.910058407], [427860.8333333333, 7324194.166666667], [427882.9171909665, 7324171.351084344], [427847.9365079365, 7324041.349206349], [427730.53299822006, 7323978.447483878], [427676.5314466992, 7324009.847877537], [427420.2653440748, 7323757.770158193], [427309.4947874226, 7323747.444519925], [427347.84561548557, 7323575.707369291], [427257.34381479974, 7323482.961884885], [427150.4166666667, 7323445.0], [427097.39130434784, 7323361.521739131], [427050.0, 7323375.0], [426874.8350821246, 7323269.217533469], [426945.0, 7323180.0], [426925.0, 7323120.0], [427000.0, 7323045.0], [427096.11713665945, 7323061.478669559], [427150.0, 7322975.0], [427215.0, 7322990.0], [427275.0, 7322930.0], [427231.6666666667, 7322886.666666667], [427338.23823109845, 7322679.37232525], [427192.8418172297, 7322414.004532406], [426984.83405995474, 7322488.379143472], [426859.979732098, 7322417.662058303], [426887.1621621622, 7322366.621621622], [426845.0, 7322340.0], [426933.1671420954, 7322205.820028119], [426882.9851725367, 7322207.985172537], [426783.87438051106, 7321995.737507269], [426847.8758973417, 7321899.008411638], [426522.0696678828, 7321655.427611844], [426459.62743695715, 7321746.521912524], [426185.35149730043, 7321495.104606507], [426075.0, 7321320.0], [426063.4006276195, 7321070.613493821], [425997.158497346, 7320882.117834193], [426019.25283550663, 7320843.9280380625], [425556.4733607902, 7320312.984570381], [425645.0, 7320180.0], [425607.85714285716, 7320142.857142857], [425612.36653590313, 7320027.7349479785], [425530.55555555556, 7319945.5343915345], [425534.3263411956, 7319872.964724085], [425246.5715632338, 7319623.347269321], [424952.8990448176, 7319623.248480392], [424910.0, 7319555.0], [424853.86287160986, 7319558.284548257], [424799.66203872854, 7319476.872488125], [424737.9192546584, 7319464.906832298], [424710.2448872191, 7319355.667343606], [424612.6817225601, 7319226.616113464], [424365.8364078107, 7319016.94546927], [424250.85614418663, 7318965.285381395], [423925.3529320832, 7318630.077482646], [423680.641025641, 7318314.358974359], [423759.81481481483, 7318235.185185186], [423305.12676911853, 7317905.808115414], [423140.8069726305, 7317765.6752058165], [423387.02308538515, 7317489.104761596], [422905.0, 7317061.538461538], [422905.0, 7316940.0], [422854.0445859873, 7316889.044585987], [422835.5882352941, 7316778.235294118], [422934.413679627, 7316689.657338831], [422827.47572815535, 7316579.95145631], [422847.6125607572, 7316511.0622921465], [422817.37704918033, 7316479.590163934], [422646.64, 7316568.36], [422654.7236597573, 7316630.028855657], [422541.3345469446, 7316740.6872241665], [422445.50892650126, 7316623.935775562], [422330.6059529536, 7316682.005458017], [422276.3764683638, 7316753.896185385], [422104.1270264296, 7316443.282657242], [422036.3214418577, 7316396.195445734], [421985.64015845995, 7316281.342487675], [421772.7272727273, 7315945.0], [421640.9160638175, 7315996.4445245275], [421236.9162028833, 7315677.9962000605], [421130.7894736842, 7315525.657894737], [421038.23015093943, 7315620.926491765], [420856.8618353734, 7315537.905208827], [420762.6329954232, 7315402.853679877], [420782.0183486239, 7315334.449541285], [420610.0, 7315495.0], [420556.3180909376, 7315441.318090938], [420451.7796406918, 7315483.54161631], [420234.4369065988, 7315304.708799416], [420017.4687072839, 7315546.448549999], [419841.1777777778, 7315425.0], [419722.22222222225, 7315550.0], [419645.0, 7315550.0], [419656.27340170846, 7315505.447183654], [419390.3802734629, 7315199.343434528], [419193.87925616675, 7315105.285066705], [419076.7446501452, 7314986.334537102], [418673.2926829268, 7315011.463414635], [418689.5493150469, 7315084.363567732], [418581.2472667312, 7315171.06520752], [418420.71144783084, 7315060.231172197], [418368.98339717806, 7315065.829384218], [418371.43888038484, 7315173.848895692], [418332.38532110094, 7315205.091743119], [418160.0, 7315125.0], [418078.0612411778, 7315144.81532376], [417950.97895828757, 7314998.298537461], [417756.9806099746, 7314621.075524676], [417696.42501680757, 7314586.831159323], [417676.46651762666, 7314359.921933569], [417637.5, 7314402.5], [417495.5345559977, 7314434.3911890965], [417255.0, 7314160.0], [417303.29644975986, 7314087.55532536], [417208.44497607654, 7313975.7894736845], [417155.5375437648, 7313817.3405695995], [417163.3698684735, 7313656.5376074705], [416993.0990314557, 7313425.235406941], [416975.8598726115, 7313356.7197452225], [416800.5547568446, 7313455.332854107], [416775.0, 7313440.0], [416802.9487179487, 7313412.051282051], [416770.71428571426, 7313332.857142857], [416816.25347297854, 7313160.607859819], [416983.9274381445, 7313142.737806221], [417007.5364405033, 7313069.780820902], [417137.67626613704, 7313012.576961271], [417130.0, 7312935.0], [417152.75893675524, 7312956.008249313], [417213.9235324149, 7312909.946410014], [417289.0, 7312912.0], [417306.3903665379, 7312808.681046419], [417438.65075264603, 7312663.688875618], [417346.30263714533, 7312596.072511367], [417578.9224540358, 7312332.9795476], [417646.91440068046, 7312321.97128355], [417614.13237524685, 7312166.69870531], [417811.4384772282, 7311825.041270708], [417954.33497200604, 7311904.4967909325], [418005.8333333333, 7311850.833333333], [418094.3515958734, 7311942.329685577], [418420.0, 7311905.0], [418512.776801406, 7311840.729349736], [418564.40379506414, 7311873.935480945], [418815.7916238903, 7311755.541367232], [418806.92307692306, 7311693.461538462], [418870.0, 7311615.0], [418973.219760769, 7311632.165579472], [419152.6460167612, 7311525.075100875], [419315.8725061289, 7311346.875052606], [419196.9889502762, 7311211.022099447], [419252.15861910256, 7311107.783884866], [419162.33766233764, 7310903.441558441], [419380.15564540896, 7310832.195343814], [419503.1783235751, 7310924.934298006], [419754.7606825032, 7310784.396475513], [419770.52002590726, 7310797.261245638], [419874.8902583792, 7310746.182811184], [420070.0, 7310795.0], [420128.4233761503, 7310780.2716029035], [420492.07082850003, 7310917.077830386], [420516.6666666667, 7310881.666666667], [420543.9854837667, 7310908.9854837665], [421216.2547781321, 7310694.87685408], [421322.2727272727, 7310537.2727272725], [421301.3976995469, 7310514.672359707], [421406.2847481029, 7310480.518638799], [421539.97130766517, 7310254.971307665], [421474.04761904763, 7310189.047619048], [421516.4994709154, 7310128.6396422135], [421394.02613569715, 7309914.677724649], [421513.5249639059, 7309750.668837809], [421647.5862068966, 7309646.724137931], [421694.6153846154, 7309678.076923077], [421760.0, 7309635.0], [421914.69194217405, 7309650.433618584], [421963.16237614816, 7309583.565398292], [421987.8665731978, 7309416.120224325], [422060.0, 7309365.0], [422102.53134583076, 7309399.025076665], [422286.27522435196, 7309222.791840775], [422335.6383459377, 7309219.963423942], [422437.92884613044, 7309022.599243948], [422402.1454242904, 7308838.574722775], [422179.7358788104, 7308585.922027394], [422247.4965094116, 7308517.354722619], [422100.7508573804, 7308295.75085738], [422084.75989539997, 7308142.510400571], [422003.3806776605, 7308041.243395726], [421996.56466493773, 7307912.598467308], [421939.9382884828, 7307855.398938243], [421997.6666666667, 7307712.0], [421884.2087985195, 7307651.019008358], [421831.99730910873, 7307448.127148597], [421901.67671710363, 7307353.454588938], [422005.0, 7307363.333333333], [422005.0, 7307330.051415212], [422120.2261016529, 7307293.094084637], [422363.3863428237, 7307518.797222009], [422530.0, 7307365.0], [422605.0582002087, 7307425.046560167], [422755.6779661017, 7307334.406779661], [422813.3333333333, 7307408.333333333], [422880.71234036575, 7307272.977672003], [422996.6444699552, 7307177.163498062], [423137.676135796, 7307222.605373759], [423162.096069869, 7307142.685589519], [423546.20183472114, 7306992.017082884], [423717.68638434244, 7306770.842070859], [423794.3237221546, 7306753.208701097], [424086.4935064935, 7306543.589549985], [424223.63636363635, 7306371.363636363], [424429.33957150026, 7306515.576701308], [424484.7339782346, 7306644.38935913], [424592.0184011835, 7306685.079581661], [424617.0662446309, 7306660.272230885], [424761.7234155063, 7306700.335943288], [424915.0, 7306660.0], [424984.28571428574, 7306729.285714285], [425026.8493150685, 7306688.424657534], [425060.0, 7306715.0], [425188.3333333333, 7306613.333333333], [425274.059985972, 7306652.930056101], [425490.0, 7306595.0], [425676.583672708, 7306429.757271151], [425754.85884911043, 7306283.936155347], [426136.1323118606, 7306122.706328174], [426147.01655941544, 7305859.289212976], [425858.91690527287, 7305595.082952349], [425845.0, 7305417.616654702], [425784.28934010153, 7305342.436548224], [425808.58208955225, 7305316.119402985], [425740.0, 7305195.0], [425630.0169379233, 7305129.613987912], [425578.11475409835, 7304940.327868853], [425606.0047358866, 7304898.49289617], [425401.29313016066, 7304717.523624622], [425446.45857409335, 7304641.268474751], [425230.18560434587, 7304410.359891353], [425283.2490714464, 7304351.928067545], [425265.17988394585, 7304250.342359768], [425337.4318612995, 7304153.513627741], [425445.7694311554, 7304109.353474268], [425535.0, 7304200.0], [425525.0, 7304270.0], [425644.26456739404, 7304356.278662877], [425892.0, 7304237.0], [425959.4973343488, 7304246.309977151], [426154.5230092682, 7303946.7243437385], [426203.4418371727, 7303927.434539991], [426311.2658591732, 7303781.500380788], [426329.49661347724, 7303513.075995867], [426260.2007435833, 7303518.499979419], [426175.0, 7303350.0], [426225.768698092, 7303328.680376362], [426400.8679611596, 7303099.428155346], [426445.30968445446, 7302927.462413957], [426422.14285714284, 7302884.285714285], [426457.65734265733, 7302834.8811188815], [426415.0, 7302640.0], [426296.1961642105, 7302550.501380965], [426319.0, 7302466.0], [426486.45492907945, 7302464.713599478], [426686.6666666667, 7302316.111111111], [426742.2823169172, 7302343.46485488], [427003.31395348837, 7302345.029069767], [427050.0, 7302275.0], [427106.6666666667, 7302301.666666667], [427153.75976179447, 7302263.947013778], [427267.24266778026, 7302401.0747357095], [427457.16821382253, 7302212.293469198], [427513.25714867376, 7302257.007395726], [427655.0, 7302170.0], [427642.1107060226, 7302089.666970483], [427775.0, 7302080.0], [427798.31425512966, 7301834.827214092], [427949.41457189375, 7301848.631825227], [428075.90997427003, 7301749.283340375], [428074.51678738795, 7301642.8138544215], [428193.6221396268, 7301542.585917222], [428089.3209876543, 7301413.209876543], [428108.3333333333, 7301383.333333333], [428055.0, 7301333.75], [428057.0544934752, 7301231.114943614], [428011.0135135135, 7301181.452702703], [428083.12360637804, 7301086.012873911], [428052.934595525, 7301017.676419966], [428133.23494217935, 7300881.297470566], [428056.8716986752, 7300755.87560717], [428133.5914879185, 7300700.418098185], [428111.9715654773, 7300608.240970906], [428280.47884950147, 7300466.672162651], [428352.4714876551, 7300282.414462965], [428332.26290279656, 7300141.338773902], [428268.57752040547, 7300049.680943507], [428323.5714285714, 7299966.785714285], [428288.16115853214, 7299918.096592981], [428296.0787172012, 7299779.125364431], [428390.10116229014, 7299692.2470942745], [428465.0, 7299560.0], [428440.8904109589, 7299533.424657534], [428512.3391304348, 7299447.339130435], [428437.9576863884, 7299337.430317168], [428450.9196168768, 7299255.593477206], [428525.1316021423, 7299226.659690925], [428534.30423744535, 7299152.0872876635], [428471.59911439894, 7299075.9839603035], [428538.07692307694, 7299017.692307692], [428543.9856579473, 7298890.002569927], [428574.6812838375, 7298644.006191989], [428690.5821975761, 7298512.245119222], [428905.7905258051, 7298455.575474475], [428896.45310435933, 7298362.813738441], [428975.56492118444, 7298304.706488688], [429060.3448275862, 7298355.0], [429165.0, 7298312.718286656], [429165.0, 7298250.0], [429040.71428571426, 7298125.714285715], [429035.0, 7297980.0], [429120.2593236329, 7297867.021225986], [429232.7861258514, 7297764.576508674], [429195.0, 7297730.0], [429286.91252240754, 7297584.371892612], [429236.91121073044, 7297361.807660416], [429281.38785974466, 7297156.648733571], [429195.8575197889, 7297077.295514512], [429200.0052581501, 7296996.4975712355], [429262.14285714284, 7296927.142857143], [429121.9379844961, 7296854.224806202], [429077.59842519683, 7296871.960629921], [428943.58490566036, 7296829.7169811325], [428949.0291466478, 7296719.691448461], [428819.25605536334, 7296634.256055363], [428735.8, 7296666.4], [428672.3428143392, 7296583.45596205], [428697.1101256467, 7296498.968417068], [428602.0805369128, 7296407.751677852], [428540.0, 7296445.0], [428417.6838257718, 7296335.4744404275], [428516.9976359338, 7296309.113475177], [428509.15326855937, 7296268.201736161], [428440.7947540453, 7296221.4904597355], [428495.0, 7296100.0], [428388.7879589513, 7295987.162213372], [428472.8712359238, 7295838.9543314455], [428439.72868217056, 7295804.728682171], [428533.5217289659, 7295586.325714909], [428371.01723373705, 7295332.780238769], [428387.71113989636, 7295298.628238342], [428320.7947019868, 7295243.741721855], [428231.88419443136, 7295303.870983197], [427989.0277915658, 7295200.599399199], [427888.46654323564, 7295235.764707416], [427900.0, 7295125.0], [427770.38966984197, 7295150.146126191], [427740.0, 7295065.0], [427713.46169184067, 7295076.618153342], [427611.62883235485, 7294956.628832355], [427664.99533997336, 7294686.403168818], [427696.23463281244, 7294665.160449687], [427690.7127845539, 7294474.287215446], [427735.0, 7294430.0], [427643.61003861006, 7294320.557700558], [427683.6719540592, 7294241.996828929], [427635.0, 7294126.666666667], [427707.0, 7294138.0], [427763.7651821862, 7294081.234817814], [427954.8484848485, 7294039.848484849], [428070.50424778013, 7294134.534103178], [428251.6581537984, 7294138.310053092], [428615.2646209014, 7294597.340655608], [428700.0, 7294515.0], [428806.1183354155, 7294483.103159297], [428855.48274069256, 7294509.517259307], [429006.8060145241, 7294470.824385541], [429087.10159186006, 7294501.242989453], [429184.949688191, 7294386.983900221], [429332.38050069247, 7294466.983503912], [429476.3577679685, 7294632.952291198], [429382.055943625, 7294784.645412204], [429474.44444444444, 7294940.925925926], [429450.24939306994, 7294967.103288458], [429511.3110205035, 7294995.625316884], [429791.6608187134, 7294896.853151397], [429908.761093937, 7295027.514334862], [429863.0, 7295102.0], [429955.0, 7295160.0], [429927.9184549356, 7295255.321888412], [430122.19649561954, 7295466.946182729], [430095.0, 7295580.0], [430130.0, 7295615.0], [430213.79301513534, 7295587.440342079], [430250.62698436633, 7295641.612641026], [430356.4948223876, 7295548.389592782], [430497.3987538941, 7295646.029235562], [430597.050606154, 7295794.475223848], [430729.0, 7295884.0], [430656.8672099209, 7296104.402910396], [430686.6804503026, 7296146.502576756], [430863.3333333333, 7296011.666666667], [431011.2206695949, 7295958.061630894], [431020.0, 7295995.0], [431146.9687838854, 7295946.039601527], [431282.0450694131, 7295767.106983519], [431385.22360811423, 7295715.67744126], [431607.63769868744, 7295769.50984796], [431637.5, 7295712.5], [431727.5, 7295762.5], [431798.9723452898, 7295700.770505125], [431824.3419506463, 7295578.331374853], [431917.0154856275, 7295610.4937243955], [432028.5018680838, 7295506.212269289], [432134.14262844936, 7295540.857371551], [432209.5, 7295465.5], [432440.0, 7295635.0], [432489.674796748, 7295625.4878048785], [432710.0, 7295845.0], [432721.6101694915, 7295775.338983051], [433197.6851057913, 7295317.611063475], [433240.0, 7295355.0], [433288.0052956752, 7295323.428949691], [433380.0, 7295365.0], [433448.6750727449, 7295316.41028128], [433494.0464938524, 7295426.469066386], [433541.98218829517, 7295423.755725191], [433605.0, 7295327.5], [433555.0, 7295290.0], [433592.14285714284, 7295252.857142857], [433580.1936987708, 7295166.018104836], [433819.4, 7294986.76], [433923.8953429639, 7295038.032629559], [434037.16617559665, 7294962.454405443], [434146.05945466016, 7295063.071452515], [434534.7331400482, 7294850.157699474], [434664.1382487193, 7294863.222616172], [434810.0, 7294695.0], [434953.8613861386, 7294731.732673267], [435081.45214485825, 7294835.142080178], [435233.74037892243, 7294760.26731794], [435472.7415961289, 7294222.955836284], [435748.71318927355, 7294013.355402551], [436002.1923997948, 7294024.02126544], [436048.0378083837, 7294119.692671986], [436020.9350087976, 7294330.722446444], [436178.14144304, 7294690.115134176], [436261.6553331511, 7294721.634786608], [436293.7305360515, 7294684.854033469], [436663.0660796821, 7295092.602533625], [436741.5965864006, 7295125.9649579], [436985.9585123164, 7295399.574563591], [437070.0, 7295395.0], [437317.2269733898, 7295553.847247059], [437439.5516631655, 7295522.424042138], [437475.0, 7295592.996845426], [437694.2730217465, 7295753.933107372], [437966.5637392428, 7295788.436260757], [437990.0, 7295765.0], [438061.31934032985, 7295798.708145927], [438047.05021284847, 7296014.719428134], [438263.6405046306, 7296371.35949537], [438220.6628342695, 7296414.33716573], [438287.3556129908, 7296535.259967052], [438246.0252252556, 7296646.53872501], [438318.0230437708, 7296698.278870871], [438541.33928571426, 7296703.660714285], [438719.0901814313, 7296525.909818568], [438694.06559828564, 7296312.330090125], [438866.5442863785, 7295983.326150455], [438817.9223378703, 7295907.07766213], [438865.0, 7295860.0], [438815.0, 7295810.0], [438815.0, 7295752.983760408], [438926.1580306776, 7295698.375062259], [439061.247354558, 7295694.570594749], [439348.7399604648, 7295272.591539128], [439352.89473684214, 7295135.7894736845], [439451.07613519416, 7295200.297463524], [439550.6779661017, 7295139.915254237], [439670.73675681395, 7295191.552729681], [439734.0542746867, 7295251.119617291], [439884.28571428574, 7295182.142857143], [439969.05319314887, 7295232.133934421], [440144.631043257, 7295126.55216285], [440250.0, 7294925.0], [440377.14285714284, 7294982.142857143], [440524.99477835966, 7294855.241654387], [440626.64519133745, 7294846.096794225], [440789.9915271076, 7294928.517434725], [441051.9466102497, 7295156.741678449], [441209.387021863, 7295498.844564231], [441622.89724143106, 7295962.696773462], [441862.8952999168, 7296146.688821509], [442299.5604796227, 7295999.493898683], [442340.0, 7296095.0], [442445.63465413026, 7296069.331766286], [442918.3210367084, 7295616.128874547], [443097.2432567802, 7295937.671559324], [443075.0, 7296070.0], [443124.8382645076, 7296134.232349039], [443070.10526315786, 7296325.0], [442933.51760273316, 7296327.21677845], [442585.0, 7296730.0], [442700.3846153846, 7296874.615384615], [442565.5830705319, 7297068.6126189055], [442602.8975066629, 7297120.096053682], [442481.11418935197, 7297251.765839557], [442440.0, 7297398.333333333], [442480.34722222225, 7297423.310185186], [442430.0, 7297495.0], [442392.73504273506, 7297476.367521368], [442279.29298295773, 7297701.4810389], [442371.6018362576, 7297720.888709831], [442455.0, 7297860.0], [442379.05149312137, 7298016.781890017], [442038.36757822137, 7298184.255728529], [441945.13574660633, 7298418.642533937], [441981.8209500609, 7298457.161997564], [441765.0, 7298640.0], [441823.6923076923, 7298725.096153846], [441809.2568839079, 7298775.219153098], [442356.33518204355, 7299312.783355001], [442643.9599022984, 7299472.528284244], [442787.87280467805, 7299494.819989392], [443225.58780899935, 7299851.279884454], [443296.20521172637, 7299844.755700326], [443318.7346460478, 7299887.979592417], [443218.1408826886, 7299989.847066909], [443235.8068181818, 7300040.170454546], [443550.66732781916, 7300097.421928658], [443646.9072986688, 7300212.4232630255], [443519.7818180551, 7300272.465962702], [443699.43300759874, 7300475.944749764], [443622.7434680636, 7300550.545406877], [443532.39130434784, 7300596.0869565215], [443612.8351291711, 7300727.928864911], [443414.5009961802, 7300684.064243251], [443258.3089006974, 7300816.112576675], [443324.23076923075, 7300923.846153846], [443275.3309672683, 7300952.748613912], [443283.53658536583, 7301090.975609756], [443232.71992885316, 7301115.193906117], [443315.9685767098, 7301169.631546519], [443395.0, 7301310.0], [443334.28571428574, 7301346.428571428], [443342.44234180957, 7301502.0668243645], [443305.0, 7301560.0], [443327.1079429741, 7301695.482009508], [443262.42903344496, 7301944.660443383], [442970.31478275225, 7302188.577986747], [442805.08837113593, 7302065.453248488], [442774.55052809126, 7302175.006399906], [442541.61949414306, 7302297.006693656], [442347.72018426063, 7302545.704152001], [442193.0081672327, 7302565.844246932], [441990.2375858769, 7302758.0191069525], [441927.54861821904, 7302891.545547594], [441799.10081873165, 7303015.519567658], [441712.4207363924, 7302966.795083772], [441599.99724907073, 7303210.8237627465], [441414.3941408785, 7303194.568309903], [441366.9936491401, 7303403.752386336], [441284.7398188943, 7303436.474923475], [441180.7066661008, 7303579.430762094], [441231.57235246565, 7303693.427647535], [441200.0, 7303725.0], [441142.676056338, 7303631.76056338], [441050.0, 7303645.0], [441007.0588235294, 7303602.647058823], [440940.0, 7303625.0], [440806.5924719008, 7303528.536163044], [440746.8472535741, 7303589.389265112], [440407.6459503598, 7303532.757248105], [440367.14285714284, 7303492.619047619], [440285.5525750589, 7303536.045610967], [440199.7596087036, 7303710.521411024], [440204.2795146204, 7303825.648436842], [440165.0, 7303880.0], [440243.8111888112, 7303929.86013986], [440215.0, 7303970.0], [440267.4528301887, 7303997.452830189], [440197.60869565216, 7304067.826086956], [440217.688172043, 7304128.064516129], [440162.58450704225, 7304157.922535211], [440178.8008903335, 7304233.021703256], [440100.0, 7304325.0], [440038.09523809527, 7304275.476190476], [439976.2850182704, 7304323.3800243605], [439882.0182043523, 7304237.633849167], [439845.0, 7304300.0], [439861.59796681395, 7304349.793900442], [439821.9616510014, 7304432.647382152], [439627.3756035833, 7304610.501421026], [439674.12032123376, 7304777.211602324], [439805.8049668165, 7304920.999480074], [439766.1797768147, 7305037.054776796], [439637.29992509657, 7305136.8016225835], [439585.02808988764, 7305106.657303371], [439584.54545454547, 7305164.090909091], [439649.1870668057, 7305265.518216769], [439504.4336870081, 7305405.351086258], [439533.9051397072, 7305638.877972598], [439414.08664232853, 7305780.1985518085], [439411.88115374296, 7305926.911308191], [439363.8413712909, 7306052.89911066], [439319.1935483871, 7306369.0322580645], [439295.0, 7306366.0], [439344.86626039614, 7306487.491699977], [439318.63047642616, 7306672.310820102], [439388.8122495707, 7306736.811677161], [439399.1156051779, 7306895.023391156], [439364.4560538695, 7307015.08374412], [439393.43361751555, 7307056.077575915], [439524.6217538875, 7307014.961471604], [439615.0, 7307110.0], [439568.4426229508, 7307168.196721312], [439600.0, 7307205.0], [439694.28571428574, 7307178.142857143], [439758.6206896552, 7307255.344827586], [439805.4204398448, 7307228.893919793], [439846.0, 7307283.0], [439806.52619589976, 7307310.113895216], [439875.0, 7307390.0], [439656.7504230896, 7307505.789029957], [439680.36860879906, 7307590.61236623], [439597.0622577278, 7307715.768203071], [439643.75, 7307758.75], [439543.2830633528, 7307859.839570621], [439597.7894635366, 7308066.614145567], [439779.958802037, 7308051.874617313], [439779.09880281007, 7308123.192727479], [439868.94255973113, 7308204.516962419], [439862.87566386955, 7308316.0717567075], [439907.9896188406, 7308326.960774114], [439812.9113632878, 7308705.0774421105], [439846.875, 7308726.875], [439823.1658291457, 7308904.497487437], [439855.0, 7309000.0], [439819.14110429445, 7309076.840490798], [439676.27392648486, 7309009.782393574], [439519.908952959, 7309113.649468892], [439554.88182632887, 7309160.095602892], [439510.0, 7309365.0], [439404.10228509246, 7309326.603191875], [439345.0, 7309353.333333333], [439336.091954023, 7309302.340996169], [439235.84840482275, 7309393.336576132], [439210.0185589073, 7309622.395968561], [439252.10709748184, 7309611.8838948505], [439515.0, 7309745.0], [439572.2309496053, 7309818.422325281], [439465.64183142484, 7310160.356330777], [439574.75436585955, 7310326.567304271], [439527.915667964, 7310566.587043055], [439471.8181818182, 7310683.181818182], [439400.0, 7310645.0], [439391.2643507267, 7310755.37941409], [439470.9681093394, 7310804.0318906605], [439502.2413793103, 7310924.137931035], [439532.7783811081, 7310908.243106179], [439644.482377811, 7311010.885816416], [439619.8545909647, 7311223.479126986], [439637.3987708857, 7311534.215493073], [439750.42389000574, 7311779.347584704], [439638.10094932205, 7311860.370886101], [439620.3166188659, 7312275.85286791], [439672.9310344828, 7312326.8965517245], [439539.0, 7312416.0], [439496.48957254493, 7312477.604447687], [439742.2497728735, 7312510.384514076], [439849.16830048227, 7312610.513695169], [439813.0859375, 7312662.4609375], [439911.07229601924, 7312852.986692031], [439988.957331636, 7312867.45995801], [440142.62722694664, 7312994.570853074], [440187.5471698113, 7312969.7169811325], [440326.6510073485, 7312983.7001707945], [440394.29434165184, 7312932.8894520085], [440516.2826538955, 7313144.5973408], [440473.37846153846, 7313325.313846154], [440500.0, 7313415.0], [440554.0, 7313401.0], [440565.0, 7313500.0], [440525.0, 7313570.0], [440573.23529411765, 7313690.588235294], [440517.63149726496, 7313876.589864871], [440641.1055695992, 7314031.07971575], [440621.8030622435, 7314171.35564103], [440705.66457771894, 7314338.772452031], [440745.0, 7314600.0], [440600.19840607035, 7314672.246755983], [440602.85714285716, 7314736.428571428], [440530.5585106383, 7314774.574468086], [440449.3231951661, 7314724.583504718], [440483.36538359546, 7315069.849584971], [440473.02940373594, 7315159.214575079], [440614.0460254714, 7315388.919113457], [440651.8051386734, 7315591.795056995], [440572.4647887324, 7315723.661971831], [440630.49589858315, 7315854.504101417], [440630.42545845994, 7315958.308212818], [440552.81512605044, 7315978.100840336], [440590.34205005027, 7316109.614201192], [440627.2646484032, 7316113.618750039], [440810.0, 7315923.0], [440900.0, 7315905.0], [440955.8823529412, 7316016.764705882], [440917.0065252855, 7316046.014138118], [440970.663712909, 7316123.138365513], [440962.60119052266, 7316230.315148344], [441071.84210526315, 7316235.263157895], [441113.7373019705, 7316566.096309639], [441093.78286714747, 7316650.167708409], [441159.10133160395, 7316685.804490911], [441126.5953307393, 7316768.793774319], [441195.0, 7316860.0], [441160.81235411146, 7316902.716097509], [441176.5559835459, 7317080.465126519], [441149.78155343106, 7317132.723730801], [441105.0, 7317444.285714285], [441184.63302752294, 7317435.688073395], [441137.57846757385, 7317624.4940878125], [441079.26489681075, 7317682.842909587], [441061.1027837259, 7317894.668094219], [441115.8053499659, 7317945.26101948], [441039.3069767442, 7318026.009302326], [441200.0, 7318155.0], [441393.38747109356, 7318091.38417075], [441468.65323846356, 7318139.634599818], [441623.22868536477, 7318070.485790243], [441666.6101694915, 7318099.406779661], [441705.4379562044, 7318269.562043795], [441661.4705882353, 7318313.529411765], [441727.0388402447, 7318381.406405042], [441752.6320582878, 7318607.887067395], [441715.0, 7318630.0], [441743.37606837606, 7318658.376068376], [441708.5550239951, 7318725.755983801], [441689.28571428574, 7318885.714285715], [441716.2365255641, 7319005.495669174], [441661.6115702479, 7319100.909090909], [441694.8716290181, 7319285.569903124], [441645.9213021953, 7319362.774819372], [441648.8025466597, 7319547.107273678], [441721.6498005705, 7319676.177296778], [441659.94952549663, 7319775.530061114], [441737.8162773887, 7319807.202013521], [441749.3729903537, 7319873.376205788], [441832.236213432, 7319805.105902442], [441940.0, 7319765.0], [441959.7826086957, 7319812.608695652], [441915.3503568786, 7319914.480316658], [441947.5, 7319987.5], [441937.355697948, 7320200.406420681], [441976.78980023094, 7320221.325376561], [441935.0, 7320290.0], [441971.1578044597, 7320339.982847341], [441905.0, 7320420.0], [441909.887941889, 7320516.1295238165], [441998.5189195774, 7320508.492626407], [442176.4308656524, 7320738.405641366], [442383.2731973312, 7320783.446580119], [442320.6528410453, 7320911.9371853275], [442423.95177908835, 7321549.432868954], [442455.4351089914, 7321606.892555709], [442364.548518538, 7321699.4640425015], [442409.3075591928, 7321939.47542709], [442659.8, 7322317.2], [442649.9034795461, 7322477.734015227], [442618.4835352751, 7322514.643299843], [442654.9105313917, 7322711.669417804], [442586.02145045967, 7322791.02145046], [442617.36641221377, 7322897.099236641], [442559.0224390344, 7323035.6559142005], [442445.3277445708, 7323248.25249436], [442474.87225673284, 7323318.9091192335], [442405.45454545453, 7323390.454545454], [442421.68983791594, 7323463.425444785], [442377.7416248099, 7323521.932998479], [442398.39939654886, 7323801.211865443], [442338.3351796643, 7323875.300599975], [442358.79246893025, 7323966.586154168], [442451.62817551964, 7324054.01847575], [442347.8113216538, 7324167.7099157525], [442331.1821295644, 7324276.749331938], [442187.41482666397, 7324283.250188769], [442085.1946005081, 7324461.342667004], [441935.77890516905, 7324408.873416823], [441750.781745342, 7324590.733455726], [441692.5502443634, 7324508.052750037], [441574.66796292015, 7324738.351827775], [441679.28145699133, 7324786.057842873], [441687.3095014111, 7324966.081843838], [441792.8925099706, 7324971.468688479], [441812.26665793953, 7325105.054981018], [441872.0833728174, 7325156.249928929], [441832.5483537585, 7325208.199342717], [441866.5144508671, 7325466.578034682], [441766.66497117665, 7325537.060020346], [441737.8, 7325765.6], [441799.94818423694, 7325816.536108715], [441655.06172839506, 7325984.012345679], [441594.06113537116, 7325971.812227074], [441372.6106672061, 7326226.725329557], [441361.03562523704, 7326307.750623341], [441240.3344923765, 7326409.331015247], [441160.9203733056, 7326556.258305198], [441195.0, 7326590.0], [441080.287854133, 7326693.122916799], [441050.8823529412, 7326794.117647059], [440935.6028197022, 7326904.891637695], [440884.6846442235, 7327274.414647791], [440784.48652564496, 7327573.747655753], [440601.5619481364, 7327919.429314992], [440469.1535912929, 7327836.197025197], [440446.1086831529, 7327458.3967047315], [440365.0, 7327406.666666667], [440352.5306988167, 7327511.564337278], [440244.0997229917, 7327623.559556787], [440240.0, 7327765.0], [440174.3103448276, 7327751.379310345], [440125.8054858003, 7327864.4781153565], [440165.41769731394, 7327865.414509362], [440191.70109817665, 7328064.019573956], [440165.0, 7328184.0], [439997.7727784027, 7328068.275590551], [439901.25, 7328082.5], [439937.29538001266, 7328208.354202672], [439912.51858567, 7328351.904372698], [439980.53538500227, 7328484.472507823], [439952.2387800104, 7328562.663739012], [440019.8160029694, 7328584.444827403], [439964.7564758674, 7328956.695756669], [439866.6666666667, 7328995.0], [439874.2788827577, 7328952.715367391], [439812.3352808982, 7328851.059645377], [439628.643429859, 7328852.7033341015], [439565.00000000006, 7328885.0], [439433.3333333333, 7328841.666666667], [439420.0, 7328805.0], [439340.8323133415, 7328881.474908201], [439184.37247062015, 7328867.194635704], [439120.8225589745, 7328904.584039999], [439125.0, 7329090.0], [439165.0, 7329150.0], [439111.86971235194, 7329279.086294416], [438967.93461038324, 7329448.897369772], [438874.7272727273, 7329371.909090909], [438895.0, 7329350.0], [438857.8036437247, 7329339.585020243], [438585.13395627536, 7329515.178871525], [438602.4708692871, 7329886.3280304335], [438560.0, 7329895.0], [438241.33598803385, 7330285.694087792], [438175.5882352941, 7330208.235294118], [438213.54754229786, 7330087.861354905], [438126.3397352126, 7329799.247463669], [438210.71727150655, 7329735.983004087], [437973.5409195069, 7329448.193016381], [438126.5528717706, 7329301.55287177], [438060.5020920502, 7329235.50209205], [437876.70157068066, 7329139.2931937175], [437917.8934982115, 7329017.24321302], [437710.20617380505, 7328676.80890329], [437602.3531366263, 7328660.330296623], [437553.8888888889, 7328593.888888889], [437462.4550898204, 7328667.035928144], [437308.47498262406, 7328454.577766124], [437107.64232083206, 7328233.093832291], [437065.28098648024, 7328115.782317037], [436833.07692307694, 7328192.692307692], [436800.0, 7328135.0]]]}}]}