{"type": "FeatureCollection", "crs": {"type": "name", "properties": {"name": "EPSG:25833"}}, "features": [{"type": "Feature", "properties": {"station": "153.1.0", "name": "Storvatn", "series": ["1001.1"], "nodes": 27026, "fine_vertices": 1532, "fine_area_m2": 2702550.0, "reduced_vertices": 58, "reduced_area_m2": 2702549.9999997225, "outline_tolerance_m": 20.0, "windows": [[474, 450], [1070, 1096]], "placed_on": "number", "distance_m": 19.569391449404083, "uncertainty_m": 30.0, "elvid": "153-16-29", "objectid": 11197607, "lake": false, "confluence_near": false, "reach_up_m": 1000.0, "reach_down_m": 130.0, "reach_fork": false, "seeded_by": "river", "lake_rule": null, "lake_number": null, "lake_name": null, "lake_distance_m": null, "node_offset_m": 6.377041034963038, "chain_nodes": 105, "lowered_nodes": 62, "lowered_max_m": 2.5572776794433594, "direction_ok": true, "end_extended_m": 56.568542494923804, "end_closed": true, "downstream_checked": "whole", "a0": 2.7026000000000003, "area_up": 2.7013000000000003, "area_down": 2.7088, "swing": 0.0022940871753125733, "largest_step": 0.004999999999999893, "largest_step_at_m": 28.28427124746213, "checked_up_m": 24.142135623731065, "checked_down_m": 28.28427124746213, "drains": true, "monotone": true, "causes": []}, "geometry": {"type": "Polygon", "coordinates": [[[416840.0, 7334505.0], [416866.0, 7334529.0], [416920.7107272812, 7334474.289272719], [416877.9807451354, 7334342.197924225], [416681.9314909343, 7334222.190652765], [416395.6906557382, 7333966.436448087], [416298.4290120271, 7333961.619827708], [416226.8507638073, 7333851.521739131], [416176.2162162162, 7333865.0], [416138.3535533895, 7333775.965059253], [416038.1707317073, 7333695.0], [415952.85811269516, 7333695.0], [415565.0651583789, 7333374.129614227], [415252.468322129, 7333036.817286766], [414633.5333203389, 7332515.4954515975], [414442.32949035545, 7332462.462168481], [414137.67316357273, 7332125.966743946], [414495.55555555556, 7331719.9382716045], [414545.0, 7331710.0], [414523.55936189526, 7331664.749879097], [414717.9940216063, 7331535.467386394], [414825.0, 7331580.0], [414734.0363959848, 7331688.443337827], [414978.6885551375, 7331964.422260727], [415124.7909830041, 7331992.723260278], [415227.7112876306, 7332074.07566676], [415307.14285714284, 7331997.857142857], [415416.8133096357, 7332024.385949819], [415564.0677966102, 7332263.305084745], [415798.2864746308, 7332339.521632534], [415843.4210526316, 7332449.824561403], [416036.54099193576, 7332660.900730384], [416014.27922110807, 7332713.774561937], [416209.1918768579, 7332915.808123142], [416167.1052631579, 7332957.894736842], [416252.35245895205, 7333088.457924634], [416201.3532658403, 7333243.099835273], [416537.3285899586, 7333538.469167808], [416598.0016493966, 7333679.448894064], [416857.6733383346, 7333748.862439628], [417010.79994725256, 7333821.622097145], [417119.2265213535, 7333839.327433083], [417319.8936179469, 7333958.419133108], [417376.47194465797, 7333948.2060807925], [417404.98279598024, 7333992.792254399], [417509.39161362784, 7333944.6349681765], [417655.0, 7334050.0], [417581.5169740711, 7334076.198877306], [417603.43650072196, 7334144.973828343], [417256.68683303514, 7334438.450847523], [417268.46153846156, 7334488.076923077], [417377.1732475471, 7334538.776853209], [417400.3767936398, 7334653.347839088], [417184.93013678567, 7334606.305263365], [416979.2323202696, 7334735.598113946], [416908.0655188811, 7334653.903171802], [416898.529497741, 7334565.882374436], [416817.7027027027, 7334545.675675675], [416840.0, 7334505.0]]]}}]}