{"type": "FeatureCollection", "crs": {"type": "name", "properties": {"name": "EPSG:25833"}}, "features": [{"type": "Feature", "properties": {"station": "16.122.0", "name": "Grov\u00e5i", "series": ["1001.1"], "nodes": 426880, "fine_vertices": 6774, "fine_area_m2": 42688150.0, "reduced_vertices": 348, "reduced_area_m2": 42688149.99999956, "outline_tolerance_m": 20.0, "windows": [[470, 506], [1256, 1187], [2455, 2270]], "placed_on": "number", "distance_m": 289.5189072114784, "uncertainty_m": 289.5189072114784, "elvid": "016-35-12787", "objectid": 12012638, "lake": false, "confluence_near": true, "reach_up_m": 1000.0, "reach_down_m": 389.51890721147834, "reach_fork": false, "seeded_by": "river", "lake_rule": null, "lake_number": null, "lake_name": null, "lake_distance_m": null, "node_offset_m": 12.240493756486378, "chain_nodes": 126, "lowered_nodes": 99, "lowered_max_m": 0.42132568359375, "direction_ok": true, "end_extended_m": 0.0, "end_closed": true, "downstream_checked": "whole", "a0": 42.688, "area_up": 41.6948, "area_down": 42.8325, "swing": 0.023266491754122976, "largest_step": 0.7558999999999969, "largest_step_at_m": 0.0, "checked_up_m": 287.98989873223366, "checked_down_m": 283.84776310850384, "drains": true, "monotone": true, "causes": []}, "geometry": {"type": "Polygon", "coordinates": [[[118275.0, 6640650.0], [118224.83870967742, 6640569.193548387], [118255.0, 6640550.0], [118226.79848404753, 6640484.584112481], [118066.24060150376, 6640406.879699248], [117943.19304666057, 6640448.19304666], [117753.08764734573, 6640257.753793817], [117810.99934014496, 6640073.115241998], [117981.063991508, 6640016.049838154], [118226.18505775763, 6640029.038194215], [118290.69220908702, 6639946.615154536], [118273.17711219961, 6639872.261640674], [118336.3698630137, 6639812.876712329], [118335.13563612237, 6639725.592186575], [118449.76155708691, 6639598.1692818655], [118247.5, 6639487.5], [118269.31064757687, 6639465.689352423], [118066.24763336216, 6639246.356604947], [118181.80608417644, 6639162.4296569], [118175.0, 6639070.0], [118308.64161849712, 6638994.6820809245], [118219.74734241072, 6638880.389440242], [118317.56299747236, 6638803.646108241], [118306.6104844604, 6638607.756837923], [118589.61480808302, 6638294.286292617], [118789.42561190682, 6638350.612090654], [118818.39871371897, 6638202.238379354], [118915.90039216857, 6638141.205086527], [119082.22222222222, 6638125.0], [119252.72404939824, 6637990.3006496], [119363.05746081434, 6638032.437460191], [119472.21432074546, 6637826.282491418], [119356.10309139043, 6637855.4198276345], [119215.0, 6637760.0], [119264.09090909091, 6637699.090909091], [119191.42701988145, 6637647.988168552], [119048.35892722112, 6637786.25], [118900.0, 6637775.0], [118880.67399964627, 6637830.927100301], [118700.0, 6637945.0], [118559.44273893253, 6637805.806851853], [118641.92307692308, 6637732.307692308], [118595.0, 6637670.0], [118800.13445980077, 6637409.953781566], [118601.0735274326, 6637222.0943430085], [118304.40647581423, 6637238.31610523], [118157.69574621329, 6637364.567046018], [117896.39820321398, 6636968.139946856], [117958.61902868783, 6636847.893582109], [118161.7266890458, 6636841.954863409], [118252.21448590618, 6636696.452425211], [118225.0, 6636570.0], [118244.11537754541, 6636528.546654646], [118128.30451756832, 6636562.356385945], [118010.0, 6636645.0], [117842.32558248029, 6636536.829699451], [117786.52504719794, 6636539.039096799], [117518.75240776397, 6636370.438551784], [117560.8495821727, 6636323.906685237], [117518.02517139328, 6636251.280521884], [117659.84094852516, 6636171.359167148], [117563.99594915783, 6636064.122339656], [117618.42857142857, 6635986.571428572], [117549.31551893213, 6635896.911922126], [117674.29114777395, 6635731.842199147], [117828.04202212888, 6635658.411309019], [117786.60714285714, 6635598.214285715], [117867.47305389222, 6635517.502994012], [117970.0, 6635495.0], [118021.66666666667, 6635443.333333333], [118005.0, 6635340.0], [117950.16664230899, 6635337.918153811], [117897.37794371051, 6635091.918437679], [117935.0, 6635040.0], [117884.28571428571, 6635017.857142857], [117856.63585301884, 6634919.388950103], [118016.2317509894, 6634812.18248095], [118035.9100204499, 6634831.073619632], [118162.92956604029, 6634735.245466309], [118212.97481579453, 6634778.875379247], [118311.19313927661, 6634596.494390137], [118440.18566666778, 6634514.499629321], [118542.63448275861, 6634520.089655172], [118649.41176470589, 6634449.117647059], [118890.0, 6634435.0], [119040.09075737228, 6634502.630689897], [119103.1011857676, 6634394.823075031], [119272.91211019662, 6634401.449741843], [119256.66184971099, 6634319.002890173], [119361.3953488372, 6634336.627906977], [119430.0, 6634285.0], [119693.35227272728, 6634271.534090909], [119643.0, 6634202.0], [119705.64823463479, 6634139.351765365], [119704.12514213096, 6634040.6247073775], [119645.55709515465, 6633983.841812804], [119658.9033478956, 6633714.42593632], [119485.63241011743, 6633613.329122311], [119292.29638802384, 6633427.39996567], [119303.57142857143, 6633311.428571428], [119257.29885370217, 6633183.121282286], [119325.0, 6632996.666666667], [119432.19407552722, 6632832.538303089], [119315.0, 6632780.0], [119359.92063492064, 6632701.111111111], [119354.97858672377, 6632633.779443255], [119511.92761781052, 6632312.774264815], [119468.85672153597, 6632262.443555117], [119475.9408937176, 6632151.0290741045], [119425.0, 6632060.0], [119460.0, 6632025.0], [119419.13127413127, 6631983.243243244], [119465.0, 6631920.0], [119421.0101010101, 6631864.191919192], [119673.85395537525, 6631661.146044625], [119728.25029800979, 6631665.15162793], [119804.85148514851, 6631573.712871287], [119892.92017543332, 6631567.977879352], [119956.4660000623, 6631499.460725345], [119965.34201053277, 6631395.489552534], [120045.54253287462, 6631347.842902191], [120112.30768989386, 6631237.196461372], [119959.79087452471, 6631056.653992396], [119947.3874267022, 6630908.822899305], [120148.33333333333, 6630663.866666666], [120086.89980684155, 6630601.81880491], [120165.0148801625, 6630473.662041485], [120115.0, 6630346.0], [120193.36390972594, 6630344.540109603], [120238.44905489871, 6630214.4581670305], [120320.0, 6630045.0], [120470.57651454274, 6630042.202913042], [120548.83031941936, 6629926.303353606], [120585.50911722663, 6629582.671227189], [120678.0, 6629493.0], [120852.89833080425, 6629519.825493172], [120882.5, 6629485.0], [120920.42730694883, 6629535.569742599], [121105.15847009142, 6629498.597988438], [121055.0, 6629420.0], [121128.17502878027, 6629331.475269132], [121110.25741157374, 6629247.056172698], [121161.78841309824, 6629174.773299748], [121190.0, 6629065.0], [121156.0, 6629081.0], [121125.0956284153, 6629050.095628415], [121241.98841252904, 6628924.35814786], [121362.91197566065, 6628945.5737848785], [121431.11111111111, 6628861.666666667], [121515.72869163552, 6628884.917988173], [121505.0, 6628826.666666667], [121550.0, 6628835.0], [121590.0, 6628795.0], [121606.66666666667, 6628861.666666667], [121648.1681698106, 6628831.086611719], [121827.56317308369, 6628834.370732738], [121976.28260778506, 6628728.66007839], [122040.0, 6628775.0], [122303.51876397869, 6628666.909806924], [122522.44797572229, 6628615.857170737], [122647.28811296499, 6628689.677973563], [122920.0, 6628545.0], [123030.54054054055, 6628667.162162162], [123009.97300067006, 6628752.107130188], [122905.0, 6628880.0], [122919.43293160886, 6628951.0995982755], [123031.34756889564, 6629002.940298274], [123193.47403414032, 6629207.649135223], [123125.0, 6629300.0], [123186.34389691798, 6629289.856520982], [123216.63240596837, 6629362.408611826], [123123.1989688288, 6629472.942288117], [123140.0, 6629535.0], [123168.94736842105, 6629510.263157895], [123262.74342582707, 6629609.0416018], [123191.03329649281, 6629691.4117191415], [123173.06697753286, 6629785.799067401], [123218.58124438993, 6629885.48788239], [123157.72727272728, 6630127.2727272725], [123084.73463296122, 6630189.846149318], [123095.55506124729, 6630393.711885819], [123004.08450704225, 6630438.943661972], [123063.07612903908, 6630497.5418818025], [123065.0, 6630620.0], [123342.06118883417, 6630847.897147441], [123458.2331933288, 6630892.695667537], [123608.35152386967, 6631093.442439563], [123660.0, 6631055.0], [123723.33333333333, 6631118.333333333], [123798.25478348383, 6631094.266382535], [123910.0, 6631235.0], [123946.31578947368, 6631235.0], [124053.18506043193, 6631418.167228056], [124038.75660980295, 6631483.095255887], [124180.54208273895, 6631656.412268188], [124219.8322147651, 6631761.879194631], [124115.0, 6631810.0], [124171.5, 6631866.5], [124052.24126491291, 6631928.017435445], [123853.9971490602, 6631875.192927188], [123830.0, 6631915.0], [123696.33708129327, 6631891.718011219], [123618.04557442172, 6632024.453492588], [123512.55287569259, 6632142.882179542], [123540.42148045996, 6632316.264410704], [123307.52460288777, 6632319.295566444], [123253.73520249221, 6632273.052959502], [123164.06423027457, 6632293.189127521], [122986.08345077865, 6632441.216048654], [123021.03658023402, 6632694.95035203], [122723.4795545075, 6632874.65718973], [122856.70953734653, 6633151.573640274], [122700.08450260431, 6633196.5263348725], [122628.61055924736, 6633289.958250952], [122468.28683148733, 6633327.830423011], [122475.34261659293, 6633530.732201672], [122605.0, 6633530.0], [122647.55269092014, 6633753.722478203], [122897.44223924178, 6634029.228752991], [122886.97024117682, 6634100.462050018], [122801.5376550403, 6634146.371782949], [122835.0, 6634250.0], [122738.87931034483, 6634256.925287357], [122655.0, 6634304.285714285], [122655.0, 6634423.333333333], [122546.40689187472, 6634486.978243027], [122511.91136974038, 6634596.5443151295], [122402.17091225788, 6634713.740585448], [122486.67313097398, 6634859.288484703], [122580.0, 6634925.0], [122597.1754496868, 6634897.8808689155], [122725.0, 6635001.333333333], [122721.85579455663, 6635072.124012291], [122612.5, 6635212.5], [122655.19510328998, 6635274.640397858], [122710.0, 6635225.0], [122745.49367986506, 6635249.478399907], [122809.01618146889, 6635205.896630708], [122822.25247524753, 6635375.222772277], [122900.0, 6635325.0], [122950.0, 6635345.0], [123025.71428571429, 6635269.285714285], [123076.8675164156, 6635296.784472769], [123230.0, 6635235.0], [123300.0, 6635285.0], [123359.52454524254, 6635258.828708023], [123517.14285714286, 6635399.285714285], [123609.1138834862, 6635427.828446599], [123634.98563118231, 6635505.794757774], [123760.125, 6635565.125], [123771.875, 6635676.875], [123706.55172413793, 6635777.068965517], [123750.0, 6635835.0], [123827.77777777778, 6635810.555555556], [123852.80759448395, 6635945.895472528], [123902.0661095432, 6635945.177987232], [123934.54545454546, 6635999.545454546], [124045.71675302245, 6635982.605066206], [124019.57117254836, 6636056.994155211], [124049.7666924663, 6636151.454535367], [123786.76673948849, 6636189.724726484], [123662.86092775446, 6636238.172920998], [123609.91813833833, 6636187.54384855], [123387.62305166884, 6636407.781209393], [123372.21746790073, 6636485.84234272], [123232.90809419712, 6636658.785996547], [123159.22680412371, 6636830.824742268], [123237.28015564202, 6636921.073929961], [123230.51019616105, 6637029.013594882], [123359.89081364672, 6637082.468715503], [123398.18548387097, 6637056.242668621], [123455.0, 6637100.0], [123435.79157638717, 6637138.54162563], [123565.0, 6637150.0], [123503.90350877192, 6637313.728070175], [123544.84221436785, 6637357.535554299], [123309.37999481356, 6637407.547696839], [123267.07185905986, 6637461.687920335], [123192.94543112631, 6637432.648807312], [123126.75573679738, 6637485.979173652], [123065.71428571429, 6637442.142857143], [122911.48410209402, 6637640.050241305], [122793.33333333333, 6637693.888888889], [122699.99254843517, 6637647.511177347], [122673.3870967742, 6637687.419354838], [122685.0, 6637773.333333333], [122628.95390317857, 6637767.3800532855], [122479.09748802034, 6637853.919643026], [122457.39257473534, 6637899.640161632], [122321.67806273875, 6637997.85457241], [122198.63636363637, 6637922.121212121], [122150.0, 6637955.0], [122113.33333333333, 6637906.111111111], [122016.89623142008, 6637988.291990054], [121948.57153357058, 6637912.770258411], [121840.03730576945, 6638043.077612625], [121864.68555670089, 6638230.845109008], [121797.39324534162, 6638202.587344721], [121634.24560460122, 6638299.535346722], [121596.60567463911, 6638289.699418827], [121530.22904696384, 6638417.118885055], [121251.03958480964, 6638385.452285284], [120983.8165384739, 6638595.4466510415], [120873.3906762326, 6638530.016590653], [120666.44817794808, 6638684.854100079], [120803.00049735024, 6638874.864075616], [120680.0, 6638965.0], [120509.58840707202, 6638975.526973881], [120457.03633017941, 6639040.765395566], [120493.09938360179, 6639153.645586086], [120337.35294117648, 6639198.235294118], [120303.77959927141, 6639307.2677595625], [120224.64267520452, 6639264.388535082], [119953.70118654262, 6639382.910449025], [119985.0, 6639420.0], [119858.56136006465, 6639473.746786578], [119875.66507454046, 6639563.449848024], [119959.81481481482, 6639732.222222222], [120000.0, 6639725.0], [120067.0748233976, 6639858.2803943595], [120116.73099711901, 6639888.286939103], [119850.86062388292, 6640051.462811929], [119696.90325116515, 6639987.719973047], [119565.0, 6640050.0], [119593.1308411215, 6640103.551401869], [119577.80303547275, 6640226.172411542], [119604.0468698733, 6640285.825565771], [119530.0, 6640275.0], [119364.01738055453, 6640356.08827033], [119342.30295727636, 6640411.6679077875], [119565.0, 6640730.0], [119541.0, 6640778.0], [119574.7215418503, 6640877.982795813], [119614.125, 6640840.875], [119665.05602650857, 6640901.022159249], [119577.8654134176, 6641031.919409571], [119672.24356309709, 6641102.756436903], [119549.12158402815, 6641220.392885931], [119227.8921063368, 6641171.317948581], [119163.53768108285, 6641214.09367947], [118895.5446073211, 6641247.12798563], [118794.73684210527, 6641401.842105263], [118688.15048112873, 6641438.140838103], [118660.59212819983, 6641314.4460146045], [118194.11333400445, 6641269.02611962], [118126.68179125103, 6641105.728756537], [118225.51583949328, 6640918.758908849], [118184.97357963277, 6640716.412433197], [118275.0, 6640650.0]]]}}]}