{"type": "FeatureCollection", "crs": {"type": "name", "properties": {"name": "EPSG:25833"}}, "features": [{"type": "Feature", "properties": {"station": "16.194.0", "name": "Kilen", "series": ["1001.0"], "nodes": 1189240, "fine_vertices": 9834, "fine_area_m2": 118924450.0, "reduced_vertices": 493, "reduced_area_m2": 118924450.00000085, "outline_tolerance_m": 20.0, "windows": [[515, 432], [1134, 1230], [2386, 2722], [4535, 5017]], "placed_on": "number", "distance_m": 20.040461216777054, "uncertainty_m": 30.0, "elvid": "016-35-16415", "objectid": 12012649, "lake": false, "confluence_near": false, "reach_up_m": 1000.0, "reach_down_m": 130.0, "reach_fork": false, "seeded_by": "river", "lake_rule": null, "lake_number": null, "lake_name": null, "lake_distance_m": null, "node_offset_m": 3.281644515379292, "chain_nodes": 108, "lowered_nodes": 12, "lowered_max_m": 0.08001708984375, "direction_ok": true, "end_extended_m": 0.0, "end_closed": true, "downstream_checked": "whole", "a0": 118.924, "area_up": 118.9218, "area_down": 118.9255, "swing": 1.8499209579243703e-05, "largest_step": 0.0016999999999995907, "largest_step_at_m": 0.0, "checked_up_m": 24.142135623731065, "checked_down_m": 30.0, "drains": true, "monotone": true, "causes": []}, "geometry": {"type": "Polygon", "coordinates": [[[136880.0, 6606125.0], [136690.30019024172, 6606119.501454789], [136562.8, 6606012.2], [136600.52050284282, 6605970.912181298], [136428.4978069786, 6605739.895467755], [136324.57387198124, 6605709.578198431], [136270.97220323258, 6605625.788158087], [136035.20208949494, 6605511.447319375], [136032.00996966337, 6605433.9838338215], [135833.79675806896, 6605277.793433407], [135828.30861788618, 6605222.117723578], [135563.83788156178, 6604860.745776977], [135347.14285714287, 6604847.857142857], [135143.6457654619, 6604983.859416089], [135038.65510703137, 6605010.292846766], [134934.2857142857, 6604953.571428572], [134838.8828194572, 6604973.78303533], [134543.96914406287, 6604823.092567812], [134559.87835755927, 6604735.121642441], [134645.0, 6604650.0], [134635.81878636742, 6604601.3591022445], [134824.60198364683, 6604554.052976081], [134802.19723385046, 6604443.807913536], [134750.42522442102, 6604465.327069235], [134616.0202342918, 6604341.29286475], [134645.0, 6604280.0], [134554.6395273899, 6604183.4324382385], [134503.0285714286, 6604216.257142857], [134302.14864589856, 6604081.262211244], [134397.4424651609, 6603983.056958572], [134487.0, 6603968.0], [134399.84223774483, 6603935.731489418], [134514.82582440422, 6603779.974391029], [134502.02889165212, 6603687.118287197], [134774.0860636177, 6603423.39183594], [134743.18181818182, 6603376.363636363], [134781.28655476726, 6603326.909678921], [134568.2573113048, 6603352.47209764], [134394.00547091805, 6603184.509939366], [134413.9790575916, 6603129.607329843], [134280.0589482843, 6603165.346874037], [134143.63636363635, 6603121.363636363], [134126.0655737705, 6603138.934426229], [134085.16353933504, 6603083.600943666], [133722.11363028927, 6602894.816193304], [133740.96815957592, 6602716.279114662], [133879.48202929113, 6602665.546300037], [133994.03453911448, 6602715.178911269], [134050.0, 6602645.0], [134181.43061837245, 6602664.119619463], [134180.0, 6602565.0], [134290.0, 6602595.0], [134398.20858505662, 6602492.394056499], [134464.82242171094, 6602530.928968685], [134524.39843231035, 6602462.707054604], [134443.1163858975, 6602416.586006264], [134540.0, 6602295.0], [134524.66666666666, 6602267.333333333], [134656.26901992643, 6602164.162247472], [134743.0, 6602202.0], [134764.76986951364, 6602162.088572558], [134608.5117363603, 6602039.186227268], [134499.7471011915, 6602075.591380408], [134430.31189710612, 6602051.818649517], [134432.7404858115, 6601982.035018232], [134349.66244725737, 6601948.108298171], [134432.24759632445, 6601883.099020104], [134314.7435897436, 6601633.846153846], [134285.3060531606, 6601656.16181714], [134020.72761562467, 6601385.9176440295], [134084.87465218658, 6601281.381898285], [134330.00694663386, 6601182.747503531], [134209.86497259955, 6601075.038983821], [134233.67027537816, 6600963.658889543], [134026.08212605683, 6600804.894359673], [134117.92051727147, 6600610.927820579], [133976.4117586621, 6600420.329619553], [134060.0, 6600295.0], [134122.66894781866, 6600399.533789564], [134260.0, 6600335.0], [134290.0, 6600395.0], [134414.11764705883, 6600395.0], [134419.5652173913, 6600358.043478261], [134559.94259851746, 6600459.29482213], [134671.63794504458, 6600225.787015544], [134811.19565217392, 6600244.565217392], [134900.0, 6600185.0], [135044.65610480614, 6600215.663416863], [135084.8205128205, 6600190.076923077], [135148.72427983538, 6600210.802469136], [135200.57654136652, 6600172.043861289], [135540.97621583246, 6600164.023784167], [135706.53373275502, 6599998.466267245], [135903.4572013741, 6599932.22029195], [136024.06855439642, 6599810.762543468], [136180.0, 6599795.0], [136270.0, 6599845.0], [136389.4827586207, 6599765.344827586], [136485.5172413793, 6599794.655172414], [136572.39819004526, 6599738.484162896], [136650.0, 6599805.0], [136766.6913526027, 6599723.785188438], [137199.55184120248, 6600070.863980669], [137468.10091727466, 6599973.690874354], [137548.51934233858, 6599860.607695103], [137404.2298220388, 6599778.377289257], [137319.3896028124, 6599781.344226387], [137335.69939079537, 6599605.181536914], [137499.44138345015, 6599463.164462318], [137178.1190465312, 6599300.93631189], [137215.0, 6599220.0], [136910.42896362388, 6598926.893100036], [136915.89627751085, 6598879.845798978], [137037.5, 6598852.5], [136841.2902887139, 6598623.643569554], [136768.1903276131, 6598632.425897036], [136645.0, 6598500.0], [136662.23457494105, 6598470.672929602], [136551.25, 6598396.25], [136633.18869191268, 6598306.413244801], [136526.79487179487, 6598147.692307692], [136661.49162832767, 6598006.998482668], [136748.6328525153, 6598018.339516598], [136812.55122334254, 6598098.187014922], [136920.65161317663, 6597991.51180507], [137064.82540702884, 6597944.883604686], [137114.2857142857, 6597977.857142857], [137208.26086956522, 6597916.739130435], [137230.4768998363, 6597838.639717441], [137290.7302155313, 6597797.345023949], [137245.0, 6597750.0], [137303.97918464566, 6597676.664503435], [137390.0, 6597685.0], [137470.56603773584, 6597600.597484277], [137515.91184753503, 6597634.117769296], [137675.7328445572, 6597543.166828814], [137855.234713559, 6597566.397767715], [137953.646222683, 6597495.738925151], [137915.0, 6597420.0], [137950.0, 6597385.0], [138014.95383373924, 6597406.853626305], [138201.66898576607, 6597228.810225708], [138303.84615384616, 6597233.461538462], [138414.50340118696, 6597106.996112929], [138559.62068698904, 6597157.717774555], [138800.0, 6597115.0], [138905.3703930452, 6597062.390718746], [139159.8648682258, 6597095.108105419], [139253.78881987577, 6597019.9689441], [139449.99072602397, 6597049.956417273], [139510.0, 6596985.0], [139585.60975609755, 6597000.12195122], [139645.0, 6596930.0], [139611.93837354647, 6596830.815120639], [139904.50369588172, 6596593.368532207], [139816.05263157896, 6596468.947368421], [139905.0, 6596380.0], [139811.66666666666, 6596286.666666667], [139837.9185520362, 6596244.502262443], [139761.9401157481, 6596153.328138898], [139588.066216715, 6596042.01415029], [139689.5618556701, 6596015.43814433], [139824.67964221182, 6595857.96398202], [139772.05529478902, 6595735.012616173], [139800.0704225352, 6595687.3239436615], [139760.3125, 6595629.895833333], [139845.5471862099, 6595559.429637141], [139852.8008994089, 6595583.942069315], [140058.8166796611, 6595567.79479852], [140039.3945482715, 6595528.129011904], [140122.58773606006, 6595422.066416122], [140266.96710072414, 6595423.107973104], [140321.90886377252, 6595478.052703956], [140519.0170940171, 6595375.256410256], [140614.0, 6595429.0], [140863.13809295007, 6595317.581599277], [141113.3825481359, 6594958.573653161], [141318.0542235221, 6594917.334931773], [141370.0, 6594855.0], [141505.22393386028, 6594895.066284239], [141595.10162892682, 6594803.566255308], [141881.68716042323, 6594779.750194044], [142094.6270156791, 6594710.909360463], [142208.809908655, 6594786.105049769], [142323.64570095984, 6594668.114539678], [142331.73585012372, 6594619.640875852], [142638.27084694788, 6594453.270846948], [142688.33333333334, 6594503.333333333], [142692.22788682132, 6594600.0305888355], [142787.85714285713, 6594667.142857143], [142733.35920191655, 6594659.529465481], [142702.0074756331, 6594772.902818516], [142744.36382754994, 6594831.151419559], [142800.0, 6594795.0], [142920.0401284109, 6594870.88282504], [143120.20596596005, 6594848.826371158], [143526.90246112033, 6594551.90246112], [143789.10164819256, 6594840.94751916], [143882.23334836971, 6594814.442913614], [143934.5111224666, 6594883.562678527], [143896.66666666666, 6594955.0], [143953.33333333334, 6594945.0], [144028.5359803698, 6594998.415041298], [144122.93288941582, 6594984.222824374], [144143.96070033882, 6594906.9541724725], [144262.12749371034, 6594963.544346409], [144302.9187817259, 6594935.634517767], [144425.4353262105, 6595052.717663106], [144504.01392420052, 6594951.844646917], [144634.2857142857, 6594945.0], [144635.0, 6594980.0], [144811.93741209563, 6595016.290436005], [144908.7743727586, 6595083.344787557], [144881.19130434783, 6595205.060869565], [144928.12157413914, 6595281.3225579765], [145106.66666666666, 6595275.0], [145170.82908885228, 6595229.49703808], [145301.71711060326, 6595277.388589461], [145835.32242204883, 6595782.841282746], [145960.96241397565, 6595763.602435151], [146173.33333333334, 6595922.777777778], [146383.16950251252, 6595858.838872051], [146541.1007767797, 6595709.059001326], [146632.3096335499, 6595771.61421987], [146685.0, 6595740.0], [146661.66666666666, 6595716.666666667], [146713.58778625954, 6595619.2013538815], [146750.0, 6595625.0], [146774.08602150538, 6595513.817204301], [146839.54185630463, 6595470.281463016], [146884.1075930363, 6595351.841511584], [146941.0960439314, 6595346.096043931], [147035.0, 6595440.0], [147035.0, 6595500.0], [147116.11111111112, 6595562.962962963], [147203.55893653733, 6595528.158520447], [147362.2388190398, 6595536.183437795], [147365.0, 6595614.061755625], [147316.15276879983, 6595658.552036199], [147338.73310235256, 6595813.691575967], [147426.66622353683, 6595795.952507561], [147508.2922732363, 6595892.967525196], [147565.0, 6595886.666666667], [147565.0, 6595923.333333333], [147667.17809859302, 6595893.1869363915], [147767.8947368421, 6595925.0], [147835.62495603852, 6595830.285397989], [147925.54168987312, 6595951.1979244435], [147922.29591836734, 6596216.224489796], [147845.0, 6596288.0], [147895.0, 6596350.0], [147878.1181894384, 6596383.7636211235], [147966.13636363635, 6596478.863636363], [148101.60248221786, 6596382.802875366], [148114.04938157008, 6596343.037070213], [148294.34703940238, 6596300.426812348], [148432.0, 6596367.0], [148455.04672897197, 6596326.028037383], [148507.59427405294, 6596371.583809314], [148640.58675544677, 6596245.385066116], [148919.13495145083, 6596252.433478409], [149120.24457638984, 6596328.719427952], [149213.44105142212, 6596325.244553487], [149359.30142834652, 6596086.257397241], [149417.74316109423, 6596045.805471125], [149414.70762531928, 6596004.703537271], [149359.3494941307, 6596014.314323936], [149379.97093827845, 6595905.029061722], [149322.8545403587, 6595827.355340646], [149524.17912930922, 6595709.179828564], [149485.0, 6595570.0], [149667.653769081, 6595470.910432273], [149778.23210575045, 6595575.640403213], [149845.0517728271, 6595515.222780044], [149915.0, 6595620.0], [149885.0, 6595650.0], [149936.42857142858, 6595714.285714285], [150068.9375, 6595696.0625], [150130.0, 6595635.0], [150140.52631578947, 6595645.52631579], [150460.0, 6595585.0], [150490.0, 6595615.0], [150903.15114480775, 6595482.171937615], [151330.0, 6595115.0], [151360.0, 6595130.454545454], [151586.45416428178, 6594964.90983437], [151688.938008742, 6594988.707896854], [151814.34221574257, 6595108.714609902], [151735.0, 6595270.0], [151835.73141070188, 6595338.597116053], [151813.34417848027, 6595394.105557632], [151876.72958746608, 6595433.063629515], [151770.2597026453, 6595491.8980498165], [151805.0, 6595540.0], [151742.63839762151, 6595568.310467818], [151654.23076923078, 6595699.230769231], [151675.0, 6595720.0], [151419.73684210525, 6595844.736842105], [151468.33333333334, 6595893.333333333], [151433.67047527916, 6595963.310458875], [151482.76172926204, 6596156.12448028], [151301.0701452475, 6596171.119526339], [151275.7710417893, 6596271.689228958], [151036.66666666666, 6596395.0], [150951.9791493576, 6596370.035222188], [150812.21895664954, 6596663.030859662], [150678.13953488372, 6596775.620155038], [150567.93045983263, 6596807.445891132], [150545.6534402524, 6596852.884264107], [150313.53690192825, 6597038.449167176], [150277.14285714287, 6597012.142857143], [150250.0, 6597055.0], [150176.01696654188, 6597013.112471782], [150109.97372637637, 6597105.1839153655], [150075.0, 6597210.0], [150210.16625281266, 6597420.051439188], [150113.34131820805, 6597542.13788687], [150152.44897959183, 6597642.551020408], [150062.06639997684, 6597671.664990813], [149927.85850704066, 6597862.317364082], [149838.9064950608, 6597883.342996981], [149888.97260273973, 6597934.109589041], [149855.0, 6598020.0], [149887.3235486906, 6598050.603299491], [149703.94523076393, 6598229.431055464], [149716.25, 6598332.916666667], [149547.0023778642, 6598338.982803816], [149544.8146031746, 6598379.084444445], [149358.51382852293, 6598386.285485788], [149300.0, 6598475.0], [149220.25083736508, 6598463.567175289], [149208.1357569842, 6598535.297359], [149120.91836734695, 6598625.578231293], [149149.0, 6598656.0], [149105.0, 6598700.0], [149127.91118315427, 6598769.254258171], [149011.4453926208, 6598858.525864562], [148965.0447445889, 6598952.678479046], [148989.77282306107, 6598996.328532413], [148758.38968201051, 6599199.115538764], [148681.51072124756, 6599355.742821473], [148735.0, 6599390.0], [148703.3865750379, 6599452.313167122], [148460.78172593113, 6599509.690355587], [148534.5734166102, 6599435.952829914], [148418.96198890975, 6599381.604945126], [148182.27472865564, 6599624.8896304965], [147978.87994123978, 6599583.569785734], [147910.1125939555, 6599756.051806074], [148094.43434919254, 6599976.709269862], [147906.2758360778, 6600024.871245324], [147737.0482859844, 6600159.9986545285], [147778.42237939578, 6600267.86398182], [147622.6181437366, 6600380.286800669], [147535.0, 6600530.0], [147578.15068493152, 6600560.821917809], [147568.37852763373, 6600742.97323855], [147511.64626124484, 6600849.025436186], [147512.59403814806, 6600994.889823815], [147399.11287245742, 6601102.661345223], [147445.7930122604, 6601306.714323972], [147329.8217698126, 6601373.605431417], [147329.79931351382, 6601417.80102973], [147213.739512282, 6601495.153794167], [147032.19090326712, 6601510.124919923], [146980.0, 6601585.0], [146843.6557579061, 6601589.16199628], [146810.0, 6601665.0], [146697.27272727274, 6601694.090909091], [146625.3795699538, 6601649.250841271], [146584.75747574758, 6601692.663766377], [146431.76470588235, 6601721.470588235], [146394.81291702337, 6601694.5891170725], [146240.11753483256, 6601757.056163918], [146122.85714285713, 6601896.904761905], [146077.61904761905, 6601866.746031746], [145970.56468005528, 6601976.955850069], [146010.58139534883, 6602026.976744186], [145894.97220589023, 6602081.723412974], [145863.56084865172, 6602145.854934003], [145880.95537565698, 6602196.920356449], [145715.66911208554, 6602342.35140867], [145686.4910293406, 6602305.526507421], [145490.0, 6602495.0], [145408.7597753171, 6602457.527467234], [145344.83513402293, 6602559.187093151], [145033.53101429506, 6602519.739946678], [144909.6411446849, 6602376.825248686], [144798.2819415913, 6602629.946631652], [144885.0, 6602720.0], [144844.54545454544, 6602775.0], [144560.01871257485, 6602956.467065868], [144432.04578640606, 6602931.496738811], [144283.638592329, 6603097.565440886], [144120.0, 6603115.0], [144085.97402597402, 6603171.70995671], [144122.14285714287, 6603221.428571428], [144069.04322080498, 6603319.157180852], [143811.11111111112, 6603326.111111111], [143760.81196581197, 6603405.811965812], [143858.6309127635, 6603479.538649556], [143745.0, 6603550.0], [143752.30941704035, 6603652.077727952], [143895.0, 6603620.0], [143909.47659922973, 6603711.6855497835], [143743.24688796682, 6603810.058782849], [143721.22535211267, 6603743.549295775], [143635.0, 6603770.0], [143643.9902585238, 6603832.931809667], [143372.37237237237, 6603855.210210211], [143173.5294117647, 6603910.294117647], [143110.0, 6603855.0], [143001.97228052607, 6603881.154079451], [142791.4903400155, 6603821.651736984], [142543.20352276735, 6603993.24317573], [142646.48867541624, 6604054.58957129], [142572.10572981215, 6604151.2067285655], [142449.28316736218, 6604203.875134637], [142383.5150762126, 6604422.277172049], [142607.05911451892, 6604536.372743012], [142639.73988439306, 6604597.10982659], [142365.82409826835, 6604659.293253766], [142188.27577687692, 6604723.945776643], [142054.2291896325, 6604954.240852098], [142085.78958437886, 6605003.080964076], [141945.0, 6605050.0], [141983.4692346173, 6605115.397698849], [141851.06293597686, 6605250.210332605], [141816.2285033789, 6605364.374560665], [141921.28210985512, 6605443.738721098], [141906.28849652, 6605489.591450538], [141710.01263073922, 6605641.030090919], [141637.28178664242, 6605784.586157821], [141712.0825933229, 6605880.618909363], [141633.96544085068, 6606008.172352681], [141596.66666666666, 6605978.333333333], [141545.2380952381, 6606029.761904762], [141573.63636363635, 6606077.7272727275], [141528.69327251994, 6606129.4583808435], [141533.3165492153, 6606301.24719709], [141598.33333333334, 6606376.666666667], [141562.8661087866, 6606412.133891214], [141581.76470588235, 6606533.823529412], [141671.4110926159, 6606546.630156088], [141607.22258193407, 6606683.3772324575], [141625.0, 6606710.0], [141561.07623909335, 6606757.94282068], [141400.1505376344, 6606684.849462366], [141293.24736842106, 6606708.542105263], [141302.3167989202, 6606819.574479627], [141113.67975224077, 6607085.083043678], [141030.0, 6607065.0], [140914.1509115961, 6607133.826187528], [140690.8272369079, 6607046.360334309], [140643.0, 6607101.5], [140351.0178823346, 6606954.805158597], [140214.4459557434, 6607079.445955743], [140270.7539230163, 6607135.753923017], [140169.78599724424, 6607372.461677575], [140113.0915473979, 6607366.317632964], [140016.20290494192, 6607490.882248574], [139940.0, 6607475.0], [139922.85714285713, 6607509.285714285], [139963.80877742945, 6607561.786833856], [139921.18903788598, 6607619.36240161], [139830.0, 6607605.0], [139787.5, 6607647.5], [139848.60662089792, 6607747.875825081], [139789.9852671723, 6607808.313689563], [139753.88888888888, 6607760.185185186], [139591.14866170418, 6607709.173887368], [139433.33333333334, 6607773.888888889], [139321.6074045519, 6607735.149388797], [139256.76288659795, 6607641.762886598], [139212.45614035087, 6607654.18128655], [139012.65541834736, 6607548.903325997], [138894.21039048594, 6607401.936010253], [138945.0, 6607331.655629139], [138743.0291500354, 6607188.680464332], [138572.43163033176, 6606971.9157105], [138493.92917881504, 6606829.039330993], [138448.8831168831, 6606860.922077922], [138370.6329113924, 6606808.755274261], [138335.3407275793, 6606840.086060606], [138139.80699816847, 6606792.7404399635], [137835.27932960895, 6606663.212290503], [137772.06218848928, 6606688.218576462], [137547.23529411765, 6606555.823529412], [137436.0, 6606563.0], [137264.75432380318, 6606474.252351542], [137268.1792273591, 6606414.97150095], [137181.025842763, 6606415.27517128], [136975.7471798863, 6606172.457581133], [136880.0, 6606125.0]]]}}]}