{"type": "FeatureCollection", "crs": {"type": "name", "properties": {"name": "EPSG:25833"}}, "features": [{"type": "Feature", "properties": {"station": "16.127.0", "name": "Viertjern", "series": ["1001.1"], "nodes": 456333, "fine_vertices": 7060, "fine_area_m2": 45633350.0, "reduced_vertices": 341, "reduced_area_m2": 45633350.000000775, "outline_tolerance_m": 20.0, "windows": [[471, 482], [1250, 1228], [2481, 2431]], "placed_on": "number", "distance_m": 11.720551243285346, "uncertainty_m": 30.0, "elvid": "016-35-9262", "objectid": 12011779, "lake": false, "confluence_near": false, "reach_up_m": 1000.0, "reach_down_m": 130.0, "reach_fork": false, "seeded_by": "river", "lake_rule": null, "lake_number": null, "lake_name": null, "lake_distance_m": null, "node_offset_m": 1.8035107843635312, "chain_nodes": 110, "lowered_nodes": 76, "lowered_max_m": 0.5645751953125, "direction_ok": true, "end_extended_m": 0.0, "end_closed": true, "downstream_checked": "whole", "a0": 45.633300000000006, "area_up": 45.6327, "area_down": 45.636, "swing": 5.9167318602802335e-05, "largest_step": 0.0015000000000000568, "largest_step_at_m": 14.142135623731065, "checked_up_m": 24.142135623731065, "checked_down_m": 28.28427124746213, "drains": true, "monotone": true, "causes": []}, "geometry": {"type": "Polygon", "coordinates": [[[131775.0, 6690040.0], [131638.3764960928, 6690173.51186966], [131530.0, 6690185.0], [131480.15556867473, 6690135.155568675], [131372.85327065308, 6690255.547858054], [131185.54856114334, 6690349.964382049], [131130.0922823148, 6690536.682425213], [130998.68693849344, 6690492.277125087], [131014.18740554157, 6690439.187405542], [130944.9424184261, 6690369.942418426], [131003.92156862745, 6690326.764705882], [130967.35751295337, 6690267.642487046], [131033.86431016387, 6690218.267237199], [130993.13921542883, 6690038.259106022], [130841.42857142857, 6689976.428571428], [130783.72543729788, 6690003.026553179], [130599.18404950961, 6689915.079752452], [130645.0, 6689800.0], [130447.36607142857, 6689668.169642857], [130377.1575783422, 6689790.598922423], [130338.30341004941, 6689750.207856368], [130250.0, 6689805.0], [130162.51473477407, 6689734.7249508845], [129980.0, 6689755.0], [129900.0, 6689835.0], [129829.19134810315, 6689817.834266207], [129732.50902527076, 6689591.227436823], [129795.0, 6689560.0], [129725.0, 6689510.0], [129711.47310998393, 6689399.852467012], [129428.38154816712, 6689316.1348342765], [129498.93939393939, 6689194.242424242], [129471.36363636363, 6689164.545454546], [129549.23126025898, 6689070.382394066], [129424.54488951742, 6689024.269171686], [129350.71428571429, 6688894.285714285], [129436.90031006011, 6688803.2339525595], [129376.59288869076, 6688733.538325438], [129436.51697464466, 6688677.364032218], [129616.54649504648, 6688611.149884603], [129611.89659660173, 6688339.721328108], [129759.36057603647, 6688412.045465022], [129871.0, 6688560.0], [129953.17307692308, 6688581.826923077], [130018.81397783617, 6688531.100981767], [130239.23456463328, 6688601.205620025], [130360.0, 6688595.0], [130396.95074658017, 6688538.556635117], [130620.18334190373, 6688623.23384814], [130783.0536932322, 6688541.384682301], [130805.65721831152, 6688489.159719347], [130942.12286421175, 6688589.502106038], [131057.9129621077, 6688513.40538165], [131047.1563929138, 6688440.570294506], [131127.6525198939, 6688350.610079575], [131062.06433428054, 6688193.994286443], [131145.0, 6688125.555555556], [131177.47240644688, 6687975.530087313], [131318.72093023255, 6687800.116279069], [131394.78563388222, 6687855.016079734], [131456.0, 6687741.0], [131550.0, 6687785.0], [131652.17916301926, 6687767.699847499], [131863.87313270642, 6687659.488335781], [131941.511435238, 6687746.697762527], [132174.50390878314, 6687457.842076608], [132235.0, 6687250.0], [132195.0, 6687210.0], [132197.7322618581, 6686987.37749902], [132253.23529411765, 6686932.352941177], [132215.4694383076, 6686781.016242978], [132240.7052087604, 6686681.7165856995], [132234.91548266826, 6686655.951871674], [132357.88093012467, 6686432.593494172], [132587.0460222132, 6686386.491156395], [132635.0, 6686285.5], [132866.47972303134, 6686019.266213234], [132975.75221238937, 6685986.415929204], [133006.11111111112, 6685941.111111111], [132844.11683292422, 6685781.8313573925], [132871.05180333796, 6685743.99996713], [132636.0, 6685521.0], [132557.20898876403, 6685574.231460674], [132583.67125307515, 6685477.270392265], [132408.09664879227, 6685331.97211672], [132361.2264465055, 6685115.137825414], [132415.0, 6685020.0], [132356.2916702851, 6684914.325006513], [132217.21663110112, 6684821.7105640285], [132290.81634291075, 6684710.97520652], [132284.11624216373, 6684668.121631602], [132120.0, 6684605.0], [132088.9024390244, 6684636.097560976], [132013.75, 6684608.75], [131971.42857142858, 6684635.0], [131925.0, 6684600.0], [131946.32101847228, 6684577.632551174], [131886.42857142858, 6684377.142857143], [131796.9230540259, 6684362.586247954], [131528.57923084951, 6684107.52190567], [131399.32854428384, 6683910.126040847], [131432.79509509174, 6683889.694592187], [131333.3278466223, 6683774.061626666], [131278.10516299467, 6683577.355681692], [131181.39846544553, 6683680.142803407], [131030.78432124268, 6683663.421270268], [131068.75, 6683607.916666667], [131043.82597164948, 6683520.836419467], [130851.66317260657, 6683336.663172606], [130568.14814814815, 6683583.148148148], [130507.8249299729, 6683571.796518176], [130212.04495264534, 6683371.214589974], [130283.82352941176, 6683268.235294118], [130247.16216216216, 6683217.837837838], [130275.0, 6683190.0], [130242.4674991593, 6683161.424154667], [130066.24500191216, 6683192.220120703], [129946.76595445717, 6683047.507589811], [129885.0, 6682870.0], [129836.81818181818, 6682869.090909091], [129734.69818971318, 6683007.496534658], [129682.6060867821, 6683003.7890146], [129447.77777777778, 6682795.0], [129300.0, 6682885.0], [129230.07539500426, 6682865.090474005], [129233.33333333333, 6682805.0], [129123.12785236302, 6682796.389125431], [129015.58017606981, 6682617.654653999], [128822.46083933383, 6682711.6511392025], [128890.37985583112, 6682488.186804164], [128605.0, 6682240.0], [128646.22776089101, 6682183.256725779], [128600.20845070423, 6682107.754929577], [128799.78920912836, 6681981.465945012], [128818.72881355933, 6682004.237288136], [128900.88235294117, 6681932.352941177], [128955.85136384984, 6681801.612621913], [129145.0, 6681690.0], [129181.11484669968, 6681629.208352121], [129297.25094577554, 6681575.920554855], [129397.5, 6681627.5], [129580.0469800814, 6681522.220319274], [129731.4278289323, 6681359.821845507], [129918.9219301058, 6681233.921930105], [130009.93737836504, 6681315.062621635], [130101.87206360679, 6681223.127936393], [130140.84337349398, 6681250.831325301], [130240.0, 6681215.0], [130521.50343603651, 6681405.423543172], [130667.83788109146, 6681346.071057053], [130775.55555555556, 6681249.761904762], [130880.0, 6681205.0], [131000.83989355805, 6681312.578999889], [131005.0, 6681440.0], [131127.07827746167, 6681447.829745664], [131195.0, 6681410.0], [131172.79083588714, 6681353.141840854], [131285.5467424422, 6681277.956279608], [131462.88781525873, 6681320.92506888], [131468.66800063392, 6681583.448196287], [131585.3942428035, 6681700.385899041], [131689.0593852858, 6681714.059385286], [131780.0, 6681805.0], [131950.19004787467, 6681762.452488031], [132108.34714754592, 6682171.789269904], [132123.87691134904, 6682329.572528442], [132256.6994177519, 6682409.027812628], [132581.86723602467, 6682692.940076769], [132600.0671864316, 6682982.095257702], [132720.0, 6683025.0], [132762.1348314607, 6682957.584269663], [132900.0, 6682915.0], [132950.0, 6682965.0], [133041.6690647482, 6682951.762589928], [133035.0, 6682890.0], [133271.30465122114, 6682836.056065873], [133467.1103260164, 6682832.7759679], [133553.82253058202, 6682776.5467972], [133800.0, 6682715.0], [133883.70064971782, 6682619.8262383705], [133968.11965811966, 6682676.965811966], [134206.12078644114, 6682683.656968873], [134236.30867143994, 6682616.288782816], [134488.2803291891, 6682628.871229516], [134526.68128558365, 6682518.329457455], [134584.05660377358, 6682461.320754717], [134537.85620963798, 6682403.570262047], [134596.33048595517, 6682202.029898536], [134781.66666666666, 6682163.333333333], [134929.52702702704, 6682064.527027027], [134980.0, 6682115.0], [135132.15878944733, 6682087.1863502115], [135090.2171226947, 6681964.7828773055], [135198.21436592116, 6681932.207591403], [135193.23382450896, 6681888.556258862], [135283.13790682433, 6681916.164925687], [135510.412863457, 6681821.672739877], [135506.44415549387, 6681649.277922253], [135683.06887446463, 6681541.718088241], [135880.0, 6681535.0], [135965.0, 6681620.0], [135920.83333333334, 6681664.166666667], [135940.0, 6681705.0], [135986.60540887568, 6681686.3578364495], [136110.5082592122, 6681717.403835047], [136272.25423728814, 6681694.508474576], [136295.0, 6681740.0], [136267.9411764706, 6681791.764705882], [136378.39737919028, 6681679.076304897], [136562.57379649353, 6681658.622088622], [136647.64746274267, 6681599.727792513], [136747.66782046726, 6681670.219987197], [136832.40871752825, 6681590.833643564], [136833.37252703457, 6681799.395237327], [136715.0, 6681960.0], [136495.06227942702, 6682137.023043388], [136506.80385009083, 6682196.87076824], [136389.5671910728, 6682445.281881066], [136420.8254411882, 6682549.872394794], [136337.17993361715, 6682664.897242992], [136249.78291661246, 6682688.697499675], [136265.0, 6682810.0], [136341.76853863354, 6682886.768538633], [136457.25676432025, 6683120.6808629725], [136463.5037037037, 6683265.321481481], [136432.33219032534, 6683284.326687223], [136452.6278717973, 6683402.372128203], [136437.3721282027, 6683437.627871797], [136698.5362816277, 6683707.893965716], [136787.14285714287, 6683663.571428572], [136879.4748173427, 6683694.707748334], [137060.0, 6683625.0], [137081.66666666666, 6683646.666666667], [137058.7518037518, 6683752.647907648], [137097.66666666666, 6683803.666666667], [137051.94579136596, 6683827.28834954], [137077.94871794872, 6683935.512820513], [137004.7848087481, 6683993.43814851], [137405.0, 6684370.0], [137353.60676427587, 6684485.054014703], [137406.61290322582, 6684535.483870967], [137393.76037959667, 6684651.15658363], [137305.8238790846, 6684722.091790811], [137250.0, 6684705.0], [137143.50954478708, 6684794.104258443], [137112.4, 6684920.2], [137041.3048245614, 6684930.537280702], [137195.05456499365, 6685074.438381667], [137301.6537750916, 6685062.59402499], [137470.83848190645, 6685169.060017652], [137443.529210138, 6685388.171363641], [137462.18087664526, 6685453.499884293], [137700.90181205227, 6685663.293299621], [137750.0, 6685615.0], [137936.0810810811, 6685824.864864865], [137986.32015810278, 6685824.442687747], [138075.0, 6685930.0], [137950.7343431906, 6685902.489001095], [137784.23588039866, 6686096.544850498], [137822.84100491108, 6686212.845694685], [137980.61480310102, 6686195.614803101], [138057.96249783476, 6686272.962497835], [138110.26237754268, 6686280.17234119], [137779.3710077143, 6686644.371007714], [137821.66666666666, 6686686.666666667], [137746.08910891088, 6686815.148514852], [137845.0, 6686902.482482483], [137790.29634999638, 6687065.538997916], [137891.58711737648, 6687135.862582207], [137914.82063051852, 6687264.338614167], [137744.8663853727, 6687362.313642757], [137669.1127837234, 6687336.411384217], [137543.4615111559, 6687412.810114025], [137465.77471592667, 6687366.676931386], [137272.31404958677, 6687542.685950413], [137318.51163960804, 6687715.104394733], [137192.74279108626, 6687769.784158217], [136976.0, 6687735.0], [136974.7619047619, 6687765.952380952], [136815.88249938108, 6687813.541984967], [136559.57674447252, 6688057.664567693], [136400.5585879387, 6688135.5628420245], [136355.0, 6688233.333333333], [136398.49679117984, 6688225.815369425], [136440.38675825493, 6688315.787538417], [136413.9655172414, 6688406.206896552], [136474.18032786885, 6688481.4754098365], [136509.0, 6688586.0], [136222.77259874484, 6688805.125110108], [136170.970764847, 6689053.912790343], [136060.06622560733, 6689118.074354387], [135860.0, 6689165.0], [135762.01903991305, 6689067.019039913], [135579.3134532314, 6689042.336075417], [135406.41000766619, 6688928.056578238], [135315.1121347099, 6689000.53954332], [135216.2615855218, 6688967.83603857], [135013.02519876027, 6689020.634011589], [134856.15508346574, 6689001.155083465], [134825.10926052954, 6688970.109260529], [134579.46035986234, 6688961.19744741], [134491.4077669903, 6689096.990291262], [134430.0, 6689045.0], [134357.0398920072, 6689065.476606028], [133919.9585891657, 6688695.410736804], [133845.0, 6688810.0], [133817.96, 6688924.4], [133865.62274664044, 6688979.632907243], [133785.0, 6689080.0], [133825.0, 6689120.0], [133763.9394114215, 6689209.545835202], [133765.98786493187, 6689384.55486793], [133594.24378435704, 6689597.334256409], [133426.9228450874, 6689977.307615029], [133390.94936708861, 6689965.316455696], [133137.88690755225, 6690204.535916524], [133187.5405814367, 6690462.371103381], [133222.8260869565, 6690497.391304348], [133320.30369886977, 6690453.708658801], [133390.79914944796, 6690579.744178426], [133291.24446427208, 6690742.690971063], [133095.8400838801, 6690660.84008388], [132922.32712770512, 6690725.683510678], [132840.0, 6690585.0], [132640.05767756284, 6690791.13900331], [132635.0, 6690726.666666667], [132494.89446915212, 6690730.836813049], [132413.89001251786, 6690821.872113828], [132265.0, 6690720.0], [132227.93527470672, 6690760.906883455], [132068.57142857142, 6690677.040816327], [132028.0826093601, 6690526.168253208], [132259.7148797285, 6690263.801371781], [132176.15942028986, 6690196.434782608], [132155.0, 6690050.0], [132086.5625, 6689974.6875], [132110.12878300063, 6689937.654769571], [132048.11734077052, 6689780.55280066], [131881.23011587776, 6689886.887880099], [131854.67213114753, 6689875.409836066], [131745.76923076922, 6690011.538461538], [131775.0, 6690040.0]]]}}]}