{"type": "FeatureCollection", "crs": {"type": "name", "properties": {"name": "EPSG:25833"}}, "features": [{"type": "Feature", "properties": {"station": "16.66.0", "name": "Grosettjern", "series": ["1001.1"], "nodes": 62075, "fine_vertices": 2186, "fine_area_m2": 6207450.0, "reduced_vertices": 115, "reduced_area_m2": 6207450.0000000205, "outline_tolerance_m": 20.0, "windows": [[478, 443], [1085, 1207]], "placed_on": "number", "distance_m": 10.1845628515177, "uncertainty_m": 30.0, "elvid": "016-35-10576", "objectid": 12014607, "lake": true, "confluence_near": true, "reach_up_m": 1000.0, "reach_down_m": 130.0, "reach_fork": false, "seeded_by": "lake", "lake_rule": "lake_line", "lake_number": 12423, "lake_name": "Grosettj\u00f8nn", "lake_distance_m": 1.9532269183530528, "node_offset_m": null, "chain_nodes": null, "lowered_nodes": null, "lowered_max_m": null, "direction_ok": null, "end_extended_m": null, "end_closed": null, "downstream_checked": null, "a0": null, "area_up": null, "area_down": null, "swing": null, "largest_step": null, "largest_step_at_m": null, "checked_up_m": null, "checked_down_m": null, "drains": null, "monotone": null, "causes": []}, "geometry": {"type": "Polygon", "coordinates": [[[125545.0, 6653970.0], [125460.55555555556, 6653927.301587301], [125501.97209578469, 6653825.700376014], [125459.54545454546, 6653765.454545454], [125500.0, 6653725.0], [125560.0, 6653745.0], [125612.97014925373, 6653621.502487563], [125605.12921868256, 6653519.114990565], [125518.81457197983, 6653506.067584624], [125431.84210526316, 6653315.263157895], [125509.12031438937, 6653265.849455864], [125437.44342558974, 6653124.80872917], [125401.13841321712, 6653147.911918862], [125276.92992282395, 6653081.775930363], [125187.22222222222, 6653262.222222222], [125230.60171280423, 6653369.416802365], [125130.11660197862, 6653439.672644127], [125081.44209897856, 6653385.470178232], [125000.0, 6653435.0], [124930.0, 6653395.0], [124888.57142857143, 6653436.428571428], [124570.82686726793, 6653323.6695906175], [124532.00361010831, 6653205.451263538], [124405.12093755895, 6653135.7866040915], [124341.27583749109, 6653191.414825374], [124225.0, 6653060.0], [124240.28846153847, 6652990.865384615], [124181.25935162095, 6652936.558603492], [124284.55452479898, 6652897.692805764], [124314.16165960567, 6652830.789781195], [124438.74904491044, 6652735.740725019], [124409.4557329463, 6652690.885341074], [124447.19473728599, 6652520.065878801], [124403.96168401136, 6652502.343897824], [124283.57142857143, 6652567.142857143], [124247.87204837636, 6652489.263820283], [123943.51851851853, 6652270.0617283955], [123849.01734104047, 6652347.601156069], [123781.95609587885, 6652349.515873424], [123763.278276668, 6652405.2328259805], [123586.93548387097, 6652228.064516129], [123539.16666666667, 6652131.166666667], [123585.3267136451, 6652121.934657271], [123902.7931267659, 6651795.903482222], [123885.0, 6651770.0], [124023.08050300211, 6651677.961011214], [124145.92425290277, 6651642.983322159], [124194.9245505839, 6651704.488256134], [124366.30647950314, 6651653.362534199], [124511.08142178622, 6651717.546289776], [124570.30758956722, 6651635.462347533], [124517.5, 6651502.5], [124542.22222222222, 6651527.222222222], [124660.0, 6651465.0], [124693.06784660766, 6651539.916420845], [124810.0, 6651575.0], [124873.52732094309, 6651524.903328825], [124999.61538461539, 6651685.384615385], [125052.77637435342, 6651593.8872849755], [125126.66666666667, 6651678.333333333], [125200.0, 6651605.0], [125251.66798408095, 6651650.589397718], [125391.54488754013, 6651522.421554738], [125460.13157894737, 6651510.921052632], [125460.01041305103, 6651441.008330441], [125653.64496618179, 6651524.197665816], [125767.39283865041, 6651685.217546446], [125822.51980985217, 6651895.288947088], [125940.0, 6651985.0], [125976.66666666667, 6651961.666666667], [126288.6858511357, 6652210.622934276], [126343.33333333333, 6652168.333333333], [126461.10253964513, 6652184.203210358], [126504.17645595453, 6652261.228058432], [126657.16574558835, 6652386.639108431], [126815.53588755094, 6652315.30963058], [126795.0, 6652219.120074818], [126929.97804610318, 6652129.763995609], [126963.0, 6652148.0], [127017.95864880606, 6652040.938976251], [127088.57142857143, 6652015.476190476], [127375.4938908569, 6652226.180286403], [127335.98892697471, 6652306.900186729], [127404.05275988913, 6652391.4006166505], [127575.5488250552, 6652391.9010693785], [127700.04093593854, 6652623.0948631065], [127700.4414871145, 6652734.558512885], [127675.0, 6652760.0], [127711.20193052184, 6652849.81188521], [127652.8083322771, 6652932.126638923], [127554.09270976877, 6652887.026671571], [127306.34617532746, 6653136.341888944], [127245.74374562473, 6653450.089209943], [127376.4952132281, 6653618.504786772], [127347.94919570001, 6653647.0508043], [127452.78712702208, 6653769.2619616855], [127392.22222222222, 6653832.777777778], [127320.0, 6653815.0], [127134.05508148042, 6653999.775532564], [127072.61134628608, 6653960.480199884], [126687.95074429833, 6654037.745156696], [126602.56369103493, 6653964.486905134], [126495.24342139513, 6653953.680553338], [126353.01501709432, 6653840.238737179], [126270.85714285714, 6653901.857142857], [126213.24275867424, 6653849.34783069], [126125.0, 6654001.818181818], [126031.47342995169, 6654096.473429952], [126084.50993794267, 6654196.6957136765], [125920.23794097647, 6654275.654937443], [125776.66666666667, 6654255.0], [125794.17332911713, 6654202.99507098], [125703.9492526767, 6654127.737719223], [125627.44840455808, 6654148.440684917], [125557.06370520727, 6654054.445936451], [125545.0, 6653970.0]]]}}]}