{"type": "FeatureCollection", "crs": {"type": "name", "properties": {"name": "EPSG:25833"}}, "features": [{"type": "Feature", "properties": {"station": "168.3.0", "name": "Laks\u00e5 bru", "series": ["1001.1"], "nodes": 267928, "fine_vertices": 3784, "fine_area_m2": 26792750.0, "reduced_vertices": 138, "reduced_area_m2": 26792749.99999946, "outline_tolerance_m": 20.0, "windows": [[508, 453], [1159, 1186], [2358, 2204]], "placed_on": "number", "distance_m": 10.55999063483601, "uncertainty_m": 30.0, "elvid": "168-206-1", "objectid": 11500985, "lake": false, "confluence_near": false, "reach_up_m": 1000.0, "reach_down_m": 130.0, "reach_fork": false, "seeded_by": "river", "lake_rule": null, "lake_number": null, "lake_name": null, "lake_distance_m": null, "node_offset_m": 3.4761916842515452, "chain_nodes": 124, "lowered_nodes": 116, "lowered_max_m": 0.21541976928710938, "direction_ok": true, "end_extended_m": 0.0, "end_closed": true, "downstream_checked": "whole", "a0": 26.7928, "area_up": 26.791600000000003, "area_down": 26.8074, "swing": 0.0005449225164970254, "largest_step": 0.01389999999999958, "largest_step_at_m": 30.0, "checked_up_m": 24.142135623731065, "checked_down_m": 30.0, "drains": true, "monotone": true, "causes": []}, "geometry": {"type": "Polygon", "coordinates": [[[511935.0, 7526240.0], [511921.0912052117, 7526161.074918567], [511785.0715137068, 7525989.69010727], [511903.68482791074, 7525934.515257242], [512039.5785176923, 7525678.550798586], [511815.5376709008, 7525469.498206148], [511590.0, 7525465.0], [511286.3157894737, 7525562.368421053], [511225.42965779465, 7525629.053231939], [510999.77097583027, 7525514.678463974], [510334.2920251868, 7525632.510690659], [509940.0, 7525535.0], [509774.2, 7525450.8], [510036.53846153844, 7525188.461538462], [509975.0, 7525120.0], [510103.597359736, 7524940.313531353], [510190.0, 7524965.0], [510315.38746908493, 7524839.612530915], [510255.1976284585, 7524803.9130434785], [510325.0, 7524720.0], [510209.28571428574, 7524534.761904762], [510197.214508782, 7524423.10744999], [510135.0, 7524280.0], [510196.25, 7524194.25], [510135.0, 7524120.0], [510204.52681736305, 7524067.854886978], [510106.44148380205, 7523893.583133541], [510165.0, 7523800.0], [510141.1491814394, 7523680.745907197], [509857.74796643783, 7523420.526984265], [509641.61798513884, 7523333.183780857], [509039.9356216843, 7523326.834925354], [508744.1107209413, 7523150.685098869], [508594.75, 7523260.25], [508471.0833333333, 7523203.916666667], [508671.0875378394, 7523003.912462161], [508778.93763874704, 7522573.087816341], [508856.6666666667, 7522508.333333333], [508965.23334043653, 7522531.807208743], [509162.99319727893, 7522453.775510204], [509237.39304478356, 7522510.651738804], [509270.0, 7522495.0], [509300.0, 7522545.0], [509484.58825752727, 7522340.747236339], [509426.26076517464, 7522292.818871148], [509709.1687458757, 7521985.652271866], [509677.7645896552, 7521846.407871929], [509705.0, 7521780.0], [509641.56034682976, 7521705.282186266], [509817.85714285716, 7521502.857142857], [509795.0, 7521480.0], [509972.3248734217, 7521351.77651214], [509980.0, 7521245.0], [510034.0470588235, 7521253.305882353], [510158.16007120395, 7521184.848929336], [510066.75001144904, 7521009.7360802805], [510237.58116077824, 7520940.809127487], [510343.68352913606, 7520850.751395615], [510298.2964052633, 7520759.884236495], [510463.5320028001, 7520591.294821566], [510463.7311793704, 7520485.429933905], [510577.37805281376, 7520300.779896078], [510670.64839576767, 7520331.964509224], [510955.61367287126, 7520021.8073681565], [510993.79619332805, 7519901.738831859], [510790.5594727161, 7519677.962906192], [510827.5, 7519642.5], [510907.2705951091, 7519697.793115523], [511055.9745762712, 7519548.6723163845], [511117.5, 7519535.0], [511186.40152626944, 7519617.618139125], [511264.1076805365, 7519649.632372445], [511262.2145692472, 7519719.712974684], [511488.5, 7519806.5], [511553.40067340067, 7519741.599326599], [511733.4285714286, 7519731.285714285], [511800.0, 7519685.0], [511880.0, 7519705.0], [511910.0, 7519675.0], [512466.55555555556, 7520231.555555556], [512604.44444444444, 7520169.444444444], [512640.0, 7520205.0], [512691.49122807017, 7520160.350877193], [512772.2722063037, 7520217.724928367], [512795.0, 7520320.0], [513254.5833333333, 7520779.583333333], [513191.6666666667, 7520876.666666667], [513295.0, 7520980.0], [513280.71428571426, 7521035.714285715], [513354.0926587908, 7521211.340009573], [513465.39685941103, 7521331.096299242], [513570.0, 7521285.0], [513718.35728704534, 7521426.85140958], [513680.15063657064, 7521524.908413231], [513779.59660968435, 7521732.718225624], [513682.12677617656, 7521810.466290437], [513616.25315342186, 7521802.546392496], [513923.55174772703, 7522455.838931062], [513866.22752494423, 7522602.018175579], [513886.8727283103, 7522676.781816825], [513765.1902962918, 7522827.387523804], [513825.0, 7522930.0], [513758.7041435873, 7523000.67199493], [514043.5604018832, 7523296.657449414], [514087.7190135395, 7523533.644947291], [514369.1961516109, 7523783.350484715], [514329.3152582015, 7523963.839478058], [514378.8105321623, 7524056.189467838], [514372.009670413, 7524207.123581657], [514222.52079459885, 7524502.54020459], [514288.04329189885, 7524837.608229747], [514338.10658550024, 7524946.012349889], [514372.2412592768, 7525179.540093847], [514515.0, 7525300.0], [514485.56091736903, 7525340.590250295], [514466.65675282007, 7525824.975903786], [514341.5866658292, 7526127.126946237], [514089.57609512843, 7526397.876018121], [513801.1591514648, 7526898.033753075], [513675.60413259995, 7527009.463832318], [513677.1545827633, 7527051.224350206], [513654.14308268635, 7527040.384053893], [513169.17937101383, 7527399.032926077], [513044.92317649233, 7527654.3845821945], [512850.0, 7527675.0], [512789.561049445, 7527719.455095863], [512796.27842328715, 7527819.160279533], [512447.04488858563, 7527880.438994567], [512302.62295081967, 7527718.1147540985], [512194.22614416754, 7527424.433280721], [512066.73981191224, 7527341.394984326], [511992.2771461768, 7527407.977806539], [511794.01812750835, 7527194.254367408], [511575.0, 7527170.0], [511520.7694521859, 7527115.769452186], [511280.057917931, 7527086.488158843], [511544.5830609152, 7526692.71380775], [511555.6791333966, 7526619.082443747], [511935.0, 7526240.0]]]}}]}