{"type": "FeatureCollection", "crs": {"type": "name", "properties": {"name": "EPSG:25833"}}, "features": [{"type": "Feature", "properties": {"station": "172.8.0", "name": "Rauvatn", "series": ["1001.1"], "nodes": 199944, "fine_vertices": 3526, "fine_area_m2": 19994550.0, "reduced_vertices": 174, "reduced_area_m2": 19994549.999999724, "outline_tolerance_m": 20.0, "windows": [[568, 507], [1307, 1209], [2227, 2211]], "placed_on": "number", "distance_m": 88.7637723930068, "uncertainty_m": 88.7637723930068, "elvid": "172-45-86", "objectid": 12051175, "lake": true, "confluence_near": false, "reach_up_m": 1000.0, "reach_down_m": 188.76377239300678, "reach_fork": false, "seeded_by": "lake", "lake_rule": "lake_line", "lake_number": 1017, "lake_name": "R\u00f8vatnet", "lake_distance_m": 1.1716986406590886, "node_offset_m": null, "chain_nodes": null, "lowered_nodes": null, "lowered_max_m": null, "direction_ok": null, "end_extended_m": null, "end_closed": null, "downstream_checked": null, "a0": null, "area_up": null, "area_down": null, "swing": null, "largest_step": null, "largest_step_at_m": null, "checked_up_m": null, "checked_down_m": null, "drains": null, "monotone": null, "causes": []}, "geometry": {"type": "Polygon", "coordinates": [[[578930.0, 7568775.0], [578860.4126897063, 7568730.401672468], [578669.6197430145, 7568785.064069558], [578596.6548414445, 7568735.78394663], [578620.7993730408, 7568575.510971786], [578594.0193336108, 7568531.591707122], [578336.1099303773, 7568720.123515201], [578167.6358695652, 7568584.5380434785], [578106.25, 7568638.75], [578033.9565061788, 7568571.525583718], [578114.6205978304, 7568489.7923817905], [578117.9617666766, 7568411.470018116], [578195.2701236991, 7568312.461069648], [578050.2739726028, 7568218.97260274], [578015.7489194144, 7568222.425108058], [577840.1639822387, 7568060.200230944], [577838.2989197552, 7567968.901392253], [577736.0705289673, 7567951.171284635], [577660.0, 7567815.0], [577615.0585276353, 7567859.941472365], [577601.3541136185, 7567784.593139358], [577519.362080861, 7567825.461574172], [577261.1317991011, 7567658.864127956], [577050.8062980241, 7567705.638241576], [576971.8192481793, 7567580.628420445], [577050.7586812794, 7567498.823336708], [577009.2575819106, 7567433.400692127], [576855.0, 7567344.121621622], [576833.9739811213, 7567251.664893554], [576983.258160614, 7567125.784898471], [577015.0, 7567050.0], [576961.25, 7566996.25], [577110.6456921538, 7566968.769229597], [577210.0430288968, 7566822.459660409], [577280.0, 7566805.0], [577303.5, 7566717.959930314], [577217.3900135987, 7566689.625444655], [577135.177657774, 7566741.938517328], [577083.1865284974, 7566588.2590673575], [577155.0, 7566534.0], [577122.3734393521, 7566470.378206736], [577211.5053763441, 7566333.494623655], [577195.3846153846, 7566278.076923077], [577254.413580247, 7566245.277777778], [577153.6566313932, 7566142.832484384], [577075.0, 7566124.285714285], [577075.0, 7566081.538461538], [577203.2995901408, 7566054.651872643], [577300.8645023991, 7566065.351542894], [577295.7142857143, 7566155.0], [577350.0, 7566155.0], [577484.9660786975, 7566266.044776119], [577559.6720895176, 7566250.539755005], [577684.4879794026, 7566341.56141085], [577757.9475982533, 7566348.144104804], [577790.4283618272, 7566494.04380819], [577864.111525533, 7566462.493208086], [577935.5555555555, 7566510.555555556], [577999.3150784639, 7566491.682736775], [578218.7043367989, 7566123.534164848], [578289.4179150409, 7566070.068077386], [578259.6768060742, 7565991.181427401], [578521.6447749091, 7565733.016199412], [578592.6833693131, 7565609.484830878], [578671.9444444445, 7565599.166666667], [578703.765697883, 7565493.110871905], [578785.0, 7565420.0], [578738.1572223713, 7565354.926201631], [578936.4685665765, 7565291.544520176], [579154.4946854839, 7565068.224210684], [578995.0, 7564923.259907969], [579208.3121262833, 7564745.0], [579260.0, 7564745.0], [579331.6484028911, 7564663.116110981], [579847.2164948453, 7564579.226804123], [579921.5086531227, 7564516.508653123], [579758.9682539683, 7564353.968253968], [579786.3948497854, 7564178.605150214], [579839.6268656716, 7564125.373134328], [579773.0, 7564058.0], [579795.0, 7563980.0], [579742.3333333334, 7563927.333333333], [579883.7477971497, 7563634.617269468], [580155.77486911, 7563378.408376964], [580245.0, 7563340.0], [580262.5268726704, 7563223.104882262], [580462.7788340155, 7563058.084129861], [580513.1818181818, 7563167.2727272725], [580503.3920106371, 7563265.260434733], [580647.9719229792, 7563319.831900039], [580642.2277345987, 7563267.420916182], [580780.0, 7563175.0], [580902.5, 7563152.5], [580944.6875, 7563177.8125], [580921.3983346467, 7563257.303404366], [580987.304347826, 7563272.304347826], [581057.2727272727, 7563237.7272727275], [581157.8768922278, 7563267.885469255], [581205.0596570916, 7563173.02060009], [581292.5982658938, 7563214.630783298], [581318.4498480243, 7563187.928064843], [581403.4782608695, 7563218.043478261], [581471.7589233174, 7563139.861600136], [581624.6897164594, 7563276.553284195], [581595.0, 7563400.0], [581746.2923176119, 7563598.094262295], [581829.5913273293, 7563564.676038687], [581966.134891418, 7563684.008028971], [582121.9666048237, 7563540.899814472], [582140.0, 7563595.0], [582195.0, 7563555.0], [582243.0458148596, 7563589.280532043], [582361.8569806154, 7563528.3227842925], [582455.5571900873, 7563588.404554639], [582578.1076391009, 7563616.9729154715], [582608.9697861989, 7563503.326078607], [582722.4495079312, 7563571.018694434], [582781.0560055645, 7563461.292984124], [582907.1639586411, 7563475.0], [582936.4917612274, 7563515.937984229], [582896.9509787554, 7563669.778606072], [582744.8122139721, 7563714.3958131205], [582686.3288450323, 7563796.15259574], [582638.1152820553, 7563803.671134538], [582423.5720534081, 7564025.713608808], [582497.1666957933, 7564117.716300833], [582352.2350230415, 7564341.198156682], [582166.7606053159, 7564515.246675923], [582155.0, 7564730.0], [582086.6666666666, 7564745.0], [582167.4545454546, 7564847.545454546], [582066.8133333334, 7564948.1866666665], [582225.5400898177, 7565017.232306772], [582374.5427936256, 7565175.227310651], [582374.7067252139, 7565363.301756328], [582209.0790551102, 7565604.820145267], [582166.066222602, 7565857.771845407], [582331.778514126, 7565952.792315866], [582470.8180316399, 7566076.13856793], [582355.8033878658, 7566347.841285288], [582375.0, 7566430.0], [582328.070274333, 7566476.091694851], [582333.5714285715, 7566538.571428572], [582273.4236634559, 7566626.566404337], [582141.2304365857, 7567135.662525803], [582094.2255053623, 7567179.2491597], [582105.3204474477, 7567418.745057798], [581900.2154646383, 7567547.383494983], [581886.9535739772, 7567479.334264252], [581691.6203676157, 7567545.862447348], [581666.7251080377, 7567664.157139148], [581357.1392016597, 7567882.989358305], [581316.4285714285, 7567971.428571428], [581368.0944096902, 7567988.0546024265], [581359.5529826806, 7568084.99915177], [581259.3384576772, 7568079.808195216], [581070.6606606607, 7568213.528528528], [580906.1118117317, 7568257.072910668], [580897.7833013219, 7568402.405566226], [580836.7497294763, 7568418.254588039], [580747.8443904545, 7568520.143349533], [580615.0, 7568560.0], [580579.0802253206, 7568657.365555405], [580279.5561621174, 7568988.575151655], [580180.9424120869, 7569185.167321358], [579939.4070880223, 7569245.592911977], [579739.2943764952, 7569336.959866092], [579743.3454344901, 7569268.297029863], [579676.8841579144, 7569201.559721262], [579675.4545454546, 7569040.454545454], [579542.2755062311, 7569068.209487286], [579215.3727716742, 7568655.834065381], [579074.4162436548, 7568731.954314721], [578960.0, 7568675.0], [578930.0, 7568775.0]]]}}]}