{"type": "FeatureCollection", "crs": {"type": "name", "properties": {"name": "EPSG:25833"}}, "features": [{"type": "Feature", "properties": {"station": "177.4.0", "name": "Sneisvatn", "series": ["1001.1"], "nodes": 291220, "fine_vertices": 4530, "fine_area_m2": 29121950.0, "reduced_vertices": 178, "reduced_area_m2": 29121949.999999885, "outline_tolerance_m": 20.0, "windows": [[482, 525], [1154, 1165], [2514, 2236]], "placed_on": "number", "distance_m": 152.03959131098122, "uncertainty_m": 152.03959131098122, "elvid": "177-261-1", "objectid": 11040380, "lake": true, "confluence_near": false, "reach_up_m": 1000.0, "reach_down_m": 252.03959131098122, "reach_fork": false, "seeded_by": "lake", "lake_rule": "lake_line", "lake_number": 47682, "lake_name": "Sneisvatnet", "lake_distance_m": 5.920925106812981, "node_offset_m": null, "chain_nodes": null, "lowered_nodes": null, "lowered_max_m": null, "direction_ok": null, "end_extended_m": null, "end_closed": null, "downstream_checked": null, "a0": null, "area_up": null, "area_down": null, "swing": null, "largest_step": null, "largest_step_at_m": null, "checked_up_m": null, "checked_down_m": null, "drains": null, "monotone": null, "causes": []}, "geometry": {"type": "Polygon", "coordinates": [[[527990.0, 7592735.0], [527833.1273631656, 7592648.097197289], [527753.4934853972, 7592574.985557687], [527466.4788732395, 7592483.309859155], [527450.9285714285, 7592343.357142857], [527407.5, 7592302.5], [527243.3014349985, 7592479.7499393], [527089.6666666666, 7592414.666666667], [526921.3333333334, 7592446.333333333], [526882.56653225, 7592407.5665322505], [526560.5978312934, 7592413.376407019], [526242.5845585375, 7592282.155310322], [525790.6659140475, 7592123.111507377], [525782.1742333494, 7592138.841466673], [525431.6692913385, 7591987.015748031], [524974.2564454367, 7591982.599039835], [524968.2577642399, 7591888.3159330655], [524879.7135637129, 7591677.407966639], [524925.0009644431, 7591636.235715922], [524933.8249700974, 7591203.237455146], [524896.5272530428, 7591138.472746957], [524952.5, 7591082.5], [524915.0, 7591040.0], [524970.0, 7590985.0], [525031.3621588015, 7590736.063580518], [524890.2884937407, 7590542.177841781], [524835.0, 7590280.0], [524897.7146554859, 7590255.755060408], [524975.979855776, 7589883.634222945], [524914.7763769311, 7589602.236529661], [525184.1483668996, 7589168.117056767], [525144.819924847, 7589087.167095732], [525284.7304906921, 7588869.73477785], [524903.4564735868, 7588494.525790772], [524832.7777777778, 7588295.555555556], [524731.5217391305, 7588206.956521739], [524806.9070741805, 7588024.764478008], [524999.1842894803, 7587890.018534758], [525136.5931971027, 7587665.079646802], [525114.4839325519, 7587452.893885829], [525057.4757281553, 7587375.388349514], [524879.7670292573, 7587464.686937758], [524784.2105263158, 7587406.052631579], [524767.0, 7587320.0], [524657.2246531176, 7587213.9351718575], [524676.8544609388, 7587154.615254091], [524525.4865397416, 7586881.908395762], [524475.3170731707, 7586929.682926829], [524424.0808825893, 7586883.368344611], [524454.2307692308, 7586742.307692308], [524428.4311512415, 7586704.9661399545], [524453.5714285715, 7586641.428571428], [524375.0757814102, 7586468.084884992], [524495.0, 7586160.0], [524418.2, 7586123.2], [524375.0, 7586040.0], [524402.7777777778, 7586012.222222222], [524365.0, 7585960.0], [524405.0, 7585920.0], [524201.99564026727, 7585615.755986417], [524239.82280173444, 7585542.0337128965], [524032.3337978414, 7585197.652914254], [523951.0470588235, 7584885.082352941], [523979.1379310345, 7584848.9655172415], [523939.4755244755, 7584751.048951049], [523979.77927158243, 7584649.904354582], [523808.94444639375, 7584248.131793577], [524110.0, 7583955.0], [524150.8, 7584009.4], [524310.0, 7584055.0], [524499.5027519453, 7584004.77794648], [524652.071002402, 7584015.0622897595], [524580.5677154582, 7583896.456908344], [524583.7899509439, 7583801.210049056], [524659.6376811594, 7583725.362318841], [524591.0, 7583656.0], [524629.8252120658, 7583598.63288828], [524555.0, 7583260.0], [524580.7142857143, 7583242.857142857], [524545.0, 7583150.0], [524618.6885245901, 7583097.950819672], [524738.0814360302, 7582725.724864074], [524711.7459643161, 7582613.254035684], [524750.0, 7582575.0], [524784.0, 7582609.0], [524840.0, 7582565.0], [524898.1878534546, 7582601.815834767], [525029.4833035495, 7582486.684187384], [525167.6316371749, 7582669.338819493], [525329.3987936715, 7582497.86720861], [525375.5672807111, 7582797.058747056], [525261.2707186741, 7582890.100746493], [525319.5045622565, 7583195.835422835], [525263.0327620204, 7583293.094190808], [525285.0, 7583360.0], [525152.2968980798, 7583489.9113737075], [525210.9294117647, 7583562.564705882], [525213.6630520262, 7583627.99825688], [525281.3842212596, 7583771.132948786], [525384.9980776624, 7583765.999615532], [525385.0542907228, 7583882.978994179], [525818.7488082758, 7584340.227300235], [525888.9321844656, 7584318.620703289], [526020.0352993258, 7584330.849040202], [526043.5318409532, 7584494.521821546], [525975.0, 7584630.0], [526082.2377274712, 7584813.813704698], [525921.6038067405, 7584878.542743065], [525923.1582733813, 7585033.597122302], [525971.2384072837, 7585128.961650755], [525914.985028279, 7585264.9887712095], [525975.0, 7585310.0], [525968.7102281196, 7585475.892053076], [525946.7030990709, 7585497.506506547], [525993.6353638838, 7585662.025579505], [526345.0, 7586088.991054761], [526345.0, 7586130.0], [526435.0, 7586175.555555556], [526435.0, 7586240.0], [526627.6963506043, 7586486.170183783], [526601.497461929, 7586526.497461929], [526686.7174819125, 7586611.717481912], [526767.879049339, 7586834.086809677], [527034.5519466256, 7587113.679273299], [527047.1772311828, 7587368.60764395], [527202.2249375173, 7587679.71648568], [527326.7916476815, 7587832.601213782], [527506.6666666666, 7587948.333333333], [527594.5033112583, 7587826.721854305], [527729.5624503677, 7587927.912412645], [528004.5664500806, 7587824.485330582], [528144.0552291422, 7587578.6039953], [528110.4166666666, 7587545.416666667], [528120.0, 7587435.0], [528261.4285714285, 7587503.571428572], [528324.5454545454, 7587440.454545454], [528565.5692207541, 7587467.306985953], [528698.3183787178, 7587560.348914933], [528778.8002690985, 7587537.567648378], [528738.9965050468, 7587683.3968317695], [529153.8483222494, 7588139.300071666], [529136.9834710744, 7588198.016528926], [529379.3747151878, 7588448.521146627], [529315.0, 7588510.0], [529337.0209059233, 7588587.073170732], [529222.8607633848, 7588702.012551532], [529245.0, 7588730.0], [528798.0219333875, 7589201.137286759], [528848.3333333334, 7589286.666666667], [528749.4101330367, 7589381.61226798], [528790.0, 7589545.0], [528864.5859739142, 7589523.643607113], [529065.4997586834, 7589694.683442763], [529121.588810014, 7590041.558190082], [529089.6117802607, 7590095.70367036], [529150.2971184338, 7590230.9554667035], [529222.5, 7590297.5], [529270.0, 7590265.0], [529644.9098083427, 7590549.627959413], [529721.0, 7590684.0], [529844.3034710835, 7590739.222946203], [530025.6782538632, 7590737.803860115], [530163.717948718, 7590952.456347951], [530175.0, 7591360.0], [530104.602692106, 7591447.996634867], [529827.734391925, 7591563.783405175], [529676.2883138035, 7591764.985958738], [529521.3301542811, 7591861.28986868], [529497.8563492715, 7591927.376079256], [529259.375, 7592159.375], [529123.499784988, 7592429.492390915], [528995.0382045787, 7592571.556982032], [529000.0338735611, 7592646.30242686], [528840.0, 7592875.0], [528619.0877662929, 7592681.068140824], [528404.3216974348, 7592657.009059542], [528107.619047619, 7592753.095238095], [528050.0, 7592715.0], [527990.0, 7592735.0]]]}}]}