{"type": "FeatureCollection", "crs": {"type": "name", "properties": {"name": "EPSG:25833"}}, "features": [{"type": "Feature", "properties": {"station": "178.1.0", "name": "Langvatn", "series": ["1001.1"], "nodes": 189452, "fine_vertices": 3336, "fine_area_m2": 18945150.0, "reduced_vertices": 120, "reduced_area_m2": 18945150.00000018, "outline_tolerance_m": 20.0, "windows": [[482, 720], [1250, 1334], [2309, 2134]], "placed_on": "number", "distance_m": 222.25724084161118, "uncertainty_m": 222.25724084161118, "elvid": "178-527-1", "objectid": 11160737, "lake": true, "confluence_near": false, "reach_up_m": 1000.0, "reach_down_m": 322.25724084161106, "reach_fork": false, "seeded_by": "lake", "lake_rule": "lake_line", "lake_number": 47429, "lake_name": "Langvatnet", "lake_distance_m": 1.1971474486398181, "node_offset_m": null, "chain_nodes": null, "lowered_nodes": null, "lowered_max_m": null, "direction_ok": null, "end_extended_m": null, "end_closed": null, "downstream_checked": null, "a0": null, "area_up": null, "area_down": null, "swing": null, "largest_step": null, "largest_step_at_m": null, "checked_up_m": null, "checked_down_m": null, "drains": null, "monotone": null, "causes": []}, "geometry": {"type": "Polygon", "coordinates": [[[525525.0, 7613680.0], [525551.6993464052, 7613633.62745098], [525495.0, 7613410.0], [526085.0, 7612820.0], [526065.2399882547, 7612680.874460733], [526147.3913043478, 7612630.652173913], [526376.6096505047, 7612586.757619982], [526433.9130434783, 7612516.739130435], [526426.9427883717, 7612417.673796918], [526510.0, 7612335.0], [526580.1388888889, 7612349.027777778], [526645.0, 7612290.0], [526590.7142857143, 7612235.714285715], [526745.6825091597, 7612006.678348298], [526736.0854092527, 7611970.231316726], [526843.3333333334, 7611941.666666667], [526940.0, 7611845.0], [527002.5, 7611862.5], [527093.6924182037, 7611739.12202243], [527000.2983545421, 7611689.089847885], [527163.1732777847, 7611517.657678368], [526940.9925750574, 7611460.666833642], [526776.7056513348, 7611299.557960035], [526697.0, 7610974.0], [526868.7724445736, 7610798.779793277], [526839.7432635338, 7610687.693935283], [526878.3707597351, 7610568.850688751], [526791.3333333334, 7610526.333333333], [526640.0, 7610525.0], [526452.2256446601, 7610460.543213354], [526299.0643717387, 7610586.786834961], [526102.9789221588, 7610541.567164954], [525745.157109191, 7610201.406127258], [525634.7392221314, 7610218.424027665], [525554.8717948718, 7610118.58974359], [525543.7689630702, 7609997.188920033], [525670.7037058079, 7609731.54862275], [525643.4332706127, 7609580.709028077], [525686.4960480084, 7609393.678450358], [525900.7560435947, 7609002.934558702], [525977.0588235294, 7608978.823529412], [526043.8839461475, 7608814.195983823], [526091.7897521561, 7608502.845601655], [526045.0, 7608406.666666667], [526050.8658058565, 7608206.52319832], [525983.5556713244, 7608116.629644243], [525941.3347534019, 7607854.114971072], [525803.9383490073, 7607703.715778475], [525827.957670981, 7607516.194234946], [525782.5185745573, 7607453.292660683], [525819.894542703, 7607403.697626028], [525790.8666666667, 7607225.333333333], [525826.3903743315, 7607136.524064171], [526043.1956231552, 7606967.777905206], [526196.0918815054, 7606946.142854686], [526291.0009938946, 7606981.981399972], [526436.2324281974, 7606954.151834092], [526672.6588477062, 7607075.761174951], [526823.7979090422, 7607291.630371143], [526857.4932502332, 7607453.302412201], [527555.0025223428, 7607719.146779503], [527784.4838598309, 7607944.576212671], [527857.5, 7608072.5], [527915.0, 7608077.826086956], [527915.0, 7608140.0], [528226.6804303024, 7608469.765409182], [528313.2807779077, 7608737.965445354], [528444.6649660065, 7608901.535978728], [528395.0, 7608980.0], [528400.5882352941, 7609094.509997935], [528474.5699809904, 7609189.05618237], [528423.3841268404, 7609357.218449905], [528388.7505656036, 7609807.883514829], [528693.8356718173, 7610182.3385223495], [528867.0424181342, 7610299.3191939555], [528923.125, 7610280.625], [529173.7879694849, 7610391.036848156], [529278.279459356, 7610505.4068055], [529365.4850479892, 7610520.5247084955], [529575.1871357556, 7610636.787470819], [530095.6191092958, 7610517.37548571], [530689.3705736113, 7610694.679117257], [530849.4006157661, 7610879.839137928], [530780.4545454546, 7610976.363636363], [530809.9230769231, 7611065.076923077], [530688.3333333334, 7611186.666666667], [530742.6878341212, 7611362.835193597], [530716.9277978339, 7611389.689530686], [530736.0899143235, 7611476.138468436], [530639.8006348803, 7611613.969936724], [530622.4306711546, 7611781.452784925], [530700.3383992955, 7611880.613820813], [530628.6730293998, 7611948.875859741], [530483.5359690249, 7612180.627320695], [530448.0103214278, 7612490.5925364755], [530370.6113204248, 7612485.275174172], [530011.3120778864, 7612626.470112225], [529920.6038820992, 7612631.920680566], [529826.0472898881, 7612734.239897708], [529684.5875810937, 7612705.342910102], [529421.9845284298, 7612838.807666941], [529306.2039122037, 7612862.182429251], [529135.8086562318, 7613000.415451438], [529019.3103448276, 7613015.689655173], [528611.8307358647, 7613168.141553345], [528555.0, 7613350.0], [528484.8049053963, 7613402.24252355], [528347.0920721932, 7613378.937607164], [527956.244554942, 7613819.537481802], [527812.5619962605, 7613835.844145795], [527550.2849358968, 7614029.238163005], [527082.497163505, 7613611.819584002], [526836.094129523, 7613473.158845866], [526433.2033426184, 7613433.077994429], [526242.0192414226, 7613527.542748458], [526150.0, 7613411.666666667], [526037.7142857143, 7613407.285714285], [525887.5, 7613557.5], [525690.0, 7613595.0], [525580.5084745763, 7613691.101694915], [525525.0, 7613680.0]]]}}]}