{"type": "FeatureCollection", "crs": {"type": "name", "properties": {"name": "EPSG:25833"}}, "features": [{"type": "Feature", "properties": {"station": "18.10.0", "name": "Gjerstad", "series": ["1001.1"], "nodes": 2353144, "fine_vertices": 17040, "fine_area_m2": 235315950.0, "reduced_vertices": 867, "reduced_area_m2": 235315950.00000197, "outline_tolerance_m": 20.0, "windows": [[492, 442], [1195, 1240], [2556, 2809], [4955, 5208]], "placed_on": "number", "distance_m": 21.489479796005355, "uncertainty_m": 30.0, "elvid": "018-23-1", "objectid": 10922640, "lake": false, "confluence_near": false, "reach_up_m": 1000.0, "reach_down_m": 130.0, "reach_fork": false, "seeded_by": "river", "lake_rule": null, "lake_number": null, "lake_name": null, "lake_distance_m": null, "node_offset_m": 6.462730178739188, "chain_nodes": 101, "lowered_nodes": 79, "lowered_max_m": 1.9831733703613281, "direction_ok": true, "end_extended_m": 0.0, "end_closed": true, "downstream_checked": "whole", "a0": 235.3144, "area_up": 235.2958, "area_down": 235.3162, "swing": 7.904318647729241e-05, "largest_step": 0.01660000000001105, "largest_step_at_m": -14.142135623731065, "checked_up_m": 24.142135623731065, "checked_down_m": 24.142135623731065, "drains": true, "monotone": true, "causes": []}, "geometry": {"type": "Polygon", "coordinates": [[[148780.0, 6559025.0], [148688.8917464914, 6558928.862416149], [148680.2371541502, 6558865.71146245], [148865.80625164448, 6558650.2212807285], [148743.57170301737, 6558542.183162503], [148697.21830985916, 6558328.415492957], [148600.0, 6558205.0], [148484.78260869565, 6558327.463768116], [148359.8572984361, 6558266.065836024], [148306.23309254862, 6558288.903621467], [148200.0, 6558185.0], [148171.47690354654, 6558206.376795254], [147825.0, 6557700.0], [147873.9889715929, 6557595.023632301], [147787.26263816582, 6557574.846880216], [147784.36548051875, 6557446.0129815675], [147629.30531692153, 6557372.154155301], [147616.5811366239, 6557264.375702278], [147954.5526314057, 6557009.196844388], [147912.4825174825, 6556936.363636363], [148083.11358373272, 6556764.947307155], [147991.7701887581, 6556781.901264733], [147847.87589498807, 6556678.508353222], [147840.0, 6556605.0], [147563.5010600199, 6556810.196138316], [147431.86424870466, 6556844.733678756], [147293.46666666667, 6556987.044444445], [147234.2857142857, 6556952.142857143], [147167.58230452676, 6557000.092592592], [147113.6171427916, 6556953.047030773], [146983.25, 6556941.75], [146867.62507876553, 6556842.3305714615], [146910.07852964292, 6556766.613610867], [146704.30538957586, 6556774.804467237], [146374.716423812, 6556618.011781817], [146357.08044382802, 6556487.919556172], [146385.0, 6556460.0], [146318.75, 6556356.25], [146274.4716069418, 6556375.377560638], [146128.013796281, 6556252.736392799], [145841.51515151514, 6556233.787878788], [145806.04613523913, 6556268.997997135], [145584.75512439368, 6556170.456110155], [145442.05882352943, 6556273.235294118], [145304.0546250966, 6556293.966245813], [145261.20761874656, 6556239.299375642], [145102.43243243243, 6556272.567567567], [145012.0, 6556363.0], [144960.0, 6556315.0], [144832.1231915983, 6556331.8793459], [144769.42183166763, 6556463.9795963755], [144795.0, 6556570.0], [144748.10344827586, 6556581.724137931], [144661.83763567515, 6556524.171863477], [144664.4629452456, 6556484.18088166], [144538.39579606339, 6556428.81088471], [144339.0119402294, 6556446.76088934], [144341.2605042017, 6556348.277310925], [144060.66294904475, 6556407.163414286], [144034.4578313253, 6556377.369477912], [143984.0411613597, 6556405.038200875], [143991.88064740621, 6556441.176163129], [143835.0, 6556580.0], [143849.77002510361, 6556624.821934541], [143663.57086058325, 6556706.630840136], [143428.79096130113, 6556898.48267701], [143408.8438847538, 6556890.063693682], [143351.92307692306, 6556765.384615385], [143211.54822335026, 6556776.54822335], [143110.0, 6556675.0], [143072.32485630523, 6556700.116762463], [142941.9241792434, 6556646.313064313], [142944.71086109662, 6556533.226287326], [142814.7612142811, 6556553.577809505], [142704.08019681793, 6556698.249156122], [142482.91315095214, 6556469.738583002], [142337.8718472053, 6556472.871847205], [142194.8211398157, 6556284.315650873], [142209.90890148634, 6556236.598206261], [141949.00813185453, 6556061.709433687], [141873.02394050936, 6555964.340272382], [141770.4003837805, 6555937.910539675], [141747.9436262399, 6555866.446540085], [141520.24390243902, 6555706.219512195], [141587.19556913024, 6555572.364220812], [141682.42622480483, 6555569.937836176], [141837.91457423798, 6555432.127537761], [141725.0347961937, 6555235.069592387], [141600.21951219512, 6555157.1707317075], [141625.0, 6555130.0], [141540.7142857143, 6554997.551020408], [141552.7760127085, 6554915.92533757], [141494.6875, 6554896.5625], [141377.3807965306, 6555063.451636703], [141270.61246549664, 6554986.581301755], [141340.56962025317, 6554881.645569621], [141114.24433623234, 6554702.180741563], [141022.3249985339, 6554717.121042152], [140898.17518973257, 6554633.970013642], [140925.0, 6554540.0], [140837.56297041764, 6554447.3574522855], [140920.87141375736, 6554396.076276069], [140889.13020038648, 6554337.546394179], [140821.61154266793, 6554327.107436178], [140751.8925401775, 6554261.5099544255], [140597.14285714287, 6554243.571428572], [140550.0, 6554275.0], [140469.50721555296, 6554149.4718312295], [140262.16794353083, 6554130.027447391], [140276.09392009603, 6554085.68309695], [140544.28958636394, 6553810.10145044], [140665.92641287725, 6553884.781440561], [140798.97792509568, 6553815.595612356], [140769.0, 6553726.0], [140805.0, 6553690.0], [140634.62121212122, 6553717.085858586], [140673.75, 6553571.25], [140570.5796873174, 6553494.625482056], [140527.0600531366, 6553538.40383879], [140438.39440474872, 6553464.493690225], [140441.0, 6553394.0], [140477.5, 6553382.5], [140447.70742358078, 6553352.707423581], [140631.76626062975, 6553156.7662606295], [140602.5, 6553127.5], [141086.30652369373, 6552620.850115117], [141009.2843151525, 6552550.640844489], [141027.8961566621, 6552438.97414925], [141205.41935054603, 6552231.273755657], [141133.0, 6552198.0], [141101.62684990943, 6552231.713578597], [140969.6347826087, 6552173.904347826], [140946.89548387096, 6552130.976774193], [140809.91568296796, 6552086.82757167], [140641.7741497927, 6552206.841456499], [140356.53737238995, 6552082.998723287], [140089.33331346884, 6552160.700577507], [139984.0, 6552111.0], [139910.0, 6552185.0], [139712.5, 6552117.5], [139600.57287889774, 6552162.273386512], [139525.84755151113, 6552151.785621265], [139293.43470625713, 6552209.056758582], [139219.842212184, 6552119.221603464], [138750.70978485735, 6551899.122905975], [138708.20552129412, 6551958.053637698], [138500.0, 6551945.0], [138438.65979381444, 6551895.927835052], [138249.2226894034, 6552119.945656203], [137920.0, 6551985.0], [137850.0, 6552035.0], [137658.10789831268, 6551910.773406695], [137507.25, 6551957.75], [137433.58767148483, 6551871.710803279], [137404.74821266154, 6551745.098715188], [137522.81043888934, 6551685.3521700185], [137375.21489124067, 6551605.256042616], [137295.00015621807, 6551476.911626738], [137328.40206185568, 6551346.597938145], [137272.14285714287, 6551264.285714285], [137303.5185185185, 6551218.518518519], [137255.5409786217, 6551145.933034687], [137157.48628829606, 6551161.077546895], [136958.74062198104, 6551004.440145115], [136993.421751227, 6550876.945612989], [136904.9856479931, 6550774.158733197], [136928.21117029488, 6550669.197207427], [137005.0, 6550650.0], [136957.5, 6550555.0], [136983.57142857142, 6550532.857142857], [136913.85034819308, 6550422.018801497], [137237.78438029083, 6550157.215619709], [137322.6732712632, 6549958.18246038], [137449.74159146842, 6550052.748154225], [137515.59087831277, 6550047.426999732], [137540.97399883936, 6550091.573793707], [137722.7212585328, 6550151.704146226], [137780.0, 6550045.0], [137852.10268948655, 6550093.068459658], [137916.85829849853, 6550018.69616103], [137963.66984094057, 6549882.6220976915], [138041.19194530143, 6549809.331276578], [138115.0, 6549660.0], [138022.71021805576, 6549531.6656367965], [138291.46813820745, 6549237.6593089625], [138307.66666666666, 6549156.666666667], [138455.0, 6549020.0], [138455.0, 6548976.505403837], [138346.67723340617, 6548921.215325855], [138240.38461538462, 6548715.384615385], [138309.5572157691, 6548558.616209081], [138360.0, 6548555.0], [138380.94972067038, 6548496.340782123], [138465.0, 6548440.0], [138417.9411764706, 6548345.882352941], [138502.36641221374, 6548271.844783715], [138449.4124358243, 6548235.587564176], [138560.62116024937, 6548062.138097292], [138693.70749960438, 6547966.601988451], [138603.4716538422, 6547843.86539476], [138543.97047701306, 6547650.147324046], [138578.33333333334, 6547526.666666667], [138798.75, 6547733.75], [138926.38249763788, 6547681.480864518], [139076.1696930852, 6547748.723747059], [139150.98742940425, 6547654.529969029], [139292.73325882194, 6547701.788168102], [139334.42307692306, 6547652.115384615], [139528.0198243293, 6547797.116776656], [140150.96502714255, 6547817.187691779], [140188.71667779057, 6547720.023372236], [140364.2857142857, 6547580.714285715], [140460.91927204852, 6547641.915538964], [140534.11633913865, 6547595.93718167], [140699.6262644761, 6547684.234093397], [141009.74284133787, 6547976.042195823], [141235.8744952123, 6548046.972845848], [141333.3622559653, 6547941.637744035], [141420.85714285713, 6547985.857142857], [141627.2247943388, 6547745.702304991], [141546.23777286967, 6547674.675421809], [141516.66666666666, 6547567.5], [141574.25957659213, 6547527.74177146], [141404.89110331796, 6547377.546292156], [141316.4334845792, 6547229.298304235], [141322.8848779346, 6547136.408166414], [141219.45986649787, 6547034.543446098], [141313.84056434725, 6546877.172060918], [141132.23095526, 6546609.347037485], [141262.19940987698, 6546471.04361871], [141223.0917192549, 6546397.1414774535], [141330.8445447969, 6546316.512964942], [141474.3579766537, 6546390.51232166], [141534.375, 6546331.875], [141591.65678935486, 6546343.331357871], [141858.80992112777, 6546162.603298813], [141905.0, 6546080.0], [142084.72527472526, 6546080.494505495], [142163.39784915055, 6546105.911684497], [142384.0317402758, 6545898.058130069], [142369.88244449906, 6545723.550148821], [142535.54545454544, 6545547.2727272725], [142509.6150764317, 6545525.472851868], [142636.1134967497, 6545355.9484249195], [142557.7311368455, 6545227.594350304], [142887.34001342082, 6544958.152319369], [142830.8, 6544868.0], [142930.23056225138, 6544757.521597498], [142976.09430347587, 6544543.516759194], [143162.9913839915, 6544821.226902198], [143276.34916424993, 6544736.824517787], [143399.87748323474, 6544864.134399749], [143463.937041235, 6544806.328063232], [143576.5783645669, 6544900.718757445], [143700.23290215034, 6545156.975429068], [143764.5567867036, 6545200.249307479], [143986.02158395803, 6545022.800129964], [143990.30985915492, 6544937.923647146], [144114.9605875194, 6544849.971848228], [144228.23529411765, 6544930.882352941], [144294.35709184586, 6544904.670418512], [144385.95966572012, 6545051.75163432], [144470.0, 6545075.0], [144613.05034458434, 6544999.653114383], [144805.56786574275, 6545183.864268514], [144839.0909090909, 6545116.818181818], [144900.0, 6545105.0], [144924.9455695659, 6545254.347180749], [145085.4491017964, 6545332.4850299405], [145160.7004830918, 6545604.299516908], [145354.41617122473, 6545410.583828775], [145499.86564299423, 6545345.844529751], [145540.0, 6545385.0], [145566.89655172414, 6545358.1034482755], [145739.9183595975, 6545459.114296564], [145800.0, 6545395.0], [145823.37536154542, 6545464.240876346], [145725.17502366993, 6545516.281043439], [145852.9735964032, 6545692.970568701], [145930.1993204983, 6545672.408833522], [145940.0, 6545605.0], [145958.89323123876, 6545632.384879897], [146271.20023824298, 6545366.024582586], [146295.0, 6545423.333333333], [146378.526679325, 6545397.064458214], [146435.12382587008, 6545180.251895707], [146604.00018553197, 6545021.138039795], [146722.65320318463, 6545095.916434168], [146775.35357764343, 6545189.949309125], [146925.0, 6545110.0], [146954.04761904763, 6544996.19047619], [146915.76840938855, 6544993.803767502], [146919.97816216695, 6544828.973783803], [146988.9099430537, 6544707.306179912], [146968.19899244333, 6544669.269521411], [147055.0, 6544550.0], [146931.71391752578, 6544424.4845360825], [147007.0, 6544307.714285715], [147140.0, 6544305.0], [147195.55445544556, 6544231.676567657], [147112.04759815033, 6544115.400677902], [147154.23031366972, 6544014.44961851], [147201.69452511353, 6544007.225209304], [147216.1884057971, 6543940.724637682], [147069.2621710942, 6543866.423153845], [147165.0, 6543790.0], [146937.08678986048, 6543605.533445328], [146991.15878424022, 6543499.391392526], [147263.22923440734, 6543284.819404509], [147260.15564640923, 6543193.455362079], [147325.4811626788, 6543119.690932932], [147385.0, 6543220.0], [147365.0, 6543240.0], [147475.67530319735, 6543225.724917309], [147472.87878787878, 6543160.606060606], [147564.3103448276, 6543156.0344827585], [147502.6869706441, 6542983.059348903], [147356.96500667572, 6542848.034993324], [147432.14285714287, 6542772.857142857], [147415.0, 6542720.0], [147486.11111111112, 6542620.555555556], [147550.91835969267, 6542701.8137590075], [147902.71542402648, 6542799.235300732], [148016.1607142857, 6542705.803571428], [147992.2740585076, 6542542.622335635], [147940.8994209516, 6542510.602132172], [147960.62073951663, 6542467.843420781], [147852.3021518225, 6542413.661122031], [147749.99951341355, 6542299.699678853], [147662.01536936045, 6542180.49578582], [147635.0, 6542030.0], [147687.43902439025, 6542019.5121951215], [147720.36526878917, 6541941.045106197], [147915.72243172966, 6541843.740639161], [147960.53426908434, 6541903.537832546], [148087.59725711253, 6541889.943791665], [148124.14318254765, 6541852.74685795], [148353.49794238684, 6541920.596707819], [148375.0, 6541955.0], [148463.0705391835, 6541937.8340395605], [148574.32655793696, 6542010.515692977], [148780.31953716066, 6542000.309301291], [148807.9300270174, 6541932.722567607], [148932.94263164094, 6541959.005679816], [149140.7017988859, 6541781.3316253275], [149243.18181818182, 6541977.2727272725], [149292.3481938358, 6541968.59564645], [149350.0, 6541895.0], [149521.66666666666, 6541900.555555556], [149637.931757443, 6541825.3381398255], [149712.77403485173, 6541954.24388126], [149770.0, 6541935.0], [149770.1101321586, 6541991.850220264], [149881.42406795517, 6542100.701085565], [150029.09473489918, 6542032.107655392], [150226.0, 6542035.0], [150293.33333333334, 6542073.888888889], [150275.3231389051, 6542159.838536542], [150392.21957879842, 6542331.464786462], [150525.55555555556, 6542388.703703703], [150583.80266976205, 6542339.405107371], [150701.91787439614, 6542377.101449275], [150797.5, 6542297.5], [150860.0, 6542315.0], [150955.0, 6542220.0], [150947.12032660973, 6542164.448302599], [151101.68527134473, 6541993.314728655], [151236.29622252527, 6542070.53164756], [151350.0, 6542015.0], [151361.3474057092, 6542051.105381802], [151439.57491601945, 6542050.125542274], [151630.7142857143, 6542125.714285715], [151600.54397102914, 6542274.960219268], [151693.33333333334, 6542375.0], [151810.40404040404, 6542411.96969697], [151874.9747370568, 6542509.0333828535], [151934.34543054696, 6542484.468279628], [152026.66666666666, 6542528.333333333], [152072.0, 6542483.0], [152218.19078216722, 6542543.466365223], [152207.0717823286, 6542601.08154319], [152311.94566170027, 6542626.113058721], [152406.66666666666, 6542693.148148148], [152550.0, 6542725.0], [152629.9173553719, 6542643.760330578], [152722.09964412812, 6542714.252669039], [152752.0, 6542671.0], [152803.36335184088, 6542703.4400116885], [152856.37739443377, 6542604.749023758], [153041.61668839635, 6542563.383311603], [153109.26315789475, 6542495.736842105], [153191.1265432099, 6542577.582304527], [153257.14285714287, 6542533.571428572], [153371.4084507042, 6542563.873239436], [153419.73800182727, 6542525.2095985385], [153500.80369899044, 6542585.20054479], [153695.8660009693, 6542470.866000969], [153718.85131732892, 6542403.948067062], [153914.29110618247, 6542425.472595878], [153970.0, 6542385.0], [154012.38095238095, 6542426.904761905], [154100.0, 6542405.0], [154164.2857142857, 6542469.285714285], [154342.69324932044, 6542417.822288278], [154423.04585445696, 6542305.022215177], [154364.41176470587, 6542308.823529412], [154335.63465486272, 6542251.269309726], [154359.92624595942, 6542177.610631061], [154595.16860573264, 6542136.5109023405], [154648.9164081319, 6542176.710291371], [154746.3004280409, 6542176.902908461], [154806.6002098636, 6542089.742917104], [154880.0, 6542105.0], [154967.68895044175, 6541998.987985287], [155107.80572525138, 6542090.999483715], [155208.7099786842, 6542262.650637438], [155304.72719127664, 6542316.3511872245], [155514.3956043956, 6542361.593406593], [155550.0, 6542415.0], [155555.3840996938, 6542279.252625086], [155699.53887774696, 6542125.457552232], [155898.86135665752, 6542325.037136543], [155936.0655737705, 6542291.065573771], [156000.0784977222, 6542355.078497722], [156112.0918074491, 6542360.3535778085], [156293.75, 6542447.5], [156391.02905865404, 6542331.893002759], [156561.02040816325, 6542443.979591837], [156498.7760158573, 6542506.223984143], [156533.0357142857, 6542562.053571428], [156622.6123598323, 6542573.427138507], [156818.10029814037, 6542496.163973522], [157153.88888888888, 6542203.333333333], [157142.0761901446, 6542179.112453962], [157266.79910302945, 6542062.706854217], [157434.70638986083, 6542097.446494897], [157328.59563790695, 6541893.761932744], [157495.25506794642, 6541854.455272999], [157397.80516431926, 6541717.194835681], [157449.9473059573, 6541504.953631946], [157429.83708065798, 6541509.242768331], [157422.09677419355, 6541364.838709678], [157355.0, 6541270.0], [157409.54954954956, 6541224.459459459], [157485.90228800403, 6541350.567966084], [157612.22544283414, 6541367.209339774], [157811.45688308412, 6541269.290303209], [157785.22668764452, 6541209.735668268], [157845.21865889212, 6541139.781341108], [157804.95674767403, 6540974.20056439], [157733.58153356824, 6540865.392620193], [157774.6818040645, 6540708.178926374], [157755.96774193548, 6540668.602150538], [157858.92983282884, 6540508.959202078], [158047.52529637553, 6540611.872470382], [158289.46723020088, 6540458.083426348], [158262.6258022369, 6540411.799188236], [158389.6551724138, 6540275.0], [158475.3645071543, 6540317.486822924], [158526.66666666666, 6540241.666666667], [158603.43919162758, 6540323.174666186], [158593.74552999777, 6540365.353311427], [158677.32725540648, 6540418.677250155], [158760.0, 6540295.0], [158931.46341463414, 6540348.658536585], [158990.0, 6540255.0], [159157.5146739692, 6540224.076228235], [159217.3456910675, 6540111.664659484], [159214.68857820946, 6539962.519759497], [159396.48074708966, 6539926.0839623045], [159577.41916078315, 6539764.637038307], [159523.57142857142, 6539714.285714285], [159540.0, 6539635.0], [159657.23500392016, 6539616.489209907], [159643.61965597825, 6539677.705919964], [159737.14683226563, 6539783.365309974], [159715.815389309, 6539846.05610632], [159834.28442001448, 6539942.237040115], [159718.9264740977, 6540112.935520839], [159933.69576659898, 6540247.956613279], [160042.22222222222, 6540226.325178389], [160030.0, 6540305.0], [160096.0, 6540421.0], [160142.1453300577, 6540352.919417247], [160320.29585015037, 6540196.287107884], [160360.0, 6540215.0], [160401.42857142858, 6540186.428571428], [160487.709035144, 6540312.043747142], [160685.83815028903, 6540410.838150289], [160913.3924595191, 6540419.286578072], [160955.0, 6540540.0], [160867.05950991833, 6540662.934655776], [160981.14047537273, 6540643.677448533], [161129.8039168194, 6540761.733891529], [161215.0, 6540750.0], [161200.11143564672, 6540808.313543717], [161365.55555555556, 6540889.444444444], [161307.03296703298, 6540932.032967033], [161434.1207467641, 6541091.878024595], [161594.61225291982, 6541135.0], [161659.07018709544, 6541048.83640666], [161819.68300818538, 6541178.793039127], [161754.02535927537, 6541208.862864623], [161770.4351459587, 6541290.968804742], [161862.22972972973, 6541328.310810811], [161832.92351982632, 6541541.371785416], [161960.02798360094, 6541650.51656802], [161928.29039632506, 6541803.655105779], [162034.0428764584, 6541859.318856017], [162042.49677174428, 6541981.002503656], [161993.57142857142, 6542072.857142857], [162033.90473890267, 6542141.199696474], [161922.46156938394, 6542298.004992469], [161957.815852205, 6542413.94524172], [162036.70454545453, 6542418.409090909], [161890.0, 6542565.0], [161823.47777626984, 6542533.480139583], [161764.65602264524, 6542581.664571387], [161709.6742014923, 6542584.500934219], [161675.63225803257, 6542507.859765223], [161335.61738120083, 6542249.333858484], [161378.0852423933, 6542360.74427282], [161339.8292682927, 6542475.5121951215], [161225.13777267508, 6542499.494833524], [161416.5031053271, 6542637.548056615], [161448.68575710198, 6542758.432562565], [161538.1340419245, 6542865.806962449], [161454.73929087116, 6542977.380875982], [161352.70836241578, 6542926.123632303], [161276.7938726004, 6542996.43509808], [161200.0, 6542915.0], [161069.40072347652, 6543120.433075298], [161137.73331617998, 6543215.3303157445], [161063.09060449706, 6543364.430931258], [160949.52836740657, 6543452.8372918535], [161016.26620381555, 6543540.201279903], [160949.3234868664, 6543528.817378578], [160884.34674079544, 6543600.819286665], [160730.0, 6543565.0], [160605.9369285216, 6543606.591324711], [160652.0564233524, 6543670.46588784], [160690.909342456, 6543804.736682564], [160587.18199303537, 6543929.339871402], [160636.25029739254, 6544000.9145774795], [160523.2485091404, 6544103.84412718], [160503.6355427568, 6544209.070252517], [160790.0, 6544385.0], [160882.2641509434, 6544375.188679245], [160980.0, 6544445.0], [161220.69408141478, 6544412.832868274], [161345.0, 6544530.0], [161325.0, 6544550.0], [161420.00928040646, 6544647.128038632], [161490.02759889603, 6544610.291628335], [161506.48672315764, 6544677.852505662], [161610.7375876377, 6544749.120045786], [161469.9990126485, 6544916.104326678], [161404.69824584603, 6544879.344977855], [161280.25567319023, 6544985.48026116], [160938.44473709958, 6544873.153110613], [160701.4751438144, 6544852.384347396], [160746.74262734584, 6544716.934763181], [160603.34362717535, 6544559.444555677], [160526.66666666666, 6544561.666666667], [160520.0, 6544495.0], [160353.56751298974, 6544459.3319779895], [160323.92857142858, 6544401.071428572], [160294.4766041317, 6544430.523395868], [160130.91306109738, 6544352.745831823], [160005.0, 6544460.0], [159925.37414965988, 6544457.358276644], [159781.03021714944, 6544539.060427064], [159744.7619047619, 6544665.0], [159830.54648935556, 6544642.866153953], [160012.1545657125, 6544727.50068895], [159921.4542291826, 6544858.838576953], [160125.0, 6545000.0], [160056.71251472773, 6545193.646841862], [160081.74221902608, 6545222.810213211], [160085.7788512035, 6545362.281928391], [160182.2, 6545356.4], [160115.0, 6545390.0], [160104.7754806854, 6545561.497517068], [160178.8014132404, 6545586.155291399], [160137.579539607, 6545662.090321776], [160063.01369863015, 6545575.273972603], [159953.2934595638, 6545669.319891802], [159876.0465717982, 6545566.637774903], [159737.71179018653, 6545646.009236788], [159730.0, 6545735.0], [159654.32221754588, 6545672.956787526], [159564.56787651643, 6545659.1329699], [159458.3704939447, 6545763.4483841825], [159399.77699073713, 6545896.80158792], [159286.03754473632, 6545882.315146195], [159202.97896882694, 6545952.483355501], [159042.43822075782, 6545986.18616145], [159057.01793721973, 6546060.251121076], [158905.0, 6546180.0], [158949.0625, 6546252.8125], [159082.71931026553, 6546271.78519821], [159098.7570374605, 6546360.868987917], [158914.61538461538, 6546541.923076923], [158860.0, 6546535.0], [158754.4764621283, 6546678.418728585], [158627.61904761905, 6546774.523809524], [158563.05181782038, 6546752.767460353], [158447.9054054054, 6546797.094594595], [158437.14285714287, 6546913.571428572], [158361.69060039023, 6546955.070169785], [158397.04012913298, 6547027.116416378], [158368.79065964665, 6547138.022101619], [158525.0, 6547190.0], [158509.76103544253, 6547312.960373802], [158836.4483798798, 6547385.860429271], [158877.5, 6547455.0], [158955.80192165557, 6547455.0], [158838.7037037037, 6547705.555555556], [158856.689435599, 6547732.534153398], [158686.15420831722, 6547926.17893355], [158540.0, 6547985.0], [158504.18805724147, 6547948.842048133], [158356.37737185313, 6548013.830661687], [158232.61877871037, 6548203.541102688], [158244.8056363637, 6548400.390304605], [158339.99986111268, 6548381.653542909], [158417.57668711655, 6548517.54601227], [158467.0, 6548482.0], [158518.58762886596, 6548504.927835052], [158375.0, 6548670.22400919], [158304.8182741745, 6548960.848618252], [158316.99552932254, 6549090.514643015], [158411.66666666666, 6549026.666666667], [158516.70454545453, 6549068.295454546], [158544.2857142857, 6549040.714285715], [158560.0, 6549095.0], [158602.5, 6549057.5], [158646.30952380953, 6549101.30952381], [158716.19174596525, 6549041.787057454], [158812.64394440767, 6548824.712111184], [158973.73665221117, 6548845.742244459], [158989.24836601308, 6548950.065359477], [159108.52861144, 6549135.485187631], [159027.5, 6549257.5], [159087.37456242708, 6549331.74445741], [159231.4238990847, 6549306.862804951], [159365.0, 6549460.0], [159326.6036621459, 6549523.747545575], [159431.96770435583, 6549619.371586053], [159396.17647058822, 6549681.764705882], [159474.1564486769, 6549741.140869887], [159449.0588949931, 6549821.607471413], [159337.96917592786, 6549881.484587964], [159190.0, 6549795.0], [159114.72222222222, 6549840.833333333], [159123.322140214, 6549952.365325652], [158942.82449358338, 6550071.022276777], [158861.59822945602, 6550217.136270433], [158928.1241657688, 6550251.619382835], [158953.10515247707, 6550477.147221707], [158842.71154115355, 6550542.39750666], [158690.0, 6550725.0], [158624.88482700736, 6550667.023687401], [158545.0, 6550657.171917045], [158545.0, 6550590.0], [158426.38714806363, 6550540.387426825], [158390.50921861283, 6550482.102721686], [158409.42096755124, 6550425.744763332], [158293.24213038431, 6550369.42062401], [158206.0891355003, 6550562.863315993], [158273.84031872684, 6550740.979855608], [158218.82467239536, 6550792.630269211], [158120.6302523461, 6550648.898226033], [157956.57874470542, 6550788.843280708], [157974.22128768027, 6550948.8524748795], [157920.47713717693, 6550984.681908549], [157857.36842105264, 6550938.50877193], [157733.19298736274, 6551127.347185598], [157720.0, 6551415.0], [157587.80879864635, 6551301.421319797], [157605.0, 6551250.0], [157546.49750311323, 6551208.085007358], [157605.89449541285, 6551086.353211009], [157520.0, 6551025.0], [157508.92398889473, 6551082.289712613], [157366.02233750906, 6551077.265223162], [157313.00905868452, 6551190.423395038], [157240.0, 6551255.0], [157157.44405182567, 6551218.59246172], [157037.14285714287, 6551322.142857143], [156944.01562951022, 6551284.668219961], [156972.68083075268, 6551228.748931279], [156905.3104412959, 6551192.924826279], [156848.1129476584, 6551239.779614325], [156800.0, 6551205.0], [156775.72040707016, 6551249.900910552], [156705.7759698879, 6551234.383702786], [156653.29075687725, 6551154.830644072], [156585.75575027382, 6551248.269441402], [156550.0, 6551435.0], [156525.73732718895, 6551409.493087557], [156466.59936797753, 6551481.599367977], [156389.3876237955, 6551301.526202313], [156280.0, 6551305.0], [156233.91891891893, 6551258.918918919], [156255.0, 6551156.666666667], [156209.95279087048, 6551160.091308297], [156244.55669494788, 6551017.319515341], [156104.8131706409, 6550832.9471306885], [156101.7509581572, 6550650.56119847], [156141.38268510078, 6550598.296947521], [156109.2015786278, 6550566.848816029], [156233.06509488792, 6550352.839056932], [156098.42741935485, 6550272.056451613], [156125.76438543908, 6550147.6434920635], [156091.69291338584, 6550083.385826772], [156178.4197227864, 6549907.965491663], [156044.9226006192, 6549810.232198142], [156065.0, 6549750.0], [155990.0, 6549715.0], [155960.0, 6549745.0], [155847.18309859154, 6549657.253521127], [155820.0, 6549715.0], [155432.8044815582, 6549612.817589745], [155225.80113625617, 6549447.001337595], [155114.5318125967, 6549546.253581106], [155138.1221333916, 6549586.511136161], [155060.36641109636, 6549558.706871123], [155000.0, 6549595.0], [154849.1935483871, 6549471.612903226], [154761.5318741291, 6549592.488730244], [154649.33046193933, 6549579.961244316], [154553.95851098135, 6549696.662724378], [154321.55625680008, 6549823.900501847], [154374.1412277543, 6549867.710497887], [154215.9421625144, 6549965.211072145], [154192.4580579315, 6550173.121390689], [154311.35192913932, 6550283.007750668], [154378.9024390244, 6550515.853658536], [154496.63812301785, 6550391.806094922], [154580.0, 6550445.0], [154630.0, 6550395.0], [154649.12941044034, 6550426.786463965], [154538.6723576845, 6550594.180332554], [154598.33333333334, 6550686.666666667], [154569.23569350145, 6550721.329504755], [154664.17577067998, 6550889.200604647], [154720.0, 6550895.0], [154756.51948005613, 6550977.024436466], [154715.95973923258, 6551089.040260768], [154669.609375, 6551135.390625], [154643.8, 6551263.6], [154709.14965986394, 6551315.850340136], [154680.83333333334, 6551344.166666667], [154757.0627893468, 6551434.463154774], [154720.13301450506, 6551533.588374637], [154950.83538635864, 6551738.054871214], [155020.0, 6551715.0], [155062.0, 6551757.0], [155178.7382381528, 6551765.002286446], [155096.86674603168, 6551896.566427442], [155135.0, 6552060.0], [155105.0, 6552060.0], [155077.5, 6552147.5], [155142.08587770993, 6552171.076837951], [154992.23905723906, 6552337.037037037], [155028.99201596808, 6552360.8183632735], [155071.66666666666, 6552486.666666667], [154988.05729279088, 6552613.550059379], [154870.0, 6552645.0], [154847.4730500951, 6552548.915662651], [154696.33294007042, 6552562.963739161], [154571.92567511357, 6552534.3060015645], [154468.41066320974, 6552593.41066321], [154400.5928853755, 6552525.592885376], [154138.96332171175, 6552577.425488694], [154039.7069647052, 6552663.975352623], [153939.0, 6552574.0], [153990.79831932773, 6552513.193277311], [153972.47282636663, 6552444.832884184], [153871.8730006714, 6552454.619485926], [153827.72727272726, 6552513.636363637], [153786.81512337684, 6552485.946857699], [153764.29434597222, 6552515.86323504], [153644.27710843374, 6552560.722891566], [153674.6286304772, 6552625.413021958], [153591.62007641472, 6552759.957168917], [153483.84390957118, 6552826.139575577], [153405.0893921335, 6552785.0], [153327.19512195123, 6552887.317073171], [153351.55751563617, 6553087.540237706], [153472.25841721927, 6553226.329611583], [153473.5185185185, 6553338.518518519], [153339.12663755458, 6553476.189956332], [153446.9452411598, 6553558.156358028], [153469.900990099, 6553534.933993399], [153585.38224503596, 6553642.494416752], [153666.73476269096, 6553661.742204032], [153524.23640614742, 6553758.930968607], [153480.0, 6553685.0], [153433.63636363635, 6553685.0], [153278.80602069033, 6553837.644817875], [153126.73913043478, 6553827.536231884], [152998.3321221084, 6553917.805911697], [152855.50367338533, 6553816.235082899], [152704.13033214016, 6553988.277120673], [152760.9071729958, 6554023.544303797], [152730.21436208754, 6554107.696487792], [152576.9772864215, 6554187.462223234], [152308.78660366448, 6554532.379252191], [152243.2857142857, 6554540.857142857], [152478.6375591828, 6554694.025145051], [152468.5326635814, 6554820.814807068], [152304.98334898814, 6554885.261292801], [152347.99228789675, 6555071.4287901465], [152120.15873015873, 6555384.682539683], [151880.8055166185, 6555155.758144036], [151768.04854082785, 6555252.198116879], [151837.6238022501, 6555328.906507054], [151865.0, 6555410.0], [151649.73232230952, 6555615.486935867], [151606.89484610004, 6555708.993193984], [151679.3717401612, 6555654.90990991], [151858.48252813873, 6555799.037288276], [151721.35715151153, 6555974.728342034], [151745.39983904548, 6556123.071890551], [151782.10449650348, 6556148.031057622], [151722.85501522926, 6556423.265716504], [151784.9365769729, 6556489.0532343555], [151780.44809755762, 6556838.325603122], [151565.54054054053, 6557047.297297297], [151541.04319563851, 6557136.000729008], [151406.58620689655, 6557128.413793104], [151351.4, 6557183.6], [151430.0, 6557355.0], [151511.42857142858, 6557377.857142857], [151575.0, 6557482.584269663], [151493.0961950765, 6557608.741596683], [151305.66826464815, 6557634.18905401], [151038.24294345686, 6557895.740039026], [150909.84477151334, 6557969.4213382425], [150726.8841843037, 6557859.836861772], [150627.5, 6557934.375], [150596.61466125242, 6557912.614874973], [150406.0, 6557991.0], [150380.48387096776, 6557965.483870967], [150343.9346809161, 6558009.772638147], [150232.5, 6557782.5], [149995.37878787878, 6558042.853535353], [149956.34812286688, 6558038.06029579], [149888.68307341106, 6558109.959759606], [149905.9855517523, 6558197.203352298], [149880.0, 6558175.0], [149778.94431173665, 6558252.768380076], [149775.70749148526, 6558395.074952711], [149733.3700687888, 6558444.017470399], [149655.2824858757, 6558389.717514125], [149607.5, 6558437.5], [149577.0449678801, 6558589.239828694], [149417.0, 6558732.213333333], [149415.0, 6558934.0], [149342.9356349185, 6558894.754773974], [149268.01264055903, 6558939.171089183], [149113.7231222386, 6558948.902798233], [149117.80855332478, 6559025.62973601], [149050.71539223212, 6559106.141529322], [148924.4348556133, 6559012.625802676], [148780.0, 6559025.0]]]}}]}