{"type": "FeatureCollection", "crs": {"type": "name", "properties": {"name": "EPSG:25833"}}, "features": [{"type": "Feature", "properties": {"station": "18.11.0", "name": "Tjellingtjernbekk", "series": ["1001.1"], "nodes": 19611, "fine_vertices": 1064, "fine_area_m2": 1961150.0, "reduced_vertices": 47, "reduced_area_m2": 1961150.0000000095, "outline_tolerance_m": 20.0, "windows": [[490, 469], [1008, 977]], "placed_on": "number", "distance_m": 9.478128968677035, "uncertainty_m": 30.0, "elvid": "018-23-128", "objectid": 10920319, "lake": false, "confluence_near": false, "reach_up_m": 1000.0, "reach_down_m": 130.0, "reach_fork": false, "seeded_by": "river", "lake_rule": null, "lake_number": null, "lake_name": null, "lake_distance_m": null, "node_offset_m": 12.881477399813537, "chain_nodes": 111, "lowered_nodes": 74, "lowered_max_m": 1.450469970703125, "direction_ok": true, "end_extended_m": 10.0, "end_closed": true, "downstream_checked": "whole", "a0": 1.9611, "area_up": 1.9562000000000002, "area_down": 1.9628, "swing": 0.002498597725766103, "largest_step": 0.0047999999999999154, "largest_step_at_m": 0.0, "checked_up_m": 28.28427124746213, "checked_down_m": 24.142135623731065, "drains": true, "monotone": true, "causes": []}, "geometry": {"type": "Polygon", "coordinates": [[[146830.0, 6548715.0], [147016.25, 6548741.25], [147152.77697760498, 6548801.834939992], [147389.20485961245, 6548951.086194483], [147473.7013547685, 6548852.198451693], [147604.32199724918, 6548897.539572036], [147507.9698213347, 6549096.728392012], [147519.24409573965, 6549198.196861657], [147670.762409858, 6549220.352477261], [147876.83846027713, 6549485.801602967], [147904.73213068445, 6549772.105407363], [147965.0, 6549820.0], [147938.8769398312, 6549861.050523123], [148025.13812154697, 6549928.425414365], [148091.42857142858, 6549886.428571428], [148163.521026438, 6549927.807071099], [148208.6016231298, 6550112.965946327], [148283.57142857142, 6550138.571428572], [148248.5, 6550241.166666667], [148305.0, 6550260.0], [148257.21396731056, 6550332.010896483], [148365.0, 6550450.0], [148300.0110697858, 6550519.870758922], [148314.10403799466, 6550624.673559997], [148263.62006175017, 6550623.413498893], [148110.0, 6550745.0], [148048.7385321101, 6550727.729357799], [147941.87892229442, 6550809.44553001], [147542.99391011693, 6550493.788190679], [147427.1698614945, 6550647.875829034], [147306.57894736843, 6550601.052631579], [147221.7831858407, 6550655.225663717], [147021.06804889583, 6550483.6269056825], [146979.20969820637, 6550510.311314854], [146883.13043478262, 6550473.434782608], [146834.63222895525, 6550505.366108209], [146583.45790823514, 6550426.795978137], [146839.39078215545, 6550143.703703688], [147096.89545989642, 6549805.0963912], [147015.0, 6549740.0], [147075.0, 6549640.0], [146822.6718105819, 6549377.639484978], [146900.87628865978, 6549284.12371134], [146880.55977229602, 6549168.235294118], [146763.42390704853, 6549020.245435658], [146747.86838835027, 6548854.960640774], [146775.33898305084, 6548758.813559322], [146830.0, 6548715.0]]]}}]}