{"type": "FeatureCollection", "crs": {"type": "name", "properties": {"name": "EPSG:25833"}}, "features": [{"type": "Feature", "properties": {"station": "185.1.0", "name": "G\u00e5slandsvatn", "series": ["1001.1"], "nodes": 77613, "fine_vertices": 2300, "fine_area_m2": 7761550.0, "reduced_vertices": 114, "reduced_area_m2": 7761549.999999961, "outline_tolerance_m": 20.0, "windows": [[684, 556], [1274, 1120]], "placed_on": "number", "distance_m": 20.592425395878966, "uncertainty_m": 30.0, "elvid": "185-267-1", "objectid": 11030081, "lake": true, "confluence_near": false, "reach_up_m": 1000.0, "reach_down_m": 130.0, "reach_fork": false, "seeded_by": "lake", "lake_rule": "lake_line", "lake_number": 47324, "lake_name": "G\u00e5slandsvatnet", "lake_distance_m": 1.356065458226988, "node_offset_m": null, "chain_nodes": null, "lowered_nodes": null, "lowered_max_m": null, "direction_ok": null, "end_extended_m": null, "end_closed": null, "downstream_checked": null, "a0": null, "area_up": null, "area_down": null, "swing": null, "largest_step": null, "largest_step_at_m": null, "checked_up_m": null, "checked_down_m": null, "drains": null, "monotone": null, "causes": []}, "geometry": {"type": "Polygon", "coordinates": [[[484635.0, 7621350.0], [484636.0569105691, 7621194.796747968], [484665.0, 7621155.0], [484632.3333333333, 7621112.666666667], [484580.0, 7621165.0], [484437.75207112567, 7621032.235266384], [484283.8196439607, 7620789.886515183], [484387.98434025847, 7620576.912437113], [484261.62569348357, 7620564.569159098], [484252.0512614789, 7620476.861796013], [484100.0, 7620425.0], [484037.75242264004, 7620466.498384907], [484023.4027426588, 7620279.401442687], [484087.4354015831, 7620263.391065454], [484036.1111111111, 7620095.555555556], [483955.6669846399, 7620076.212151374], [483877.98210368556, 7619966.794124216], [483858.0522684263, 7619808.547110309], [483735.9766766688, 7619473.20364647], [483845.79291452776, 7619337.873552634], [483955.5000385257, 7619341.10620652], [483957.34500161983, 7619018.84735401], [483577.14385381254, 7618665.0], [483530.0, 7618665.0], [483493.9540693145, 7618586.775613085], [483618.6668535102, 7618421.849209981], [483689.2099517394, 7618159.553009996], [483850.0, 7618145.0], [483953.3942734034, 7617983.436109104], [484283.8628076714, 7618032.389751148], [484386.2557617844, 7617949.522891205], [484461.7704195734, 7618059.986481525], [484522.0650071111, 7618060.793940584], [484641.3975903614, 7617963.864792503], [484744.79812585865, 7618046.880802766], [484827.10309777345, 7617989.223136496], [484848.9547700239, 7617880.244791927], [484900.0, 7617935.0], [485012.14801444043, 7617871.46811071], [485006.3609592733, 7617827.100687762], [485051.58425523277, 7617716.3426616285], [485174.1666666667, 7617600.833333333], [485235.9300150387, 7617611.970986319], [485255.0806451613, 7617759.596774193], [485349.16623488895, 7617845.148851556], [485355.185067007, 7617895.277600511], [485414.9442904026, 7617909.557786123], [485519.65966646076, 7618345.340333539], [485485.625, 7618379.375], [485506.5018978134, 7618427.01715142], [485611.61679051234, 7618392.32204465], [485672.036199095, 7618487.714932127], [485712.1761822306, 7618460.3871667925], [485827.14285714284, 7618483.571428572], [485840.5172413793, 7618443.448275862], [485938.48459336587, 7618622.706684627], [485915.0, 7618720.0], [486004.3668334596, 7619026.780040152], [485992.5811385123, 7619045.485364436], [486083.11320754717, 7619161.886792453], [486045.0, 7619200.0], [486156.7489883545, 7619372.571896333], [486212.77777777775, 7619357.777777778], [486123.38323353295, 7619488.694610778], [485837.227748716, 7619738.058676119], [485776.64556962025, 7619980.6329113925], [485701.54354282364, 7620066.625889054], [485822.07545844093, 7620312.924541559], [485785.9090909091, 7620349.090909091], [485815.0, 7620430.0], [485756.6666666667, 7620461.666666667], [485730.0, 7620435.0], [485767.9142182059, 7620662.608691206], [485882.8825817042, 7620876.390870235], [485735.8413605218, 7620923.654265798], [485755.0, 7621000.0], [485635.61376073584, 7621104.462959356], [485869.4267394376, 7621291.167257117], [485914.8563798266, 7621405.0], [486000.0, 7621405.0], [486089.0749385882, 7621340.877099889], [486220.05234801356, 7621584.583548977], [486469.9790370351, 7621671.933276334], [486524.97842968075, 7621655.008628128], [486558.5294117647, 7621721.764705882], [486670.0, 7621777.5], [486695.0, 7621870.0], [486623.4210526316, 7621988.421052632], [486655.0, 7622020.0], [486520.79870729457, 7622171.671283471], [486489.5188194475, 7622168.428202928], [486360.826446281, 7622271.52892562], [486310.0, 7622235.0], [486272.63157894736, 7622270.023923445], [486089.8672111779, 7622177.031900139], [486060.0, 7622115.0], [485923.7993400143, 7622174.900670488], [485783.8848920863, 7622351.90647482], [485618.28434781445, 7622198.889694991], [485502.8719573542, 7622243.641503224], [485336.8476605443, 7622144.467836982], [485252.17907410546, 7622049.024080041], [485150.0, 7622135.0], [484974.8405718348, 7622127.940627617], [484900.05491153145, 7622099.246491763], [484796.83050859225, 7622158.241979732], [484622.1052631579, 7622034.5951417005], [484563.6549891437, 7622064.666415668], [484543.2391042231, 7621961.386056658], [484642.8930985328, 7621830.138572385], [484601.36363636365, 7621764.545454546], [484730.9779386709, 7621612.167202231], [484773.3333333333, 7621615.0], [484743.7818181818, 7621395.618181818], [484635.0, 7621350.0]]]}}]}