{"type": "FeatureCollection", "crs": {"type": "name", "properties": {"name": "EPSG:25833"}}, "features": [{"type": "Feature", "properties": {"station": "186.2.0", "name": "\u00c5nesvatn", "series": ["1001.0"], "nodes": 468637, "fine_vertices": 5508, "fine_area_m2": 46863650.0, "reduced_vertices": 220, "reduced_area_m2": 46863650.000000164, "outline_tolerance_m": 20.0, "windows": [[698, 771], [1420, 1426], [2558, 2552]], "placed_on": "number", "distance_m": 328.3387393163331, "uncertainty_m": 328.3387393163331, "elvid": "186-31-28", "objectid": 11264964, "lake": true, "confluence_near": false, "reach_up_m": 726.1989776706455, "reach_down_m": 330.68735482445254, "reach_fork": false, "seeded_by": "lake", "lake_rule": "inside", "lake_number": 1218, "lake_name": "\u00c5nesvatnet", "lake_distance_m": 0.0, "node_offset_m": null, "chain_nodes": null, "lowered_nodes": null, "lowered_max_m": null, "direction_ok": null, "end_extended_m": null, "end_closed": null, "downstream_checked": null, "a0": null, "area_up": null, "area_down": null, "swing": null, "largest_step": null, "largest_step_at_m": null, "checked_up_m": null, "checked_down_m": null, "drains": null, "monotone": null, "causes": []}, "geometry": {"type": "Polygon", "coordinates": [[[530570.0, 7666485.0], [530537.7777777778, 7666510.555555556], [530500.0, 7666435.0], [530463.0769230769, 7666447.307692308], [530368.0712309087, 7666366.302838986], [530101.728003099, 7666484.713574979], [530058.6995299638, 7666449.798191766], [529980.077614481, 7666570.3968542265], [529913.0730784975, 7666534.513985924], [529708.1994462109, 7666613.89685267], [529576.6666666666, 7666491.666666667], [529543.1730769231, 7666512.980769231], [529478.1159792783, 7666442.8276855545], [529402.0934799686, 7666433.857030637], [529292.4902866927, 7666102.469835021], [529181.0147982263, 7665882.758693507], [528992.6426426426, 7665853.678678678], [528920.0, 7665895.0], [528860.9090909091, 7665844.090909091], [528762.9031457532, 7665942.096854247], [528699.6956450704, 7665878.470173017], [528545.5555555555, 7665829.444444444], [528420.0, 7665955.0], [528317.5, 7665932.5], [528277.2650840752, 7665892.265084075], [528186.0682492582, 7665861.068249258], [528254.4375, 7665813.59375], [528230.643673921, 7665754.1091848025], [528289.7161338367, 7665577.660593885], [528103.5018379969, 7665588.533380747], [527946.4280264184, 7665415.758326994], [527959.8288181764, 7665379.032312814], [527815.5056806653, 7665216.551666667], [527681.7647058824, 7665254.411764706], [527420.2669567745, 7664950.735413314], [527415.1127319651, 7664890.112731965], [527283.6247544205, 7664758.6247544205], [527318.2548768213, 7664359.002463687], [527261.3138702324, 7664151.621970474], [526900.1236700725, 7664102.794510878], [526713.6439539664, 7664139.226997849], [526485.0, 7663940.0], [526440.054265638, 7663603.372511897], [526527.7460996446, 7663520.199805573], [526694.1116478457, 7663200.896499522], [526745.0, 7663170.0], [526745.0, 7663014.516129033], [526946.0505711572, 7662610.068587412], [526890.0676311456, 7662446.074197658], [526723.3656793572, 7662192.533510696], [526030.6598626052, 7661461.570796685], [525859.2481207962, 7661384.2009435585], [525775.9440985966, 7661282.14172461], [525516.0909448948, 7661311.787113621], [525445.2077908169, 7661047.378955893], [525370.8387096775, 7660965.0], [525287.6470588235, 7660965.0], [525285.0, 7660880.0], [525165.9375727929, 7660840.974842767], [525131.5204764572, 7660868.7795205945], [525035.7142857143, 7660793.571428572], [524980.0326271548, 7660809.054321076], [524642.0986904455, 7660716.187865102], [524401.7971938658, 7660712.812986247], [524220.96774193546, 7660848.225806451], [524072.9119544586, 7660808.76161115], [523955.5232380639, 7660857.161410019], [523820.0, 7660755.0], [524029.0, 7660546.0], [524185.0, 7660340.0], [524196.01366742596, 7660240.876993166], [524165.3333333333, 7660224.333333333], [524223.4577467318, 7660169.669138773], [524140.9619468622, 7659995.099595329], [524183.7899229075, 7659950.064702643], [524060.1500974441, 7659779.61626963], [523787.0669769145, 7659670.774711605], [523963.8866139953, 7659521.866801448], [523812.63305530977, 7659369.784805112], [523924.97378469835, 7659198.619026372], [523867.2159887798, 7659117.784011221], [523920.53514648404, 7659044.590140013], [523879.0232425692, 7658802.67480501], [524267.1412692632, 7658710.093908097], [524484.3938454883, 7658799.613236538], [524528.47834178, 7658916.942430841], [524881.6944987506, 7659083.249615899], [525053.3548317472, 7659443.197548261], [525684.8159610014, 7659364.716547488], [525787.1120943953, 7659247.392330384], [525746.6511318242, 7659128.348868175], [525775.0, 7659100.0], [525768.9212016519, 7658872.083998317], [525674.1311784746, 7658425.899966002], [525745.4545454546, 7658295.0], [525909.3755613475, 7658265.449409741], [526068.4100405143, 7658290.6604610225], [526290.1515151515, 7658496.363636363], [526288.2130222569, 7658523.298481774], [526492.5, 7658653.0], [526540.2041113178, 7658646.619069295], [526926.8388850517, 7658909.426426209], [527023.2169185632, 7658829.709426815], [527173.7687442063, 7659083.228093135], [527357.8791773779, 7659152.9562982], [527415.0, 7659350.0], [527382.2841671396, 7659391.638332731], [527515.0470649758, 7659648.850830174], [527716.0552688615, 7659815.4252065895], [527994.3333333334, 7659762.666666667], [528015.0, 7659650.0], [528070.5555555555, 7659594.444444444], [528031.0314506118, 7659520.667099725], [528082.1428571428, 7659355.714285715], [528056.7808219178, 7659317.671232876], [528130.0, 7659245.0], [528216.8640322931, 7659271.6195266945], [528271.577060932, 7659203.315412186], [528330.0, 7659215.0], [528476.2299198628, 7659108.952443826], [528519.4451043999, 7658979.1661717], [528648.9247129125, 7658819.325780423], [528995.7115009746, 7658756.949317738], [529192.125089814, 7658824.968906318], [529340.7821059038, 7658713.743152769], [529394.2494621596, 7658462.927120438], [529511.4920421174, 7658394.389694171], [529896.9133511541, 7658539.051029801], [530052.638941714, 7658444.62312955], [530262.9659041237, 7658545.413770346], [530451.0869565217, 7658534.347826087], [530530.0, 7658573.0], [530812.6067584901, 7658509.167000725], [530905.0, 7658340.0], [530859.0, 7658286.0], [530975.0, 7658170.0], [530959.4243007951, 7658095.394406361], [531409.287184932, 7657660.1587320035], [531546.0, 7657659.0], [531673.3333333334, 7657531.666666667], [531728.4236453202, 7657548.69458128], [531960.0, 7657325.0], [532227.2785522237, 7657428.884373291], [532226.4410481525, 7657534.633879414], [532370.7142857143, 7657618.571428572], [532425.0, 7657730.0], [532367.2246969632, 7657787.775303037], [532344.9922869264, 7657900.046278442], [532302.3941493457, 7657942.808570695], [532499.8904976678, 7658043.725836366], [532396.254922118, 7658141.259790752], [532397.530733361, 7658294.507928685], [532315.0, 7658480.0], [532422.786259542, 7658614.122137405], [532541.3463813161, 7658673.123667336], [532477.5508426736, 7658736.293331321], [532816.25, 7659243.125], [532905.0, 7659430.0], [532777.5889602458, 7659557.411039754], [532761.767575152, 7659713.946026896], [532678.0907922332, 7659716.610175225], [532584.5454545454, 7659778.636363637], [532607.69717105, 7659854.407747158], [532538.6715488324, 7659941.063872759], [532601.0407517754, 7660089.249901156], [532550.367511036, 7660156.207747497], [532548.8095238095, 7660286.19047619], [532645.0, 7660400.0], [532645.0, 7660478.310004029], [532760.2556827777, 7660560.199783835], [532840.0, 7660555.0], [533080.1416579223, 7660760.052465897], [533025.0, 7660800.0], [533028.3333333334, 7660924.666666667], [533309.2792281498, 7661239.53461975], [533242.7586206896, 7661350.402298851], [533051.8405787325, 7661423.408148123], [532865.0, 7661585.0], [532546.4942028563, 7661594.420044501], [532255.1162790698, 7661788.2558139535], [532224.3025287829, 7661759.976870888], [532127.4973507145, 7661890.46073547], [532055.6890972119, 7661884.651235204], [531988.9660517407, 7662033.554562485], [531988.8122726437, 7662164.467494372], [531835.2939150673, 7662238.925870422], [531764.5852255526, 7662365.794732062], [531772.4825527585, 7662470.123030359], [531710.2758745041, 7662552.235845654], [531713.1818181818, 7662850.909090909], [531655.2158418797, 7663047.563594617], [531682.9441822896, 7663379.2527077515], [531725.0, 7663440.0], [531859.3465449141, 7663801.681764768], [531895.1630287112, 7664142.542342179], [532023.8211845981, 7664299.847811357], [531908.0034971111, 7664450.335082981], [532056.1529524544, 7664621.743681841], [531973.7795765878, 7664705.790784558], [532022.9566522572, 7664790.523516412], [531854.5162191995, 7665044.371594614], [531729.9429088166, 7665287.461897599], [531823.463429625, 7665531.536570375], [531765.0, 7665590.0], [531823.0645161291, 7665694.516129033], [531696.5817502827, 7665737.6868531], [531752.5675675676, 7665851.3513513515], [531899.5389481055, 7665878.6415562], [531885.0, 7666010.0], [531760.742642026, 7666166.173853525], [531745.0, 7666260.0], [531829.3835616439, 7666344.383561644], [531723.8713647552, 7666475.327741818], [531730.9035909153, 7666566.746681898], [531685.4781582054, 7666761.6824085], [531559.3040892193, 7666794.304089219], [531510.0104453325, 7666745.010445332], [531328.9802613328, 7666905.637042328], [530853.75, 7666447.5], [530690.2782537395, 7666542.93679466], [530570.0, 7666485.0]]]}}]}