{"type": "FeatureCollection", "crs": {"type": "name", "properties": {"name": "EPSG:25833"}}, "features": [{"type": "Feature", "properties": {"station": "189.3.0", "name": "Tennevikvatn", "series": ["1001.1"], "nodes": 855129, "fine_vertices": 8076, "fine_area_m2": 85512850.0, "reduced_vertices": 339, "reduced_area_m2": 85512850.00000027, "outline_tolerance_m": 20.0, "windows": [[433, 489], [1172, 1203], [2570, 2557]], "placed_on": "number", "distance_m": 5.2131203691797525, "uncertainty_m": 30.0, "elvid": "189-17-1", "objectid": 11031323, "lake": false, "confluence_near": false, "reach_up_m": 1000.0, "reach_down_m": 130.0, "reach_fork": false, "seeded_by": "river", "lake_rule": null, "lake_number": null, "lake_name": null, "lake_distance_m": null, "node_offset_m": 16.81386911814277, "chain_nodes": 114, "lowered_nodes": 95, "lowered_max_m": 0.7697525024414062, "direction_ok": true, "end_extended_m": 0.0, "end_closed": true, "downstream_checked": "whole", "a0": 85.5129, "area_up": 85.50370000000001, "area_down": 85.51700000000001, "swing": 0.0001075861068913903, "largest_step": 0.0069000000000016826, "largest_step_at_m": 0.0, "checked_up_m": 24.142135623731065, "checked_down_m": 24.142135623731065, "drains": true, "monotone": true, "causes": []}, "geometry": {"type": "Polygon", "coordinates": [[[573120.0, 7618425.0], [573052.967032967, 7618411.593406593], [572946.6666666666, 7618511.666666667], [572860.7546747285, 7618459.372410704], [572751.8421052631, 7618495.263157895], [572787.4550898203, 7618547.544910179], [572750.0, 7618585.0], [572619.5456856916, 7618533.361400245], [572610.4213931602, 7618475.42139316], [572547.9815860996, 7618448.642952366], [572381.5912636506, 7618562.878315133], [572273.6509040333, 7618491.349095967], [572189.1064132232, 7618494.7766335765], [572086.8371479064, 7618343.42902738], [572019.0957348502, 7618358.993983203], [571958.4324462287, 7618292.837768856], [571975.0, 7618250.0], [571855.6970336499, 7618209.346347755], [571786.6165413534, 7618230.338345865], [571696.6855218078, 7618195.524429116], [571520.0, 7618285.0], [571334.30159732, 7618302.296485619], [571240.0, 7618275.0], [571183.8171822288, 7618328.564860084], [570955.9312649724, 7618090.257819175], [570912.5379421018, 7618132.32893065], [570772.7328843996, 7617883.329592219], [570794.3854901101, 7617815.870141364], [570722.094476668, 7617435.196075665], [570745.0, 7617410.0], [570709.0, 7617346.0], [570793.7402391834, 7617190.7983244695], [570769.9315240178, 7617012.027753338], [570597.7711296603, 7616718.866643311], [570551.5588897321, 7616671.796814672], [570364.4673539519, 7616365.01718213], [570273.0788219445, 7616258.934244395], [570280.9327334428, 7616099.915916803], [569992.6998461452, 7615812.300153854], [570035.0, 7615770.0], [569921.7290667178, 7615656.729066717], [569863.2159774447, 7615509.8082980355], [569779.1331860846, 7615462.988230175], [569703.4273327141, 7615264.890896807], [569622.02557187, 7615294.268966771], [569554.6558891454, 7615210.815242494], [569257.949183303, 7615065.598911071], [569192.203175446, 7615147.727266857], [568762.8627389313, 7615186.420938666], [568561.965973535, 7615362.97731569], [568383.9477928226, 7615307.459136095], [568258.3765220107, 7615316.62347799], [568066.6871165644, 7615115.306748467], [567906.920452811, 7615096.98936187], [567868.5505617978, 7615018.367041199], [567725.0, 7614950.0], [567743.9924572657, 7614924.069182789], [567627.0946554807, 7614793.19765646], [567420.0, 7614755.0], [567340.7193229902, 7614807.93370945], [567179.536358357, 7614782.417167611], [567053.0588548878, 7614813.823313296], [566931.0342112858, 7614807.135834517], [566868.6946386946, 7614682.925407926], [566725.2480102635, 7614687.26071927], [566657.3322322534, 7614586.3115680935], [566540.0, 7614585.0], [566501.8, 7614546.8], [566553.5714285715, 7614527.142857143], [566525.0, 7614470.0], [566584.830267062, 7614392.17147223], [566492.7755503518, 7614202.802395433], [566570.6338606327, 7614091.630152127], [566439.0052132959, 7614056.868890437], [566382.4001550261, 7614077.400155026], [566303.8365176718, 7613862.85055993], [566433.0316270969, 7613788.031627097], [566480.0, 7613835.0], [566634.0, 7613731.0], [566850.0, 7613515.0], [566930.0, 7613515.0], [566985.0, 7613460.0], [566945.8695652174, 7613385.652173913], [566994.2082472836, 7613284.157903416], [567344.4361332001, 7613302.833835828], [567386.808147668, 7613263.165805493], [567604.366209612, 7613262.269059936], [567650.0, 7613345.0], [567874.9623435755, 7613126.611064975], [567965.6015525245, 7613190.1222123355], [568046.9130462756, 7613143.5852429075], [568249.2959276019, 7613123.631312218], [568392.3240883694, 7613229.646492825], [568521.9243082405, 7613231.390729859], [568621.5843011136, 7613141.092252789], [568740.5652173914, 7613185.9130434785], [568865.0, 7613150.0], [568895.8069736713, 7613008.9021871155], [569072.9395340596, 7613020.126177339], [569105.0, 7612960.0], [569031.6727015303, 7612905.004526148], [569104.612341562, 7612824.799634954], [569074.7368421053, 7612779.2105263155], [569163.7315571125, 7612720.520112068], [569293.9511211163, 7612429.79895087], [569526.1891891892, 7612359.135135135], [569485.0, 7612450.0], [569632.030123844, 7612567.660810716], [569766.1437908497, 7612535.653594771], [569878.8189069277, 7612580.036009792], [570066.270863836, 7612417.1420204975], [570038.6842105263, 7612276.315789473], [570080.4545454546, 7612234.545454546], [570041.4388888577, 7612017.399763093], [570071.6049382716, 7611986.604938271], [570032.3529411765, 7611899.705882353], [569987.2324936446, 7611890.457591865], [570063.2421416151, 7611768.559909982], [570090.3188180404, 7611643.141524105], [570152.2094210797, 7611655.439005491], [570213.7796256456, 7611606.49339362], [570106.6666666666, 7611501.666666667], [570070.0, 7611525.0], [569989.6208028718, 7611445.980970486], [570101.6434173725, 7611305.792589093], [570133.3333333334, 7611188.333333333], [570392.0803586212, 7610994.329671047], [570359.9751948593, 7610815.873078985], [570499.2838096658, 7610619.423249673], [570614.0921256515, 7610558.35399352], [570680.0, 7610465.0], [570727.2727272727, 7610465.0], [570830.0, 7610575.0], [570858.3870967742, 7610556.935483871], [571091.414506546, 7610663.146339831], [571197.6391231029, 7610537.360876897], [571311.7449664429, 7610622.248322148], [571462.0792079208, 7610490.247524752], [571490.0, 7610515.0], [571599.4132963108, 7610369.166188967], [571562.2004443374, 7610184.135851245], [571661.1612710344, 7610149.99829162], [571600.0, 7609917.5], [571628.8095238095, 7609874.285714285], [571661.3642564802, 7609910.7571623465], [571790.6916929546, 7609837.3378884485], [571745.0, 7609740.0], [571932.7384057313, 7609656.301766745], [571997.8947368421, 7609677.631578947], [572019.634662827, 7609593.302711613], [572122.1309255079, 7609526.065462754], [572166.1538461539, 7609548.076923077], [572250.0, 7609395.0], [572300.0, 7609405.0], [572355.8823529412, 7609349.117647059], [572453.3333333334, 7609365.0], [572439.5054545455, 7609277.596363637], [572480.0, 7609225.0], [572571.4660627064, 7609316.466062707], [572677.9496405666, 7609263.970481893], [572765.996430696, 7609319.003569304], [572717.1934314286, 7609140.886686239], [572863.1946193409, 7608874.349536494], [572827.7272727273, 7608752.7272727275], [572875.8068560512, 7608686.660885289], [572773.8387650086, 7608506.328987993], [572850.0, 7608428.333333333], [572961.6514668018, 7608492.925382532], [572966.9022367019, 7608458.293296845], [573126.6666666666, 7608390.555555556], [573181.3266247818, 7608407.604889655], [573194.7487348418, 7608136.625469074], [573335.0, 7608067.692307692], [573264.7797592601, 7607854.045738986], [573188.1118101928, 7607780.785306257], [573098.0841685424, 7607549.555986652], [573056.3608908477, 7607338.520668136], [573013.1019745329, 7607306.0764809], [573029.0826114187, 7606839.611638741], [573104.9795918367, 7606794.224489796], [573243.3172673931, 7606901.586336966], [573274.8461711206, 7607059.230855603], [573382.3945991287, 7607136.05762044], [573431.3317314956, 7607102.936578734], [573504.5352409751, 7607179.22106543], [573581.4064480341, 7607167.187335213], [573739.8107482154, 7607533.006330163], [573839.6089837264, 7607648.80333364], [573764.8409272962, 7607706.107318495], [573835.5710772127, 7607832.182913149], [573799.3071820317, 7608052.658476429], [573839.9065265147, 7608086.34197969], [573831.4258555133, 7608142.851711026], [574030.9176968294, 7608303.296571374], [574045.1390565156, 7608398.075334484], [574181.5797802261, 7608562.031571435], [574115.0, 7608670.0], [574157.0887022691, 7608919.184248662], [574085.8726899384, 7608976.991786447], [574146.0129661688, 7609060.653592937], [574123.2537987189, 7609112.097214553], [574233.1460756352, 7609252.475432285], [574398.5434261287, 7609521.433230228], [574443.6478535496, 7609481.794161316], [574552.4924845452, 7609556.552334744], [574720.1757376657, 7609909.023118567], [574897.8266393298, 7610116.062836014], [574913.7100609214, 7610172.60781688], [575007.0667156703, 7610232.728420214], [575092.380952381, 7610022.619047619], [575159.6406782785, 7609948.04047645], [575186.2987012987, 7609801.385281385], [575107.9190407348, 7609649.622842078], [575229.203720425, 7609542.966659542], [575298.3172118241, 7609547.272150961], [575436.2380584634, 7609717.989942794], [575581.3024283848, 7609578.767476128], [575665.0142170922, 7609579.983360581], [575887.4725274725, 7609357.417582418], [575788.573748598, 7609073.629632991], [575794.1775850861, 7608901.174084788], [575955.932988754, 7608781.941085021], [575875.0, 7608430.0], [575918.8775510204, 7608252.653061224], [575971.6666666666, 7608186.666666667], [575959.7368421053, 7608135.263157895], [576135.273157084, 7607959.726842916], [576087.9017146211, 7607783.779315518], [576141.8801143937, 7607358.390579883], [576376.2185313602, 7607070.629487127], [576371.2358980478, 7606736.158528924], [576607.8747012706, 7606514.32035645], [576667.0666666667, 7606534.2], [576740.9001615515, 7606433.288608673], [576924.077502363, 7606474.9689515615], [577110.0, 7606495.0], [577240.8511222297, 7606370.301639724], [577297.2459011326, 7606432.755830805], [577414.535994874, 7606355.823093642], [577611.3412711282, 7606514.452431142], [577628.3333333334, 7606570.0], [577680.0, 7606595.0], [577741.0937064668, 7606535.074296505], [577914.2857142857, 7606689.285714285], [577950.0, 7606655.0], [578063.8788948476, 7606697.094223067], [578163.9373137449, 7606669.461196152], [578279.7222043184, 7606700.709958105], [578315.0, 7606540.0], [578413.049681101, 7606463.783148708], [578517.6023574492, 7606292.777500104], [578811.1325997012, 7606586.108013775], [578823.391841351, 7606750.760337481], [578939.561295601, 7606874.066142417], [578943.1930714851, 7606984.211668769], [578883.2484853542, 7607010.88693608], [578938.6150581819, 7607234.607415799], [578989.375, 7607221.875], [579055.4092526691, 7607300.836298932], [579129.3260188088, 7607271.269592476], [579243.75, 7607385.0], [579428.0060728745, 7607482.165991903], [579447.8922706154, 7607466.64505708], [579683.011017082, 7607830.413914135], [579777.635208888, 7608057.447636733], [579897.0627395601, 7608194.835594597], [579638.7276010845, 7608672.858796017], [579715.0, 7608902.222222222], [579570.5826309969, 7609068.133808697], [579505.0, 7609324.974909718], [579356.0163999253, 7609542.2273361385], [579294.0694574619, 7609865.320013557], [579294.8073094365, 7610117.415505291], [579398.8141489852, 7610400.3833927745], [579359.3274210964, 7610719.7675806405], [579274.289753112, 7610904.210115764], [579056.3602592894, 7611144.677297829], [578997.9360020256, 7611454.199973468], [579063.700165448, 7611667.730907924], [578924.0077319442, 7611774.463385078], [578882.4766209476, 7611887.891209477], [578685.0, 7612070.0], [578687.709820906, 7612199.131452652], [578728.8163064833, 7612264.739685658], [578682.5511526365, 7612347.164070684], [578928.0392917914, 7613204.512303684], [578895.1260806059, 7613457.501016249], [578662.4230132471, 7613947.334807175], [578752.3660960795, 7614162.098288239], [578627.5042327158, 7614350.63262798], [578287.5836413072, 7614552.043202222], [578246.4177243294, 7614736.7809600495], [577965.7142857143, 7614998.428571428], [577931.34277594, 7614945.94798801], [577793.0431579356, 7614943.985614021], [577662.6020391725, 7614799.025898416], [577570.0, 7614825.0], [577391.6630503515, 7614705.7853360595], [577281.8209185596, 7614809.537244322], [577215.9069935753, 7614741.202794825], [577163.4178304772, 7614784.600471835], [576979.2054596022, 7614775.2238180535], [576738.1886382101, 7614666.282014052], [576710.5138778044, 7614685.869173244], [576714.6551724138, 7614736.206896552], [576394.1476244638, 7614635.92840342], [576325.3387657735, 7614691.582733359], [576245.79594057, 7614641.911770998], [576138.7469788573, 7614701.114144434], [575839.938271605, 7614601.111111111], [575809.3491656161, 7614629.17449329], [575845.1204819278, 7614707.831325301], [575951.7401313417, 7614774.033027187], [576005.8930095724, 7614861.900292643], [576146.4397977333, 7614983.046076192], [576210.4324470147, 7615323.432919119], [576488.535271671, 7615770.94450191], [576600.2314100583, 7615856.711685753], [576639.470046083, 7616048.341013825], [576569.0455118536, 7616273.838621233], [576599.2274766581, 7616325.06574997], [576585.2860256878, 7616384.77499284], [576637.7596741344, 7616465.723014257], [576490.0080477009, 7616629.967809197], [576425.0, 7616760.0], [576455.5336393506, 7616810.075168535], [575855.9277071052, 7617526.391560658], [575885.0, 7617570.0], [574933.1603892291, 7618572.031918463], [574855.5107860476, 7618608.102121673], [574709.3431600725, 7618871.159813809], [574640.5454545454, 7618884.818181818], [574340.0, 7619175.0], [574225.671304284, 7619147.274530893], [574216.4007706023, 7619067.216409935], [574006.6404085235, 7618895.029807612], [573816.700284368, 7619016.903945448], [573262.6625712874, 7618450.500338305], [573173.7259397494, 7618497.794454812], [573120.0, 7618425.0]]]}}]}