{"type": "FeatureCollection", "crs": {"type": "name", "properties": {"name": "EPSG:25833"}}, "features": [{"type": "Feature", "properties": {"station": "19.104.0", "name": "Songedals\u00e5i", "series": ["1001.1"], "nodes": 654426, "fine_vertices": 6392, "fine_area_m2": 65442550.0, "reduced_vertices": 296, "reduced_area_m2": 65442550.00000093, "outline_tolerance_m": 20.0, "windows": [[436, 510], [1170, 1134], [2494, 2333]], "placed_on": "name", "distance_m": 12.74028631284681, "uncertainty_m": 30.0, "elvid": "019-13-1009", "objectid": 10797302, "lake": false, "confluence_near": false, "reach_up_m": 1000.0, "reach_down_m": 130.0, "reach_fork": false, "seeded_by": "river", "lake_rule": null, "lake_number": null, "lake_name": null, "lake_distance_m": null, "node_offset_m": 4.288617368578609, "chain_nodes": 120, "lowered_nodes": 94, "lowered_max_m": 0.3704833984375, "direction_ok": true, "end_extended_m": 0.0, "end_closed": true, "downstream_checked": "whole", "a0": 65.4426, "area_up": 65.2793, "area_down": 65.44330000000001, "swing": 0.002495316506373409, "largest_step": 0.14220000000000255, "largest_step_at_m": 0.0, "checked_up_m": 24.142135623731065, "checked_down_m": 24.142135623731065, "drains": true, "monotone": true, "causes": []}, "geometry": {"type": "Polygon", "coordinates": [[[92080.0, 6601915.0], [91938.88888888889, 6601829.074074074], [91900.0, 6601855.0], [91877.85516915738, 6601729.247839913], [91782.18956182983, 6601562.883089906], [91667.14285714286, 6601487.857142857], [91566.41169828436, 6601500.723536479], [91508.17336532693, 6601378.622275545], [91374.01963149667, 6601463.209043408], [91294.652870494, 6601150.680907877], [91333.56459330143, 6601074.354066986], [91246.53186539764, 6600898.785473708], [91303.14814814815, 6600838.148148148], [91243.15040262045, 6600778.15040262], [91245.493653831, 6600590.248026331], [91040.474006251, 6600385.4373112675], [91024.52380952382, 6600249.523809524], [90986.36363636363, 6600192.2727272725], [91005.73809181876, 6600163.564948857], [90956.81248619586, 6600032.687403371], [90760.83750172319, 6599915.837501723], [90711.57610031468, 6599803.724951454], [90623.30104493376, 6599817.205279665], [90366.40376940089, 6599303.92797763], [90537.46454257493, 6599157.960946525], [90555.77999627424, 6599025.766282022], [90517.37898744468, 6598923.096676326], [90545.46504641451, 6598697.299846787], [90506.1526032316, 6598662.071813285], [90582.8455016007, 6598501.317350664], [90675.60380198716, 6598067.673153475], [90985.6865197801, 6597681.209995486], [91060.41666666667, 6597735.416666667], [91197.5, 6597752.5], [91049.49152542373, 6597605.508474576], [91060.98061708533, 6597313.833896224], [90923.36894001644, 6597061.285949055], [91100.06719235895, 6596839.966403821], [91302.71197274512, 6596718.621436824], [91335.42538354253, 6596750.536959554], [91550.0, 6596785.0], [91710.45673884975, 6596647.552211733], [91695.0, 6596610.0], [91768.15440920182, 6596516.524921576], [91739.66666666667, 6596446.666666667], [91834.24995766739, 6596353.221222695], [91871.57865617158, 6596203.6453314405], [91971.25606469002, 6596221.619946091], [92156.66666666667, 6596086.111111111], [92265.21562664847, 6596150.072578893], [92426.3159764931, 6596174.611042777], [92563.54838709677, 6596120.483870967], [92620.0, 6596205.0], [92682.5, 6596217.5], [92710.0, 6596175.0], [92751.42857142857, 6596216.428571428], [92870.0, 6596195.0], [92929.71905846622, 6596286.305998482], [92914.33241122884, 6596393.362379416], [93106.0, 6596351.8], [93200.53721525155, 6596443.429772201], [93435.34889334934, 6596218.481183944], [93635.1357621208, 6596122.181965578], [93496.26644144408, 6595837.3648021305], [93610.3169225106, 6595793.333863427], [93595.0, 6595720.0], [93721.75981053735, 6595623.114078068], [93748.91304347826, 6595482.173913044], [93715.0, 6595463.333333333], [93755.3235930513, 6595353.018595084], [93761.4285717333, 6595173.711705902], [93943.20972512796, 6595102.426724488], [93866.16279069768, 6595004.186046512], [93892.02161580861, 6594927.802485759], [93863.49672314367, 6594776.307175108], [93913.39180271106, 6594716.783605422], [93812.78466787717, 6594600.569335754], [93860.57231795671, 6594540.926334767], [94050.31041443013, 6594481.469540023], [94192.20430855238, 6594084.860355744], [94145.0, 6594020.0], [94253.43427579063, 6593866.857975487], [94277.86283799024, 6593737.8966581775], [94545.04179439468, 6593779.210419065], [94605.01310467315, 6593740.314077982], [94751.08614232209, 6593743.988764045], [94862.75607223678, 6593632.224756683], [95016.7130334139, 6593708.573978359], [95190.53897747862, 6593670.977466614], [95343.65030674846, 6593497.484662577], [95545.00731078743, 6593472.189131154], [95621.31578947368, 6593382.631578947], [95588.77213695395, 6593342.277449823], [95740.0, 6593191.0], [95907.77777777778, 6593167.222222222], [96089.11237298266, 6592985.887627018], [96183.74476987448, 6592961.255230126], [96067.72788363635, 6592851.530099323], [95865.0, 6592530.0], [96003.15469808222, 6592377.639354497], [96178.33333333333, 6592316.666666667], [96165.0, 6592270.0], [96247.84600166767, 6592102.352402597], [96331.99248120301, 6592006.992481203], [96329.13803552999, 6591932.169261512], [96449.96863705112, 6591858.081953561], [96491.59387243107, 6591717.786189491], [96533.35443037975, 6591668.354430379], [96395.0, 6591530.0], [96485.0, 6591468.888888889], [96485.0, 6591420.0], [96642.72902603664, 6591349.985535198], [96719.08411092102, 6591387.554928564], [96936.2044281517, 6591245.182630974], [97280.37120250952, 6591213.17075481], [97396.66666666667, 6591161.666666667], [97432.33651207172, 6591234.885524827], [97647.51396648044, 6591262.988826816], [97682.28785766187, 6591237.819858212], [98061.69811320755, 6591346.698113208], [98145.0, 6591271.0], [98197.62711864407, 6591322.457627119], [98250.0, 6591295.0], [98267.56884608419, 6591402.20025588], [98403.65918020086, 6591459.340747685], [98636.0, 6591399.0], [98745.56985849857, 6591448.258137487], [98935.53289237944, 6591639.824682155], [99225.35045107565, 6591580.3504510755], [99267.33414948173, 6591622.334149482], [99393.86162617727, 6591567.857216843], [99450.82908941832, 6591602.945026815], [99238.3826200044, 6591794.404073955], [99234.66325022178, 6591928.518226304], [99326.15587978692, 6591976.232143801], [99255.0, 6592060.0], [99373.7323943662, 6592051.690140845], [99500.04983388704, 6592094.950166113], [99395.39222057324, 6592122.321961334], [99337.07266389833, 6592189.464264271], [99098.33705640835, 6592332.856629692], [99198.5, 6592542.5], [99135.98439423714, 6592644.364572906], [99250.90467706567, 6592681.4934645565], [99432.02780811765, 6592873.254150061], [99542.37699316628, 6592914.603644647], [99728.49377256188, 6593073.840533369], [99880.17655451306, 6593030.157594909], [100018.64581013404, 6593095.873881745], [99847.90136423928, 6593219.891872579], [99858.79067902654, 6593463.747082031], [100241.43359376455, 6593452.755448058], [100425.40508839571, 6593682.182992799], [100453.93777566859, 6593784.726338716], [100600.0, 6593925.0], [100748.28967193513, 6593933.297610371], [100774.95207034028, 6594172.263787926], [100969.99531378588, 6594391.270293371], [100950.47770700637, 6594435.222929936], [100967.39733036632, 6594509.0380861275], [101030.42161453381, 6594605.821967385], [101180.10676735282, 6594529.723505995], [101284.08678102927, 6594615.837537841], [101331.75675675676, 6594585.135135135], [101359.8275862069, 6594627.24137931], [101325.58823529411, 6594678.235294118], [101370.55555555556, 6594734.444444444], [101315.71776381465, 6594829.141647424], [101274.82954545454, 6594817.784090909], [101159.45791421387, 6594904.148679841], [101148.95555555556, 6594984.666666667], [101025.0, 6595140.0], [101065.0, 6595180.0], [100945.0, 6595300.0], [100985.0, 6595350.0], [100925.0, 6595380.0], [100882.89222540673, 6595497.851937175], [100673.11979968206, 6595497.865017985], [100363.5868703372, 6595608.801585813], [100384.05124525516, 6595758.211566059], [100326.42857142858, 6595801.428571428], [100355.0, 6595850.0], [100234.76612787915, 6595999.101526025], [100084.94726097214, 6596001.12885312], [99984.150088804, 6596063.6901310915], [99795.0, 6596320.0], [99845.0, 6596370.0], [99833.0, 6596456.0], [99910.90875037691, 6596499.792563625], [100002.25335087418, 6596626.12846432], [99697.9606614915, 6596969.026510522], [99735.0, 6597080.0], [99665.07819847665, 6597089.900474666], [99625.0, 6597220.0], [99789.53064374198, 6597462.091562024], [99790.87879252621, 6597695.055045247], [99720.0, 6597905.0], [99607.39727039136, 6597903.574421405], [99543.56663525394, 6598001.544186556], [99536.6935993373, 6598124.237843206], [99595.0, 6598238.983380951], [99779.22247869393, 6598412.042399324], [99877.12340834425, 6598560.850026614], [99767.06635132508, 6598683.206764725], [99586.06339046426, 6598751.602318022], [99483.07692307692, 6598698.076923077], [99434.07395192239, 6598736.247658502], [99008.35427409397, 6598826.558573607], [98946.78082191781, 6598887.671232876], [98993.69096847464, 6598974.837101714], [98901.32141468841, 6599219.727353041], [98912.0, 6599367.0], [98540.0, 6599695.0], [98585.0, 6599740.0], [98552.8947368421, 6599786.842105263], [98590.56469348185, 6599839.371348264], [98575.0, 6599930.0], [98719.65232844054, 6600146.692492062], [98613.26375546084, 6600270.0], [98565.0, 6600270.0], [98564.09799554566, 6600372.0155902], [98675.86280386175, 6600502.701843827], [98631.11111111111, 6600594.523809524], [98541.89525907725, 6600519.189346076], [98459.55106865441, 6600621.857480581], [98460.0, 6600745.0], [98374.44324324324, 6600665.0], [98168.2359300477, 6600835.0], [98080.0, 6600835.0], [98027.76223776223, 6600887.237762238], [97746.92059730564, 6600857.406648502], [97668.55465912503, 6600907.737944193], [97608.3806060606, 6600869.557575758], [97598.70094722598, 6600896.799729364], [97486.59741718136, 6600888.402582819], [97436.335504886, 6600938.664495114], [97252.47135497714, 6600871.343454684], [97141.26091681368, 6600759.924051555], [97048.15519747662, 6600409.558477792], [97118.38084312373, 6600292.292548884], [97077.20524582383, 6600164.67752018], [96889.13885881245, 6600131.3771893075], [96799.00023311356, 6600056.150038774], [96747.18739001459, 6600098.098149274], [96710.94837577509, 6600200.974824138], [96485.1666862653, 6600189.9285630295], [96379.16886286983, 6600081.073313136], [96180.01166950495, 6600279.5183272045], [96105.48278094675, 6600200.993564607], [96021.00580270794, 6600259.932301741], [95932.34057301295, 6600202.933225509], [95765.91549295775, 6600183.0281690145], [95683.33333333333, 6600131.666666667], [95642.30247645649, 6600177.566530724], [95423.0, 6600131.6], [95404.16786743516, 6600152.943083573], [95463.88745510494, 6600232.298829314], [95376.13153659352, 6600376.8303688355], [95294.38096007069, 6600332.492053239], [95240.0, 6600405.0], [95110.0, 6600395.0], [94918.05385556916, 6600590.495716034], [94786.4705882353, 6600540.882352941], [94720.0, 6600605.0], [94661.54736842106, 6600585.515789473], [94486.04651162791, 6600674.302325581], [94525.0, 6600720.0], [94468.50501249402, 6600817.606475586], [94206.70063381981, 6600788.372391766], [94270.36968510073, 6600904.938169786], [94107.78744354779, 6601047.582734878], [94172.16963216643, 6601160.452120954], [94085.0, 6601290.0], [94115.0, 6601320.0], [93945.52631578948, 6601438.947368421], [94071.23956408132, 6601558.923905424], [94110.0, 6601535.0], [94126.55957118384, 6601639.306452761], [94011.71885201639, 6601754.980870924], [93925.5695926726, 6601996.116818662], [93644.36086270383, 6602042.716991058], [93520.0, 6601965.0], [93479.55727604433, 6602002.311334945], [93321.42857142857, 6601920.714285715], [93185.31085353003, 6601952.2971549], [93070.0, 6601855.0], [93036.0, 6601889.0], [92929.51102791808, 6601832.910388751], [92848.8704652608, 6601843.127943079], [92678.41123644318, 6601998.364464492], [92666.70840253384, 6601991.663614174], [92536.28591328574, 6602061.857043358], [92491.19397902836, 6602006.52441212], [92401.36084550241, 6602040.680422751], [92160.10581372169, 6601989.614297132], [92100.0, 6601895.0], [92080.0, 6601915.0]]]}}]}