{"type": "FeatureCollection", "crs": {"type": "name", "properties": {"name": "EPSG:25833"}}, "features": [{"type": "Feature", "properties": {"station": "19.79.0", "name": "Grav\u00e5", "series": ["1001.1"], "nodes": 53304, "fine_vertices": 1746, "fine_area_m2": 5330450.0, "reduced_vertices": 60, "reduced_area_m2": 5330449.99999998, "outline_tolerance_m": 20.0, "windows": [[519, 420], [1101, 1022]], "placed_on": "number", "distance_m": 49.095337502389086, "uncertainty_m": 49.095337502389086, "elvid": "019-13-1738", "objectid": 12274700, "lake": false, "confluence_near": false, "reach_up_m": 1000.0, "reach_down_m": 149.09533750238916, "reach_fork": false, "seeded_by": "river", "lake_rule": null, "lake_number": null, "lake_name": null, "lake_distance_m": null, "node_offset_m": 1.9948634883183403, "chain_nodes": 111, "lowered_nodes": 3, "lowered_max_m": 0.381927490234375, "direction_ok": true, "end_extended_m": 0.0, "end_closed": true, "downstream_checked": "whole", "a0": 5.3304, "area_up": 5.3277, "area_down": 5.3464, "swing": 0.0030016509079994025, "largest_step": 0.014100000000000001, "largest_step_at_m": 44.142135623731065, "checked_up_m": 40.0, "checked_down_m": 44.142135623731065, "drains": true, "monotone": true, "causes": []}, "geometry": {"type": "Polygon", "coordinates": [[[100960.0, 6588425.0], [100866.66666666667, 6588425.0], [100896.87134502924, 6588237.192982456], [101059.48494565225, 6588249.857618972], [101193.33333333333, 6588138.333333333], [101282.96741252819, 6588125.481873376], [101395.4818238718, 6587980.708957359], [101660.2509060716, 6587821.400605173], [101788.98550724638, 6587681.956521739], [101775.0, 6587640.0], [101831.4705882353, 6587569.411764706], [101930.86459756733, 6587578.112843654], [102148.36911161787, 6587408.391222181], [102115.71428571429, 6587352.142857143], [102165.82236842105, 6587282.828947368], [102378.50692354003, 6587389.894641782], [102541.66247688238, 6587533.611262357], [103023.2324758272, 6587157.821820279], [103070.0, 6586965.0], [103242.06126356094, 6587223.656668793], [103173.8668895038, 6587403.441836763], [103087.45592352157, 6588075.70411205], [103092.60634830211, 6588147.625710673], [103001.73411895146, 6588484.256939457], [102904.66505298208, 6588642.154071765], [102685.63162221457, 6588763.4449351765], [102706.40600772752, 6588982.99135631], [102895.5215881824, 6589131.302936608], [102994.43283610977, 6589281.041538333], [102801.46859304755, 6589642.956631986], [102715.0, 6589740.0], [102752.56204728324, 6589751.431927434], [102643.01926972074, 6590001.9419517815], [102530.9374634891, 6589982.028227345], [102429.26829268293, 6590054.5121951215], [102364.54545454546, 6590011.363636363], [102267.3282841473, 6590117.034473753], [102148.4608331941, 6590113.024249111], [102085.43283553701, 6590050.564071253], [101666.45499528747, 6590390.908341188], [101607.18905472636, 6590560.066334992], [101500.08858513043, 6590689.658829339], [101391.43038010168, 6590697.603898959], [101203.65534273766, 6590587.64873016], [100733.97019142158, 6590661.244330914], [100469.61233899476, 6590404.353588116], [100455.0, 6590294.117647059], [100609.71241938294, 6590202.412220692], [100586.346809547, 6590168.882123722], [100818.5319742057, 6590067.1517945295], [101152.5010687213, 6589687.7164571965], [101141.90567644505, 6589454.304163745], [101170.1431015335, 6589375.513138832], [100926.3953488372, 6589191.395348838], [100906.73462746937, 6588999.032424912], [100987.64412196919, 6588872.2741053365], [101161.82240342101, 6588752.961087315], [101230.12970702468, 6588638.750975438], [101133.06470669663, 6588510.150101139], [101042.0, 6588525.0], [100960.0, 6588425.0]]]}}]}