{"type": "FeatureCollection", "crs": {"type": "name", "properties": {"name": "EPSG:25833"}}, "features": [{"type": "Feature", "properties": {"station": "19.80.0", "name": "Stigvass\u00e5i", "series": ["1001.1"], "nodes": 151974, "fine_vertices": 3360, "fine_area_m2": 15197350.0, "reduced_vertices": 162, "reduced_area_m2": 15197349.999999423, "outline_tolerance_m": 20.0, "windows": [[459, 497], [1128, 1086], [2182, 2078]], "placed_on": "number", "distance_m": 7.190589880643876, "uncertainty_m": 30.0, "elvid": "019-13-4456", "objectid": 12283593, "lake": false, "confluence_near": false, "reach_up_m": 1000.0, "reach_down_m": 130.0, "reach_fork": false, "seeded_by": "river", "lake_rule": null, "lake_number": null, "lake_name": null, "lake_distance_m": null, "node_offset_m": 7.757046053071632, "chain_nodes": 95, "lowered_nodes": 56, "lowered_max_m": 0.74395751953125, "direction_ok": true, "end_extended_m": 24.14213562373095, "end_closed": true, "downstream_checked": "whole", "a0": 15.1974, "area_up": 15.192200000000001, "area_down": 0.001, "swing": 0.0003421637911747101, "largest_step": 0.0027999999999988034, "largest_step_at_m": 0.0, "checked_up_m": 24.14213562373095, "checked_down_m": 24.142135623730837, "drains": false, "monotone": false, "causes": ["chain_not_draining"]}, "geometry": {"type": "Polygon", "coordinates": [[[127300.0, 6535085.0], [127205.36585365854, 6535179.634146341], [126969.17120507511, 6534989.154234127], [126931.5884849766, 6534782.384521294], [126878.43811394891, 6534712.57367387], [126853.67287234425, 6534568.68774271], [126732.93103448275, 6534524.137931035], [126784.4382670719, 6534311.271527896], [126689.64238523759, 6534198.062776931], [126433.99182011648, 6534147.624769402], [126283.8004887164, 6533975.454218772], [126223.69227306501, 6533987.621731752], [125909.12155437501, 6533815.176653151], [125782.47528123236, 6533672.524718768], [125830.79124325005, 6533624.2087567495], [125492.64532304651, 6533261.371699835], [125539.74220846234, 6533115.899277606], [125585.0, 6533110.0], [125589.33664333238, 6533029.158391669], [125524.22628926823, 6532900.9541963], [125565.44025157233, 6532849.378930817], [125462.81449614246, 6532775.616669103], [125514.02914894109, 6532556.9530972745], [125610.33291881677, 6532487.559754032], [125959.06409572565, 6532576.116291574], [126188.80496684431, 6532773.449816558], [126302.91988470023, 6532642.191822388], [126255.0, 6532556.666666667], [126315.0, 6532470.0], [126280.5673570415, 6532371.010911846], [126330.53417485798, 6532249.045566477], [126290.0, 6532195.0], [126179.05748322283, 6532214.504263282], [126033.80837505999, 6531904.82047948], [125955.0, 6531829.550955011], [125953.42674616896, 6531658.835763888], [125977.4420710226, 6531602.206192875], [125831.78368121442, 6531452.001897533], [125787.35573779064, 6531447.38230393], [125697.26452052941, 6531347.536800519], [125636.92493741239, 6531168.276031126], [125716.53846153847, 6531027.692307692], [125685.0, 6531010.0], [125703.41492831804, 6530907.145571143], [125585.87525150906, 6530799.124748491], [125439.47322125801, 6530747.477757816], [125374.39367362451, 6530647.779253431], [125339.32432432432, 6530675.405405405], [125219.14851485149, 6530503.297029703], [125132.31002242045, 6530563.655011211], [125081.0, 6530538.0], [125125.0, 6530360.0], [125260.0, 6530225.0], [125323.86363636363, 6530230.681818182], [125306.70775959523, 6530202.483127662], [125394.42136498516, 6530145.296735905], [125586.77580818353, 6530262.35480362], [125627.5084105515, 6530195.254802554], [125808.31160275805, 6530273.011049002], [125860.0, 6530205.0], [125930.0, 6530205.0], [126000.0, 6530135.0], [126162.5, 6530262.5], [126200.0, 6530255.0], [126419.80392156863, 6530421.75070028], [126550.0, 6530445.0], [126593.33333333333, 6530502.777777778], [126715.96375617792, 6530511.540362438], [126784.06779661016, 6530569.915254237], [126885.0, 6530530.0], [126785.3763119039, 6530375.56805938], [126876.06179212627, 6530250.76424627], [126429.66484503969, 6529986.3057537945], [126535.0, 6529960.0], [126464.11764705883, 6529875.0], [126264.41450535797, 6529792.349743749], [126362.0981210856, 6529678.3855254], [126502.258401065, 6529744.274388777], [126567.28167874434, 6529666.376894758], [126664.65189873418, 6529625.0], [126729.04109589041, 6529538.424657534], [126820.24625267666, 6529593.147751606], [126754.54545454546, 6529638.636363637], [126803.07795565279, 6529715.05816844], [126895.0, 6529719.569694741], [126895.0, 6529753.333333333], [126967.31517509728, 6529741.225680934], [126916.89340968971, 6529698.438158284], [127021.19047619047, 6529664.285714285], [127114.77327283334, 6529777.55081167], [127149.02793574957, 6529850.21421597], [127370.70076454889, 6530000.656112652], [127480.0, 6529985.0], [127565.9694104336, 6530070.969410433], [127505.88030398986, 6530167.606079797], [127560.0, 6530195.0], [127640.0, 6530155.0], [127681.75254237288, 6530270.298305085], [127805.0, 6530340.0], [127812.13938702125, 6530408.647952127], [127685.0, 6530531.6183986375], [127746.20984913044, 6530774.8284824705], [127967.52733734126, 6530862.443066421], [128015.55555555556, 6530915.0], [128249.61968132295, 6531016.719420656], [128290.0, 6531135.0], [128401.24201815599, 6531104.8619979825], [128474.57748286102, 6531035.338013711], [128558.55018587361, 6531184.962825279], [128674.55668261065, 6531159.505329071], [128794.27802799258, 6531344.424791601], [128868.1364340224, 6531354.689229979], [129295.84922641523, 6531555.873205645], [129184.20245398773, 6531727.651183173], [129214.1023477111, 6531821.460319124], [129278.26583131518, 6531868.257887598], [129245.57422532576, 6531939.5417420035], [129281.06141556324, 6531979.707263612], [129161.44759569579, 6532114.998643953], [129317.81129061514, 6532271.358160828], [129301.19047619047, 6532297.619047619], [129378.30392943064, 6532379.053728949], [129408.38200798098, 6532485.832038298], [129538.75913279285, 6532642.551502898], [129501.0, 6532684.0], [129591.09770453208, 6532866.091818717], [129665.0, 6532920.0], [129552.58706467661, 6533032.412935323], [129624.07960199004, 6533140.92039801], [129589.61538461539, 6533175.384615385], [129664.1059891991, 6533317.36017801], [129527.72727272728, 6533457.2727272725], [129559.02366863906, 6533563.964497041], [129520.48658042093, 6533621.770129369], [129619.67289719626, 6533715.0], [129704.00527648958, 6533900.294268568], [129667.47198719415, 6533937.4319689], [129684.82707785488, 6534096.882091586], [129819.85995115804, 6534012.289926737], [129863.82352941176, 6534078.235294118], [129832.11805069319, 6534125.342389021], [129865.0, 6534197.5], [129846.51457971557, 6534364.669456248], [129475.78329950351, 6534617.529118378], [129163.29042441463, 6534727.882774618], [128993.56346642198, 6534639.082567677], [128869.5106917387, 6534599.24296204], [128579.71043427546, 6534318.121553765], [128414.12060301508, 6534354.849246231], [128401.25, 6534316.25], [128277.14018277788, 6534413.926809444], [128199.4871005612, 6534565.169653282], [128234.0723215793, 6534593.167532248], [128175.31392701389, 6534710.941781041], [128200.68051987478, 6534833.708597449], [128075.91577794643, 6534969.275562694], [128112.28266788277, 6535032.884258122], [128078.19587628866, 6535262.529607225], [127950.0154953414, 6535354.709566701], [127751.77175495432, 6535305.0], [127625.00106765318, 6535095.095999797], [127369.26799240481, 6535167.548230559], [127300.0, 6535085.0]]]}}]}