{"type": "FeatureCollection", "crs": {"type": "name", "properties": {"name": "EPSG:25833"}}, "features": [{"type": "Feature", "properties": {"station": "19.82.0", "name": "Rau\u00e5na", "series": ["1001.1"], "nodes": 88724, "fine_vertices": 2812, "fine_area_m2": 8872450.0, "reduced_vertices": 128, "reduced_area_m2": 8872449.99999982, "outline_tolerance_m": 20.0, "windows": [[461, 478], [1077, 1064], [1896, 2263]], "placed_on": "number", "distance_m": 6.759242778971199, "uncertainty_m": 30.0, "elvid": "019-13-3861", "objectid": 12278744, "lake": false, "confluence_near": false, "reach_up_m": 1000.0, "reach_down_m": 130.0, "reach_fork": false, "seeded_by": "river", "lake_rule": null, "lake_number": null, "lake_name": null, "lake_distance_m": null, "node_offset_m": 4.514964683017364, "chain_nodes": 108, "lowered_nodes": 24, "lowered_max_m": 0.9462890625, "direction_ok": true, "end_extended_m": 38.2842712474619, "end_closed": true, "downstream_checked": "whole", "a0": 8.8724, "area_up": 8.870700000000001, "area_down": 8.8744, "swing": 0.00022541815066936695, "largest_step": 0.0008999999999996788, "largest_step_at_m": -14.142135623731065, "checked_up_m": 24.142135623731065, "checked_down_m": 30.0, "drains": true, "monotone": true, "causes": []}, "geometry": {"type": "Polygon", "coordinates": [[[122670.0, 6556415.0], [122604.02173913043, 6556415.0], [122485.48387096774, 6556296.29032258], [122375.62649164678, 6556318.669451074], [122303.0279942923, 6556271.322604973], [121747.94396946703, 6556257.4395402605], [121605.0, 6556340.0], [121500.0, 6556325.0], [121315.17932800483, 6556406.535464643], [121259.4383954517, 6556353.072104106], [120961.38200056927, 6556263.146190203], [121007.15295095595, 6556165.810473816], [120872.87529332886, 6556052.124706672], [120933.122730465, 6555927.726752955], [120756.71578679622, 6555760.576307088], [120695.0, 6555610.0], [120625.0, 6555540.0], [120662.77777777778, 6555487.777777778], [120616.66666666667, 6555441.666666667], [120653.33333333333, 6555398.333333333], [120430.0, 6555145.0], [120376.63346613546, 6555144.06374502], [120265.0, 6555010.0], [120328.17178115089, 6554907.534940747], [120509.23423423423, 6554892.117117117], [120565.15679838248, 6554956.8853832], [120686.66666666667, 6554991.666666667], [120951.36868473509, 6555275.221604403], [121364.84848685033, 6555531.323344761], [121464.0313111546, 6555545.821917809], [121590.0, 6555675.0], [121626.66666666667, 6555641.666666667], [121720.0, 6555655.0], [121823.39595906947, 6555590.761194989], [121948.6339133376, 6555415.0], [122004.28571428571, 6555415.0], [121999.43113772455, 6555357.784431138], [122180.84395826953, 6555178.101593824], [122161.56512993084, 6555125.367905636], [122274.0, 6555075.0], [122432.72727272728, 6555202.2727272725], [122523.77370175059, 6555167.8507346455], [122678.57142857143, 6555230.714285715], [122900.0, 6555215.0], [123011.4, 6555130.8], [122962.06211327291, 6555074.537866912], [122957.5, 6554897.5], [123027.13740539375, 6554726.571823125], [123500.32299090442, 6554764.180952999], [123529.04572275806, 6554808.888392447], [123677.4814937063, 6554667.286806702], [123767.77880343975, 6554728.334564128], [124077.64951207275, 6554854.183214703], [124247.53244468004, 6554779.723828467], [124350.0, 6554655.0], [124380.0, 6554685.0], [124551.05490320997, 6554553.04336038], [125001.45573396915, 6554844.867148495], [125242.8, 6554804.6], [125313.33333333333, 6554710.555555556], [125363.7590022835, 6554723.409157445], [125520.54942189108, 6554583.933768159], [125885.08245438771, 6554578.910936394], [125936.44766651563, 6554438.552333484], [125959.82345998255, 6554444.589656147], [126242.91160560776, 6554098.348146525], [126245.0, 6554038.0], [126295.0, 6554000.0], [126280.89928057554, 6553945.395683453], [126339.19887277715, 6553862.2587979995], [126830.0, 6554215.0], [126939.90588252674, 6554240.977754052], [127042.12127766482, 6554135.012121347], [127073.53341219996, 6554168.439331205], [126928.33333333333, 6554286.666666667], [126926.04584527221, 6554363.341690544], [127008.6391770861, 6554466.936318268], [127078.6390404264, 6554678.742572731], [126881.08695652174, 6554842.252964427], [126860.0, 6554825.0], [126820.7137446102, 6554933.814833693], [126543.7531675509, 6555274.607965408], [126388.34136309267, 6555398.721703312], [126322.47295905421, 6555522.583002482], [126112.87697394252, 6555473.323293286], [126100.0, 6555535.0], [126042.56756756757, 6555528.6486486485], [125983.4720874665, 6555674.312214901], [125907.14285714286, 6555655.0], [125780.0, 6555795.0], [125682.64985733734, 6555759.70420331], [125628.28981463026, 6555813.604145904], [125567.6404494382, 6555752.2808988765], [125554.16699740927, 6555700.892981201], [125384.9652807181, 6555909.686679651], [125384.78591817316, 6555959.728829686], [125535.0, 6556090.0], [125502.96267496112, 6556150.793157076], [125597.787841572, 6556205.815167332], [125682.5, 6556380.625], [125675.04936646372, 6556439.786352916], [125765.0, 6556530.0], [125742.64866979656, 6556630.567292645], [125629.37070249961, 6556624.496561999], [125581.02040816327, 6556585.816326531], [125528.43821598828, 6556628.198628585], [125367.89207102239, 6556587.972362665], [125307.74647887323, 6556622.746478873], [125074.49243078365, 6556622.67045901], [125048.25090843873, 6556735.651981871], [124897.5, 6556667.5], [124695.3902956107, 6556695.835334688], [124657.21970187945, 6556740.288399222], [124563.33333333333, 6556681.666666667], [124511.11111111111, 6556733.888888889], [124386.3868113827, 6556636.576523167], [124211.76470588235, 6556783.823529412], [124079.33458331013, 6556733.3067737445], [123936.71772428884, 6556810.623632385], [123870.39127360017, 6556736.569616103], [123785.0, 6556825.0], [123655.77866490191, 6556778.934419231], [123623.0543661358, 6556813.283508626], [123294.56807187284, 6556468.462335867], [123295.0, 6556406.0], [123151.68809777372, 6556334.446126099], [123070.34421851662, 6556377.4284651885], [122796.51149673181, 6556299.989548425], [122670.0, 6556415.0]]]}}]}