{"type": "FeatureCollection", "crs": {"type": "name", "properties": {"name": "EPSG:25833"}}, "features": [{"type": "Feature", "properties": {"station": "19.96.0", "name": "Storgama ovf.", "series": ["1001.1"], "nodes": 4, "fine_vertices": 16, "fine_area_m2": 350.0, "reduced_vertices": 4, "reduced_area_m2": 350.0, "outline_tolerance_m": 20.0, "windows": [[474, 435]], "placed_on": "number", "distance_m": 4.275422171428927, "uncertainty_m": 30.0, "elvid": "019-13-3529", "objectid": 12277941, "lake": false, "confluence_near": false, "reach_up_m": 758.7325494754527, "reach_down_m": 130.0, "reach_fork": false, "seeded_by": "river", "lake_rule": null, "lake_number": null, "lake_name": null, "lake_distance_m": null, "node_offset_m": 14.66972226351661, "chain_nodes": 85, "lowered_nodes": 34, "lowered_max_m": 0.6209716796875, "direction_ok": true, "end_extended_m": 0.0, "end_closed": true, "downstream_checked": "whole", "a0": 0.0004, "area_up": 0.0014, "area_down": 0.0006000000000000001, "swing": 0.5000000000000001, "largest_step": 0.00010000000000000005, "largest_step_at_m": 28.284271247461902, "checked_up_m": 24.14213562373095, "checked_down_m": 28.284271247461902, "drains": false, "monotone": false, "causes": ["swing", "chain_not_draining"]}, "geometry": {"type": "Polygon", "coordinates": [[[136275.0, 6563180.0], [136280.0, 6563175.0], [136305.0, 6563200.0], [136296.0, 6563209.0], [136275.0, 6563180.0]]]}}]}