{"type": "FeatureCollection", "crs": {"type": "name", "properties": {"name": "EPSG:25833"}}, "features": [{"type": "Feature", "properties": {"station": "196.11.0", "name": "Lille Rostavatn", "series": ["1001.1"], "nodes": 22, "fine_vertices": 88, "fine_area_m2": 2150.0, "reduced_vertices": 4, "reduced_area_m2": 2150.0, "outline_tolerance_m": 20.0, "windows": [[520, 467], [939, 945]], "placed_on": "number", "distance_m": 186.40646031896057, "uncertainty_m": 186.40646031896057, "elvid": "196-74-4332", "objectid": 12080866, "lake": false, "confluence_near": false, "reach_up_m": 1000.0, "reach_down_m": 286.4064603189606, "reach_fork": false, "seeded_by": "river", "lake_rule": null, "lake_number": null, "lake_name": null, "lake_distance_m": null, "node_offset_m": 5.04562395282132, "chain_nodes": 141, "lowered_nodes": 37, "lowered_max_m": 1.0226898193359375, "direction_ok": true, "end_extended_m": 150.71067811865476, "end_closed": true, "downstream_checked": "whole", "a0": 0.0022, "area_up": 0.0014, "area_down": 0.0007, "swing": 0.3636363636363637, "largest_step": 0.3067, "largest_step_at_m": 118.99494936611745, "checked_up_m": 177.27922061357935, "checked_down_m": 181.42135623731065, "drains": false, "monotone": false, "causes": ["swing", "chain_not_draining"]}, "geometry": {"type": "Polygon", "coordinates": [[[683270.0, 7663905.0], [683055.0, 7663690.0], [683060.0, 7663685.0], [683275.0, 7663900.0], [683270.0, 7663905.0]]]}}]}