{"type": "FeatureCollection", "crs": {"type": "name", "properties": {"name": "EPSG:25833"}}, "features": [{"type": "Feature", "properties": {"station": "196.7.0", "name": "Ytre Fiskel\u00f8svatn", "series": ["1001.1"], "nodes": 542588, "fine_vertices": 5772, "fine_area_m2": 54259050.0, "reduced_vertices": 263, "reduced_area_m2": 54259049.99999949, "outline_tolerance_m": 20.0, "windows": [[779, 839], [1439, 1532], [2336, 2785]], "placed_on": "number", "distance_m": 59.20726427733073, "uncertainty_m": 59.20726427733073, "elvid": "196-116-1", "objectid": 12098391, "lake": true, "confluence_near": false, "reach_up_m": 1000.0, "reach_down_m": 159.20726427733075, "reach_fork": false, "seeded_by": "lake", "lake_rule": "lake_line", "lake_number": 2417, "lake_name": "Ytre Fiskelausvatnet", "lake_distance_m": 15.854648640242987, "node_offset_m": null, "chain_nodes": null, "lowered_nodes": null, "lowered_max_m": null, "direction_ok": null, "end_extended_m": null, "end_closed": null, "downstream_checked": null, "a0": null, "area_up": null, "area_down": null, "swing": null, "largest_step": null, "largest_step_at_m": null, "checked_up_m": null, "checked_down_m": null, "drains": null, "monotone": null, "causes": []}, "geometry": {"type": "Polygon", "coordinates": [[[654195.0, 7689040.0], [654071.4344239515, 7689074.750041525], [653991.1409989286, 7689030.713860385], [653830.0, 7689025.0], [653820.0, 7688995.0], [653793.1578947369, 7689021.842105263], [653520.0, 7688915.0], [653406.0866935267, 7688962.786966196], [653130.5555555555, 7688846.666666667], [653154.535451806, 7688812.250514545], [653091.0655737704, 7688696.065573771], [653092.2727272727, 7688586.363636363], [653153.2384096468, 7688533.8735550465], [653225.8701247277, 7688550.1197782615], [653291.8626011467, 7688477.936315489], [653311.9696969697, 7688284.545454546], [653247.2094753984, 7688154.589767714], [653376.0310825182, 7688156.650258495], [653461.8160895675, 7688094.987595539], [653366.685711459, 7687991.041651208], [653307.638589618, 7687975.831537708], [653275.0, 7687910.0], [653317.9069347183, 7687849.0721527], [652995.054658764, 7687556.333606793], [652970.0575689275, 7687500.142527548], [652803.6075908971, 7687483.900840708], [652806.3730642044, 7687441.209752751], [652561.5796797248, 7687262.462503837], [652530.7905891559, 7687289.622752223], [652440.9652730457, 7687177.237770893], [652132.8239289292, 7687022.501925269], [652074.5479390422, 7686936.589726656], [651659.513117497, 7686839.743429567], [651548.4848715131, 7686876.839795206], [651486.9213640126, 7686935.921936015], [651270.3023056957, 7686862.756278803], [651059.5, 7686615.5], [651138.0845708725, 7686536.915429127], [650918.5294990238, 7686283.529499024], [650823.017515355, 7686087.3767837025], [650609.3421052631, 7685854.342105263], [650690.0, 7685808.333333333], [650824.9762470309, 7685658.959619952], [650715.0, 7685500.0], [650668.1835581403, 7685516.649534517], [650464.0629993152, 7685471.804382561], [650206.7489575633, 7685306.778312709], [650160.7915631883, 7685045.791563189], [650115.0, 7685000.0], [650149.0657814258, 7684838.717457674], [650126.7162146156, 7684790.978325239], [650233.8888888889, 7684606.666666667], [650214.9295547677, 7684588.131129426], [650325.0, 7684461.504174001], [650346.1249696431, 7684190.436111281], [650440.0, 7684075.0], [650610.8207516487, 7684047.360077093], [650788.5086416176, 7684089.8906086795], [651013.1881833066, 7684090.524513554], [651242.6946750412, 7684143.31950476], [652163.0673402904, 7683257.287688897], [652335.0, 7683220.0], [652316.9707729715, 7682960.621821071], [652530.6085254875, 7682768.412788231], [652497.6803182471, 7682719.02047737], [652667.5150253772, 7682544.391277492], [652645.0, 7682520.0], [652698.3333333334, 7682496.666666667], [652768.0405818417, 7682512.721440131], [652745.3333333334, 7682551.888888889], [652856.0209921799, 7682618.670137399], [653101.6545071944, 7682573.345492805], [653850.0, 7681825.0], [653998.4446496281, 7681891.820586521], [654078.1507492731, 7682023.410199061], [654246.2364372016, 7682115.337277802], [654288.703712655, 7682171.587097011], [654404.8538404678, 7682213.542436664], [654447.4657534247, 7682142.808219178], [654645.5252015243, 7682076.08126253], [654782.8147583953, 7681907.814758395], [654940.0, 7682065.0], [655019.9997080183, 7682042.142940566], [655172.0989059171, 7682133.455706287], [655420.4375729288, 7682133.010501751], [655535.4846225588, 7682259.655286242], [655722.224665296, 7682311.831489041], [655835.0, 7682490.0], [655759.1972980255, 7682692.959470382], [655845.722847593, 7682780.60298129], [655850.0, 7682855.0], [656056.114426883, 7682659.822240973], [656225.2380952381, 7682605.0], [656401.7981903562, 7682387.543809415], [656437.5, 7682420.0], [656460.0, 7682375.0], [656523.1105519208, 7682404.923502768], [656597.9373903248, 7682517.835931852], [656700.0, 7682475.0], [656880.9090909091, 7682659.545454546], [657015.1830074745, 7682678.577893342], [657123.3341593393, 7682864.982262617], [657296.7647058824, 7682998.235294118], [657275.0, 7683020.0], [657371.6241615196, 7683076.581656372], [657335.0, 7683140.0], [657363.6421234434, 7683187.736872406], [657352.7080100784, 7683272.291989922], [657570.0439882698, 7683466.973607038], [657640.0, 7683425.0], [657683.9093500739, 7683497.474192975], [657758.0, 7683484.333333333], [657840.5001448296, 7683557.666795404], [658202.8104165843, 7683747.692637817], [658232.5374625374, 7683709.975024975], [658261.6827474495, 7683760.30050439], [658390.0, 7683625.0], [658554.0865935752, 7683645.154918132], [658694.2297777483, 7683802.95520467], [658810.0, 7683855.0], [658851.4285714285, 7683818.142857143], [658910.0, 7683865.0], [658950.0, 7683825.0], [659034.2037302726, 7683861.599713056], [659103.6744016627, 7683800.378406391], [659146.1538461539, 7683904.230769231], [659190.0, 7683875.0], [659307.8, 7683992.8], [659367.5, 7683927.5], [659457.1739130435, 7684009.130434782], [659524.6883139036, 7684195.9585980475], [659534.4803620444, 7684346.276329497], [659590.3962360754, 7684323.053114235], [659663.4456517466, 7684435.74130437], [659780.0, 7684315.0], [659851.052631579, 7684384.47368421], [659872.5145778665, 7684577.631200799], [660043.73643657, 7684885.685235147], [660138.6708893868, 7684884.2132198205], [660329.002375746, 7685003.32735954], [660316.2832289167, 7685147.86859464], [660500.267245545, 7685299.86785187], [660705.0, 7685370.0], [660695.0, 7685420.0], [660757.6003523824, 7685468.460369746], [660808.2653061225, 7685365.102040816], [660893.9930209372, 7685364.995014955], [661081.7859474216, 7685513.214052578], [661153.347260368, 7685498.347260368], [661190.0, 7685535.0], [661418.2453882454, 7685336.535821536], [661446.6666666666, 7685348.333333333], [661580.4939666996, 7685248.230984748], [661680.0, 7685255.0], [661722.8571428572, 7685197.857142857], [661796.6666666666, 7685185.0], [661844.2070298186, 7685094.096425108], [662060.9281744959, 7685392.621318532], [662252.0, 7685405.0], [662386.388024495, 7685555.0809595445], [662373.7204058624, 7685587.175873731], [662547.9437374602, 7685623.7027376], [662749.6951431726, 7685834.794838728], [663016.9663923731, 7685880.770152592], [663067.34375, 7685960.78125], [663189.5848056537, 7686015.415194347], [663266.6547454098, 7685926.242645096], [663406.0850636256, 7686030.894425581], [663250.9431719097, 7686109.663780428], [663226.8995503315, 7686380.474822274], [663273.2074296015, 7686458.229476797], [663182.6259028949, 7686530.917408148], [663032.7119552129, 7686509.937704253], [662957.8348024812, 7686552.788442703], [662908.7804878049, 7686504.024390244], [662806.0423634336, 7686515.033444816], [662740.9295105917, 7686463.628560994], [662518.8235294118, 7686627.352941177], [662465.4545454546, 7686548.636363637], [662353.8186978824, 7686636.768179761], [662253.1652301486, 7686636.595452045], [662180.0, 7686675.0], [662166.8464433919, 7686581.202519685], [661963.8275052247, 7686502.35422831], [661866.8262812699, 7686822.838528063], [661809.674796748, 7686840.934959349], [661671.3767297901, 7686764.313755652], [661671.8390276573, 7686813.765871019], [661407.2727272727, 7687002.2727272725], [661372.3099742393, 7686961.288722737], [661215.693535415, 7687012.421442547], [661084.3316869996, 7687018.308849395], [660883.3689296911, 7687189.008979721], [660827.9727385378, 7687200.107806692], [660943.3333333334, 7687345.0], [660862.0099818029, 7687355.076406551], [660853.6187790734, 7687508.895023258], [660969.9122807018, 7687601.929824562], [660931.7465696003, 7687644.124760295], [660732.680107165, 7687562.511665065], [660531.4424752588, 7687809.90435973], [660517.5193083485, 7688013.616366784], [660360.0, 7688005.0], [660313.7813640761, 7688139.209120997], [660212.9126213592, 7688177.362459547], [660172.6315789474, 7688136.578947368], [660032.558163631, 7688180.335621488], [659877.4127964919, 7688295.8909706995], [659755.5813953489, 7688259.4186046515], [659710.0, 7688305.0], [659497.9245283019, 7688272.09173715], [659328.5663522957, 7688325.132560194], [659272.880140909, 7688305.935889032], [659239.1171749599, 7688483.619582664], [659066.5978366346, 7688384.604682033], [659044.2857142857, 7688285.0], [658794.7445338091, 7688430.722380568], [658744.4642857143, 7688419.821428572], [658622.8125355104, 7688513.271508549], [658525.8161980581, 7688652.734286928], [658307.8244539406, 7688491.646662597], [658260.0, 7688535.0], [658185.2, 7688476.6], [658125.4827413707, 7688490.252626313], [658049.1542355634, 7688579.006702833], [657918.2886757085, 7688525.0], [657855.4209621993, 7688602.912371134], [657739.298245614, 7688433.421052632], [657685.5172413794, 7688465.689655173], [657500.0, 7688345.0], [657472.2834807571, 7688413.633482514], [657323.3333333334, 7688392.333333333], [657218.5013314607, 7688320.39357425], [657143.229713363, 7688383.631408962], [656875.2517722779, 7688397.049790623], [656755.0, 7688550.0], [656819.2857142857, 7688625.714285715], [656761.6666666666, 7688683.333333333], [656762.0669745959, 7688765.935334873], [656814.2980395519, 7688786.323302469], [656687.747704205, 7688917.943450943], [656697.5, 7688987.5], [656627.643312102, 7689038.057324841], [656570.0, 7689015.0], [656440.0, 7689095.0], [656256.8418151315, 7689001.822053763], [656022.797481637, 7688772.3976915], [655951.6967196309, 7688866.832144571], [655810.2236868163, 7688830.877108099], [655717.8735876433, 7688741.101238515], [655532.2222222222, 7688852.777777778], [655445.8208955224, 7688820.9701492535], [655078.0236713986, 7689101.804449159], [655040.0, 7689065.0], [654997.1428571428, 7689093.571428572], [654970.0, 7689065.0], [654876.1995356069, 7689091.6466451995], [654733.2239114149, 7689050.352106051], [654651.7567567568, 7689184.864864865], [654409.8025228838, 7689106.352240605], [654403.3333333334, 7689038.333333333], [654218.196347032, 7688948.401826484], [654151.1695068617, 7688995.125923691], [654195.0, 7689040.0]]]}}]}