{"type": "FeatureCollection", "crs": {"type": "name", "properties": {"name": "EPSG:25833"}}, "features": [{"type": "Feature", "properties": {"station": "2.11.0", "name": "Narsj\u00f8", "series": ["1001.0"], "nodes": 1202624, "fine_vertices": 10262, "fine_area_m2": 120262350.0, "reduced_vertices": 421, "reduced_area_m2": 120262350.00000003, "outline_tolerance_m": 20.0, "windows": [[707, 681], [1505, 1479], [2854, 2868], [5229, 4714]], "placed_on": "number", "distance_m": 83.88739985248317, "uncertainty_m": 83.88739985248317, "elvid": "002-34-2695", "objectid": 12252329, "lake": true, "confluence_near": true, "reach_up_m": 776.3306466273291, "reach_down_m": 101.61540857075659, "reach_fork": false, "seeded_by": "lake", "lake_rule": "inside", "lake_number": 245, "lake_name": "Narsj\u00f8en", "lake_distance_m": 0.0, "node_offset_m": null, "chain_nodes": null, "lowered_nodes": null, "lowered_max_m": null, "direction_ok": null, "end_extended_m": null, "end_closed": null, "downstream_checked": null, "a0": null, "area_up": null, "area_down": null, "swing": null, "largest_step": null, "largest_step_at_m": null, "checked_up_m": null, "checked_down_m": null, "drains": null, "monotone": null, "causes": []}, "geometry": {"type": "Polygon", "coordinates": [[[319915.0, 6923260.0], [319968.1237472843, 6923100.628758147], [319924.2637680137, 6923110.736231986], [319769.5078706665, 6922988.157666869], [319829.1559437584, 6922774.155943759], [319575.4761904762, 6922520.476190476], [319606.43067123555, 6922222.492694973], [319580.9132161089, 6921970.609756097], [319544.347826087, 6921965.0], [319478.657823741, 6922092.289418465], [319395.0, 6922010.0], [319408.8556333152, 6921801.788233486], [319340.27630392474, 6921718.2494842345], [319427.54479145847, 6921553.898199167], [319402.9316120783, 6921447.433742285], [319534.8606639836, 6921227.438868767], [319309.3102615416, 6920987.340418191], [319404.05906787975, 6920581.879371554], [319316.46221788676, 6920492.089581603], [319175.16069861175, 6920475.3926872425], [318902.5, 6920297.5], [318729.65921830904, 6920247.448099895], [318700.0, 6920285.0], [318633.8823285685, 6920276.862440439], [318544.82645663223, 6920359.826456632], [318450.0, 6920265.0], [318390.0, 6920285.0], [318189.57830206206, 6920110.539661898], [318093.1337743731, 6920110.057199941], [317944.1647384029, 6920042.458064344], [317851.17647058825, 6919928.529411765], [317800.0, 6919945.0], [317760.0961391868, 6919855.502662076], [317554.24443947535, 6919680.203213256], [317461.3157894737, 6919716.842105263], [317426.03993344423, 6919680.973377704], [317382.4459386082, 6919725.953194672], [317299.6875, 6919732.8125], [317190.340582764, 6919568.731420834], [317137.6086748753, 6919423.924262869], [317028.1255652412, 6919358.898967176], [316997.26449496194, 6919380.026675139], [316892.4347826087, 6919307.434782608], [316792.4997799877, 6919391.137463698], [316468.34110997844, 6919239.026255725], [315999.8603546462, 6919204.197003195], [315906.6417811932, 6919238.358218807], [315823.99539028504, 6919223.616396618], [315745.8512925067, 6919138.590293698], [315192.95098188287, 6919606.608530344], [314431.77210769453, 6920351.6274893], [314341.46781860664, 6920378.327398363], [314055.65167243365, 6920541.955017301], [314030.0, 6920485.0], [314066.97178660816, 6920390.516545335], [313675.64146093465, 6919864.412886489], [313351.7966588294, 6919763.20334117], [313395.35714285716, 6919719.642857143], [313346.68063454056, 6919645.2149057165], [313265.0, 6919674.285714285], [313294.75, 6919578.841666667], [313253.41195427836, 6919530.4203151865], [313345.0, 6919500.0], [313360.0017047392, 6919364.769860212], [313385.0, 6919364.358974359], [313380.32191985665, 6919268.199065127], [313513.65772509464, 6919062.405549877], [313495.682487506, 6918960.703547731], [313574.2778977453, 6918853.40119141], [313686.96052692516, 6918371.630511856], [313706.9553275384, 6918345.537842667], [313756.63249810174, 6918217.760060744], [313699.28571428574, 6918121.428571428], [313645.0, 6918110.0], [313685.0, 6918030.0], [313621.7303430432, 6917949.238835362], [313775.24590163934, 6917912.377049181], [313728.72465120995, 6917675.149232382], [313778.222919929, 6917612.163648376], [313733.8050804862, 6917579.07940477], [313690.07822566776, 6917599.672686792], [313593.835505955, 6917543.404913568], [313573.3930241736, 6917438.393024174], [313517.85714285716, 6917382.857142857], [313421.2953995157, 6917090.589184826], [313443.0733944954, 6917023.440366972], [313375.0, 6916870.0], [313517.3423865855, 6916878.787815166], [313644.5277978974, 6916769.512839492], [313643.3157944732, 6916732.328574439], [314469.34226097655, 6915966.739268207], [314468.09277905157, 6915757.70598767], [314425.86307763145, 6915719.76091018], [314417.97297297296, 6915421.081081081], [314325.0, 6915330.0], [314770.0, 6914885.0], [314880.5396181222, 6914717.776886422], [314865.71221700095, 6914369.37221739], [314927.38095238095, 6914307.142857143], [314926.72668872884, 6914210.09343975], [315035.0, 6914078.0], [315083.0231084672, 6913938.396223094], [314992.6808210859, 6913812.0667036725], [315033.68852459016, 6913640.273224044], [314998.8092345079, 6913558.8882138515], [315020.84721636097, 6913430.098120192], [314940.55555555556, 6913324.444444444], [315021.140537663, 6913227.881288262], [314885.0, 6913150.0], [314900.71428571426, 6913122.857142857], [314790.7534246575, 6913024.2465753425], [314766.6940799674, 6912880.874101178], [314674.7418244406, 6912838.674698795], [314661.75327878963, 6912772.000164453], [314513.6526757332, 6912626.14094764], [314665.0, 6912560.0], [314635.37564834865, 6912544.355679465], [314669.5988611465, 6912496.806900137], [314538.7175264006, 6912354.315170577], [314725.1347772022, 6912143.994439405], [314958.17766853934, 6911961.162219102], [314954.9683081424, 6912029.968308142], [315059.49240113783, 6912092.861696058], [315195.0, 6912085.454545454], [315195.0, 6912150.0], [315408.68354958174, 6912288.104047319], [315662.6028048784, 6912312.230741596], [315734.32986424264, 6912392.121498848], [315907.1337579618, 6912425.828025478], [316027.6779463244, 6912535.0], [316181.48737130215, 6912535.0], [316238.9245397188, 6912623.924539719], [316335.2703587676, 6912646.499573262], [316348.3333333333, 6912716.666666667], [316305.0, 6912760.0], [316420.4081632653, 6912824.795918368], [316480.0, 6912795.0], [316547.4157150519, 6912864.909455789], [316742.2840684985, 6912715.821743394], [316907.13814658474, 6912763.257229612], [317050.0, 6912695.0], [317144.43173639756, 6912770.496407179], [317285.7146425463, 6912665.0], [317379.04399823264, 6912724.419537325], [317444.74551338627, 6912706.438070021], [317469.01212487294, 6912620.778541386], [317643.84418773215, 6912682.179721651], [317732.58364804235, 6912637.027568402], [317908.94736842107, 6912714.47368421], [317990.0, 6912645.0], [318046.63058041694, 6912668.462136234], [318202.71186440677, 6912496.355932203], [318260.0, 6912525.0], [318681.0414498392, 6912084.629683549], [318982.03557275096, 6911701.272544018], [319014.60291422426, 6911417.215776057], [319050.67268514994, 6911362.972759394], [319148.85563579196, 6911110.62004231], [319015.82972319674, 6910940.190368968], [319157.10741989105, 6910783.197086527], [319380.0064858816, 6910727.502432206], [319409.9552104707, 6910749.965432665], [319820.4817206793, 6910723.237589604], [319991.62878922175, 6910634.670271228], [320060.0, 6910655.0], [320273.79410830553, 6910518.95273543], [320340.0, 6910525.0], [320571.87412587414, 6910202.916083916], [320613.4884516681, 6910230.658967779], [320825.6179775281, 6910109.382022472], [321040.70429656067, 6910059.285653316], [320635.0, 6909590.0], [320649.89449596236, 6909525.344347073], [320529.647993944, 6909343.609008327], [320574.91021488805, 6909271.561917369], [320505.0, 6909190.0], [320536.6163942737, 6909121.136887115], [320385.0, 6908920.0], [320491.70953482774, 6908731.352786643], [320422.4308490397, 6908633.977901285], [320428.926920085, 6908353.9061964955], [320625.0, 6908060.0], [320560.7722660654, 6907842.709507704], [320613.5059963226, 6907758.505996322], [320559.7368421053, 6907704.736842105], [320602.1385219097, 6907401.938816891], [320361.49877576955, 6907211.097897712], [320400.6420233463, 6907088.249027237], [320319.0916819448, 6906993.106962269], [320635.8727947746, 6906610.86111618], [320652.5, 6906472.958980252], [320697.0711548142, 6906429.556812859], [320723.7804878049, 6906266.097560976], [320781.0052612931, 6906135.7582819145], [320710.39379177074, 6906091.683592537], [320705.0, 6906000.0], [320906.6589219331, 6905800.432156133], [320847.2727272727, 6905593.181818182], [320901.0779195234, 6905399.752478838], [320715.9070464768, 6905172.261369315], [320730.5128205128, 6905101.324786325], [320828.67258051096, 6905053.550828355], [320990.0, 6904865.0], [321084.79279516754, 6904884.923608837], [321359.0679956956, 6905122.967046561], [321488.2138428194, 6905066.786157181], [321742.4477587723, 6905170.130706497], [322194.54584690876, 6904732.173018645], [322206.57274198876, 6904646.608248193], [322287.72399508394, 6904575.723029631], [322448.7503898828, 6904541.510166685], [322521.4285714286, 6904606.428571428], [322670.0, 6904615.0], [322793.7404580153, 6904540.5725190835], [322841.1618523313, 6904547.378633237], [323277.0015981487, 6904237.998401851], [323417.95910046576, 6904177.015337326], [323547.3733726092, 6904047.41686249], [323598.69781312125, 6904069.5427435385], [323671.19857451716, 6903862.900822171], [323946.52173913043, 6903551.521739131], [324067.2144288577, 6903647.785571142], [324100.0, 6903615.0], [324203.9678787207, 6903675.952370211], [324501.59481336514, 6903463.345849716], [324715.9840412338, 6903448.378260881], [324772.36478229583, 6903319.94539569], [324892.96623163344, 6903335.099620007], [324999.04555282154, 6903219.1271825], [325082.7129387151, 6903061.0198728675], [325198.148648891, 6903219.689031176], [325305.8589544536, 6903241.90544408], [325350.0, 6903165.0], [325405.74154379877, 6903168.902862099], [325490.0, 6903295.0], [325523.1059811123, 6903279.223504722], [325636.8292682927, 6903374.5121951215], [325626.4085292205, 6903442.344141968], [325705.0, 6903520.0], [325673.8888888889, 6903551.111111111], [325703.9628482972, 6903595.990712075], [325787.3355800966, 6903616.879213058], [326058.3668401381, 6903886.0392835485], [326102.3759064375, 6903858.033514085], [326209.3369458401, 6903955.506415252], [325989.0546697039, 6904234.897494305], [326025.9992695663, 6904353.101112866], [325966.6157354757, 6904499.033923081], [326059.54545454547, 6904635.454545454], [325995.0, 6904700.0], [326009.8196713612, 6904806.105663805], [325968.9135474997, 6904889.7782850405], [326015.0458588885, 6904982.157367562], [325966.69811320753, 6905014.636118598], [325986.48484208254, 6905140.678314961], [325916.3456101229, 6905152.123339571], [326007.9672245467, 6905249.738493724], [326143.39117812226, 6905317.940551017], [326128.7156201349, 6905344.426569798], [326229.8043007826, 6905487.155208939], [326340.6571093199, 6905423.14917211], [326408.0174672489, 6905511.899563319], [326469.59731543623, 6905522.516778523], [326585.9458313895, 6905702.840554665], [326568.5382934402, 6905783.53829344], [326799.8455485834, 6905960.175078221], [326908.70496540033, 6905983.7049654005], [327005.0, 6906080.0], [326917.15189873416, 6906211.772151899], [327095.0, 6906340.0], [326990.995025776, 6906574.718066981], [327065.0, 6906650.0], [327058.3333333333, 6906736.56950228], [327120.5689542788, 6906768.59437564], [327160.0, 6906725.0], [327205.5205288796, 6906770.52052888], [327327.59313752706, 6906701.110154905], [327447.12686638377, 6906830.755875446], [327570.58831663034, 6906835.880185911], [327733.2780082988, 6906767.033195021], [327772.6666666667, 6906807.666666667], [327835.5758314996, 6906730.4316524165], [327899.5187017497, 6906747.04444175], [328122.9475639103, 6906665.052453708], [328093.3624801272, 6906778.187599364], [328187.18847398146, 6906872.185816295], [328047.975369287, 6907107.223257397], [327810.49153417896, 6907414.835734374], [327883.0078092432, 6907496.5257368265], [327950.0, 6907465.0], [327991.1111111111, 6907506.111111111], [328031.6097623522, 6907476.522734026], [328206.5333333333, 6907569.355555556], [328268.81967213115, 6907491.098360656], [328339.54720630764, 6907506.246579609], [328404.3583868011, 6907582.593950504], [328370.0, 6907645.0], [328299.11965055857, 6907630.408723845], [328205.68613138684, 6907839.313868613], [328152.20470179594, 6907816.490260107], [327923.5026737968, 6908157.486631016], [327843.23892286647, 6908374.629848001], [327389.42141562473, 6908849.749648496], [327365.0, 6908980.0], [327404.356384164, 6909045.834138008], [327200.9413622423, 6909154.497130363], [327179.28571428574, 6909135.714285715], [327165.0, 6909220.0], [327215.0, 6909270.0], [327085.0, 6909400.0], [327103.32313341496, 6909436.64626683], [326987.0637510652, 6909611.240577519], [326941.54639175255, 6909586.47275405], [326800.0, 6909775.0], [326701.12625210255, 6909800.652154395], [326456.26172632276, 6910213.309305955], [326025.70261794416, 6910763.050491927], [326120.2545612525, 6910884.263996564], [326013.8732394366, 6911133.3802816905], [325862.85061829205, 6911366.355998123], [325817.91135150293, 6911392.135754006], [325758.12409429444, 6911553.830276051], [325837.7201690476, 6911632.733375888], [325872.2727272727, 6911607.2727272725], [325830.4593175853, 6911662.755905512], [325844.1467667354, 6911844.918669408], [325482.4690591116, 6912255.867573678], [325515.0, 6912320.0], [325479.10497989855, 6912355.895020101], [325491.4270190846, 6912461.8791950485], [325388.03007904853, 6912473.673400772], [325211.14379084966, 6912646.1437908495], [325266.48100357136, 6912713.2703958135], [325159.01555717713, 6912896.670704928], [324812.7158504218, 6913242.18363329], [324823.3333333333, 6913305.0], [324775.1620107771, 6913314.800969286], [324643.1503875969, 6913560.423255814], [324546.0, 6913629.0], [324508.84405797906, 6913596.488550732], [324419.2887843062, 6913721.239585084], [324359.3142519917, 6913682.047553066], [324297.18009731633, 6913885.1470176745], [324044.0623338035, 6914159.329872853], [323978.9483019053, 6914174.91561514], [323840.0, 6914365.0], [323772.3611111111, 6914297.361111111], [323465.22377588094, 6914581.200833462], [323413.3333333333, 6914561.666666667], [323310.0, 6914665.0], [323290.0, 6914745.0], [323222.86572245194, 6914742.143286123], [323111.70192906033, 6914855.448662103], [323157.600896861, 6914918.789237668], [323105.0, 6914980.0], [323155.0, 6915010.0], [322864.9056007595, 6915346.792532321], [322652.271409377, 6915554.41517573], [322605.71428571426, 6915649.285714285], [322550.0, 6915635.0], [322446.20960638346, 6915788.9218627745], [322263.9115431831, 6915973.554269557], [322176.04863042233, 6915965.153381963], [322102.22222222225, 6916102.777777778], [321990.0, 6916125.0], [321973.6777950173, 6916191.946151514], [321801.42977607046, 6916332.140447859], [321738.36515513127, 6916330.906921241], [321596.25578116934, 6916511.086755622], [321735.7893885474, 6916683.388062116], [321811.2068965517, 6916635.0], [321987.2631270794, 6916812.347854318], [322194.90374577383, 6916687.650687454], [322334.2021065867, 6916749.140388638], [322395.0, 6916850.0], [322282.0, 6916987.0], [322250.0, 6916955.0], [322130.35767117736, 6917224.416799719], [322040.4256634113, 6917200.573156201], [321981.9953051643, 6917274.976525822], [321993.9253126094, 6917364.059484686], [321705.9428571429, 6917695.0], [321615.79499842104, 6917673.0548381135], [321505.0, 6917758.493150685], [321487.32770526514, 6917852.1805214025], [321106.9723798404, 6918249.27766728], [320889.5788626997, 6918222.271921281], [320875.937576624, 6918419.964381181], [320833.4638066781, 6918552.337868146], [320552.827977487, 6918587.906977003], [320466.8383507449, 6918733.284667426], [320497.19312826096, 6918862.005362786], [320763.03701026476, 6919193.160201314], [320652.8992383541, 6919433.409817579], [320682.2727272727, 6919472.7272727275], [320617.5, 6919537.5], [320715.0, 6919600.0], [320690.612244898, 6919629.489795919], [320845.28691740235, 6919739.091233132], [320776.8603510949, 6919975.158914798], [320821.525749009, 6920173.365379745], [320673.0721302154, 6920429.883510476], [320811.3188267059, 6920626.318826706], [320854.8348512299, 6920630.690695578], [321176.0, 6920901.0], [321210.0, 6920885.0], [321370.0, 6921045.0], [321400.0, 6921005.0], [321350.257096947, 6921190.52758436], [321205.0, 6921480.0], [321171.0786228383, 6921639.70950284], [321039.38750077685, 6921831.4405017635], [320966.57033123885, 6922070.256264991], [320864.28565981676, 6922019.552781278], [320705.3896797846, 6922400.010004061], [320610.0, 6922395.0], [320576.1712681329, 6922515.305100609], [320441.86797382275, 6922648.446105754], [320208.2534512544, 6922965.368855711], [320106.6676623161, 6923240.105006454], [320029.84469425917, 6923352.897159891], [319915.0, 6923260.0]]]}}]}