{"type": "FeatureCollection", "crs": {"type": "name", "properties": {"name": "EPSG:25833"}}, "features": [{"type": "Feature", "properties": {"station": "2.265.0", "name": "Unset\u00e5a", "series": ["1001.1"], "nodes": 6234015, "fine_vertices": 20774, "fine_area_m2": 623401550.0, "reduced_vertices": 844, "reduced_area_m2": 623401550.0000018, "outline_tolerance_m": 20.0, "windows": [[510, 435], [1183, 1233], [2398, 2503], [4797, 4845], [9596, 8840]], "placed_on": "number", "distance_m": 0.9760843638022947, "uncertainty_m": 30.0, "elvid": "002-34-8500", "objectid": 12247278, "lake": false, "confluence_near": false, "reach_up_m": 1000.0, "reach_down_m": 130.0, "reach_fork": false, "seeded_by": "river", "lake_rule": null, "lake_number": null, "lake_name": null, "lake_distance_m": null, "node_offset_m": 3.859150573446564, "chain_nodes": 106, "lowered_nodes": 31, "lowered_max_m": 1.55072021484375, "direction_ok": true, "end_extended_m": 0.0, "end_closed": true, "downstream_checked": "whole", "a0": 623.4015, "area_up": 623.3978000000001, "area_down": 623.4047, "swing": 5.935179815866209e-06, "largest_step": 0.0027999999999792635, "largest_step_at_m": 0.0, "checked_up_m": 24.142135623731065, "checked_down_m": 24.142135623731065, "drains": true, "monotone": true, "causes": []}, "geometry": {"type": "Polygon", "coordinates": [[[301155.0, 6912980.0], [301120.0, 6912945.0], [300912.49454155174, 6912969.780767478], [300889.09012576216, 6912921.283251865], [300599.44725281163, 6912751.839436609], [300434.7536246991, 6912603.661968613], [300191.8298504296, 6912690.257239843], [300024.69514785305, 6912490.304852147], [299990.0, 6912525.0], [299706.94428916764, 6912236.595662665], [299754.30529010564, 6912059.798102006], [299814.0138242269, 6912000.752996042], [299846.4347826087, 6911907.782608695], [299607.8273337002, 6911733.242245297], [299528.51846968237, 6911648.870616179], [299391.25, 6911593.75], [299418.75, 6911566.25], [299382.0994623656, 6911533.911290322], [299435.35, 6911515.25], [299399.0834841474, 6911413.093457742], [299339.2240684702, 6911387.119080699], [299392.4811189024, 6911315.538388534], [299372.07698628225, 6911233.735887962], [299271.12946251157, 6911200.422645773], [299324.8120300752, 6911078.270676692], [299191.9788540349, 6911031.976882372], [299221.26872697833, 6910973.64956625], [299530.8517073378, 6910806.98119131], [299494.6147676423, 6910708.269891812], [299730.65853658534, 6910455.365853659], [299731.6666666667, 6910356.666666667], [299773.0, 6910336.0], [299767.75, 6910220.291666667], [299879.5566103466, 6910049.194826936], [299812.39130434784, 6909983.9130434785], [299837.9411764706, 6909945.588235294], [299672.3631489842, 6909860.538939052], [299595.24752475246, 6909788.564356436], [299510.9375, 6909754.0625], [299536.16828947485, 6909696.014203617], [299345.1785714286, 6909536.607142857], [299282.8, 6909557.4], [299195.27005696244, 6909480.126621371], [298961.972998863, 6909694.022676718], [298722.67785771383, 6909575.0], [298602.98579271795, 6909582.262296811], [298528.7773926576, 6909546.822027304], [298490.0, 6909595.0], [298460.63606411556, 6909550.954096173], [298266.31868692016, 6909520.7875420535], [298210.0, 6909571.666666667], [298157.5, 6909536.666666667], [297897.24068526493, 6909737.331960307], [297776.7305234597, 6909720.98889826], [297348.7296707552, 6909550.502951683], [297236.25766871165, 6909621.073619632], [297066.93082619796, 6909584.1073226705], [296858.63951874134, 6909834.093012494], [296817.5862068966, 6909806.724137931], [296766.6051417271, 6909858.31575478], [296690.0, 6909845.0], [296609.5, 6909902.5], [296515.1256460524, 6909896.737658171], [296360.0, 6909735.0], [296326.6666666667, 6909761.666666667], [296260.0, 6909695.0], [296192.7789522362, 6909748.776838211], [295952.89205748186, 6909681.652405473], [295870.59243187, 6909623.392706621], [295283.61768045404, 6909613.176410655], [295238.80292120244, 6909713.169285201], [294973.0566075161, 6909774.785628154], [294953.3333333333, 6909865.0], [294897.18139534886, 6909857.688372093], [294823.00664142513, 6909781.993358575], [294491.0414807841, 6910115.941277739], [294163.6139332366, 6909868.613933236], [293850.0357731165, 6910137.76071645], [293712.40732941433, 6910105.647927631], [293216.08905884204, 6910170.768339418], [293259.70277448464, 6910282.951981531], [293142.99389068637, 6910348.246007632], [293014.1780484204, 6910324.842972377], [292781.56710845017, 6910359.7136070235], [292687.95302013424, 6910532.953020134], [292697.3243693702, 6910571.463490433], [292566.7409851267, 6910808.185794359], [292442.1344533559, 6911002.865546644], [292203.3601609658, 6911241.6398390345], [292129.0724050471, 6911217.220775948], [291896.2093024615, 6911427.529136678], [291729.34863462276, 6911355.490471542], [291547.72347533045, 6911408.189882201], [291439.4265234795, 6911404.349949091], [291111.17204104253, 6911289.421806047], [291058.4700265599, 6911167.259128208], [290993.07692307694, 6911181.837606838], [290932.9531914894, 6911094.79858156], [290850.0, 6911145.0], [290779.4827586207, 6911111.724137931], [290694.29886881076, 6910845.5748524815], [290616.42179268744, 6910832.759566713], [290552.598898169, 6910905.996122263], [290362.1464903357, 6910975.508646999], [290316.4648404962, 6910940.485122557], [290092.7401727166, 6910951.074779779], [289925.22153268865, 6911114.25753483], [289645.27085077163, 6911106.078760195], [289551.231884058, 6911039.420289855], [289575.0, 6910980.0], [289503.8888888889, 6910908.888888889], [289535.0, 6910850.0], [289285.0, 6910680.0], [288765.0, 6910160.0], [288734.6928066482, 6910029.574655359], [288635.0, 6909980.0], [288837.25156203983, 6909726.887598548], [288795.0, 6909670.0], [288834.175257732, 6909660.618556701], [288849.4875102351, 6909565.40302497], [289012.67667844525, 6909567.676678445], [289040.82278481015, 6909524.17721519], [288657.82591745, 6909122.960352499], [288700.7210303565, 6908941.855828579], [288668.56771341525, 6908875.223737829], [288689.64678178023, 6908810.528404058], [288287.90658059495, 6908407.218521127], [288190.0, 6908475.0], [288126.01123595505, 6908411.011235955], [288123.3333333333, 6908334.166666667], [287959.33216010383, 6908135.254352601], [287884.4295561802, 6907867.160079569], [288005.54826738546, 6907723.856257895], [287991.887180619, 6907628.042821588], [288127.2932594373, 6907254.886280396], [288176.834756101, 6907017.855964114], [288290.8107269352, 6906899.138487759], [288167.5068682002, 6906770.4931315435], [288173.7960566802, 6906730.233518218], [287880.75015743176, 6906416.805875791], [288036.52155641787, 6905866.890776186], [288013.17784760543, 6905808.177847605], [288227.34135812975, 6905552.178815334], [288300.6011605416, 6905349.608897486], [288126.10238002933, 6905282.598106812], [288130.96446700505, 6905232.30964467], [288018.0048314691, 6905184.561591511], [288007.54449277907, 6905122.838297555], [287872.0588235294, 6905033.529411765], [287895.0, 6904960.0], [287843.4, 6904882.6], [287792.3387787742, 6904915.300165648], [287777.14285714284, 6904967.857142857], [287750.0, 6904925.0], [287685.0, 6904940.0], [287637.5571445047, 6904836.128128244], [287414.5708549173, 6904777.89085581], [287368.98796043504, 6904731.181502403], [287389.8275862069, 6904492.413793104], [287330.8064516129, 6904462.903225807], [287365.0, 6904170.0], [287418.2311320755, 6904136.403301887], [287525.0, 6903930.0], [287521.73913043475, 6903815.0], [287564.0945142102, 6903815.0], [287592.8410563696, 6903705.976407275], [287753.3594181444, 6903622.984363467], [287924.67016891646, 6903349.331028073], [287863.2861799063, 6903289.005383701], [287906.0, 6903108.386666667], [287880.3761138757, 6903085.338309609], [287640.0, 6903135.0], [287554.7564469914, 6903061.934097421], [287508.5714285714, 6903093.571428572], [287494.86710963456, 6903050.0996677745], [287546.4285714286, 6903011.428571428], [287579.9438425649, 6902833.807414047], [286939.14448456845, 6902223.836510183], [286952.1779141104, 6902173.006134969], [286779.5229232861, 6902111.004637609], [286697.9963225773, 6902027.769720826], [286745.0, 6901950.0], [286713.75, 6901941.25], [286669.0265486726, 6901989.513274336], [286615.2, 6901962.6], [286555.08508224617, 6902047.793533749], [286508.8684080055, 6902045.608416383], [286455.4553899493, 6902111.652944177], [286097.1746393679, 6901853.846926316], [285967.89899278234, 6901737.945422156], [285878.38663497317, 6901813.386634973], [285744.4176087994, 6901640.237723365], [285671.34456978884, 6901475.346205734], [285461.40439199924, 6901490.180529363], [285465.0, 6901390.0], [285399.2410130291, 6901290.818376851], [285428.39634241915, 6901102.1136149205], [285385.20964360586, 6900942.557651992], [285450.4236062555, 6900807.57832872], [285389.7440218957, 6900725.94079516], [285397.18733419344, 6900688.096093987], [285220.0493412498, 6900483.581178327], [285534.9085135048, 6900220.104457239], [285640.0, 6900265.0], [285836.09042406664, 6900227.798755027], [285967.2489673436, 6900161.626548985], [285941.20576277137, 6900098.224935172], [286008.8083937047, 6900033.808393705], [285950.5919991558, 6899926.687906532], [286138.94244906644, 6899765.0], [286189.78769422433, 6899598.243070215], [286113.2842287695, 6899555.597920277], [286174.2710296382, 6899413.459364557], [286169.08164433076, 6899320.171872763], [286095.9949493254, 6899189.005050675], [286140.0, 6899145.0], [286300.0, 6899145.0], [286355.55555555556, 6899089.444444444], [286406.38300116, 6899122.637878309], [286747.795751177, 6898966.87624709], [286660.0442271881, 6898802.910459342], [286646.3257962077, 6898648.488060319], [287338.43472582346, 6897945.00407525], [287423.57778292627, 6897811.377789245], [287405.0, 6897765.454545454], [287576.45004752, 6897675.6126457155], [287610.7445269213, 6897559.650675827], [287650.0, 6897575.0], [287662.9687924016, 6897508.886024423], [287815.2022531672, 6897326.1193704875], [287613.5382889579, 6897119.098426985], [287605.0, 6896900.0], [287666.0, 6896839.0], [287720.0, 6896885.0], [287788.8461538461, 6896871.538461538], [287805.45162229246, 6896690.968136284], [287875.91103420197, 6896625.400040717], [287955.0, 6896620.0], [287857.96772731777, 6896487.935454636], [287645.6803583143, 6896343.207216226], [287576.92534388934, 6896398.07465611], [287443.9386128502, 6896192.894259611], [287444.14647644246, 6895904.797769347], [287522.79333201336, 6895756.3227828], [287536.873399195, 6895451.046469081], [287581.85086187563, 6895123.728661037], [287598.855734302, 6895083.82805743], [287574.58904109587, 6895059.452054795], [287585.0, 6894820.0], [287535.3955474102, 6894684.335900233], [287618.60165414313, 6894550.719918156], [287540.2364118427, 6894440.172337605], [287582.74476592353, 6894388.89900768], [287608.99108207016, 6894161.352167413], [287259.23156641563, 6893814.246541061], [287284.6190081527, 6893718.268206206], [287225.51360513945, 6893498.782586429], [287325.24039822357, 6893315.312283411], [287325.1234567901, 6893228.641975309], [287404.263913285, 6893163.565133841], [287467.14757871226, 6892929.303565059], [287520.36000084435, 6892855.551410239], [287491.0240963855, 6892776.144578313], [287624.6110178958, 6892613.100146439], [287623.7837837838, 6892495.0], [287788.70731861243, 6892513.040173659], [287858.6538240981, 6892446.330158021], [288018.3662217634, 6892535.028190083], [288226.0720887246, 6892511.823783117], [288271.12319663947, 6892415.556722656], [288379.8260145358, 6892400.706818724], [288362.4581939799, 6892382.006688964], [288770.0, 6892375.0], [288856.37362637365, 6892461.373626374], [288917.02702702704, 6892423.6486486485], [288925.0131161121, 6892369.733673892], [289112.79070252826, 6892325.720914429], [289160.0363639018, 6892251.75871637], [289299.9021190921, 6892127.3042777255], [289363.7138076511, 6891982.633702538], [289319.1015930886, 6891850.250199604], [289355.0, 6891590.0], [289315.9090909091, 6891566.363636363], [289128.02943351347, 6891611.253481634], [288962.68472906406, 6891612.561576354], [288977.38095238095, 6891488.571428572], [288895.0, 6891390.0], [288901.0904684976, 6891229.176090469], [288940.7879996464, 6891153.129012725], [288944.23851960053, 6890960.263545781], [288999.5335614857, 6890875.334843326], [288855.0, 6890750.0], [288870.9691119691, 6890683.915057915], [288821.54120637703, 6890633.0155196935], [288763.93617021275, 6890418.936170213], [288705.0, 6890360.0], [288724.5187226787, 6890239.493153067], [288532.77442302083, 6890106.325859063], [288507.9748390458, 6889931.7459510155], [288286.8522525357, 6889779.717947064], [288379.08913808444, 6889658.121527965], [288349.2854610043, 6889422.289635353], [288497.854288311, 6889140.199595917], [288392.02769611636, 6888973.900665326], [288422.19457013573, 6888895.9728506785], [288415.6896551724, 6888711.0344827585], [288459.93188238784, 6888532.041656314], [288360.72934884095, 6888439.583497976], [288393.6602841031, 6888221.492864128], [288530.7281527357, 6887813.761904653], [288503.40203885594, 6887767.281972634], [288670.6456888656, 6887495.894020673], [288642.27144608204, 6887434.053197405], [288714.7920679631, 6887279.792067963], [288585.0, 6887150.0], [288604.36708860757, 6887091.898734177], [288541.6666666667, 6887016.666666667], [288536.57700774044, 6886857.812130039], [288652.45378295507, 6886843.99365858], [288889.8213802056, 6886679.21153987], [289022.32668551017, 6886408.847857369], [289065.6382978723, 6886449.361702127], [289125.0, 6886390.0], [289286.8553459119, 6886435.440251572], [289355.54095522856, 6886413.581320324], [289410.0, 6886445.0], [289534.53799210145, 6886337.663388023], [289608.0193172697, 6886377.299889106], [289871.5155287541, 6886189.781611012], [289909.18816236407, 6886063.377632601], [289968.30910286383, 6886076.900569842], [290173.24490282993, 6885889.855856844], [290350.5784790811, 6885539.325961203], [290355.83819745004, 6885433.647245581], [290309.84563474933, 6885387.368644657], [290233.4065084016, 6885140.989334768], [290417.0067177498, 6884940.77606974], [290588.2079033476, 6884868.100931286], [290591.1273193262, 6884719.0318122115], [290824.7297297297, 6884312.162162162], [290784.7478172588, 6884168.119135854], [290910.17101798457, 6883977.863587692], [290954.8187334733, 6883979.887832964], [291194.65552244015, 6883686.96813766], [291389.2588884413, 6883631.104794232], [291480.70769909, 6883687.002785323], [291470.2567352998, 6883569.099553844], [291498.6616181093, 6883518.5406618845], [291423.9956546066, 6883416.069526294], [291415.0, 6883230.0], [291544.3333333333, 6882950.666666667], [291655.0, 6882840.0], [291632.0, 6882791.0], [291668.5944700461, 6882656.820276498], [291456.89493856387, 6882474.315184308], [291472.60869565216, 6882427.173913044], [291357.95769619563, 6882418.011531358], [291399.974458625, 6882368.61212898], [291531.6666666667, 6881966.666666667], [291565.0, 6881950.0], [291545.0, 6881890.0], [291616.29832064395, 6881850.450546009], [291675.0, 6881550.0], [291505.4880527956, 6881437.993986728], [291695.960170345, 6881038.368022785], [291807.6284311271, 6880559.720079059], [291896.40292981267, 6880347.899086703], [291991.6666666667, 6879963.333333333], [292228.01816068054, 6879793.786888058], [292294.35903614457, 6879535.927710843], [292345.5706584949, 6879490.20445516], [292471.69297946844, 6879152.064288038], [292406.04330994235, 6878974.241388167], [292487.02537325834, 6878702.577893742], [292573.5714285714, 6878538.571428572], [292556.3333333333, 6878460.666666667], [292231.5858149412, 6878110.896079346], [292262.77777777775, 6878067.777777778], [292230.7066462077, 6878052.821000383], [292296.7605345455, 6877763.271903115], [292291.8226242284, 6877583.371313905], [292247.1079584267, 6877360.274113908], [292176.9507965753, 6877282.926194862], [292235.5174471173, 6877084.08094576], [292361.1157612225, 6876903.560249513], [292321.09004789044, 6876836.812726519], [292513.63057324843, 6876664.426751592], [292538.1347111497, 6876688.601763254], [292724.4186046512, 6876543.139534884], [292750.2702702703, 6876551.756756756], [292915.0, 6876360.0], [292921.00032526086, 6876227.1356549375], [293013.1909847517, 6875965.857345286], [293123.92723051, 6875845.978420374], [293077.5607608313, 6875557.439239169], [294126.3265390562, 6874508.673460944], [294229.8137875234, 6874463.148969981], [294325.4598563196, 6874587.433093866], [294402.15039577836, 6874548.139841689], [294448.75, 6874576.875], [294524.07216494845, 6874440.927835052], [294624.54545454547, 6874340.454545454], [294691.585609783, 6874406.395681754], [294741.5533558985, 6874361.652818999], [294920.0, 6874385.0], [294971.7475728155, 6874350.436893204], [295054.99537773174, 6874429.184816773], [295121.86440677964, 6874368.559322034], [295198.73774122115, 6874391.621322366], [295289.3506493507, 6874295.64935065], [295364.28571428574, 6874330.714285715], [295436.6666666667, 6874258.333333333], [295637.69255758065, 6874306.505856763], [295845.38160356466, 6874122.3091982175], [296206.0482374742, 6873909.462383096], [296236.6666666667, 6873928.333333333], [296468.3916083916, 6873683.391608392], [296533.7768955422, 6873724.527444166], [296837.90305584826, 6873458.677555322], [296945.97389885806, 6873538.710556979], [297008.2835820895, 6873547.611940298], [297119.7281823235, 6873361.16879748], [297105.0, 6873326.666666667], [297130.243902439, 6873328.841463415], [297155.64595525764, 6873497.447724166], [297427.1558373143, 6873731.634554782], [297405.0, 6873828.0], [297484.756097561, 6873875.853658536], [297455.0, 6873940.0], [297515.5882352941, 6873976.470588235], [297576.25, 6873956.25], [297758.13318208867, 6874005.121429634], [297800.0, 6873935.0], [297854.12213740457, 6874020.419847328], [298152.6903611413, 6873868.91487867], [298268.3701339807, 6873854.861197173], [298393.0785017696, 6873989.075404741], [298495.9012107892, 6873867.682135], [298661.52622836013, 6873991.043435605], [298740.6756756757, 6873934.594594595], [298809.92724742665, 6874037.617403708], [298850.0, 6873995.0], [298930.3822946561, 6874058.234071796], [298917.5562329518, 6874163.329241135], [298950.0685763625, 6874187.751062347], [299013.9030032048, 6874374.322555912], [299024.50876551896, 6874570.246530786], [299077.0470262794, 6874703.07053942], [299052.6666666667, 6874787.0], [299170.33509188937, 6874878.307438113], [299175.0, 6874944.285714285], [299126.23595505615, 6874945.2808988765], [299115.0, 6875000.0], [299197.15540590964, 6875059.3839064045], [299390.0, 6874875.0], [299454.54545454547, 6874920.454545454], [299595.8434361539, 6874702.05111819], [299671.0997641146, 6874720.964118251], [299738.0196392577, 6874665.016116223], [299879.25144679274, 6874684.496876233], [300034.90881949157, 6874604.729320013], [300035.0, 6874684.444444444], [300066.1232116078, 6874684.8286816245], [300110.03889357386, 6874607.973972388], [300173.99258094374, 6874643.466096067], [300451.9987318653, 6874631.941314591], [300555.7675329376, 6874681.515246624], [300561.45713092975, 6874586.344247728], [300732.0019678963, 6874408.493771389], [300805.5488452657, 6874270.846819877], [300886.8965517241, 6874220.517241379], [300951.2038349406, 6873942.829206343], [301053.18874020135, 6873888.449007839], [301146.8494055702, 6873932.796125075], [301259.0243902439, 6874035.0], [301509.83386179636, 6874124.489058093], [301917.78761061945, 6874563.141592921], [301953.592151001, 6874539.881744581], [302247.6119402985, 6874732.76119403], [302285.0, 6874820.0], [302209.6666666667, 6874894.0], [302225.0, 6874940.0], [302085.0, 6875103.333333333], [302171.17647058825, 6875218.235294118], [302155.0, 6875310.0], [302402.8866361012, 6875615.009378984], [302357.2585669782, 6875730.430944963], [302551.40165169287, 6875564.970236315], [302554.5440046087, 6875468.29566549], [302630.0, 6875475.0], [302832.0894959185, 6875272.858313365], [302886.44675022986, 6875296.982994834], [303109.9611141255, 6875067.185747875], [303152.5805257725, 6875095.974216374], [303246.10745677387, 6875022.314050317], [303315.78044596914, 6875030.780445969], [303444.7771323396, 6874912.729435874], [303780.72708113806, 6874855.927291886], [304073.9114615576, 6874734.825586332], [304392.0247094134, 6875020.991763528], [304489.0384882787, 6875048.053624852], [304568.7882405611, 6875188.732278764], [304619.8914164538, 6875174.1188382], [304760.0, 6875245.0], [304778.85211833735, 6875228.47530368], [304942.9279811098, 6875354.268004723], [305010.0, 6875325.0], [305101.01983002835, 6875403.016997167], [305025.0, 6875590.0], [305066.5406148828, 6875631.5406148825], [305060.56375373853, 6875786.185819525], [305331.3687543983, 6876129.078114004], [305320.21302054974, 6876156.967448626], [305419.39886416896, 6876332.8147658035], [305393.8530807219, 6876412.41421909], [305397.0163690171, 6876688.495695639], [305350.66180874425, 6876787.72210022], [304645.6124785984, 6877537.315903733], [304457.8476939707, 6877650.258878984], [304365.0, 6877930.0], [304501.40946409624, 6878090.449478721], [304546.1316159436, 6878248.868384057], [304447.7878623679, 6878484.039555676], [304473.82352941175, 6878521.764705882], [304437.1621621622, 6878572.162162162], [304472.35714285716, 6878612.642857143], [304331.4705882353, 6878753.529411765], [304405.5172413793, 6878843.620689655], [304263.5977451178, 6878972.638413529], [304125.0, 6878971.797752809], [304151.3656069364, 6879049.819364162], [304235.0, 6879100.0], [304215.5001213367, 6879241.557912324], [304266.5881633668, 6879355.1612244], [304193.00523283356, 6879420.680272135], [304312.3010797342, 6879585.6569767445], [304245.0, 6879640.0], [304262.2886297376, 6879693.731778426], [304216.53846153844, 6879733.076923077], [304235.0, 6879790.0], [304176.33473966824, 6879821.46591236], [304142.86516853934, 6880052.471910113], [303947.80004216696, 6880321.294838571], [303869.6951931799, 6880332.769014217], [303756.46714272175, 6880464.401428165], [303761.9870875358, 6880532.938683905], [303952.01380018855, 6880605.119001001], [303981.8535711377, 6880655.090398241], [303895.0, 6880804.0], [303913.59361473826, 6880834.4935281705], [304038.7127371274, 6880830.569105691], [304095.65804312343, 6880970.487168781], [304046.5843621399, 6881053.271604938], [303955.1649484536, 6881065.195876288], [303968.53570683394, 6881366.440804331], [303815.0, 6881440.0], [303840.80724906194, 6881529.026064743], [303650.5927897411, 6881635.829905638], [303695.0, 6881710.0], [303654.2885580291, 6881747.424182681], [303806.55047026736, 6881993.361188257], [303968.1069958848, 6882115.617283951], [304048.22129026416, 6882064.065624702], [304082.490202513, 6882133.607506501], [304214.45602482575, 6882197.617188197], [304327.1747406585, 6882328.2687193155], [304396.6099834331, 6882628.795093513], [304530.995884083, 6882746.640218546], [304469.4472775127, 6882871.1668431815], [304519.95526064315, 6882953.242538413], [304445.0, 6883130.0], [304537.2895277207, 6883168.682409309], [304694.0, 6883109.0], [304733.7301587302, 6883148.73015873], [304675.76923076925, 6883284.615384615], [304657.5952757955, 6883479.688306618], [304565.0, 6883538.0], [304531.37362637365, 6883686.373626374], [304571.0, 6883726.0], [304524.7069900851, 6883861.823429711], [304720.0, 6883925.0], [304785.306122449, 6884007.944606414], [304860.0, 6883965.0], [304991.67242796905, 6884149.3413991565], [305393.2251694812, 6884513.986810638], [305474.7429305913, 6884629.742930591], [305134.63729638397, 6885055.247614479], [304990.1341086351, 6885205.165580932], [304923.04529390513, 6885373.92354246], [305167.3216396568, 6885308.392945662], [305302.71589002194, 6885427.386914751], [305457.5, 6885342.5], [305628.2843137255, 6885513.284313725], [305715.8333333333, 6885430.833333333], [305824.7393364929, 6885539.7393364925], [306005.1515151515, 6885464.393939394], [306095.3846153846, 6885528.846153846], [306170.0, 6885545.0], [306268.2446386021, 6885482.450357427], [306344.6881781347, 6885548.814548091], [306433.78706253367, 6885478.353557419], [306541.3846153846, 6885454.076923077], [306567.3639409128, 6885630.555879612], [306831.0769688829, 6886073.470254774], [306671.35539437894, 6886275.466908432], [306707.9213282396, 6886312.454353357], [306559.41989473545, 6886541.971749043], [306650.0, 6886615.0], [306758.6666666667, 6886573.666666667], [306800.0, 6886615.0], [306913.24330703163, 6886516.0539441565], [307102.9895623293, 6886463.865932832], [307422.5, 6886917.5], [307395.0, 6886970.0], [307560.75963858695, 6887182.070163043], [307537.205713878, 6887249.116266867], [307603.84126984124, 6887308.079365079], [307652.57483133377, 6887275.428442028], [307810.7768882976, 6887466.832666223], [307538.8559172143, 6887762.467996193], [307465.80100125156, 6888087.19649562], [307545.90314934775, 6888194.636373479], [307657.6119402985, 6888423.059701492], [307560.0002867679, 6888567.595357745], [307624.4117647059, 6888698.235294118], [307575.0, 6888760.0], [307623.1149804151, 6888843.486203381], [307366.7271964783, 6889086.030404695], [307225.7150925006, 6889113.605248536], [307158.98916090146, 6889198.2332593445], [307029.0963855422, 6889272.289156627], [307072.7047889173, 6889358.7284059655], [306953.75, 6889561.25], [306968.07692307694, 6889596.153846154], [306902.38859395095, 6889672.462556307], [306921.92307692306, 6889822.307692308], [306838.84169927414, 6889918.013690303], [307319.1607606648, 6890422.946013861], [307271.58358258556, 6890529.8753738785], [307319.98993963783, 6890602.484909457], [307258.25842696626, 6890733.258426966], [307468.3333333333, 6890943.333333333], [307512.45749453583, 6891118.010813298], [307427.4139854823, 6891263.880416524], [307438.3333333333, 6891326.666666667], [307305.0, 6891460.0], [307335.0, 6891490.0], [307203.373583431, 6891661.304415788], [307314.2252626799, 6891770.77473732], [306910.0, 6892175.0], [306693.9256272197, 6892296.627736422], [306662.15561639034, 6892485.5209457725], [306759.5596191325, 6892710.556432753], [306095.0, 6893385.0], [306135.0, 6893440.0], [305991.95652173914, 6893583.043478261], [306119.29353944346, 6893719.3106701635], [305915.22234066855, 6893979.227899185], [306101.78273947444, 6894272.72467053], [306153.0694829279, 6894426.880939093], [306058.94748543354, 6894560.057707333], [306117.7037617555, 6894618.818573668], [306156.0293173939, 6894571.552150609], [306252.3123486683, 6894714.237288136], [306038.2263384216, 6894831.909534106], [306084.5102138362, 6894961.479437284], [305967.8889698663, 6895060.554731342], [305932.58762388205, 6895163.219724438], [305756.0, 6895143.0], [305719.83405483403, 6895361.457431457], [305729.5647122099, 6895469.181407194], [305703.4785265938, 6895649.622579354], [305775.6949901768, 6895749.634086444], [305683.75, 6895838.75], [305774.3573593099, 6896038.39705732], [305785.50521370064, 6896294.864248388], [305673.6806358381, 6896418.680635838], [305695.0, 6896440.0], [305611.56498692656, 6896453.571024063], [305619.63903866225, 6896579.20467783], [305820.39563073445, 6896837.400577073], [305742.6416472194, 6896940.129879818], [305831.96674884, 6897034.541375763], [305837.93370944995, 6897170.324400564], [305741.6666666667, 6897356.666666667], [305769.3181818182, 6897384.318181818], [305430.0, 6897705.0], [305380.0, 6897705.0], [305029.1113851746, 6898030.847288935], [305075.89828269486, 6898130.052840158], [305302.4683238208, 6898343.660490985], [305365.0, 6898470.0], [305344.66057441256, 6898499.268929504], [305535.04408578837, 6898830.103071702], [305921.3100955494, 6899216.824365099], [305955.0, 6899320.0], [305863.9802371542, 6899421.833992095], [305928.1773000895, 6899507.605803947], [305900.38610107225, 6899546.649145021], [305942.29502055235, 6899884.720130479], [306012.6271378018, 6900061.620786437], [305964.8633111697, 6900510.13668883], [305765.0, 6900710.0], [305780.0, 6900725.0], [306010.0, 6900495.0], [306047.2076988629, 6900520.481636191], [306304.537405387, 6900424.341357973], [306504.5624897667, 6900175.8415754195], [306570.88052141503, 6900165.7521627005], [306709.3333333333, 6900021.666666667], [306725.0, 6900100.0], [306802.7071823204, 6900162.679558011], [306908.6037827692, 6900062.771033375], [306983.3333333333, 6900073.888888889], [307033.5483870968, 6900005.0], [307166.0561807354, 6900041.994060614], [307313.5197595286, 6899920.258810119], [307301.8947394227, 6899857.919842917], [307438.1814123106, 6899759.123759374], [307592.5432093847, 6899727.099949328], [307988.6929238002, 6899317.3531097695], [308099.9287429854, 6899495.527228753], [308068.8384334615, 6899552.914876936], [308219.6099145124, 6899682.071214027], [308125.0, 6899790.0], [308242.5257390434, 6899889.319561673], [308405.827647738, 6899794.943318988], [308477.03970216593, 6899704.703917435], [308564.1175236469, 6899695.115762023], [308727.82008754736, 6899869.188752129], [308655.0, 6899950.0], [308731.77018633543, 6899962.795031056], [308741.9913086206, 6900008.088829613], [308655.0, 6900185.12195122], [308700.55555555556, 6900306.666666667], [308660.55555555556, 6900366.666666667], [308712.7714626651, 6900526.8172248695], [308610.4958581554, 6900695.959623847], [308600.35714285716, 6900855.357142857], [308712.7419354839, 6900967.741935484], [308670.71428571426, 6901014.285714285], [308712.3846153846, 6901057.692307692], [308623.67395283055, 6901202.792201564], [308663.10101010103, 6901261.898989899], [308594.30863570544, 6901335.291699244], [308757.5034601911, 6901483.4808727], [308689.720408754, 6901577.308165431], [308725.0, 6901680.0], [308679.1219512195, 6901747.8130081305], [308775.3229357946, 6901797.855463189], [308827.2623647947, 6901931.507733789], [308895.0, 6901929.914040115], [308874.8112345867, 6901962.706652459], [308955.0, 6902120.0], [308931.06158524996, 6902145.907622125], [309248.9520788719, 6902476.225302032], [309213.5902330489, 6902535.581072275], [309232.6595713469, 6902762.7520775385], [309295.0, 6902840.0], [309329.00065234175, 6902992.150531192], [309265.0, 6903131.176470588], [309243.30173564755, 6903283.335494946], [308915.251766925, 6903697.452833213], [308757.38095238095, 6903712.380952381], [308819.28571428574, 6903804.285714285], [308785.0, 6903840.0], [308891.42369020503, 6903958.519362187], [308881.6769128317, 6904119.215917003], [308994.1436737823, 6904202.030771155], [309157.3079181323, 6904192.628115821], [309259.2239285838, 6904269.35820117], [309468.6752690763, 6904254.701781952], [309621.7137264053, 6904458.306442054], [309374.4600912713, 6904557.302635447], [309009.9061239055, 6904898.05389244], [308843.461472087, 6904975.451972964], [308646.9918617112, 6905178.008138289], [308467.43432591495, 6905229.861359577], [308087.9073088213, 6905437.092691178], [307908.85714285716, 6905616.142857143], [307794.54545454547, 6905635.0], [307709.90078412544, 6905709.759161466], [307250.6566570531, 6905955.207503183], [307198.8308457711, 6906023.830845771], [307235.9109151047, 6906081.375915427], [307217.13979241636, 6906288.884270213], [307090.02177364274, 6906394.1213185415], [307064.3522541884, 6906529.07051986], [306740.360546324, 6906835.210318689], [306630.3985050633, 6906784.421565997], [306465.0, 6906860.0], [306477.8733333758, 6906905.485777928], [306384.7170689325, 6907000.211116575], [306345.0, 6907150.0], [306395.9554140127, 6907200.700636943], [306262.6644944959, 6907425.500069576], [306165.0, 6907532.916073969], [306135.95961725863, 6907639.913509642], [305960.6934502221, 6907855.693450222], [305958.6074124502, 6907979.477304127], [305729.7892251389, 6908104.176000588], [305687.06169822847, 6908065.507025046], [305580.0, 6908055.0], [305187.3576146417, 6908431.15590247], [304874.06420520984, 6908852.954710752], [304930.77504415304, 6908919.148066794], [304789.6353385814, 6909033.203844633], [304661.0, 6909062.0], [304686.97721044515, 6909146.702266083], [304540.47295069665, 6909260.586794184], [304615.0, 6909413.478260869], [304599.7023379574, 6909527.592602321], [304502.0475495097, 6909563.79355688], [304333.17076084035, 6909767.049580519], [304263.51296723174, 6909945.613815902], [304139.79759031534, 6910085.95502405], [304061.9387755102, 6910262.244897959], [304181.469694599, 6910469.288107771], [304421.76103572577, 6910741.1569265975], [304405.0, 6910830.0], [304514.5609595835, 6910938.106610563], [304570.95460246515, 6911168.352246477], [304495.0, 6911220.0], [304499.05892001523, 6911289.001640259], [304415.75963020034, 6911302.654853621], [304363.16026859806, 6911418.093880649], [304230.13285024156, 6911535.471014493], [304118.36043721676, 6911556.639562783], [304060.0, 6911615.0], [303972.5, 6911632.5], [303734.284865062, 6911785.609163694], [303928.09985199914, 6912003.354462981], [303779.67272841715, 6912143.752497717], [303647.5481270372, 6912200.159661624], [303223.65592878876, 6912710.472277313], [303127.62342713337, 6912686.2521924805], [302994.5236752246, 6912750.828615123], [302871.7826086957, 6912855.0], [302800.0, 6912865.0], [302736.42016786314, 6912792.615899909], [302448.30792712636, 6912946.6919256], [302289.9740903118, 6912859.615733025], [301559.21121962165, 6913471.877099353], [301133.8721045071, 6913133.587044353], [301155.0, 6912980.0]]]}}]}