{"type": "FeatureCollection", "crs": {"type": "name", "properties": {"name": "EPSG:25833"}}, "features": [{"type": "Feature", "properties": {"station": "2.279.0", "name": "Kr\u00e5kfoss", "series": ["1001.1"], "nodes": 1, "fine_vertices": 4, "fine_area_m2": 50.0, "reduced_vertices": 4, "reduced_area_m2": 50.0, "outline_tolerance_m": 20.0, "windows": [[482, 440]], "placed_on": "number", "distance_m": 84.42445989106263, "uncertainty_m": 84.42445989106263, "elvid": "002-34-27081", "objectid": 12270469, "lake": false, "confluence_near": false, "reach_up_m": 1000.0, "reach_down_m": 184.42445989106272, "reach_fork": false, "seeded_by": "river", "lake_rule": null, "lake_number": null, "lake_name": null, "lake_distance_m": null, "node_offset_m": 22.321923161272558, "chain_nodes": 156, "lowered_nodes": 128, "lowered_max_m": 5.7990570068359375, "direction_ok": true, "end_extended_m": 492.842712474619, "end_closed": false, "downstream_checked": "whole", "a0": 0.0001, "area_up": 4.8888, "area_down": 0.00030000000000000003, "swing": 2.0000000000000004, "largest_step": 4.893300000000001, "largest_step_at_m": 14.142135623731065, "checked_up_m": 72.4264068711932, "checked_down_m": 80.71067811865532, "drains": false, "monotone": false, "causes": ["swing", "chain_not_draining", "chain_end_open"]}, "geometry": {"type": "Polygon", "coordinates": [[[282300.0, 6672635.0], [282295.0, 6672630.0], [282300.0, 6672625.0], [282305.0, 6672630.0], [282300.0, 6672635.0]]]}}]}