{"type": "FeatureCollection", "crs": {"type": "name", "properties": {"name": "EPSG:25833"}}, "features": [{"type": "Feature", "properties": {"station": "2.284.0", "name": "S\u00e6latunga", "series": ["1001.1"], "nodes": 4609939, "fine_vertices": 17738, "fine_area_m2": 460993950.0, "reduced_vertices": 648, "reduced_area_m2": 460993950.0, "outline_tolerance_m": 20.0, "windows": [[467, 491], [1098, 1233], [2297, 2509], [4696, 4908], [8563, 9707]], "placed_on": "number", "distance_m": 18.46222355132938, "uncertainty_m": 30.0, "elvid": "002-34-10309", "objectid": 12246912, "lake": false, "confluence_near": false, "reach_up_m": 1000.0, "reach_down_m": 130.0, "reach_fork": false, "seeded_by": "river", "lake_rule": null, "lake_number": null, "lake_name": null, "lake_distance_m": null, "node_offset_m": 1.8949370969623682, "chain_nodes": 104, "lowered_nodes": 37, "lowered_max_m": 22.703704833984375, "direction_ok": true, "end_extended_m": 0.0, "end_closed": true, "downstream_checked": "whole", "a0": 460.9939, "area_up": 0.0037, "area_down": 460.99670000000003, "swing": 0.9999919738634286, "largest_step": 460.989, "largest_step_at_m": 0.0, "checked_up_m": 28.28427124746213, "checked_down_m": 24.142135623731065, "drains": true, "monotone": true, "causes": ["swing"]}, "geometry": {"type": "Polygon", "coordinates": [[[172090.0, 6896035.0], [172040.0, 6896085.0], [171965.0, 6896018.0], [171965.0, 6895950.0], [171706.1461961311, 6895691.575888549], [171455.622849642, 6895691.694831832], [171328.05572766208, 6895777.418217738], [170852.5, 6895745.0], [170718.99569258673, 6895676.500793471], [170580.0, 6895505.0], [170550.0, 6895515.0], [170455.87865733262, 6895278.864656256], [170290.0, 6895225.0], [170170.63829787236, 6895135.478723404], [170082.17786228278, 6895115.0687757], [169797.1295884549, 6894844.25917691], [169530.60283488725, 6894884.499800245], [169389.49561144615, 6894744.42606436], [169132.688486098, 6894785.71872405], [169121.69836383132, 6894741.902210385], [168923.5294117647, 6894694.411764706], [168861.57604222343, 6894657.232691951], [168627.38816302666, 6894668.553235105], [168576.95652173914, 6894600.942028985], [168543.66570954453, 6894625.616395671], [168250.83251841107, 6894428.943466796], [167990.4545800722, 6894198.560782034], [167975.76310129376, 6894123.879098243], [167592.19246056452, 6893689.4602397], [167399.8137424201, 6893316.034842543], [167423.56749864103, 6893092.3196672], [167435.7083366485, 6892836.177336925], [167479.2066402353, 6892802.300132157], [167525.0, 6892640.0], [167456.4705882353, 6892555.0], [167303.4394778918, 6892555.591924124], [167161.02339181287, 6892304.970760234], [166787.5, 6891922.55948678], [166785.0, 6891840.0], [166522.0330771801, 6891566.918964764], [166512.88135593222, 6891430.593220339], [166411.01897096867, 6891267.993676344], [166324.07798183613, 6891243.068886271], [166178.29183764377, 6891249.341744178], [166140.55271238484, 6891205.552712385], [166002.38846408573, 6891237.388464086], [165832.47347152716, 6891190.198543319], [165758.62193062057, 6891128.298802783], [165662.21309163125, 6891190.108325916], [165369.120195659, 6891211.620167396], [164875.51802243938, 6891644.486881312], [164561.06993570586, 6891564.46663502], [164375.6852025191, 6891635.640077582], [164104.98943301974, 6891600.214687516], [163916.8181719872, 6891418.131866943], [163812.77777777778, 6891405.555555556], [163529.19983530804, 6891211.260564134], [163430.0, 6891165.0], [163067.6, 6891527.4], [163102.4, 6891652.6], [162987.27272727274, 6891722.2727272725], [162954.22535211267, 6891690.774647887], [162840.0, 6891805.0], [162806.7857142857, 6891771.785714285], [162718.50824587705, 6891901.169415292], [162692.75862068965, 6891892.586206896], [162502.05479452055, 6892032.94520548], [162374.7875679342, 6892006.599009689], [162274.3991115525, 6892080.421780173], [162193.89631254392, 6892008.068067514], [162059.3432923587, 6892098.887747588], [161715.39628423235, 6891827.163345038], [161524.67618002195, 6891807.162458836], [161440.0, 6891735.0], [161398.57142857142, 6891763.571428572], [161315.77221819232, 6891728.833135236], [161263.76862401402, 6891782.326906223], [161220.36113023185, 6891764.545523227], [160932.27272727274, 6891972.7272727275], [160735.78051470994, 6892036.099176514], [160597.94594148028, 6892197.109865096], [160542.40884025153, 6892422.547500685], [160188.94936705712, 6892663.866106527], [159580.94901029926, 6893238.503414813], [159676.82474045496, 6893510.595812106], [159593.33333333334, 6893545.0], [159330.47923322683, 6893418.564582382], [159290.0, 6893445.0], [159201.4530332681, 6893381.726516634], [159165.33452744706, 6893423.586028869], [158958.16471205294, 6893282.261586202], [158707.27541165185, 6893241.499503936], [158641.36802740904, 6893168.656123341], [158587.629517627, 6892903.63662739], [158624.2857142857, 6892725.0], [158558.56592766722, 6892719.698261869], [158609.4634525661, 6892595.536547434], [158784.3023255814, 6892370.852713178], [158655.39165227584, 6892220.456927655], [158758.44511487585, 6892038.427709445], [158599.63822184544, 6891830.249171562], [158629.62882777155, 6891699.878207908], [157696.9540229885, 6890762.068965517], [157716.95213622766, 6890731.280531235], [157567.13313161192, 6890453.948667047], [157908.46153846153, 6890008.668639054], [157975.90045726346, 6889974.597256419], [157995.0, 6889910.0], [157939.44444444444, 6889854.444444444], [157967.1842212722, 6889714.548430378], [157927.52427184465, 6889627.475728155], [157958.50574712644, 6889596.494252874], [157926.62790697673, 6889547.441860465], [157970.0, 6889505.0], [158010.0, 6889545.0], [158147.16666666666, 6889382.166666667], [158111.17502726283, 6889346.175027262], [158198.700480445, 6889132.827256473], [158134.35630653126, 6888995.685589035], [158211.33128458913, 6888943.192615816], [158134.20357087418, 6888630.245758142], [158057.0246364472, 6888528.050384838], [158084.7335478908, 6888309.368152029], [157943.39039318232, 6887970.5366819585], [158039.75176411384, 6887825.248235886], [158191.81115169343, 6887673.188848306], [158216.7066174494, 6887446.110517795], [158140.672374737, 6887209.323883242], [157901.7278863002, 6886939.002530988], [157885.0, 6886870.0], [157935.0, 6886820.0], [157915.0, 6886730.0], [158799.5, 6885845.5], [158765.62102268473, 6885806.331137232], [158467.48574278076, 6885675.679847], [158397.0, 6885572.0], [158419.7015270708, 6885541.207774179], [158360.68278487984, 6885408.803994262], [158050.40016007904, 6885131.555101882], [157851.7142857143, 6885056.714285715], [157704.2857142857, 6885109.285714285], [157563.7489180093, 6884976.48954359], [157265.0, 6884990.0], [157280.0, 6884965.0], [157178.9922935165, 6884838.582677165], [157139.99702425234, 6884860.664335664], [157040.0, 6884745.0], [156946.8153543749, 6884718.375815536], [156801.2593416369, 6884577.720901168], [156474.18583451794, 6884625.687472638], [156116.48837209304, 6884588.325581395], [156204.55223880598, 6884489.253731343], [156101.54948563737, 6884360.790345869], [156389.65660375895, 6884039.169383857], [156334.14111511782, 6883902.304876561], [156330.0, 6883735.0], [156400.0, 6883635.0], [156365.85508941935, 6883559.881196722], [156480.18513225508, 6883440.682743739], [156488.70004707636, 6883367.543813229], [156345.53068856298, 6883072.167713481], [156380.55963709863, 6882905.559637099], [156503.70112148067, 6882719.7730374085], [156710.51678339756, 6882501.962410036], [156822.03200991475, 6882502.9679900855], [156798.0294536111, 6882341.5758849885], [156545.6268277547, 6882090.45147129], [156492.36188585183, 6881949.975751905], [156963.33333333334, 6881471.666666667], [157044.17736289382, 6881438.955659277], [157177.47830307664, 6881282.508235561], [157148.2619548879, 6881153.607288737], [157510.0, 6881075.0], [157540.0, 6881105.0], [157799.96475770924, 6881032.207048458], [157832.74637886963, 6880957.223800057], [158070.81122745774, 6880856.165668632], [158231.22166018086, 6880878.403198023], [159167.94023060286, 6880047.3269822495], [158920.01814559952, 6879756.022765], [158941.4705882353, 6879733.676470588], [158918.33333333334, 6879663.333333333], [158965.0, 6879590.0], [158890.33341965557, 6879561.911174414], [158815.0, 6879480.0], [158990.9673686842, 6879454.019002303], [159132.92824481183, 6879255.8389025675], [159346.11141001168, 6879263.154199926], [159402.5, 6879232.5], [159495.42592253757, 6879298.875658955], [159696.86576444012, 6879068.8117344715], [159800.54666847826, 6879085.546668478], [159850.0, 6879135.0], [159924.40831708338, 6879138.55680292], [160290.83520693253, 6879229.015188741], [160527.42239376635, 6879015.736946387], [160621.00165904427, 6878793.658268775], [160820.18691588784, 6878859.392523364], [161010.0, 6878815.0], [161151.37117488083, 6878742.667192068], [161940.33579055095, 6878839.277379096], [162102.651678848, 6878711.899398518], [162239.23207867163, 6878807.431075474], [162294.56776749511, 6878897.250147018], [162408.22288109688, 6878822.722654233], [162511.93740218136, 6878824.682047322], [162545.9535611509, 6878781.2010139], [162814.2857142857, 6878780.714285715], [162919.44444444444, 6878675.555555556], [162852.09401709403, 6878612.905982906], [162967.45822126104, 6878595.230614456], [163053.07692307694, 6878661.923076923], [163183.29355792602, 6878652.736233669], [163310.59942422342, 6878704.400575777], [163377.88, 6878637.12], [163482.44186046513, 6878648.837209302], [163535.27524037127, 6878505.879461776], [163850.61446855438, 6878506.20486127], [164226.12876273383, 6878423.088540916], [164447.78761061947, 6878515.0], [164600.35005692818, 6878526.349280074], [164614.97513262005, 6878437.274174112], [164888.11994704467, 6878423.83475742], [165055.64708853373, 6878501.0572887445], [165102.8607905545, 6878384.769401931], [165383.95502864508, 6878369.418685718], [165763.9531170329, 6878461.820858264], [165788.33333333334, 6878386.666666667], [165956.66666666666, 6878338.333333333], [166110.1754385965, 6878374.824561403], [166160.0, 6878325.0], [166140.0, 6878365.0], [166173.83720930232, 6878421.395348838], [166074.25055568892, 6878508.944164896], [166119.45845281598, 6878578.093008754], [166262.10829680317, 6878619.167367787], [166375.0, 6878790.0], [166516.07495663068, 6878854.415357556], [166481.47157190635, 6878922.424749164], [166830.0, 6879235.0], [167230.42954031652, 6879312.113790505], [167343.5890445709, 6879249.636708108], [167540.0, 6879245.0], [167805.21121039806, 6878979.788789602], [167761.57894736843, 6878861.447368421], [167788.27604876738, 6878858.0980957], [167838.65051903113, 6878920.190311419], [168157.868348873, 6878728.582479139], [168387.40485074627, 6878746.347014925], [168650.0, 6878985.0], [168728.93885032058, 6878971.927324151], [168949.24054791627, 6879025.762893937], [169242.22222222222, 6879327.444444444], [169316.0008402033, 6879342.200168041], [169562.86445879407, 6879567.96235123], [169596.87578867117, 6879665.326905375], [169771.60350814578, 6879801.987032472], [169987.27272727274, 6879757.7272727275], [170106.5746326759, 6879868.73057718], [170302.4022219703, 6879973.18954767], [170613.41719127464, 6879998.417191274], [170694.375, 6880079.375], [170755.0, 6880060.0], [170723.10355987056, 6880025.445523193], [170965.0, 6879735.714285715], [170948.49428522517, 6879644.211030192], [171011.80060227614, 6879617.698004299], [171046.799714025, 6879378.718360412], [171472.68252346394, 6879451.799358626], [171618.16986124485, 6879400.24484756], [171760.0, 6879415.0], [171893.897211339, 6879301.139663517], [172213.138031319, 6879331.51893256], [172512.17689555587, 6879256.417508764], [172694.74824633592, 6879559.090526808], [172954.2857142857, 6879819.285714285], [172978.35616438356, 6879796.178082191], [173090.0, 6879835.0], [173350.9192729927, 6880032.641149712], [173345.0442691112, 6880081.535935337], [173544.92366412212, 6880305.72519084], [173768.92680447764, 6880270.165335365], [173912.0363164721, 6880367.036316472], [174059.0123643164, 6880251.443163106], [174302.55043349287, 6880238.045776246], [174359.9674267101, 6880291.6449511405], [174466.25, 6880221.25], [174500.0, 6880255.0], [174540.44108212425, 6880219.242636732], [174600.5303016579, 6880284.649363139], [174986.66666666666, 6880385.0], [175083.14114456973, 6880378.146853147], [175258.50215885442, 6880225.0], [175365.1880883674, 6880247.507893337], [175440.0756869519, 6880167.9067248935], [175792.86934343673, 6880167.800413351], [175795.90421131518, 6880053.5763615975], [175876.42857142858, 6879967.142857143], [175856.9277108434, 6879937.108433735], [175963.79206380082, 6879760.990079751], [176023.34944767389, 6879556.6466525365], [176434.48779547226, 6879180.933200332], [176698.24013845806, 6879159.844065234], [176768.68421052632, 6879087.894736842], [176755.0, 6879010.0], [176980.79259799788, 6878772.369757618], [177120.0, 6878745.0], [177128.55259059288, 6878819.934067075], [177201.55778894472, 6878788.4673366835], [177224.3555034715, 6878842.5390415015], [177428.02471299263, 6878747.906447429], [177706.6586830415, 6878740.219846952], [177731.62962962964, 6878797.296296297], [177870.53311252306, 6878773.264615492], [177937.78728606357, 6878707.224938875], [178027.77522604392, 6878726.2574809315], [178112.68627598562, 6878678.264278791], [178249.08257606294, 6878764.449545638], [178373.99081489147, 6878656.335570203], [178599.0909090909, 6878540.454545454], [178629.11515119817, 6878476.080842628], [178803.73610801226, 6878350.182059136], [178950.0, 6878495.0], [179016.57142857142, 6878422.714285715], [179178.9829942433, 6878537.43510417], [179270.14381991525, 6878648.23745339], [179366.89949382056, 6878662.700168726], [179487.5, 6878622.5], [179540.0, 6878685.0], [179739.59861537622, 6878573.085967291], [179855.54331644528, 6878610.397408712], [180046.1206247805, 6878503.152332057], [180295.0, 6878310.0], [180257.87431300714, 6878188.946895595], [180606.33247587763, 6877902.125107182], [180868.31110735395, 6878119.118405319], [181255.0, 6878283.333333333], [181249.21042948158, 6878234.921935162], [181590.022549932, 6878135.022549932], [181694.3429699583, 6878164.408753229], [181800.76631379017, 6878054.807943508], [182151.08820187845, 6877985.108705129], [182406.09023831383, 6877781.099374408], [182451.66666666666, 6877636.666666667], [182503.97940578364, 6877627.994630722], [182625.0, 6877520.0], [182625.0, 6877445.742928733], [183200.61874234676, 6876862.119790323], [183343.67354444964, 6876606.830177327], [183408.29283227187, 6876599.633263848], [183423.33333333334, 6876491.666666667], [183590.7971777737, 6876442.621206914], [183797.93812514492, 6876202.307970952], [183775.6009138663, 6876080.668232848], [183837.26823107147, 6876043.029585403], [183985.68500239178, 6875820.957147871], [184264.29076374733, 6875599.987403936], [184494.7619047619, 6875820.238095238], [184570.0, 6875745.0], [184748.75, 6875905.0], [184818.60732188972, 6875863.676591219], [184861.58155914838, 6875904.513366416], [184950.0, 6875825.0], [185001.6816903758, 6875873.543243961], [185165.84140165866, 6875694.946243655], [185321.41432864976, 6875600.701625466], [185479.54547260344, 6875709.441671951], [185830.6349140783, 6875438.977532181], [186045.7142857143, 6875405.0], [186139.7520661157, 6875326.900826447], [186232.7027027027, 6875376.081081081], [186309.24657098125, 6875318.4262101455], [186495.66873832344, 6875322.663657386], [186574.0330777982, 6875255.786066739], [186697.14285714284, 6875212.714285715], [186751.48232167977, 6875255.131187938], [186923.54453124336, 6875145.740720127], [186994.99732726047, 6875234.731143759], [187181.23287671234, 6875245.0], [187497.1155004975, 6875563.116075058], [187620.0, 6875495.0], [187756.52691890256, 6875564.601958656], [187884.02985074627, 6875513.6567164175], [187924.0, 6875545.0], [188029.54545454547, 6875474.545454546], [188160.9988760888, 6875605.998876089], [188121.01123595505, 6875665.983146068], [188175.7142857143, 6875721.071428572], [188068.25200099204, 6875821.563321534], [188264.1893592503, 6876037.2567946445], [188244.59134615384, 6876110.504807692], [188548.73171586604, 6876451.938994469], [188550.54238208826, 6876574.577869686], [189330.44722706487, 6877376.3620705865], [189326.34487915516, 6877401.695049692], [189637.31626554162, 6877772.3957439875], [189697.68873770616, 6877906.928749384], [189569.634347211, 6878053.200780602], [189669.06779661018, 6878352.542372881], [189828.94244604316, 6878546.057553957], [189746.05263157893, 6878628.947368421], [190028.03030303033, 6878963.03030303], [190114.95232012015, 6879006.925604102], [190212.3779385172, 6879140.7775768535], [190235.0, 6879255.059952038], [190372.5254021286, 6879427.017359557], [190368.33333333334, 6879506.666666667], [190150.2272739625, 6879724.772726038], [189923.44946256714, 6880063.24548848], [189915.0, 6880330.0], [190115.0, 6880600.0], [190068.11442462876, 6880659.7092946535], [190078.2, 6880770.4], [190185.0, 6880950.0], [190158.22692042054, 6881043.705778528], [190325.62239129833, 6881445.370456384], [190433.125, 6881548.125], [190466.875, 6881541.875], [190420.0, 6881575.0], [190348.7912087912, 6881545.32967033], [190190.0, 6881555.0], [190071.36363636365, 6881449.545454546], [190020.0, 6881355.0], [189971.44927536233, 6881355.0], [189300.0, 6882045.0], [189182.0, 6882013.0], [189025.09521133004, 6882169.90478867], [188813.23975320536, 6882236.895685681], [188651.06845391632, 6882342.315418652], [188574.43490641649, 6882288.668856742], [188482.7454100137, 6882128.870371646], [188148.40490797546, 6881823.404907975], [188141.73913043478, 6881745.869565218], [188085.53390491038, 6881726.870615744], [187677.71080130746, 6882019.087956444], [187480.4696222181, 6882009.221486355], [187326.1604326273, 6881864.107706174], [187278.9366293211, 6881963.574449285], [187300.21267267264, 6882173.458491722], [187233.8165415219, 6882358.372744593], [187275.0, 6882415.0], [187307.31663310225, 6882640.268228021], [187257.54293986555, 6882930.880317831], [187187.5978158675, 6883092.21812396], [187511.0689073364, 6883450.92898944], [187493.13010590014, 6883595.552193646], [187822.96347579444, 6883942.0365242055], [187723.1879194631, 6884041.812080537], [187674.13338987247, 6884176.296451], [187859.46336177317, 6884364.272154947], [187931.84210526315, 6884335.263157895], [188032.76475887315, 6884478.025310118], [188072.4477062022, 6884600.717693545], [187999.76009713582, 6884565.239902864], [187930.0, 6884635.0], [187871.17977637344, 6884559.261125516], [187737.5290223424, 6884605.534682032], [187756.5091919056, 6884731.780950533], [187972.9850008257, 6884963.69463429], [188154.86662450564, 6885069.225709035], [188187.96446505806, 6885256.80045498], [188243.3347549717, 6885349.446339962], [188339.169460672, 6885247.10268414], [188325.38461538462, 6885168.076923077], [188442.81604126075, 6885123.193402795], [188419.03428597242, 6885053.866549167], [188634.40779013358, 6884998.978809768], [188717.737548844, 6885022.091134228], [188798.17776677955, 6885125.514271574], [189276.59275750897, 6884648.407242491], [189131.92776446423, 6884563.494008901], [189253.7037037037, 6884425.0], [189331.9651632984, 6884433.688133697], [189570.693877551, 6884282.043731779], [189705.90810672054, 6884258.11848948], [189754.5, 6884199.5], [189880.0, 6884195.0], [190023.6890692159, 6884435.140719337], [189952.1746165322, 6884567.214824851], [190432.1768922232, 6885045.966132809], [190105.42253875887, 6885362.613827042], [189936.96275688487, 6885481.9203335345], [190002.54217873584, 6885662.427346535], [189750.0545467481, 6885867.648110368], [189436.4705882353, 6886238.529411765], [189463.33333333334, 6886325.0], [189420.0, 6886325.0], [189308.4055865259, 6886213.405586526], [189219.08631728526, 6886283.84893375], [189128.01586185896, 6886447.128758828], [189138.534167283, 6886620.99522586], [189041.25, 6886745.625], [189150.68376650446, 6886869.849283508], [188954.33355473165, 6887175.743657887], [188971.76258992805, 6887258.201438849], [189035.0, 6887293.333333333], [189038.67508046207, 6887377.4329383755], [188694.3840701187, 6887552.419373985], [188650.0, 6887395.0], [188546.34110561453, 6887414.273261771], [188580.26490066224, 6887571.898835351], [188611.95687202894, 6887576.534439763], [188379.92063492065, 6887892.380952381], [188401.73469387754, 6887925.102040816], [188274.43204700146, 6887950.904123792], [188199.01094244092, 6888032.302461737], [188088.3933633399, 6888001.125271029], [187991.4, 6888093.6], [188039.56143121963, 6888245.2765150815], [187928.7733985213, 6888388.042838057], [187971.88524590165, 6888563.1147540985], [187897.72727272726, 6888692.7272727275], [187938.58015102003, 6888745.349670718], [187830.4935011973, 6888838.033967372], [187730.62729479917, 6888884.1948289815], [187745.0, 6888946.666666667], [187687.48556529108, 6889044.121681035], [187676.52674600328, 6889452.490879034], [187698.3902249806, 6889476.183087665], [187645.0, 6889610.0], [187805.0528988574, 6889698.789674143], [187804.70037453185, 6889906.779026217], [187705.0, 6889990.0], [187702.77777777778, 6890082.222222222], [187627.22222222222, 6890157.777777778], [187665.0, 6890210.0], [187655.0, 6890300.0], [187370.34317280646, 6890653.193265403], [187176.01913875598, 6890625.373205742], [187076.0, 6890551.0], [186833.50029270697, 6890667.516271557], [186468.40926640926, 6890569.602316602], [186411.98965206958, 6890610.974505099], [186239.13451471593, 6890562.8184733875], [186105.0, 6890618.059025955], [186274.35005926513, 6890816.094429079], [186248.19787619734, 6890881.947516563], [186406.9511855735, 6891138.966435751], [186293.94416957806, 6891304.9286039155], [186403.06186519857, 6891472.092797798], [186361.2284463895, 6891496.466520788], [186309.03130244632, 6891463.873313455], [186205.82568336095, 6891526.613578969], [185784.71580094268, 6891547.700284855], [185335.68719148226, 6891665.478571225], [185283.5483870968, 6891631.451612903], [185240.0, 6891675.0], [185166.39722863742, 6891634.699769053], [185070.28056112223, 6891684.719438878], [185050.59933620723, 6891767.247544964], [184703.01639178194, 6892035.430551895], [184464.08905873695, 6892037.746365999], [184349.2220461936, 6891896.786875677], [184230.0, 6891825.0], [184172.87662279495, 6891880.715919313], [184073.09610006318, 6891829.526874396], [184066.4143031412, 6891687.336332215], [184002.5, 6891582.5], [183940.70438799076, 6891633.060046189], [183847.5, 6891512.5], [183794.1063474745, 6891646.087318824], [183757.0259481038, 6891672.0259481035], [183670.0, 6891585.0], [183251.86080231995, 6891929.349927501], [182872.27272727274, 6892297.2727272725], [182830.843373494, 6892255.843373494], [182735.7142857143, 6892279.285714285], [182640.0, 6892235.0], [182542.88006053725, 6892301.553159289], [182535.62323649978, 6892479.3767635], [182323.18910417255, 6892678.360244979], [182244.4246247315, 6892943.675621375], [182063.95118891142, 6893016.56590867], [181600.9605447896, 6893468.444089855], [181572.28454522206, 6893579.8555110395], [181409.94627551475, 6893462.595430027], [181241.04223367063, 6893562.606027393], [181055.871578161, 6893420.917392489], [180951.42857142858, 6893383.571428572], [180765.0, 6893570.0], [180710.65573770492, 6893557.459016394], [180450.0, 6893685.0], [180400.0, 6893645.0], [180387.60387893606, 6893810.304731274], [180303.17401208953, 6893991.825987911], [180036.70731707316, 6894258.292682927], [179999.44444444444, 6894234.814814814], [179929.43491375248, 6894316.492600622], [179979.18367346938, 6894438.87755102], [179908.78378819712, 6894485.9334959015], [179833.18732528845, 6894393.737193162], [179774.31068916045, 6894445.855795796], [179441.76470588235, 6894276.764705882], [178927.96962707865, 6893807.2953461185], [178800.0, 6893855.0], [178696.66666666666, 6893778.333333333], [178598.91543565964, 6893851.4882926205], [178474.5893160338, 6893790.39615864], [178418.9344262295, 6893845.901639344], [178377.890625, 6893762.890625], [178287.3268957023, 6893757.894023617], [177984.91200761884, 6894091.714130752], [177899.53433547, 6894118.01999671], [177746.52173913043, 6894018.478260869], [177665.11777695987, 6894106.823702613], [177755.0, 6894226.666666667], [177728.90371684227, 6894386.463073361], [177507.1243523316, 6894432.150259067], [177320.54103012627, 6894316.127511927], [177248.89930039897, 6894183.129828171], [177138.0989196951, 6894176.901080305], [176696.31386861313, 6894618.686131387], [176639.62402823125, 6894848.990501612], [176581.28254165914, 6894832.512371818], [176383.14069464488, 6895013.580711521], [176093.90221801435, 6895021.334149487], [175825.77825159914, 6895256.321961621], [175780.0, 6895225.0], [175735.96237477605, 6895342.053233493], [175560.2112839385, 6895327.1569424905], [175460.6616257089, 6895385.094517958], [175395.75342465754, 6895375.821917809], [175190.0, 6895555.0], [175143.33333333334, 6895541.666666667], [175087.55330739816, 6895623.714284292], [175033.99200596698, 6895606.309195012], [174890.83650190115, 6895713.669201521], [174509.5155296183, 6895717.856878249], [173981.70998091978, 6896255.049345352], [173822.0, 6896256.0], [173730.0, 6896325.0], [173653.33333333334, 6896308.333333333], [173591.67300380228, 6896350.931558935], [173540.0, 6896305.0], [173414.9427598993, 6896427.340374664], [173353.24867345754, 6896395.956562996], [173282.28982610547, 6896424.296045965], [173318.62053959965, 6896544.482158398], [173197.73297030956, 6896657.378113232], [173212.56563245825, 6896702.895783612], [173110.0, 6896705.0], [172978.76313148518, 6896785.618434258], [172855.00785308686, 6896635.662075631], [172854.9295774648, 6896579.225352113], [172770.66134574814, 6896506.995439213], [172629.53597879162, 6896498.434557745], [172561.54168657114, 6896427.973416769], [172464.784343914, 6896437.1761594815], [172090.0, 6896035.0]]]}}]}