{"type": "FeatureCollection", "crs": {"type": "name", "properties": {"name": "EPSG:25833"}}, "features": [{"type": "Feature", "properties": {"station": "2.290.0", "name": "Brustuen", "series": ["1001.1"], "nodes": 2527560, "fine_vertices": 15332, "fine_area_m2": 252756050.0, "reduced_vertices": 567, "reduced_area_m2": 252756049.9999988, "outline_tolerance_m": 20.0, "windows": [[441, 508], [1174, 1143], [2560, 2342], [4995, 4741]], "placed_on": "number", "distance_m": 14.255302567162506, "uncertainty_m": 30.0, "elvid": "002-34-6176", "objectid": 12244886, "lake": false, "confluence_near": false, "reach_up_m": 1000.0, "reach_down_m": 130.0, "reach_fork": false, "seeded_by": "river", "lake_rule": null, "lake_number": null, "lake_name": null, "lake_distance_m": null, "node_offset_m": 5.926531325011185, "chain_nodes": 105, "lowered_nodes": 12, "lowered_max_m": 0.27850341796875, "direction_ok": true, "end_extended_m": 0.0, "end_closed": true, "downstream_checked": "whole", "a0": 252.756, "area_up": 252.7553, "area_down": 252.91740000000001, "swing": 0.0006385605089494003, "largest_step": 0.15909999999999513, "largest_step_at_m": 20.0, "checked_up_m": 24.142135623731065, "checked_down_m": 30.0, "drains": true, "monotone": true, "causes": []}, "geometry": {"type": "Polygon", "coordinates": [[[141425.0, 6868180.0], [141510.51552019967, 6868094.724691936], [141455.0, 6867970.0], [141475.0, 6867940.0], [140649.56583354805, 6867112.619943313], [140685.0, 6866926.0], [140572.9655172414, 6866870.627586207], [140465.17150190557, 6866940.171501906], [140026.08818011257, 6866501.088180113], [139907.38805970148, 6866461.940298508], [139893.7037037037, 6866393.518518519], [139774.4048804578, 6866322.174995509], [139617.31741218094, 6866120.04296184], [139714.77412540335, 6865999.774125404], [139195.44990061945, 6865477.760885102], [138903.80674279726, 6865558.59218552], [138593.0580698949, 6865227.344948795], [138617.22222222222, 6865175.555555556], [138497.30434782608, 6865167.695652174], [138279.20820414976, 6865314.20820415], [138216.66666666666, 6865251.666666667], [138180.0, 6865275.0], [138045.887198269, 6865177.156698108], [137882.4378827424, 6865226.647963369], [137658.44392048463, 6865182.378314653], [137561.05572960674, 6865076.009792346], [137425.80777064388, 6864847.233639029], [137433.76200924124, 6864641.181312199], [137033.59540273494, 6864535.497612033], [136717.51964882843, 6864697.3292682115], [136515.30286265336, 6864713.703159716], [136454.61077073184, 6864541.883533544], [136299.00294836916, 6864397.0684356885], [136049.03544223317, 6864351.683945745], [135903.75, 6864463.75], [135559.05517971082, 6864509.302573358], [135218.7851725226, 6864720.182390558], [135063.2291022843, 6864717.3453137055], [134947.72195504015, 6864603.72760428], [134790.69846678025, 6864555.0], [134421.5512782395, 6864523.005851714], [134172.56771120708, 6864336.919070878], [133743.0279295236, 6864801.266630165], [133442.24953749863, 6864905.284782505], [133420.0, 6864975.0], [133330.0, 6864915.0], [133253.39481794927, 6864960.657452644], [132975.89929915243, 6864755.709155854], [132696.3150932609, 6864623.110151482], [132511.65492058464, 6864646.921451708], [132148.87373437322, 6864534.834811528], [131942.06822767376, 6864263.75511561], [131538.80381771908, 6864063.803817719], [131462.1052631579, 6863987.105263158], [131244.77750407273, 6864174.190334463], [130648.68041623256, 6864074.063926679], [130373.81375616026, 6863940.847070323], [130275.0, 6863768.0], [130042.20430107525, 6863529.354838709], [129869.2717235906, 6863263.24987804], [129752.59953648411, 6862938.993848975], [129792.79310344828, 6862657.655172414], [129450.81441263574, 6862245.814412636], [129490.97447373594, 6862036.338847648], [128849.74829248787, 6861529.726819737], [128701.4, 6861299.6], [128699.26426426426, 6861164.264264264], [128655.0, 6861120.0], [128676.40902872776, 6861055.772913816], [128575.57142857143, 6860940.571428572], [128516.42857142857, 6860781.428571428], [128649.37390359487, 6860582.394813567], [128640.0147177535, 6860487.273034846], [128667.01331146112, 6860475.658624299], [128733.57142857143, 6860328.571428572], [128670.13208426775, 6860213.443372726], [128833.68567267939, 6860102.6643340895], [128853.603777817, 6859990.381182346], [128805.0, 6859860.0], [128701.8106617647, 6859812.509191177], [128662.25393700787, 6859752.175196851], [128701.69515871609, 6859735.593544954], [128595.0, 6859570.0], [128623.61971830986, 6859456.76056338], [128526.29627042751, 6859340.578592725], [128268.6638922046, 6859308.354704481], [128034.8275862069, 6859355.344827586], [128023.93212668218, 6859377.1357466355], [127786.51714735039, 6859346.69528199], [127513.67816091955, 6859484.425287357], [127405.58147157029, 6859418.431912126], [127221.8441662237, 6859385.547781026], [127092.124697666, 6859247.373162258], [126993.34622607811, 6859220.551257974], [126888.04927287281, 6859242.897131696], [126846.6737863714, 6859202.303692878], [126736.12399976618, 6859288.933999182], [126765.0, 6859390.0], [126628.2578804165, 6859466.776347511], [126410.03700049334, 6859409.341391219], [126335.02788491534, 6859480.247163493], [126088.90334503731, 6859476.296283524], [125766.0, 6859231.0], [125574.06832298136, 6859331.459627329], [125493.01749458288, 6859313.44833213], [125482.05844726526, 6859181.24489409], [125290.0, 6859015.0], [125200.73426531783, 6859032.464335514], [125001.18011992426, 6858894.203374681], [124971.02694286875, 6858768.80435942], [125082.61326266598, 6858638.417070382], [124959.98502941894, 6858571.656686279], [124989.07628128724, 6858533.992848629], [124880.29559302548, 6858410.370118384], [124726.75934366512, 6858324.290161841], [124799.4813607334, 6858227.020240328], [124704.07463647016, 6858057.932651674], [124549.88028616748, 6858030.022928436], [124475.02604166667, 6857869.973958333], [124424.1442169997, 6857892.862298093], [124111.89500567444, 6857724.622507195], [123987.46942872787, 6857544.115714546], [124147.54752757997, 6857367.94405838], [124032.57009453603, 6857183.830288465], [123789.47910189473, 6856965.613508901], [123937.3609954586, 6856877.639004542], [124031.12456401774, 6856858.444757692], [124149.24173965212, 6856617.827826435], [124205.0, 6856655.0], [124351.65101969666, 6856585.541995546], [124519.24349922978, 6856293.823384465], [124470.68383143347, 6856046.389387192], [124519.6664572461, 6856007.893487928], [124725.0, 6855979.3707864415], [124725.0, 6855915.419509892], [124629.05846829536, 6855776.726598957], [124566.00330570339, 6855766.74229033], [124439.25120058846, 6855648.882929541], [124514.69913638257, 6855543.434995879], [124385.0, 6855430.0], [124418.34161490684, 6855379.478260869], [124449.65828832572, 6855391.561071874], [124567.5, 6855247.5], [124515.3811596873, 6855244.197715195], [124174.25644498844, 6855037.637107659], [123950.43521978447, 6854989.83540759], [123807.18078831352, 6855007.71271842], [123764.0, 6854975.0], [123482.84107384607, 6854929.305511694], [123345.0, 6854780.0], [123371.66666666667, 6854746.666666667], [123315.00962834586, 6854683.279414597], [123357.15779723262, 6854597.679525208], [123246.90011655769, 6854405.963822174], [123340.73061728395, 6854274.5286419755], [123312.71043085399, 6854133.779353889], [123260.43571570923, 6854078.2266756045], [123306.61528863128, 6853925.019521928], [123235.0, 6853896.285714285], [123198.88084898218, 6853743.876996014], [123098.85022480505, 6853644.550305717], [123116.58958001064, 6853595.513024987], [122830.25929768386, 6853269.999616492], [122900.73936384768, 6853223.894655206], [123126.66666666667, 6853271.666666667], [123288.7116012264, 6853121.225674951], [123580.97500379573, 6853084.57914044], [123624.60306788186, 6853043.452525026], [123720.54475947755, 6853098.985345651], [123767.5, 6853085.833333333], [123885.0, 6853200.0], [123860.3448275862, 6853231.8965517245], [123956.2042185726, 6853287.033433005], [124060.6990832279, 6853287.936927018], [124152.5328207349, 6853345.333012959], [124277.40842490843, 6853315.0], [124332.20030349014, 6853348.141122914], [124404.34927692883, 6853298.117834663], [124598.72453881238, 6853410.774622665], [124736.71477824928, 6853424.202219178], [124917.05494545537, 6853559.938336713], [125083.06747043821, 6853642.994435428], [125221.32050674479, 6853640.087492134], [125319.15428095698, 6853547.270593794], [125580.0, 6853795.0], [125640.0, 6853775.0], [125945.79621564804, 6854037.193682751], [126254.19004167004, 6854193.159186962], [126311.71470187824, 6854132.68454418], [126412.04861111111, 6854242.361111111], [126510.0, 6854255.0], [126563.16512544546, 6854218.394894223], [127173.08669129727, 6854219.311541348], [127310.34798906362, 6854138.777235954], [127513.15824923082, 6854071.095631698], [127676.9196438526, 6854062.975577863], [127840.0, 6854105.0], [127857.69230769231, 6854073.461538462], [128115.91811809313, 6854248.048895778], [128234.27370330374, 6854248.800094685], [128560.21477026472, 6854324.785229735], [128589.35064935064, 6854295.64935065], [128784.28571428571, 6854320.714285715], [128833.33333333333, 6854271.666666667], [129108.4433542268, 6854210.522413011], [129152.69891054906, 6854134.638629241], [129137.69230769231, 6854088.846153846], [129268.38983050847, 6854134.322033898], [129314.34709351306, 6854097.898062342], [129368.13159036315, 6854133.754393576], [129512.07282776792, 6854049.850427224], [129463.78132534522, 6854035.076836901], [129457.30769230769, 6853807.692307692], [129505.0, 6853760.0], [129449.13579767142, 6853686.259252926], [129494.79370249729, 6853606.829533116], [129290.86146967614, 6853320.571778829], [129341.26631290537, 6853206.707822332], [129440.7340955374, 6853296.082405553], [129548.69863013699, 6853162.191780822], [129441.8289817596, 6853058.166428077], [129151.71541790703, 6852911.442639285], [129090.83065041734, 6852780.012240822], [129007.52948885976, 6852700.602883355], [129055.82092410426, 6852699.548274001], [128949.53380135205, 6852385.897815913], [128960.5924170616, 6852327.10900474], [128875.94922961626, 6852201.929599393], [128876.535598658, 6852182.118702483], [128686.05480868666, 6851979.638055842], [128560.68473290447, 6851978.595279343], [128504.74205970339, 6852036.691967411], [128236.91626653864, 6851774.291673888], [128274.44177847731, 6851647.99129932], [128225.0, 6851540.0], [128245.0, 6851500.0], [128202.14285714286, 6851472.857142857], [128231.89887640449, 6851443.101123596], [128215.79635323913, 6851229.3238672055], [128151.62397169259, 6851182.53598343], [128188.40401714787, 6851092.553012861], [128122.14285714286, 6851042.857142857], [128032.65791448702, 6851066.972376866], [128033.14814814815, 6851011.851851852], [127935.31031317441, 6850904.474940379], [127813.26933056564, 6850614.509600415], [127831.28783339058, 6850609.644027201], [127737.85714285714, 6850429.120879121], [127665.0, 6850360.0], [127722.5, 6850302.5], [127685.0, 6850260.0], [127899.99040058182, 6850188.75564624], [127938.13737612314, 6850270.065741588], [128044.09090909091, 6850302.7272727275], [128058.5311073745, 6850232.932981024], [128251.25, 6850168.75], [128262.3911430067, 6850092.557164016], [128398.13594542342, 6850062.715881784], [128730.91503267974, 6849735.0], [128780.0, 6849735.0], [128843.34937487953, 6849622.928029979], [128955.61263201066, 6849600.774633446], [129060.0, 6849635.0], [129091.11111111111, 6849572.777777778], [129314.70738512931, 6849566.110635611], [129395.88666704865, 6849650.412632021], [129484.87768876892, 6849600.1420554975], [129512.43549633626, 6849682.806807416], [129635.72921395476, 6849706.094019318], [129776.7642547425, 6849891.01397409], [129878.93823755956, 6849895.932044294], [129953.47014113667, 6849801.900998445], [129685.0, 6849570.0], [129761.83469188132, 6849460.480599935], [129631.8377239214, 6849404.4078389695], [129755.91117488942, 6849268.593159859], [129728.37624099918, 6849159.623645403], [129836.57002929889, 6849091.558596616], [130002.23268494231, 6849142.702712383], [130146.0, 6849046.333333333], [130201.76765375854, 6849120.6902050115], [130267.35294117648, 6848992.94117647], [130212.78434157037, 6848940.898389104], [130195.0, 6848805.714285715], [130112.77777963007, 6848740.272110318], [130123.97542647416, 6848556.507666419], [130201.54919892078, 6848472.873648496], [130094.76466649487, 6848429.614970688], [129870.54898426155, 6847995.237514297], [129947.40478294645, 6847907.103160902], [129785.0, 6847630.0], [129701.97275941596, 6847607.33599726], [129507.66857348476, 6847745.956809962], [129200.34027428013, 6847637.731464521], [129215.0, 6847455.714285715], [129123.0426485373, 6847422.218022311], [129015.98473062216, 6847283.8570472], [129101.83541342258, 6847189.468349183], [129138.10912765344, 6847035.071399895], [129037.0526744816, 6847013.753364234], [128785.0, 6846930.0], [128810.61887833627, 6846798.602555809], [128762.44736710541, 6846737.192181526], [128879.51191827469, 6846640.902383655], [129058.87925707597, 6846686.026431083], [129192.76018536396, 6846551.235759799], [129335.0, 6846540.0], [129206.49597406265, 6846345.4112103125], [129082.985406309, 6846321.73895231], [129066.0, 6846265.0], [129208.25806451612, 6846279.516129033], [129269.6585934074, 6846227.607469342], [129232.02371222913, 6846165.378725964], [129358.1867161279, 6846017.143614203], [129295.0, 6845940.0], [129329.28571428571, 6845904.285714285], [129281.0, 6845856.0], [129307.17491423566, 6845798.31826146], [129230.14753824292, 6845745.690880214], [129330.0, 6845615.0], [129388.70663909947, 6845657.951768348], [129445.35586830335, 6845501.377069273], [129249.27788448942, 6845341.305798373], [129139.94476555065, 6845164.285538506], [128967.2397369018, 6845025.55205262], [128898.75, 6845039.25], [128907.05128205128, 6844945.623931624], [128763.65251139851, 6844896.714231093], [128710.9865821501, 6844840.684552878], [129152.39388517279, 6844491.632555026], [129249.41343571797, 6844322.968455561], [129308.68034176415, 6844341.397450559], [129365.0, 6844180.0], [129323.98909103218, 6844094.0218355525], [129367.5573848164, 6843967.442615184], [129472.81639421266, 6843966.814757554], [129531.45888365101, 6844060.623880058], [129769.78683174931, 6843807.85255934], [129894.44371083024, 6843646.592295848], [129901.0473493751, 6843474.170675909], [129968.7230941704, 6843485.857623318], [130032.53333333333, 6843443.0], [130080.95750323433, 6843493.008384034], [130187.15786610368, 6843398.953245007], [130207.28413989076, 6843410.068861061], [130396.37695768623, 6843332.252088888], [130452.030237581, 6843386.771058315], [130557.58295035604, 6843363.3148999205], [130691.68369144064, 6843519.505107433], [130893.33770001787, 6843517.212429196], [130940.0, 6843495.0], [131013.14559975427, 6843568.052526494], [131146.78456811802, 6843446.051781319], [131309.3172289878, 6843478.274106608], [131367.35893021518, 6843442.527125825], [131670.41302728857, 6843740.797943568], [131897.0706714897, 6843806.296022653], [131964.90934619377, 6843880.269519566], [132151.42857142858, 6843775.952380952], [133793.6586076318, 6842148.658607632], [133843.54233188776, 6842198.542331887], [134685.38334221253, 6841359.616657787], [134751.66666666666, 6841476.149047932], [134775.0, 6841590.0], [134465.0, 6841900.0], [134765.70120120968, 6842264.794185096], [134851.38734667204, 6842783.768758207], [135525.16612942106, 6843460.119886032], [135290.26846144872, 6843869.308549873], [135489.31751515702, 6844115.738136368], [135470.85155423993, 6844170.901730046], [135525.0, 6844260.0], [135547.72666791946, 6844453.1766773155], [135668.25745543366, 6844584.785459687], [135578.33333333334, 6844653.333333333], [135505.0, 6844800.0], [135483.76881004212, 6845027.795838967], [135364.30753835893, 6845083.596295594], [135294.97039340466, 6845328.894752775], [135072.75219541698, 6845600.270390988], [134977.1079533945, 6846004.788116996], [135015.64543259892, 6846167.227587546], [134955.2279966471, 6846268.844928751], [134900.45233559844, 6846572.894818005], [134937.73989413326, 6846604.275186316], [134858.98341218889, 6846697.679146484], [134869.97319257812, 6846761.0250924155], [134821.3354037267, 6846895.838509317], [135250.3637226837, 6847236.983137304], [135288.92109302696, 6847247.382159215], [135556.875, 6847431.875], [135398.4179052687, 6847548.4896882875], [135352.60342978474, 6847524.755407413], [134961.26895244367, 6847889.611740728], [134997.3076923077, 6847952.307692308], [134945.0, 6848030.0], [134956.7052474323, 6848088.526237162], [134877.4014818567, 6848326.731993022], [134795.0, 6848430.0], [134764.72863980496, 6848614.610193974], [134888.72843269954, 6848810.666106852], [134612.071993833, 6849211.675777243], [134468.1424121208, 6849464.164041205], [134499.0085285883, 6849697.007502198], [134974.9877863169, 6850051.135282655], [135309.44687980908, 6850070.068164024], [135395.0, 6850130.0], [135285.75211608224, 6850250.1144699715], [135250.8263545789, 6850393.598708767], [135283.4890707102, 6850808.48907071], [135405.2988419873, 6850930.298841988], [135694.91916859124, 6851096.270207852], [135785.56481326328, 6851073.608796684], [136035.38545256667, 6851460.385452567], [136042.63755351698, 6851662.70079272], [136335.54875904863, 6851914.162717157], [136596.4729337599, 6852053.198865212], [137088.52497313678, 6852439.495812996], [137211.60278324963, 6852563.4305959605], [137204.8123072465, 6852777.950608375], [137433.5093663924, 6853198.13807749], [137385.0, 6853320.0], [137430.26946107784, 6853367.664670658], [137380.01148838396, 6853467.972938473], [137415.0, 6853560.0], [137342.40028371822, 6853634.851897261], [137264.78642783329, 6853796.951429555], [137377.76129627225, 6854098.445154349], [137307.92758148198, 6854200.596276841], [137720.30830144035, 6854498.1756460015], [137970.64657754736, 6854759.792797909], [138050.88467329086, 6854759.225352152], [138132.2077614836, 6855033.025101919], [138253.8783402859, 6855172.283998352], [138289.89140477875, 6855335.108595221], [138245.0, 6855380.0], [138371.61233207933, 6855602.626776776], [138402.58911316528, 6855746.34470384], [138504.49591280654, 6855840.994550409], [138461.5715612161, 6855905.050142363], [138564.01568378147, 6856119.903987288], [138765.0, 6856280.0], [138837.21613307516, 6856458.587929543], [139234.40283799762, 6856729.493496255], [139272.3860287665, 6856692.429677324], [139379.55991450546, 6856743.435392716], [139398.88323317698, 6856839.433140233], [139488.8076923077, 6856896.91025641], [139400.10808699048, 6857005.10808699], [139437.85714285713, 6857042.857142857], [139532.08167132927, 6857317.7308477545], [139750.04830917873, 6857591.747181965], [139824.96473415746, 6857596.745526545], [139835.0, 6857710.0], [139985.8849557522, 6857833.451327434], [140040.0, 6857775.0], [140120.46093523278, 6857810.176011779], [140274.0, 6858103.0], [140457.41814545754, 6858246.1678109355], [140840.48136948023, 6858771.798590031], [141056.44715447177, 6858826.644212959], [141093.10222659438, 6858777.219120423], [141039.08620689655, 6858685.913793104], [141345.0885981491, 6858500.151300393], [141460.0, 6858385.0], [141610.0855884616, 6858390.142647628], [141886.049813647, 6858626.891940284], [142183.89357212908, 6858602.0466993535], [142276.30298654834, 6858657.157379327], [142421.43472709862, 6858646.626236834], [142455.0, 6858590.0], [142406.32653061225, 6858559.579081632], [142433.18181818182, 6858523.957219251], [142499.53629054077, 6858574.645769765], [142582.92708591418, 6858529.765117843], [142754.87003658665, 6858646.8488720795], [142919.09836065574, 6858795.901639344], [142896.32511164635, 6858838.029343284], [143097.26651229762, 6859055.853974413], [143034.0, 6859092.0], [143310.6645349313, 6859199.828510618], [143343.98248260832, 6859178.025451904], [143453.53674694977, 6859247.597297463], [143687.03110620283, 6859281.221240567], [143832.44848969794, 6859409.888977796], [143923.91304347827, 6859399.782608695], [143999.21127127827, 6859347.518567839], [143984.77852173673, 6859475.750116469], [144299.61538461538, 6859754.615384615], [144231.02305475503, 6859823.0455576675], [144232.7740748882, 6859870.002438488], [144165.0, 6859930.0], [144218.81570904647, 6860078.931845966], [144102.5, 6860137.5], [144197.74456569285, 6860234.817740114], [144507.77590338272, 6860306.125301416], [144782.3066105576, 6860413.319899687], [144767.7213640584, 6860524.236515573], [144950.0, 6860595.0], [145035.35087719298, 6860582.807017544], [145305.0, 6860870.0], [145295.54453796262, 6860898.366386112], [145930.32502361742, 6861339.605766482], [145970.0, 6861305.0], [146109.61441666144, 6861444.614416662], [146158.75577112008, 6861670.195496414], [146100.3547909772, 6861793.4976418], [146165.0, 6861930.0], [146085.0, 6861990.0], [146194.67582621102, 6862132.578574074], [146166.68926538253, 6862228.488319765], [146507.39738425892, 6862591.301915788], [146562.77777777778, 6862702.222222222], [146538.87747954388, 6862727.261299372], [146677.51117774946, 6862972.932987075], [146624.88874870972, 6863130.333753871], [146676.01377673508, 6863179.208723947], [146674.90627392527, 6863377.919617384], [146578.92857142858, 6863348.214285715], [146544.3005802708, 6863452.098259187], [146600.89941972922, 6863532.301740812], [146562.14899935236, 6863674.950538668], [146595.0, 6863780.0], [146488.65938588162, 6863898.046850269], [146485.0, 6864030.0], [146527.10863239574, 6864080.702230844], [146573.18181818182, 6864231.818181818], [146344.83193277312, 6864534.117647059], [146372.5, 6864672.5], [146185.93023255814, 6864859.069767442], [146265.0, 6865210.0], [146249.7958904682, 6865249.9811769165], [146430.1422691391, 6865414.780516856], [146086.54429490195, 6865755.4386188965], [145910.0, 6865781.666666667], [145762.19417718356, 6865693.762963888], [145665.0, 6865540.0], [145689.0, 6865514.0], [145595.45454545453, 6865420.454545454], [145545.0581519076, 6865470.024768615], [145379.50762221834, 6865405.285614158], [145237.14285714287, 6865517.857142857], [145198.91353281122, 6865457.495051807], [145104.30951451257, 6865553.232461278], [145023.00175636535, 6865494.276173139], [144831.66666666666, 6865618.0], [144782.30787501318, 6865529.154175024], [144443.70575438353, 6865329.080965028], [144280.7456121679, 6865496.7907137005], [144147.44274369892, 6865479.152376568], [143923.85367778552, 6865691.342784219], [143852.96632675696, 6865674.932772735], [143685.12988247117, 6865850.0034145685], [143671.70588235295, 6865925.882352941], [143523.65619546248, 6866141.343804537], [143205.0, 6866460.0], [143256.06796116504, 6866526.893203883], [143202.18158268055, 6866646.98482699], [143243.07518371963, 6866686.758055398], [143014.14020908868, 6866920.5592292575], [142833.60962458033, 6866951.286702614], [141783.81852874736, 6867993.052068462], [141903.88888888888, 6868258.888888889], [141773.76176840643, 6868340.319753569], [141635.59130245147, 6868325.463484015], [141564.9097472924, 6868278.682310469], [141465.10730392966, 6868317.877258494], [141425.0, 6868180.0]]]}}]}