{"type": "FeatureCollection", "crs": {"type": "name", "properties": {"name": "EPSG:25833"}}, "features": [{"type": "Feature", "properties": {"station": "2.303.0", "name": "Domb\u00e5s", "series": ["1001.1"], "nodes": 27, "fine_vertices": 36, "fine_area_m2": 2650.0, "reduced_vertices": 4, "reduced_area_m2": 2650.0000000022574, "outline_tolerance_m": 20.0, "windows": [[505, 449]], "placed_on": "number", "distance_m": 8.781051415030445, "uncertainty_m": 30.0, "elvid": "002-34-8060", "objectid": 12240266, "lake": false, "confluence_near": false, "reach_up_m": 1000.0, "reach_down_m": 130.0, "reach_fork": false, "seeded_by": "river", "lake_rule": null, "lake_number": null, "lake_name": null, "lake_distance_m": null, "node_offset_m": 7.974324549766816, "chain_nodes": 105, "lowered_nodes": 26, "lowered_max_m": 2.30517578125, "direction_ok": true, "end_extended_m": 0.0, "end_closed": true, "downstream_checked": "none", "a0": 0.0027, "area_up": 0.0013000000000000002, "area_down": 0.0027, "swing": 0.5185185185185185, "largest_step": 0.0013000000000000002, "largest_step_at_m": -14.142135623731065, "checked_up_m": 28.28427124746213, "checked_down_m": 0.0, "drains": false, "monotone": true, "causes": ["swing", "downstream_unread", "chain_not_draining"]}, "geometry": {"type": "Polygon", "coordinates": [[[192200.0, 6897865.0], [192240.3711163704, 6897934.424945869], [192214.56125827815, 6897959.097682119], [192179.83788395906, 6897907.226962457], [192200.0, 6897865.0]]]}}]}