{"type": "FeatureCollection", "crs": {"type": "name", "properties": {"name": "EPSG:25833"}}, "features": [{"type": "Feature", "properties": {"station": "2.32.0", "name": "Atnasj\u00f8", "series": ["1001.0"], "nodes": 4607161, "fine_vertices": 19408, "fine_area_m2": 460716150.0, "reduced_vertices": 674, "reduced_area_m2": 460716149.9999988, "outline_tolerance_m": 20.0, "windows": [[950, 990], [1748, 1658], [3031, 2857], [5438, 5256]], "placed_on": "number", "distance_m": 93.77017017343661, "uncertainty_m": 93.77017017343661, "elvid": "002-34-6342", "objectid": 10794796, "lake": true, "confluence_near": false, "reach_up_m": 1000.0, "reach_down_m": 193.77017017343655, "reach_fork": false, "seeded_by": "lake", "lake_rule": "lake_line", "lake_number": 126, "lake_name": "Atnsj\u00f8en", "lake_distance_m": 21.22793855803282, "node_offset_m": null, "chain_nodes": null, "lowered_nodes": null, "lowered_max_m": null, "direction_ok": null, "end_extended_m": null, "end_closed": null, "downstream_checked": null, "a0": null, "area_up": null, "area_down": null, "swing": null, "largest_step": null, "largest_step_at_m": null, "checked_up_m": null, "checked_down_m": null, "drains": null, "monotone": null, "causes": []}, "geometry": {"type": "Polygon", "coordinates": [[[234595.0, 6889240.0], [234616.87696158295, 6889212.815522872], [234494.3882083312, 6889090.203930556], [234391.5914686118, 6889043.293346027], [234340.76921677304, 6889093.419402635], [234035.5855749341, 6888807.489974959], [233720.0, 6888595.0], [233660.0, 6888655.0], [233586.50561797753, 6888637.93258427], [233571.26662954528, 6888501.7898871545], [233357.58620689655, 6888249.252873563], [233287.65342960288, 6888302.232250301], [233084.51116090058, 6888171.501762248], [232985.5072463768, 6888155.869565218], [232900.0, 6888215.0], [232855.7142857143, 6888189.285714285], [232772.33904451123, 6888280.122018276], [232731.0465116279, 6888436.279069767], [232611.66666666666, 6888623.333333333], [232051.19044382471, 6888070.151743982], [231915.3667953668, 6888042.104247104], [231790.0, 6887995.0], [231710.0, 6887915.0], [231667.700754976, 6887927.669869595], [231637.84124528404, 6887759.944358494], [231682.40389800037, 6887682.134825811], [231652.41214585898, 6887648.349650473], [231749.5299145299, 6887528.974358974], [231739.00811008387, 6887242.421413319], [231785.0, 6887180.0], [231714.14549821676, 6887091.583812505], [231734.64824120604, 6887014.572864322], [231779.94949494948, 6886989.090909091], [231773.43675501333, 6886911.336769037], [231853.33333333334, 6886895.0], [231807.2893107162, 6886810.504846526], [231730.0, 6886795.0], [231682.78792329752, 6886679.0098541705], [231538.33463343565, 6886689.804592641], [231535.95370899388, 6886487.6624667095], [231346.18735602396, 6886302.608564467], [231110.14267417058, 6886293.634890858], [231049.01150193167, 6886232.042454931], [230694.93171519187, 6886166.650151311], [230670.0, 6886225.0], [230596.91415313224, 6886188.503480278], [230497.0462633452, 6886270.978647687], [230410.0, 6886185.0], [230341.6459586891, 6886194.936362468], [230148.10512588348, 6886375.61880887], [230009.21804746735, 6886436.256284945], [229965.0, 6886384.0], [229991.14115109638, 6886300.142761202], [229760.0, 6886205.0], [229592.24122821944, 6886269.978894692], [228696.99261880005, 6887091.720072165], [228518.8507033818, 6886856.68469387], [228431.36949514798, 6886848.866468084], [228167.20540970162, 6886731.18707332], [227906.99827965314, 6886490.990942656], [227749.41015017527, 6886518.325747615], [227620.0, 6886395.0], [227555.5415409926, 6886490.038844713], [227562.47031589726, 6886605.006418184], [227470.0, 6886625.0], [227443.9549575489, 6886568.84151738], [227167.64705882352, 6886762.647058823], [226830.76117013535, 6886425.884878474], [226693.80308178626, 6886523.712084439], [226275.15496584313, 6886212.277359212], [225983.00270819227, 6886139.986459038], [225777.1279152113, 6885799.359975721], [225697.03217234215, 6885603.475105138], [225733.2063233189, 6885553.450650593], [225495.64308875983, 6885219.35691124], [225515.0, 6885200.0], [225390.94871794872, 6885103.897435897], [225221.30125888073, 6885112.826249532], [225042.20965670297, 6885174.82105471], [224799.42864922405, 6885127.767659512], [224495.67882562525, 6884909.658867531], [224512.86301369863, 6884812.136986301], [224417.86765406482, 6884699.393374763], [224445.0, 6884670.0], [224285.18805603098, 6884494.300930142], [224136.11598111936, 6884400.003371544], [224073.80952380953, 6884411.19047619], [223716.70438040706, 6884151.911651113], [223649.7807357082, 6884161.235646073], [223499.24545130218, 6884004.245451302], [223583.3116883117, 6883724.285714285], [223664.51904637486, 6883660.405625915], [223473.1108493969, 6883297.855726666], [223291.52556805243, 6883056.841092617], [222897.42198700618, 6883016.081305051], [222541.42857142858, 6883354.047619048], [222276.46972964384, 6883174.725230056], [222075.51554828152, 6883173.690671031], [221939.88429235527, 6883227.69556777], [221820.0, 6883375.0], [221781.95499385026, 6883362.983634127], [221479.1135734072, 6883652.340720221], [221307.8566999645, 6883410.628477787], [221267.695035461, 6883242.482269503], [221189.90465800208, 6883214.586851343], [221175.0, 6883090.0], [221080.0, 6882995.0], [220958.36892283647, 6883023.246079531], [220844.7576106222, 6883127.389066824], [220801.06803920362, 6883098.126991652], [220712.03647289108, 6883135.542720568], [220560.0, 6883075.0], [220417.47563352826, 6882932.475633528], [220522.8947368421, 6882767.894736842], [220519.30555555556, 6882695.694444444], [220625.03184854472, 6882662.184263309], [220706.92307692306, 6882557.435897436], [220665.90609037472, 6882256.833366724], [220427.33475440973, 6882163.100151762], [220248.57142857142, 6882233.571428572], [220168.41751538182, 6882200.860297944], [220045.16292267677, 6882279.139512887], [219859.3934077554, 6882346.343396002], [219760.0, 6882285.0], [219501.51515151517, 6882413.181818182], [219409.48385647856, 6882432.23284624], [219181.21531595313, 6882240.080460292], [218963.40146244547, 6882129.36949134], [218815.38141327928, 6882005.4373264965], [218659.4331265778, 6881954.193316604], [217821.37352795294, 6881050.947186332], [217698.8191880985, 6880825.301554242], [217747.659800417, 6880711.0702908775], [217656.42857142858, 6880561.428571428], [217696.41334825623, 6880476.212055242], [218002.89106974212, 6880119.07364336], [218163.83488568972, 6880098.31469175], [218465.4809134761, 6879943.128088964], [218767.1739130435, 6880020.434782608], [218826.0, 6880065.0], [219336.31011016882, 6879563.653796903], [219481.53846153847, 6879476.538461538], [219510.0414542112, 6879505.041454211], [219674.96423515386, 6879376.537515833], [219785.2857142857, 6879373.428571428], [219885.51382789653, 6879289.570092419], [219844.29250298062, 6879143.425809663], [219176.56029498825, 6878499.45384534], [219310.9349825667, 6878183.097639081], [219382.37299933177, 6877755.215958228], [219213.81595579188, 6877595.389952681], [219200.24518995313, 6877496.086904231], [219358.98806811884, 6877314.29652387], [219110.10204081633, 6877064.693877551], [219155.0, 6876930.0], [219067.96693096877, 6876720.086422069], [219191.0, 6876594.0], [219173.44499408538, 6876542.251855038], [219261.27592226042, 6876383.831104985], [219400.0, 6876335.0], [219448.46153846153, 6876383.461538462], [219520.0, 6876325.0], [219585.1364877161, 6876340.045495905], [219914.2044724111, 6876022.636252918], [220045.88117842242, 6875992.089072977], [220005.0, 6875890.0], [220072.75596072932, 6875780.028050491], [220059.14410279944, 6875658.882514915], [220131.23269212735, 6875497.1272704955], [220105.25, 6875399.75], [220157.79569892472, 6875312.795698925], [220115.0, 6875270.0], [220169.98136645963, 6875168.621118013], [220201.0, 6875194.0], [220209.52578095303, 6874998.448758334], [220311.7349914816, 6874923.674957408], [220222.22624727953, 6874582.77375272], [220315.0, 6874490.0], [220300.29411764705, 6874416.470588235], [220389.75653147663, 6874325.144374117], [220321.58845234136, 6873822.8913517725], [220291.04705882352, 6873784.282352941], [220419.59990416866, 6873645.016770484], [220534.2857142857, 6873645.0], [220516.4832925907, 6873566.8236612175], [220644.91401149335, 6873390.846051425], [220904.7172951682, 6873291.889572304], [221140.0, 6873255.0], [221267.94958300958, 6873346.927934369], [221384.21697909376, 6873323.652653501], [221616.42857142858, 6873390.357142857], [222030.8164964262, 6873697.727832673], [222182.72151898735, 6873717.46835443], [222325.0, 6873810.0], [222365.87239847906, 6874039.247446458], [222549.60266631813, 6874243.072147432], [222584.69566389642, 6874249.418861065], [222755.0, 6874430.0], [222703.46859060402, 6874629.656599662], [222898.65781367742, 6875044.458838225], [223328.34341640523, 6875096.405477934], [223859.34266890425, 6875278.316962167], [223900.24779759656, 6875433.452909676], [224023.10872728724, 6875427.959177114], [224101.7332710974, 6875515.781225066], [224420.864420934, 6875565.174654009], [224712.5431711146, 6875686.6954474095], [224717.2770700637, 6875754.092356688], [224779.9637814363, 6875767.061368252], [224797.15157870352, 6875888.350979895], [225364.66418444226, 6876196.808562031], [225706.05980889237, 6876496.372046361], [225842.9411764706, 6876577.352941177], [225998.55247306038, 6876573.718702821], [226031.9445161811, 6876612.420078234], [226236.83027641437, 6876423.695427538], [226295.7142857143, 6876457.857142857], [226385.0, 6876410.0], [226470.0, 6876495.0], [226496.67176761868, 6876472.211847161], [226797.76096895544, 6876746.879817471], [227071.9985966512, 6876770.595380632], [227200.0, 6876945.0], [227307.67377186616, 6876881.90400228], [227322.83785029303, 6876836.936267582], [227415.0, 6876875.0], [227470.0, 6876835.0], [227538.07692307694, 6876877.692307692], [227786.54155215583, 6876730.305187377], [228112.01259545967, 6876422.391309133], [228190.0, 6876465.0], [228311.62162162163, 6876370.405405405], [228360.0, 6876415.0], [228493.1321118453, 6876384.686788815], [228593.0012153768, 6876323.457302439], [228660.57238882314, 6875907.6038215775], [228775.51128913427, 6875734.885208147], [229026.02504558145, 6875694.348693171], [229085.1851851852, 6875589.814814814], [229177.04079059718, 6875605.213992657], [229348.488372093, 6875533.2558139535], [229423.74239350914, 6875608.754563894], [229519.34482680628, 6875503.902554319], [229651.3503950086, 6875529.233596672], [229736.50838350438, 6875487.885787602], [229875.8999879243, 6875221.530490817], [229726.66666666666, 6875032.5], [229751.72727272726, 6874994.909090909], [229745.0, 6874730.0], [229556.28582384795, 6874447.339157413], [229628.33333333334, 6874323.333333333], [229550.28576732057, 6874296.149445104], [229554.3783182481, 6874206.365903163], [229481.25, 6874163.75], [229599.0, 6874046.0], [229680.3240547032, 6873879.816095907], [229752.7504650011, 6873837.125725173], [229846.34055177015, 6873524.129161921], [230055.0, 6873310.0], [230066.00628930816, 6873188.93081761], [230232.57239138114, 6873022.430604027], [230096.42857142858, 6872758.571428572], [230119.61262005358, 6872602.159813817], [230327.5780759655, 6872298.616717901], [230505.15752625436, 6872210.274212369], [230565.33333333334, 6872269.0], [230633.33333333334, 6872245.0], [230598.42428734657, 6872086.576598677], [230735.0, 6871900.0], [230734.82233502538, 6871716.979695432], [230937.08618452412, 6871391.143472211], [230914.3045563549, 6871350.407673861], [230951.9635684081, 6871282.613679091], [230784.65611508422, 6870930.426417296], [230898.61242899302, 6870696.508307957], [230815.0, 6870560.0], [230884.56175298805, 6870471.115537848], [230816.19817614037, 6870330.055090865], [230736.66666666666, 6870255.0], [230693.20249599312, 6870281.0785024045], [230519.42080959104, 6870170.0075619435], [230361.55555555556, 6870205.444444444], [230197.56190400937, 6870150.215139873], [229883.5321841216, 6870167.2277683765], [229800.20525995851, 6870201.128239914], [229641.45223008984, 6870190.971092695], [229506.67974962015, 6870238.32025038], [229219.46611531076, 6870037.943052067], [229020.25217769353, 6869813.013990392], [228878.63636363635, 6869824.545454546], [228590.1777434312, 6869524.822256569], [229093.97435897437, 6869021.025641026], [229168.33333333334, 6868816.666666667], [229127.6620742053, 6868741.346773534], [229178.63636363635, 6868654.545454546], [229097.68594725375, 6868556.997345023], [229073.1957233763, 6868404.171885873], [229284.6144807231, 6868158.843442169], [229247.04742382924, 6868076.42944277], [228805.0, 6867530.0], [228850.12077287294, 6867360.111407125], [228674.29769900948, 6867168.397113269], [228712.12166298935, 6867121.093459069], [228478.09269861004, 6866881.774184435], [228354.45019660197, 6866809.383855527], [228255.88209438225, 6866808.75479313], [227995.24284579782, 6866670.287220424], [227953.5346492021, 6866542.005492013], [227969.64280410594, 6866403.276697704], [227928.62461039555, 6866351.743508503], [227963.33333333334, 6866275.0], [227902.2, 6866252.8], [227999.5, 6866155.5], [227904.36170212767, 6866071.914893617], [227935.0, 6866020.0], [227905.0, 6865990.0], [227951.71287029315, 6865820.828408788], [227693.35762607984, 6865510.285031872], [227660.0, 6865355.0], [227577.5, 6865332.5], [227585.0, 6865240.0], [227535.0, 6865190.0], [227565.0, 6865160.0], [227529.34250764525, 6865082.59938838], [227555.8695652174, 6865037.391304348], [227458.05919848866, 6864916.92117567], [227786.17590863485, 6864602.890144622], [227828.82851774152, 6864527.889757438], [227765.0, 6864400.0], [227810.10122748287, 6864321.957596047], [227866.8297117379, 6864312.06521458], [227884.0, 6864255.0], [227821.91860465117, 6864240.7558139535], [227795.0, 6864160.0], [227888.33295914478, 6864032.072936053], [227832.04588834656, 6863970.075420175], [227984.67213114753, 6863851.366120218], [228760.0, 6863045.0], [228751.25, 6863196.25], [228782.91253644315, 6863227.912536443], [228752.45762711865, 6863488.135593221], [228711.86596345404, 6863588.710121966], [229285.7142857143, 6864130.714285715], [229330.0, 6864105.0], [229453.96528326825, 6864159.214507393], [229529.6252285192, 6864235.429616088], [229540.66686080373, 6864285.905649388], [229870.0, 6864565.0], [230053.78550201008, 6864515.834017137], [230525.09494946914, 6864096.887235978], [230641.15128910827, 6864181.291846625], [230724.9159485803, 6864186.638649527], [230766.2912912913, 6864271.291291291], [231114.49357736134, 6863938.845514676], [231194.3820270355, 6864070.699821964], [231313.33333333334, 6863973.333333333], [231380.0, 6864035.0], [231421.42857142858, 6864006.428571428], [231591.88492993452, 6864198.830656009], [231681.43771427416, 6864184.982316845], [231843.4395594673, 6864328.928992999], [231953.12820512822, 6864342.230769231], [232510.0, 6863785.0], [232460.1846381093, 6863874.150664697], [232494.68168916125, 6863951.37583745], [232251.12783341724, 6864304.35955646], [232495.0, 6864510.0], [232485.0, 6864560.0], [232574.0495768361, 6864799.739189032], [233293.33333333334, 6865518.333333333], [233340.26793431287, 6865488.465859983], [233562.5, 6865610.0], [233584.69026548672, 6865696.769911504], [233620.0, 6865685.0], [233871.5986122231, 6865875.189484921], [234271.16424947, 6866258.154115156], [234440.28672216734, 6866225.03414703], [234570.0, 6866285.0], [234746.1181964341, 6866071.610748145], [234903.83721094878, 6865987.74785897], [234951.80220883535, 6866015.517068273], [235072.12480992946, 6865908.143018315], [235201.11111111112, 6865843.888888889], [235260.0, 6865875.0], [235368.74586385122, 6865826.92913871], [235909.1838155141, 6865319.194497077], [235986.76470588235, 6865477.647058823], [236245.66615911687, 6865744.6631138185], [236328.7573296863, 6866053.698692196], [236409.26577500533, 6866193.8829975575], [236405.0, 6866330.0], [236487.42424242425, 6866412.7272727275], [236476.9124976432, 6866489.7320030015], [237355.8145319872, 6867344.021914875], [237442.51147215677, 6867321.791930216], [237794.6549385459, 6867644.1661491785], [237830.0, 6867605.0], [238026.25, 6867728.75], [238557.9478897438, 6867269.395785038], [238610.0, 6867325.0], [238780.26190935922, 6867232.170578986], [238868.31099590845, 6867242.968991715], [239150.0, 6866975.0], [239256.40671201644, 6867002.217051362], [239361.19986781984, 6867158.868190463], [239602.36083695223, 6866927.360836952], [239659.9955126632, 6866952.13391143], [239724.03261085702, 6866893.85464307], [239958.18897637795, 6866916.364829396], [239994.33148068222, 6866889.1270000655], [240250.96762612715, 6866840.174116235], [240428.5103225263, 6866867.58069453], [240494.90654205607, 6866806.323987539], [240666.1735996515, 6866441.911549241], [240788.1372048121, 6866324.145477903], [240989.8591730896, 6866275.599553022], [241056.76470588235, 6866311.764705882], [241203.0748384128, 6866272.25182136], [241360.68627450982, 6866389.901960785], [241531.68958461148, 6866322.94499031], [241706.8449197861, 6866211.844919786], [241720.0, 6866225.0], [242208.05369534306, 6866016.037905264], [242526.7877875018, 6865789.080620707], [242793.17919833463, 6865532.84117964], [242817.6923076923, 6865576.538461538], [242881.78313425364, 6865526.000643731], [243148.49998570446, 6865569.665837126], [243233.81893493235, 6865416.613429884], [243797.22403517974, 6864867.906497762], [243795.0, 6864710.0], [243839.04886561955, 6864694.205933683], [243955.9243397573, 6864791.780870806], [244099.033849642, 6864655.917232565], [244321.37688614542, 6864558.229595336], [244502.72727272726, 6864583.181818182], [244558.51040466124, 6864537.388958814], [244672.88888888888, 6864632.111111111], [244725.43487403853, 6864615.122311978], [244627.54098360657, 6864219.098360656], [244715.9249292531, 6864289.735231729], [245226.0, 6863867.0], [245330.0, 6863945.0], [245393.33333333334, 6863888.333333333], [246058.76182915468, 6864500.343519208], [246161.0900585759, 6864483.762138867], [246220.0, 6864625.0], [246290.0, 6864615.0], [246323.8008706193, 6864658.060861105], [246482.97161936562, 6864705.0], [246604.02777254468, 6864858.815354025], [246772.18043012754, 6864896.750302579], [247221.3789990974, 6865330.086321762], [247339.5369905165, 6865488.091197485], [247215.4347826087, 6865649.478260869], [247220.55555555556, 6865761.111111111], [247146.39276678985, 6865995.913758321], [247272.23858462484, 6865907.238584625], [247310.0, 6865945.0], [247498.6859884823, 6865767.402267775], [247585.34692072772, 6865879.611753238], [247700.49159288924, 6865813.37027295], [247822.5, 6865867.5], [247880.0, 6865815.0], [247920.0, 6865835.0], [247929.8780487805, 6865776.341463415], [248194.7215893789, 6865532.776273589], [248500.0, 6865365.0], [248745.9310310355, 6865615.231120319], [248678.74845279395, 6865774.8533427045], [248787.7309029846, 6865839.208606835], [249180.87033649662, 6866227.228031233], [249255.10311838106, 6866372.719522931], [249109.84662576686, 6866669.836400818], [249147.33700700203, 6866713.769783879], [249011.78112556954, 6866845.528303436], [248898.65860164864, 6866866.954181834], [248787.82392438097, 6866961.883496183], [248791.89597011465, 6867041.720086876], [248884.69555347844, 6867106.091601015], [248843.5963789485, 6867257.986774422], [249105.1754075861, 6867505.195370986], [249085.0, 6867600.0], [249201.98113207548, 6867673.773584906], [249185.0, 6867740.0], [249245.0, 6867800.0], [249230.1322751323, 6867902.91005291], [249352.09991719085, 6868108.1903553745], [249483.31653508867, 6868149.415284981], [249414.1055900621, 6868251.118012423], [249595.0, 6868472.222222222], [249539.26967130197, 6868639.154410223], [249563.8803535762, 6868704.3600870855], [249424.2428066633, 6868870.757193336], [249360.53940850776, 6869015.220692011], [249422.92323629992, 6869077.948548265], [249382.10656785496, 6869149.073248286], [249171.51157857536, 6869373.474866359], [249159.0455723146, 6869573.796316285], [248990.5537305061, 6869979.608591453], [249062.99401873458, 6870066.894270688], [248986.87008571226, 6870167.527803358], [249049.6365265575, 6870287.185404672], [248955.0, 6870430.0], [248990.96153846153, 6870465.961538462], [248966.66666666666, 6870528.333333333], [249015.0, 6870600.0], [248996.9065887496, 6870646.967480037], [249070.75312816323, 6870763.687336939], [249068.49464503958, 6870867.2829760155], [248897.74128525212, 6871034.811859064], [249004.15054775903, 6871203.427505367], [248925.65202024186, 6871330.99769123], [249193.73140648837, 6871770.694313927], [249245.0, 6871940.0], [249171.0, 6872014.0], [249303.3482774894, 6872194.541057102], [249352.9628648228, 6872392.037135177], [249195.74004999668, 6872606.581451783], [248749.6718584286, 6873055.109380524], [248650.0, 6873115.0], [248591.36968928346, 6873070.8148383], [248505.0, 6873120.0], [248459.32432432432, 6873348.138138138], [248415.0, 6873390.0], [248440.21739130435, 6873427.826086956], [248385.76140563443, 6873619.643875675], [248340.73770491802, 6873671.967213115], [248244.06209346768, 6873882.971263492], [248237.17036211805, 6874111.353044276], [248163.49084862234, 6874211.00389842], [248199.37097701334, 6874345.629022987], [248145.0, 6874400.0], [248178.33599774272, 6874501.1191931525], [247891.072056239, 6874791.397188049], [247591.12099096095, 6874922.647919893], [247282.0479074848, 6875279.297890006], [247263.22171609485, 6875441.535754947], [246999.85610583914, 6875548.787248225], [246641.27226117975, 6875864.5163779445], [246479.8282442748, 6875883.034351145], [246324.11764705883, 6875790.882352941], [246156.39869332768, 6875958.601306672], [246169.11950158057, 6876079.372407155], [245909.89174205888, 6876470.238289058], [245963.086380915, 6876711.913619085], [245893.5534591195, 6876781.446540881], [245693.0440272961, 6877337.154111862], [245805.0, 6877460.0], [245768.73271045578, 6877583.801868632], [246408.88374269442, 6878235.8133649565], [246369.73376104608, 6878381.872929779], [246380.0, 6878495.0], [246318.35617198065, 6878723.03615844], [246364.40977710232, 6878767.766084402], [246277.1706440414, 6879034.059842417], [246307.96522525427, 6879113.406954949], [246282.81347825108, 6879094.587507962], [245860.0, 6879465.0], [245724.17256519492, 6879447.7242772225], [245687.3786407767, 6879416.747572816], [245495.56194080057, 6879632.213300919], [245374.90299984772, 6879659.7559007155], [245291.6533780646, 6879756.26981874], [245171.7494802227, 6880130.46300696], [244652.88783389, 6880717.88783389], [244610.0, 6880675.0], [244536.36363636365, 6880711.363636363], [244641.1564181267, 6880576.107621947], [243992.55481650762, 6879932.646879726], [243932.44024601628, 6879948.603618224], [243669.7663884871, 6879523.919442516], [243480.0, 6879405.0], [243407.77777777778, 6879415.0], [242852.14312616648, 6879921.7625293], [242807.25437967954, 6879910.651526008], [242758.86762589385, 6879980.096963171], [242760.86937801688, 6880344.184690361], [242242.67735629404, 6880863.899597904], [242367.1760391198, 6881077.82396088], [242351.13129007388, 6881093.8687099265], [242381.4322213206, 6881331.534830077], [241940.9298245614, 6881805.929824562], [242058.00546047522, 6881989.81790882], [242115.0, 6881990.0], [242090.0971922246, 6882039.222462203], [242174.1922005571, 6882212.896935933], [242165.0, 6882350.0], [241362.8947368421, 6883158.881578947], [241410.7142857143, 6883184.285714285], [241316.42857142858, 6883278.571428572], [241353.57142857142, 6883341.428571428], [241244.53403096847, 6883482.345311454], [241273.88888888888, 6883626.666666667], [241252.90711241798, 6883657.536577828], [241328.74468085106, 6883896.680851064], [241231.8801565939, 6884092.875685006], [241290.59607069264, 6884243.060438143], [241257.08948173476, 6884476.313008095], [240998.2207672904, 6884706.768039774], [241016.71550871202, 6885066.259060134], [240845.0, 6885260.0], [240830.26315789475, 6885464.736842105], [240715.0, 6885580.0], [240738.1899311357, 6885789.007323662], [240615.0, 6886050.0], [240656.58006362672, 6886108.207847296], [240515.0, 6886290.0], [240549.9510132458, 6886350.181922216], [240532.5557735923, 6886807.668229719], [240485.0, 6886890.0], [240552.42857142858, 6886907.142857143], [240588.26639889088, 6887060.673410702], [240751.12786900913, 6887199.856692768], [240536.9011944449, 6887459.003382059], [240571.47124511446, 6887509.441652708], [240423.52900462275, 6887579.413391044], [240404.41739889872, 6887678.252196697], [240188.90489473994, 6887982.273386512], [240147.59474246853, 6887931.989187505], [240079.68091745928, 6887991.786170017], [239838.96633787316, 6888028.566232396], [239671.42857142858, 6888006.428571428], [239559.0909090909, 6888085.0], [239471.8309859155, 6888043.169014084], [239426.0, 6888089.0], [239296.01166121115, 6887997.4048690675], [239300.3189874076, 6887957.732680232], [239190.0, 6887975.0], [239145.7142857143, 6888036.142857143], [239093.81782228046, 6888021.704800459], [238955.70714715545, 6888124.234381322], [238889.7883304763, 6888030.014665344], [238830.0, 6888065.0], [238797.3076923077, 6888032.307692308], [238825.0, 6887930.0], [238726.49240171787, 6887812.271406931], [238656.91388340847, 6887821.204053959], [238448.63556415442, 6887630.906692463], [238389.34868384973, 6887402.252010074], [238470.13486266535, 6887227.206070456], [238397.72493573264, 6887157.0437018], [238120.0, 6887435.0], [238001.59453654394, 6887444.697327216], [237866.38401498596, 6887527.277864502], [237758.57142857142, 6887488.80952381], [237680.0, 6887515.0], [237592.5, 6887435.0], [237492.36829603367, 6887435.0], [237187.13703794926, 6887634.004755499], [236982.29949947546, 6887636.926857359], [236963.10956652893, 6887617.332925824], [236677.54605960718, 6887780.893381487], [236702.7949365209, 6887925.148860346], [236655.11941747207, 6888058.013081061], [236448.1534013023, 6888113.244204333], [236375.96326710406, 6888212.508151903], [236480.28164900147, 6888443.841121104], [236372.57676597708, 6888622.203350823], [236434.29883413768, 6888715.294150845], [236391.22906360304, 6888832.930031749], [236433.52858306514, 6888931.026212827], [236311.77069199458, 6889164.559023066], [236468.5554956028, 6889331.724077022], [236384.2936486147, 6889423.179513053], [236415.0, 6889680.0], [236195.7062670341, 6889956.500793739], [235572.71482265665, 6889685.442526038], [235485.946798559, 6889671.299020278], [235295.21468155168, 6889480.110593527], [235144.68122056915, 6889508.744976455], [235096.76703181572, 6889470.413625453], [235025.9257454664, 6889521.912999565], [234717.22222222222, 6889272.222222222], [234595.0, 6889240.0]]]}}]}