{"type": "FeatureCollection", "crs": {"type": "name", "properties": {"name": "EPSG:25833"}}, "features": [{"type": "Feature", "properties": {"station": "2.439.0", "name": "Kvarstadseter", "series": ["1001.1"], "nodes": 3743759, "fine_vertices": 18168, "fine_area_m2": 374376350.0, "reduced_vertices": 831, "reduced_area_m2": 374376349.99999934, "outline_tolerance_m": 20.0, "windows": [[490, 456], [1272, 1254], [2700, 2514], [5099, 4913]], "placed_on": "number", "distance_m": 21.045757005804663, "uncertainty_m": 30.0, "elvid": "002-34-17137", "objectid": 12243555, "lake": false, "confluence_near": false, "reach_up_m": 1000.0, "reach_down_m": 130.0, "reach_fork": false, "seeded_by": "river", "lake_rule": null, "lake_number": null, "lake_name": null, "lake_distance_m": null, "node_offset_m": 14.953081395987263, "chain_nodes": 116, "lowered_nodes": 110, "lowered_max_m": 1.20263671875, "direction_ok": true, "end_extended_m": 76.5685424949238, "end_closed": true, "downstream_checked": "whole", "a0": 374.3759, "area_up": 374.3747, "area_down": 374.3926, "swing": 4.460757222891316e-05, "largest_step": 0.013900000000035106, "largest_step_at_m": 10.0, "checked_up_m": 20.0, "checked_down_m": 24.142135623731065, "drains": true, "monotone": true, "causes": []}, "geometry": {"type": "Polygon", "coordinates": [[[263385.0, 6816990.0], [263426.0869565217, 6816967.173913044], [263393.75, 6816921.25], [263364.1304347826, 6816949.130434782], [263315.8695652174, 6816880.869565218], [263378.74918840796, 6816812.809009904], [263311.0, 6816726.0], [263467.3006416132, 6816531.659028415], [263451.0, 6816514.0], [263495.0, 6816470.0], [263505.0, 6816360.0], [263462.8870431894, 6816325.209302326], [263492.34103394597, 6816199.181321314], [263691.9840193052, 6816198.717754855], [263955.0, 6815883.684210527], [264073.7282708143, 6815819.725526075], [264177.71381808096, 6815599.453871643], [264155.0, 6815590.0], [264285.4, 6815470.4], [264202.4805756006, 6815387.480575601], [264222.95979722234, 6815291.325644102], [264325.0, 6815260.0], [264246.1955617198, 6815165.106796117], [264315.0, 6815050.0], [264203.41437738755, 6815058.946169498], [264248.0654369785, 6815021.357048748], [264165.0, 6814920.0], [264196.75681010657, 6814888.243189894], [263941.06382978725, 6814605.0], [263834.7716036247, 6814643.718947186], [263765.0, 6814570.0], [263858.5236681193, 6814514.192314449], [263775.0, 6814440.0], [263803.7834908399, 6814393.610444819], [263720.02074688795, 6814333.029045643], [263636.8249667367, 6814213.451282954], [263651.0029363869, 6814149.83483], [263836.02040816325, 6814010.204081632], [263937.2437616804, 6813852.113675578], [263929.8664343786, 6813708.966318235], [263875.0, 6813670.0], [264000.232, 6813491.872], [263923.1818181818, 6813431.818181818], [264086.0765041736, 6813251.689799285], [264079.49207834294, 6813168.115994674], [264241.45182937506, 6813086.451829375], [264147.1780223921, 6812996.933034204], [263984.5424669283, 6812919.457889368], [264035.8830885901, 6812833.661652297], [264281.4756788917, 6812762.119120736], [264385.87337248895, 6812653.776823278], [264432.24796067766, 6812662.963292198], [264527.6645931398, 6812598.11761069], [264751.9209094523, 6812663.012602588], [264933.47983264, 6812486.728378804], [265010.2732141956, 6812446.335436284], [265194.15874340886, 6812207.423170511], [265440.0, 6812165.0], [265456.1904761905, 6812193.783068783], [265630.708140618, 6812032.958317614], [265732.22222222225, 6812021.825396826], [265675.0, 6811940.0], [265777.88727792306, 6811864.961832818], [265780.8626863186, 6811715.0], [265844.0, 6811715.0], [265854.0, 6811665.0], [265946.1538461539, 6811665.0], [265965.0, 6811600.0], [265927.24038122135, 6811550.400635369], [266040.6574836694, 6811544.544818998], [266067.1656918026, 6811452.478262355], [265689.6004763572, 6811397.8894181745], [265570.0, 6811265.0], [265523.9975127855, 6811258.905165793], [265438.80422682036, 6811013.181024341], [265455.0, 6810910.0], [265388.8151120182, 6810773.493668538], [265498.94736842107, 6810646.052631579], [265489.1116751269, 6810551.417258883], [265541.0707269155, 6810503.614931238], [265535.47825915413, 6810413.641172768], [265241.8768275139, 6810400.650083666], [265242.62982372555, 6810357.412259806], [265318.02301039844, 6810269.760227964], [265224.31311057456, 6810216.422609013], [265165.1785624587, 6810119.360585079], [265245.0, 6810090.0], [265229.9737226023, 6810015.63919134], [265321.9082825945, 6809944.613032024], [265355.0, 6809830.0], [265283.86716581887, 6809763.466035571], [265206.5898617511, 6809756.059907834], [265108.3333333333, 6809570.0], [265045.96, 6809517.6], [265074.3079584775, 6809371.038062284], [265016.61604897596, 6809328.784558947], [265062.835258328, 6809211.968130173], [264902.84853217076, 6809171.781235258], [264754.6211853046, 6809187.800797433], [264679.8747763864, 6809151.252236136], [264685.3242437049, 6809043.59434775], [264533.8355111453, 6809000.73405073], [264508.1081081081, 6809048.513513514], [264415.0, 6809032.404844291], [264430.0, 6808995.0], [264307.9625342886, 6808944.307514243], [264271.17070969846, 6808814.421339791], [264123.6221590909, 6808713.423295454], [264154.1047929076, 6808651.809461144], [263926.7271037536, 6808501.296890798], [263930.34434944426, 6808433.125722012], [263579.9169423298, 6808410.096306359], [263575.3278688525, 6808239.016393443], [263521.6666666667, 6808196.666666667], [263559.44444444444, 6808144.444444444], [263585.810174379, 6807923.285072874], [263456.6016719606, 6807897.036694638], [263417.1146101905, 6807787.8853898095], [263475.0, 6807730.0], [263455.0, 6807670.0], [263490.0, 6807655.0], [263460.1333834913, 6807624.703592242], [263580.0, 6807455.0], [263696.73213375214, 6807483.760090925], [263860.02489946695, 6807395.561699242], [263806.872688651, 6807320.029610189], [263919.18045774277, 6807162.541373229], [264060.8328196649, 6807047.875123469], [264041.24277456646, 6807021.425818883], [264259.60246694187, 6806942.992431701], [264334.90515600203, 6807038.373892314], [264393.92831216997, 6807009.656207291], [264370.26403601293, 6806824.463443451], [264095.12617738405, 6806824.498816252], [264047.74320579926, 6806729.645923479], [264066.78185457597, 6806675.626381797], [263938.1267004911, 6806449.2228824], [263986.94429433363, 6806391.047988865], [263824.54545454547, 6806380.454545454], [263709.26075494743, 6806422.60271399], [263649.94529089495, 6806395.635924799], [263499.2501364219, 6806500.3889192045], [263308.0216080825, 6806463.885761618], [262873.04285625333, 6806532.536819074], [262769.2144680351, 6806481.053620299], [262479.8923455479, 6806481.948258497], [262222.55786322587, 6806573.542764146], [262199.3667497217, 6806500.5121136615], [261960.91851971234, 6806531.604701394], [261793.62360431213, 6806509.084427174], [261737.25316143953, 6806547.228319645], [261677.23372631613, 6806519.191553055], [261550.93721144967, 6806177.719298245], [261587.35033799818, 6806108.534357804], [261825.38457099863, 6806029.569929926], [261924.35897435897, 6806055.0], [261925.0, 6806016.0], [261713.19072515296, 6805971.288526791], [261714.797436235, 6805829.0953508625], [261518.8972364629, 6805613.687043572], [261649.33390482495, 6805538.456481049], [261653.5347944221, 6805426.335751016], [261559.16168303732, 6805334.468426803], [261796.81922251408, 6805081.8192225145], [261814.4365590817, 6804972.486869429], [262115.65382386124, 6804794.476940911], [262242.4892614999, 6804747.4892615], [262182.5115867663, 6804564.27935546], [262265.43308890925, 6804511.225939505], [262272.0689655172, 6804395.0], [262218.5328002263, 6804395.0], [262260.91665203933, 6804245.967128946], [262214.93787782703, 6804170.562248177], [262258.39650807524, 6804075.377182453], [262271.3910776859, 6803952.9918664], [262137.20587646877, 6804015.349607954], [262147.69965876726, 6804175.580816015], [262075.0, 6804250.0], [262135.0, 6804320.0], [262069.1310789565, 6804406.605474953], [261865.5141910395, 6804504.013899605], [261690.5698491943, 6804463.143099978], [261633.99818189107, 6804563.647657907], [261597.52008248493, 6804556.290678787], [261551.75675675675, 6804435.135135135], [261490.0, 6804435.0], [261429.19943087178, 6804370.717504604], [261530.07936507938, 6804192.380952381], [261455.75995574216, 6804160.145762073], [261203.95579895357, 6803853.753719717], [261236.96383122794, 6803786.398395139], [261041.0, 6803584.0], [261075.0, 6803550.0], [261027.68691588784, 6803432.301401869], [261058.0880489713, 6803350.4804195175], [261286.99479447785, 6803369.689996239], [261586.6699992022, 6803053.141171766], [261620.5561114326, 6802904.557411936], [261586.13636363635, 6802881.136363637], [261738.12300602623, 6802715.873803616], [261770.0, 6802735.0], [261866.48569174105, 6802546.702818426], [262276.0702397111, 6802439.210155513], [262264.6666666667, 6802505.0], [262368.0882292784, 6802506.96408769], [262551.1843045873, 6802339.159851766], [262420.936877493, 6802184.063122507], [262496.2057589094, 6802182.588482182], [262510.0, 6802155.0], [262617.14285714284, 6802139.693877551], [262650.0, 6802205.0], [262710.0, 6802165.0], [262823.36032873386, 6802205.885289502], [262860.0, 6802145.0], [262949.13582972385, 6802178.990251543], [263120.1346885468, 6801967.350007715], [263279.0909090909, 6801929.545454546], [263365.03578399477, 6801986.277380178], [263442.7272727273, 6801927.7272727275], [263615.9062416925, 6802074.448690743], [263821.06934641063, 6801967.3064712435], [263863.4542733487, 6801905.364033491], [263906.4653889969, 6801930.260815219], [264105.0, 6801730.0], [264087.3844282238, 6801640.462287105], [264386.8091042584, 6801258.190895742], [264590.25313949946, 6801209.22914801], [264591.1412788247, 6801139.753421296], [264673.73198711104, 6801032.973248793], [264657.35294117645, 6801007.647058823], [264721.7600136242, 6800991.786285137], [264856.20924501546, 6800843.625139616], [265026.97971606307, 6800745.652959585], [265168.031999217, 6800727.729148872], [265303.33606653963, 6800609.857630447], [265175.0, 6800460.0], [265212.21262656344, 6800423.210244193], [265245.0, 6800200.0], [265169.4, 6800081.68], [265096.2987012987, 6800057.922077922], [265310.5499493315, 6799789.2615994895], [265357.9344191509, 6799823.0141428895], [265484.6275395034, 6799691.11738149], [265493.258881162, 6799630.470521736], [265793.49146100954, 6799490.091947407], [265881.7546244312, 6799551.2691330295], [266047.57275413297, 6799415.047758808], [266083.3333333333, 6799438.333333333], [266248.08223845967, 6799365.908094919], [266318.9352750809, 6799197.0355987055], [266293.2953297681, 6798897.713468776], [266195.58660433267, 6798817.004800811], [266189.5168648251, 6798719.5343035115], [266006.0867215702, 6798702.821152973], [266025.0, 6798600.0], [265975.0, 6798550.0], [266095.945353955, 6798450.776533367], [266092.7044695145, 6798361.588694726], [265945.18518518517, 6798393.518518519], [265886.7458866545, 6798338.78427788], [265812.63157894736, 6798403.421052632], [265718.35094340093, 6798344.600393057], [265584.10150522745, 6798368.621670785], [265493.33880131785, 6798227.404271051], [265561.19926199265, 6798106.199261992], [265489.65842197667, 6798034.6584219765], [265618.0346820809, 6797939.150289018], [265650.0, 6797965.0], [265754.6153846154, 6797875.32967033], [266055.95333421923, 6797966.518576226], [266140.0, 6797895.0], [266182.85714285716, 6797923.571428572], [266275.9371534196, 6797878.903881701], [266336.36363636365, 6797918.636363637], [266737.52252252254, 6797515.0], [266753.9303670833, 6797515.0], [266891.79850950633, 6797395.350607871], [267126.6271183475, 6797324.642441105], [267167.3824495291, 6797246.9174556425], [267045.71428571426, 6797138.571428572], [267052.8095238095, 6797059.314285714], [267102.3127634047, 6797029.612341957], [267002.7586753808, 6796884.118859246], [267304.87151162594, 6796625.292953113], [267629.6832998504, 6796528.567588866], [267890.6729620813, 6796607.148230305], [268089.0697039181, 6796509.64433423], [268115.27982026146, 6796399.7201797385], [268261.5319148936, 6796149.29787234], [268419.5988183248, 6795970.267572365], [268481.1111111111, 6795978.333333333], [268578.3333333333, 6795895.0], [268710.0, 6795885.0], [268740.0, 6795915.0], [268807.2465176475, 6795866.661205132], [268956.27569740766, 6795982.547957285], [269507.79338143044, 6795972.79338143], [269545.45454545453, 6796010.454545454], [269894.48419729096, 6796004.588500886], [270190.90909090906, 6795732.2727272725], [270257.59493670886, 6795737.405063291], [270430.8629075986, 6795666.499459937], [270520.0, 6795545.0], [270520.0, 6795599.285714285], [270671.78217821784, 6795606.782178218], [270700.35714285716, 6795635.357142857], [270891.4408699703, 6795604.898093675], [270843.125, 6795486.041666667], [270895.0, 6795360.0], [270843.3699503898, 6795287.717930546], [270901.84210526315, 6795221.052631579], [270808.71776901843, 6795076.574611295], [270801.27831070416, 6794917.360772771], [270605.8762886598, 6794969.020618557], [270555.36912751675, 6794934.463087249], [270507.5967823244, 6794968.784247737], [270361.9407079262, 6794969.902681293], [270159.0950437637, 6795026.832780384], [269938.58998614416, 6795051.454349148], [269700.3441351798, 6794859.082655408], [269461.8199983604, 6794556.892251181], [269565.71428571426, 6794498.80952381], [269484.10899053334, 6794460.429019737], [269721.2286554064, 6794140.306695061], [269863.8518473352, 6794093.888898567], [269910.0, 6793995.0], [270047.3167455814, 6793978.27031776], [270294.09942895884, 6793703.533380593], [270411.2704093044, 6793694.68463431], [270508.1071139877, 6793606.2402276], [270672.49287006765, 6793368.933544482], [270624.9193574028, 6793259.621833069], [270435.00661749195, 6792934.5182667235], [270302.2897136253, 6792895.0], [270274.14877494314, 6792806.489012376], [270378.8095238095, 6792719.047619048], [270368.8084632517, 6792669.042316258], [270419.23076923075, 6792575.769230769], [270360.7817499828, 6792488.422734038], [270401.14481610106, 6792443.100154607], [270311.84210526315, 6792305.263157895], [270333.12883435586, 6792281.50840224], [270469.8028328292, 6792293.784669757], [270484.73514267016, 6792098.419968781], [270631.51832606446, 6791964.165501937], [270619.91291915777, 6791852.947751495], [270509.1538461539, 6791727.307692308], [270534.8639092728, 6791695.170113409], [270195.3846153846, 6791398.846153846], [270218.6893742819, 6791316.056877562], [270333.92113910185, 6791178.9211391015], [270308.2372492343, 6791153.237249235], [270419.1524847522, 6790973.750508536], [270429.7252747253, 6790845.714285715], [270365.776371308, 6790649.223628692], [270479.4527269898, 6790530.901839618], [270575.0, 6790399.935375986], [270575.0, 6790360.689655173], [270746.4328622517, 6790123.24653979], [270745.0, 6790060.0], [271060.42337843037, 6789939.5594981145], [271299.1172663734, 6790085.4205477685], [271430.23402331246, 6789900.063985314], [271639.8455374119, 6789874.062420513], [271770.18897637795, 6789958.653543307], [271820.0, 6789925.0], [271873.9783001808, 6790012.866184449], [271938.6511384921, 6789981.52986073], [272178.0138162932, 6790033.013816293], [272206.78571428574, 6790061.785714285], [272323.13851595786, 6790073.467722486], [272373.92799955397, 6789730.202473028], [272679.03254464513, 6789233.901944458], [272731.52173913043, 6789211.739130435], [272770.0, 6789135.0], [272881.36363636365, 6789201.818181818], [272980.0, 6789085.0], [273053.85879199166, 6789080.056761039], [273210.0, 6789205.0], [273356.20185275475, 6789085.380302291], [273541.32912214805, 6789148.598250266], [273605.0, 6789080.0], [273730.0, 6789115.0], [273755.3901192504, 6789072.683134583], [273884.8672566372, 6789030.044247787], [273934.6153846154, 6789078.076923077], [274113.66234275827, 6789047.943058397], [274294.79350371787, 6788848.325349644], [274266.36363636365, 6788792.2727272725], [274842.01502494176, 6788084.013660015], [274820.0, 6788025.0], [274966.0490797546, 6787869.368098159], [274968.517539343, 6787820.821726255], [275134.4461483692, 6787744.3356518885], [275185.0, 6787765.0], [275272.305213155, 6787699.056130934], [275288.8236181182, 6787566.067259485], [275574.1032058435, 6787347.87559509], [275782.61354331713, 6787082.410308623], [275768.8497373194, 6786993.419039344], [275845.0, 6786960.0], [275823.85780785733, 6786938.857807857], [275933.6277367474, 6786811.044265753], [275766.8240471233, 6786644.228100164], [275679.6031746032, 6786622.698412699], [275753.29414980864, 6786580.22387845], [275774.2405063291, 6786454.683544304], [275735.0, 6786430.0], [275760.3904056638, 6786279.342474671], [275925.0, 6786110.0], [275925.0, 6786065.714285715], [276000.94720923837, 6786069.686554853], [276029.46261267265, 6785984.087694316], [276144.2138631547, 6785888.215541606], [276141.31659056316, 6785830.042617961], [276230.20177908085, 6785791.084178771], [276285.8502859823, 6785884.858415493], [276508.5359204806, 6785585.786912362], [276526.2196750081, 6785519.228459392], [276674.30854576675, 6785470.755294325], [276630.72292512143, 6785377.93211613], [276780.40473142854, 6785378.082240434], [276924.16832431254, 6785445.745601418], [277096.5827171646, 6785706.1443730695], [277180.07352941175, 6785718.30882353], [277357.77777777775, 6785860.555555556], [277486.14775725594, 6785805.765171504], [277607.3276324225, 6785791.945250943], [277666.4401540613, 6785838.559845938], [277838.51748045435, 6785726.613807347], [278146.89074205473, 6785801.481877088], [278185.5229505195, 6785735.578266269], [278348.3333333333, 6785883.333333333], [278315.9689410569, 6786006.93374895], [278235.5362872356, 6786077.895657555], [278034.92481203005, 6786360.22556391], [277984.07925505925, 6786510.604921396], [277896.36363636365, 6786597.7272727275], [277992.63433112984, 6786725.36817571], [277797.72187151876, 6786943.631637579], [277885.0, 6787020.0], [278067.8047682397, 6787074.536137848], [278009.20208404236, 6787153.085725345], [278060.74390993157, 6787239.96834432], [277957.24436600483, 6787270.066356247], [277921.8671679198, 6787405.664160401], [277946.8023255814, 6787420.174418605], [277832.2738304761, 6787541.4916584855], [277691.2892474157, 6787612.874118443], [277720.5229618865, 6787698.641472321], [277678.892382949, 6787789.161425577], [277637.8048780488, 6787763.536585365], [277536.82147451094, 6787966.729372309], [277733.4619513467, 6788171.771593186], [277795.0, 6788290.0], [277771.92307692306, 6788396.923076923], [277875.0, 6788500.0], [277875.0, 6788564.0], [277834.8230088496, 6788561.097345132], [277715.8101120638, 6788711.618007341], [277818.84546305635, 6788878.073922563], [277780.0220449297, 6788939.46252362], [278141.1184940626, 6789292.161235559], [278225.313154981, 6789284.225785251], [278222.78969354177, 6789388.313967797], [278398.58638743457, 6789575.942408377], [278462.5956448767, 6789541.859104015], [278512.85705734935, 6789609.492355591], [278820.69757268083, 6789574.424534036], [278898.1443562836, 6789583.469413873], [278906.6666666667, 6789552.777777778], [278955.1948051948, 6789589.805194805], [278985.0, 6789560.0], [278946.73590504454, 6789496.226508408], [279050.5457848283, 6789458.255216288], [279265.0, 6789630.0], [279247.78203533153, 6789690.522138992], [279343.515625, 6789788.515625], [279389.5851606228, 6789758.373198623], [279513.27650178113, 6789855.0872090105], [279567.2600619195, 6789819.34542238], [279609.0, 6789714.0], [279723.77961639717, 6789793.537044002], [279811.5294117647, 6789747.352941177], [279910.0, 6789785.0], [279995.6674865092, 6789739.041693837], [280097.00697946723, 6789791.868462078], [280105.11716488766, 6789919.04835558], [280251.83340821124, 6789984.603404018], [280342.0, 6789982.090909091], [280646.7950847865, 6790238.1989707025], [280745.2376910017, 6790121.7996604415], [280850.0, 6790095.0], [280915.5516376123, 6790140.138536714], [280825.0, 6790270.0], [280910.8, 6790341.5], [280851.1021693028, 6790403.92360538], [280861.07955240045, 6790456.846089351], [280733.7590080487, 6790658.961016716], [280850.0, 6790735.0], [281015.33749836165, 6790745.927082879], [281030.0, 6790785.0], [281131.6403844886, 6790807.222449656], [281171.64464828256, 6790984.543567093], [281355.313133911, 6790991.897087916], [281715.0, 6791340.0], [281704.1512005057, 6791438.287726729], [281955.2298850575, 6791718.084291188], [281932.2932330827, 6791742.932330827], [281971.71545219125, 6791964.080124077], [281882.371740722, 6792075.064481613], [281945.0, 6792170.0], [281847.7272727273, 6792292.7272727275], [281960.85719738354, 6792405.857197383], [281738.118198564, 6792703.793278158], [281775.54054054053, 6792752.252252252], [281698.1117298991, 6792846.223459798], [281737.92186302406, 6792958.448302979], [281625.0, 6792990.0], [281665.0, 6793030.0], [281555.0, 6793100.0], [281571.4, 6793156.2], [281286.87185977335, 6793454.51985372], [281172.78953658923, 6793450.347427002], [281073.07822104095, 6793618.566241756], [280989.27100911236, 6793689.002699967], [280795.0, 6793980.0], [280822.4489361702, 6793999.0234042555], [280739.3423001367, 6794057.410634151], [280672.0833333333, 6794202.916666667], [280760.6332133517, 6794266.144141971], [280737.7226542357, 6794326.470732828], [280781.94156463543, 6794354.381479571], [280735.0, 6794440.0], [280792.48481943115, 6794468.742409715], [280657.4427480916, 6794640.076335878], [280527.01317060937, 6794651.142277797], [280439.9666528869, 6794595.961003169], [280414.6867971432, 6794789.622833179], [280495.7893388006, 6794887.2885699645], [280452.8813559322, 6794895.0], [280360.305771937, 6795066.321428968], [280264.4784737357, 6795173.917355067], [280394.9322085332, 6795338.956626646], [280385.9876063143, 6795433.360649993], [280532.7408877661, 6795642.448574522], [280369.6719698192, 6795803.373102841], [280504.9563035371, 6795922.891912202], [280811.74371524213, 6795933.21952475], [280931.3089849551, 6796288.1409790665], [280891.0, 6796306.0], [280941.9135802469, 6796356.913580247], [280928.48612370796, 6796497.144796271], [280974.6746787983, 6796546.582067631], [280829.01798302704, 6796785.493599256], [280826.4206208909, 6796826.767637304], [280674.94961404713, 6797054.095361604], [280974.2240558553, 6797345.615677563], [281083.494023718, 6797361.542329527], [281048.10664605873, 6797434.4513137555], [281142.2727272727, 6797582.7272727275], [281099.59245169576, 6797718.003811962], [280862.2207666107, 6797999.530365818], [280916.74311926606, 6798174.311926605], [280795.61282360484, 6798153.921746023], [280814.6923076923, 6798379.076923077], [280675.0, 6798610.0], [280753.3029942488, 6798584.439556863], [280778.7598425197, 6798612.657480315], [280925.4579030023, 6798540.6939237695], [280991.51611904276, 6798649.126427409], [281168.5714285714, 6798636.428571428], [281347.71798880206, 6798715.189646165], [281400.0, 6798805.0], [281498.62770282506, 6798728.700196345], [281514.0582520494, 6798751.583242537], [281571.377245509, 6798740.508982036], [281580.8899927115, 6798778.559970846], [281473.77855406515, 6798983.476279972], [281545.8339578463, 6798992.501873539], [281551.99476219696, 6799199.010665465], [281389.7616694951, 6799475.156633214], [281457.8268989254, 6799489.784175445], [281470.9544383809, 6799617.016670559], [281553.6599026942, 6799730.170606274], [281498.27180770086, 6799978.124677621], [281520.3000511866, 6800040.711274456], [281626.74311926606, 6800025.688073395], [281593.1441022661, 6800164.252178966], [281627.64264264266, 6800224.624624625], [281541.0, 6800406.0], [281460.0768410696, 6800482.234448685], [281336.6511869193, 6800719.453363547], [281126.21272075124, 6800909.505884687], [281090.82620246126, 6801140.216280335], [280912.00959497504, 6801590.698921508], [280648.67114005634, 6801980.319295162], [280275.6501329429, 6802225.0], [280122.99307966186, 6802268.034676056], [279855.54369357997, 6802541.909186484], [279580.0, 6802485.0], [279487.9963697365, 6802392.996369736], [279349.5100291265, 6802396.902005825], [279213.3814262023, 6802502.225538972], [279175.15109175665, 6802746.061971068], [279215.0, 6802770.0], [279156.98059043835, 6802953.734735991], [279230.0, 6802975.0], [279275.47586206894, 6802929.524137931], [279323.97196261684, 6802948.785046729], [279168.55004196713, 6803153.502172941], [279144.4318181818, 6803333.5227272725], [279074.18731416296, 6803371.618068919], [278961.01016219135, 6803563.088893616], [278980.0, 6803669.515960504], [279094.8099389844, 6803831.314540153], [279036.1570349031, 6804047.826976415], [279367.2484564258, 6804388.743562972], [279425.0, 6804400.0], [279453.2912332838, 6804517.20653789], [279517.0669367265, 6804539.585125188], [279270.04073644686, 6804866.608665242], [279264.40962886275, 6804962.221521423], [279133.1474177988, 6805076.106498152], [279382.91696208663, 6805368.884355855], [279330.0509220717, 6805455.230009666], [279330.871950803, 6805671.073359039], [279266.72624089685, 6805768.5887744], [279355.22363708384, 6805932.5233033085], [279404.8792191097, 6806129.637657329], [279331.0535506403, 6806297.555296857], [279204.41924111894, 6806368.830880268], [279328.3333333333, 6806493.333333333], [279183.4776082758, 6806704.210902178], [278633.4765625, 6806983.7109375], [278728.8709886738, 6807066.074251167], [278731.09866631747, 6807152.422785575], [278652.8947368421, 6807225.263157895], [278632.8929383913, 6807387.081423091], [278778.1977476685, 6807471.520323773], [278694.41990959866, 6807605.894234078], [278756.9086768137, 6807671.4542828575], [278792.14285714284, 6807878.571428572], [278724.06530218676, 6808014.226898428], [278742.8103420643, 6808079.089852575], [278703.90777092293, 6808155.934709815], [278854.1446600435, 6808319.538521109], [278970.29992515326, 6808362.527422519], [278849.8879979184, 6808448.2881540395], [278955.0, 6808520.0], [278993.07906741, 6808648.966041561], [278976.76470588235, 6808681.764705882], [279073.48630439315, 6808736.266873948], [279067.85714285716, 6808784.285714285], [278864.58058543183, 6808875.334437802], [278800.64257056935, 6808844.843943199], [278532.57318732527, 6808868.713406337], [278475.8328769002, 6808834.507804533], [278396.5387985453, 6808845.648892626], [278286.40813066455, 6808711.408130664], [278102.6017761859, 6808628.563833135], [278043.6211363834, 6808711.3251177715], [277954.9487459106, 6808651.597600873], [277800.0213137863, 6808845.0], [277744.3744255496, 6808808.132107732], [277677.06131277035, 6808912.28324243], [277677.1815146438, 6809046.876339607], [277567.0588235294, 6809137.352941177], [277500.0, 6809115.0], [277425.0, 6809286.0], [277482.3044524669, 6809348.240673887], [277390.78754131764, 6809517.551097272], [277413.0324901991, 6809572.801131706], [277353.68056964426, 6809680.862109173], [277331.4353511917, 6809889.071925754], [277352.8096893203, 6809960.53801969], [277023.71288274386, 6810032.049192075], [276995.0, 6810180.0], [276925.0, 6810250.0], [276915.50197878806, 6810332.067813752], [276595.79041343543, 6810576.687580965], [276541.88074648764, 6810726.739075794], [276406.50571480964, 6810858.331703441], [276335.0, 6810870.0], [276406.5566340987, 6810945.707813145], [276341.6442806193, 6811063.820394983], [276412.5253261424, 6811171.084974203], [276573.09512285, 6811193.742630263], [276558.1818181818, 6811305.909090909], [276480.0, 6811395.0], [276701.12491107965, 6811618.137114322], [276628.07692307694, 6811766.923076923], [276703.3848068354, 6811886.926751692], [276444.5113522036, 6812086.359098888], [276360.7457010007, 6812241.423817297], [276165.8582662615, 6812333.216140306], [275930.23531202506, 6812635.969239494], [275924.24680866476, 6812675.356597211], [275686.08923138486, 6812962.4833478425], [275727.11175270303, 6813099.888880413], [275466.7220543807, 6813391.490433031], [275425.85365853657, 6813400.0677506775], [275309.44411029876, 6813566.185109278], [275364.41120882076, 6813701.8220553445], [275233.22491342697, 6813686.845561908], [275245.845307817, 6813851.467471084], [275008.67104614107, 6813716.589727312], [274822.22222222225, 6813895.0], [274723.0116496025, 6813904.201520429], [274731.415607952, 6814013.241329544], [274525.0, 6814125.4878048785], [274525.0, 6814143.060448077], [274420.4010763599, 6814207.313352363], [274289.43754746084, 6814496.662528477], [274333.8888888889, 6814523.333333333], [274265.0, 6814680.0], [274319.54758537805, 6814708.7609500345], [274305.24810735567, 6814851.1942686355], [274078.56859437993, 6815247.856198126], [274033.4714826732, 6815232.823827557], [273979.91995080374, 6815367.605502467], [273757.58485580207, 6815589.106337419], [273640.0, 6815575.0], [273625.6818181818, 6815611.413713405], [273326.4441671335, 6815311.39578165], [273358.8118811881, 6815214.801980198], [273312.19514961145, 6815191.017933475], [272750.6728697356, 6815756.891283056], [272755.0, 6815840.0], [272707.5543922911, 6815934.108284597], [272733.9691163716, 6815994.222555004], [272578.8974854932, 6816002.852998066], [272570.0, 6815975.0], [272473.58974358975, 6816080.128205128], [272483.47560942057, 6816149.329265944], [272368.9448620718, 6816213.944862071], [272280.0, 6816125.0], [272236.6, 6816180.4], [272158.64864864864, 6816116.621621622], [272090.0, 6816195.0], [272009.09766846, 6816120.759696212], [271912.71619831125, 6816191.19922152], [271744.17851961125, 6816421.736313808], [271302.32763614383, 6816568.386054065], [271136.6317234867, 6816528.481601705], [271030.22352193354, 6816575.38023149], [270928.7912267251, 6816697.95369532], [270704.91631715617, 6816762.1981617985], [270413.10428455943, 6816481.895715441], [270289.5362004741, 6816557.206975956], [270211.2907937204, 6816513.451047536], [270154.58598726115, 6816581.496815287], [270075.0, 6816520.0], [270099.0, 6816494.0], [270011.3934195202, 6816410.491809314], [269932.5, 6816537.5], [269898.23456790124, 6816503.234567901], [269578.3333333333, 6816858.333333333], [269615.0, 6816900.0], [269585.0, 6816930.0], [269584.5545405881, 6817116.6474935915], [269163.55152599333, 6817328.699682414], [269063.1987453542, 6817576.348690988], [269162.39975529874, 6817660.158696362], [269120.0, 6817775.0], [269044.2544460075, 6817723.068133833], [268860.66560680466, 6817819.804797467], [268848.46153846156, 6817895.0], [268715.5091657826, 6817889.0073919445], [268631.8223966394, 6817813.61795823], [268595.1219512195, 6817848.414634147], [268450.6425261071, 6817780.08448095], [268183.23350140074, 6817527.576642612], [268048.10949414404, 6817567.026264048], [267943.5960591133, 6817511.403940886], [267878.36879432626, 6817519.042553191], [267640.69930436416, 6817449.475053476], [267535.1872878921, 6817528.112858074], [267402.96251511486, 6817319.413542926], [267227.9099695423, 6817310.10182365], [267192.863780026, 6817277.651648172], [267083.54241522704, 6817295.729345673], [266866.9402421843, 6817071.9559234455], [266925.0, 6816980.0], [266828.495887447, 6816919.534164684], [266705.97658082243, 6816983.011876857], [266610.0, 6816965.0], [266574.23076923075, 6817012.692307692], [266450.0, 6817005.0], [266422.85714285716, 6817047.857142857], [266318.3424689645, 6816904.468268419], [266434.51024428493, 6816753.69739394], [266425.67371088936, 6816691.02572597], [266281.3319160648, 6816641.581834741], [266122.7657529611, 6816779.875880917], [266050.0, 6816885.0], [266021.16104868916, 6816872.415730337], [265785.26843562187, 6817082.02448108], [265756.77419354836, 6817211.129032258], [265550.1502262838, 6817354.454994701], [265353.9519329707, 6817526.189916213], [265389.3677723836, 6817631.7320025815], [265300.0, 6817715.0], [265245.4736842105, 6817660.47368421], [264883.5099812103, 6817869.071589518], [264744.97369561705, 6817704.084658468], [264703.75, 6817611.25], [264584.3404218802, 6817657.182387854], [264429.60071824974, 6817825.93964982], [264304.67906588037, 6817866.737761721], [263998.58428392507, 6817733.219046994], [263887.6573749141, 6817770.207398616], [263738.7281651085, 6817627.715562328], [263597.39961547416, 6817714.379952092], [263501.67624390253, 6817938.078050181], [263425.0, 6818030.0], [263461.76470588235, 6818090.490196078], [263410.00380288606, 6818121.016857475], [263265.41792577785, 6818055.8895604145], [263053.4281298896, 6818214.198704539], [262950.406146901, 6818117.388333689], [263077.1550695825, 6817983.0417495025], [263056.0, 6817905.0], [263110.0, 6817905.0], [263458.58056265983, 6817562.21653879], [263409.110301769, 6817531.592091572], [263567.04055135127, 6817360.631226684], [263461.92307692306, 6817291.153846154], [263503.18903318903, 6817230.945165945], [263472.15402794536, 6817199.6856419025], [263508.63636363635, 6817113.636363637], [263385.0, 6816990.0]]]}}]}