{"type": "FeatureCollection", "crs": {"type": "name", "properties": {"name": "EPSG:25833"}}, "features": [{"type": "Feature", "properties": {"station": "2.633.0", "name": "Stortorp", "series": ["1001.0"], "nodes": 870213, "fine_vertices": 11722, "fine_area_m2": 87021650.0, "reduced_vertices": 656, "reduced_area_m2": 87021650.00000024, "outline_tolerance_m": 20.0, "windows": [[491, 469], [1289, 1087], [2887, 2243]], "placed_on": "number", "distance_m": 0.5551225317450287, "uncertainty_m": 30.0, "elvid": "002-34-31601", "objectid": 12228837, "lake": false, "confluence_near": true, "reach_up_m": 1000.0, "reach_down_m": 130.0, "reach_fork": false, "seeded_by": "river", "lake_rule": null, "lake_number": null, "lake_name": null, "lake_distance_m": null, "node_offset_m": 5.266919720060976, "chain_nodes": 115, "lowered_nodes": 98, "lowered_max_m": 3.5434341430664062, "direction_ok": true, "end_extended_m": 48.2842712474619, "end_closed": true, "downstream_checked": "whole", "a0": 87.02130000000001, "area_up": 87.02000000000001, "area_down": 87.0249, "swing": 4.136918202775194e-05, "largest_step": 0.002600000000001046, "largest_step_at_m": 30.0, "checked_up_m": 24.142135623731065, "checked_down_m": 30.0, "drains": true, "monotone": true, "causes": []}, "geometry": {"type": "Polygon", "coordinates": [[[305120.0, 6597925.0], [305120.0, 6597875.0], [305038.4560204312, 6597814.582738676], [304965.0, 6597655.0], [304982.43642968347, 6597628.028022833], [304732.590480542, 6597597.353471729], [304765.0, 6597550.0], [304729.4949225013, 6597436.237306253], [304754.0496617663, 6597355.730396711], [304640.72415586386, 6597256.280067722], [304590.0, 6597275.0], [304584.9453792491, 6597177.529103513], [304450.3377328875, 6597059.798794953], [304461.9877254716, 6596744.734359051], [304615.0, 6596550.0], [304582.85228647303, 6596526.542135339], [304499.2635488362, 6596255.2412324045], [304602.40837696334, 6596300.183246073], [304654.8, 6596271.8], [304681.6898254866, 6596131.384361043], [304791.4048792471, 6596012.175596508], [304762.38095238095, 6595927.202380952], [304830.8001755012, 6595842.84902317], [304756.7661810289, 6595355.142158829], [304672.2016814903, 6595221.721677597], [304695.0, 6595136.0], [304656.3829787234, 6595133.425531914], [304685.0, 6595010.0], [304718.6666666667, 6594979.888888889], [304762.1391752577, 6595037.852233677], [304808.3870967742, 6595016.075268817], [304765.0, 6594890.0], [304793.42113938386, 6594818.3120326325], [304889.3660003692, 6594800.825427675], [304860.20020713983, 6594630.150434629], [305005.23986407794, 6594573.918351716], [304927.2150107985, 6594384.648413139], [304755.40020178014, 6594226.797124633], [304770.0, 6594165.0], [304800.0, 6594195.0], [304854.502054469, 6594140.497945531], [304783.49168475484, 6593987.153744254], [304826.0429316715, 6593947.614974995], [304835.97249646694, 6593690.96776888], [304757.02007582685, 6593692.817451183], [304667.76068608765, 6593532.05281786], [304622.9615333049, 6593540.104953164], [304557.110644375, 6593400.396658504], [304427.97340221214, 6593444.318557879], [304357.98199975665, 6593292.981999757], [304255.38757515326, 6593271.661545257], [304235.69430161413, 6593121.918866645], [304272.08853615023, 6593095.609273636], [304210.9180122727, 6592950.533323565], [304270.89206344, 6592869.8654278265], [304132.147750515, 6592695.779995782], [304020.0, 6592715.0], [303922.5161587129, 6592507.943160281], [303815.88143728, 6592448.280978046], [303762.30328980734, 6592446.031093568], [303671.59420530905, 6592349.484232586], [303620.0, 6592225.0], [303678.3542690703, 6592110.841616626], [303611.6666666667, 6591890.0], [303553.6916703009, 6591840.252943742], [303548.3593670011, 6591672.643806233], [303513.3333333333, 6591648.333333333], [303529.9211356467, 6591574.100946372], [303460.3846153846, 6591516.153846154], [303518.9958174277, 6591427.197837379], [303489.55252918287, 6591345.175097276], [303523.5714285714, 6591312.857142857], [303498.3333333333, 6591275.0], [303544.44038479327, 6591137.365646102], [303477.14285714284, 6591013.571428572], [303499.0, 6590948.0], [303450.4639175258, 6590705.4639175255], [303369.8387096774, 6590624.838709678], [303309.2198602789, 6590634.301635651], [303304.94576089294, 6590439.984515291], [303422.32350564643, 6590423.828902931], [303443.3933307359, 6590400.843639197], [303341.900063635, 6590300.992781736], [303445.0, 6590170.0], [303361.25929793774, 6590042.563226644], [303411.034708764, 6589966.194886987], [303299.07376255305, 6589734.726331832], [303126.7769610893, 6589782.065286705], [303140.6468845599, 6589504.223830355], [303067.6969488598, 6589431.698193015], [303072.94802863145, 6589075.884940481], [303113.7071479489, 6589037.919123841], [303002.53707351605, 6588918.707709508], [303000.0, 6588725.0], [302950.02039527724, 6588804.779823069], [302865.7089935572, 6588756.053611643], [302814.80181429966, 6588604.277459981], [302875.0, 6588520.0], [302758.90341716964, 6588352.543566467], [302738.68068335543, 6588096.92761461], [302810.0, 6587925.0], [302867.2413793103, 6587958.793103448], [302931.9367774584, 6587903.339905036], [302854.44378127786, 6587679.16887881], [302886.42117956094, 6587532.362405317], [302785.6635322814, 6587325.774751638], [302687.5, 6587252.5], [302627.34469676786, 6587293.658891685], [302537.3418419636, 6587019.894561309], [302448.34663188586, 6586990.009973914], [302414.9585348998, 6586829.854872149], [302342.4960424883, 6586809.217324364], [302220.0, 6586885.0], [302226.8559556787, 6586817.950138505], [302175.0, 6586800.0], [302228.85983032564, 6586690.86641704], [302093.2995265766, 6586569.961773977], [302205.8604285021, 6586478.042034845], [302197.3076923077, 6586359.230769231], [302155.0, 6586340.0], [302221.12320263434, 6586221.796792488], [302242.93617190555, 6586104.059845469], [302172.22700209, 6586021.408655733], [302078.8241545991, 6586114.290410304], [301982.6251172822, 6586021.2516838685], [301910.68961780786, 6586007.622956969], [301849.5438825065, 6585872.278138214], [301955.0, 6585767.983068898], [301916.00859133084, 6585694.024768519], [301985.5882352941, 6585631.764705882], [301968.1728844032, 6585485.880766559], [302095.0, 6585410.0], [302063.5714285714, 6585378.571428572], [302097.0704291778, 6585206.70334853], [302065.0, 6585190.0], [302095.0, 6585160.0], [302081.02291074034, 6585053.44276159], [302013.164073157, 6585021.495384173], [301916.9208211144, 6584855.0], [301774.99766439135, 6584772.0380243845], [301734.72353910323, 6584597.127247701], [301789.98464122595, 6584505.0264170915], [301737.71526792535, 6584450.23845902], [301918.2560570705, 6584332.091686112], [301935.0, 6584240.0], [301869.6844931097, 6584218.143870759], [301811.029379323, 6584081.251791404], [301934.0797231501, 6583768.85506415], [301895.0, 6583670.0], [301915.0, 6583600.0], [301855.0, 6583550.0], [301855.0, 6583477.435897436], [301775.6551724138, 6583418.0344827585], [301803.6619967027, 6583177.69467118], [301768.63636363635, 6583135.454545454], [301797.3732974806, 6583002.840942305], [301716.55106001114, 6582921.496466629], [301745.70757939154, 6582852.113058315], [301715.0, 6582749.090909091], [301605.0, 6582650.0], [301675.0, 6582540.0], [301750.0, 6582545.0], [301859.99979892455, 6582425.419735232], [302024.2804636012, 6582421.423151939], [302103.99531489675, 6582168.5822157515], [302223.74320965726, 6582227.774732648], [302404.0909090909, 6582187.2727272725], [302455.0, 6582312.857142857], [302498.35608744906, 6582308.988480221], [302571.81232211617, 6582198.615436129], [302556.7154000058, 6582071.832360864], [302751.7662742279, 6581977.429422084], [302712.6923076923, 6581805.769230769], [302782.73659329844, 6581833.008675172], [302882.8179343717, 6581746.9098744895], [302884.73705078434, 6581688.062955939], [302648.32071532565, 6581416.190344995], [302711.02010420506, 6581344.259144256], [302763.26086956525, 6581199.855072464], [302885.0301935265, 6581063.340801152], [302825.0, 6580982.146226415], [302842.41273100616, 6580901.683778234], [302749.8928039389, 6580839.913842842], [302836.9179337133, 6580747.311072132], [302848.34081616293, 6580647.914695743], [303018.2288442554, 6580526.3357710345], [303058.24260646343, 6580400.708583887], [303016.03865070915, 6580342.678144725], [303126.6454496207, 6580101.7297799345], [303085.0, 6580040.0], [303173.3988044406, 6579968.509820666], [303177.5, 6579907.5], [303246.2962962963, 6579975.0], [303322.5612462166, 6579895.834927182], [303415.47954957007, 6579965.537949738], [303473.8888888889, 6579893.333333333], [303441.4864864865, 6579843.513513514], [303476.16861326504, 6579797.778801023], [303587.5, 6579933.214285715], [303703.3044825204, 6579955.327870886], [303804.06525225437, 6579882.076530746], [303809.66087252897, 6579809.783571916], [303895.0, 6579780.0], [303905.25423728814, 6579646.694915255], [303985.661971831, 6579665.293762576], [304032.80203045683, 6579584.482233503], [304220.0, 6579545.0], [304309.85872985027, 6579658.251990972], [304392.8145695364, 6579586.688741722], [304315.0, 6579540.0], [304305.68129330256, 6579450.150115473], [304441.0112990373, 6579376.493205233], [304492.77777777775, 6579413.888888889], [304544.0212373038, 6579303.80424746], [304600.0, 6579315.0], [304667.4517517877, 6579218.347170189], [304635.56891025644, 6579109.799679487], [304600.0, 6579145.0], [304502.5, 6579091.25], [304427.3372925511, 6579182.580414459], [304341.7320091148, 6579105.024724231], [304082.5459865882, 6579093.601615602], [303928.89021892124, 6579148.920023613], [303882.531525797, 6579035.281280644], [303823.8529736482, 6579133.30283819], [303725.63087060145, 6579058.173279125], [303769.48318640573, 6578982.236721439], [303694.79542338656, 6578825.298229559], [303719.48175948975, 6578665.777652458], [303607.0833333333, 6578532.083333333], [303543.03973514936, 6578623.490182483], [303457.5334168755, 6578667.967836257], [303442.63157894736, 6578771.842105263], [303379.8481911415, 6578856.687604845], [303337.03853955376, 6578753.904665315], [303240.0, 6578795.0], [303198.75, 6578753.75], [303080.0, 6578795.0], [303007.2192227303, 6578653.2553089615], [303134.9370205817, 6578357.49005282], [303216.6666666667, 6578091.666666667], [303174.5171132978, 6577992.292026903], [303081.7226528854, 6578050.805340224], [303003.8697708077, 6577858.1037324015], [303019.0, 6577676.0], [303073.8945306136, 6577621.105469386], [303068.5305483789, 6577517.231579188], [303109.8969072165, 6577545.0], [303152.0588235294, 6577516.470588235], [303171.3646256164, 6577542.577679822], [303292.78501628665, 6577432.768729642], [303260.7268722467, 6577344.36123348], [303340.78425887023, 6577270.265853619], [303410.0, 6577335.0], [303510.49534730706, 6577227.627314597], [303562.121898928, 6577237.339846861], [303564.89361702127, 6577353.29787234], [303600.0, 6577365.0], [303632.85714285716, 6577295.0], [303706.14492444403, 6577333.946101999], [303811.5255792416, 6577293.474420758], [303802.68830087344, 6577249.233774345], [304154.9658773978, 6576848.585108684], [304170.9724817021, 6576755.762357958], [304343.4689422204, 6576738.750307603], [304396.05527938827, 6576552.696692157], [304350.0, 6576525.0], [304383.3821571238, 6576449.181091878], [304276.92898374295, 6576359.29072701], [304211.46485431324, 6576091.218789567], [304128.24324324325, 6576084.864864865], [304084.20157206577, 6576012.810204666], [304041.00950118765, 6576043.479184899], [304116.92918091576, 6575861.6277812645], [304080.4374577293, 6575848.694495519], [303915.3387437653, 6575919.432834559], [303837.3800192265, 6575826.322931302], [303879.7641526087, 6575793.993729565], [303875.0, 6575676.666666667], [303794.3243243243, 6575670.405405405], [303770.0, 6575715.0], [303648.7959051024, 6575641.1537211565], [303703.3657707754, 6575592.548656163], [303644.49285142234, 6575521.562927421], [303519.25473427, 6575544.700671961], [303490.04596191726, 6575597.009192384], [303430.0, 6575605.0], [303444.8588911046, 6575521.52238252], [303409.22328177147, 6575459.274770482], [303499.578245614, 6575443.591578947], [303545.0, 6575380.0], [303497.6124429248, 6575284.996179318], [303651.5789473684, 6575195.0], [303806.60941296496, 6575047.57547689], [303850.7180972849, 6574919.76638306], [303793.9140065511, 6574879.557990256], [303969.8509926693, 6574724.850992669], [304000.0, 6574755.0], [304064.49275362317, 6574703.405797102], [304155.9233173473, 6574762.370879928], [304390.1556101556, 6574655.155610155], [304430.0, 6574695.0], [304488.75, 6574652.5], [304519.2615083252, 6574702.459353575], [304667.64379359473, 6574646.350102718], [304724.26627382153, 6574713.135958037], [304859.12702494866, 6574698.378376828], [304973.75, 6574757.5], [304876.7717298339, 6574853.2091677105], [305010.8792044022, 6574935.082055513], [305154.9824360707, 6574779.078691642], [305270.950642653, 6574773.818189744], [305332.10643933126, 6574828.553219666], [305455.1083038397, 6574746.228430225], [305530.0, 6574815.0], [305643.24600984744, 6574773.1128180185], [305698.63770940923, 6574833.280727484], [305776.1519130147, 6574759.221114251], [305850.0, 6574835.0], [305899.28571428574, 6574821.428571428], [305936.5230902672, 6574885.785741613], [306094.0440172608, 6574942.330655985], [306268.2081807457, 6574883.153431427], [306279.64169095655, 6574971.650911424], [306452.9207920792, 6574929.108910891], [306394.1726844584, 6575017.042386185], [306465.0, 6575080.0], [306379.5135135135, 6575157.810810811], [306392.46062189434, 6575333.541797209], [306584.6395749163, 6575362.081646021], [306661.02961918194, 6575458.624823695], [306652.7272727273, 6575507.7272727275], [306685.0, 6575540.0], [306567.2636431921, 6575552.59890318], [306602.05407883594, 6575693.496858801], [306668.75, 6575753.75], [306595.1430016355, 6575831.707347141], [306623.59375, 6575913.90625], [306690.0, 6575895.0], [306818.5694789345, 6575987.535815659], [306766.3397790055, 6576048.660220995], [306816.90534855495, 6576151.345357421], [306708.96586313227, 6576277.111147508], [306936.16968969937, 6576389.31196974], [306925.0, 6576453.333333333], [306794.77134903916, 6576446.744831817], [306816.87268689857, 6576535.618060696], [306747.8971962617, 6576581.214953271], [306795.0, 6576600.0], [306785.68783200136, 6576711.111105594], [306710.67572732904, 6576681.890567508], [306471.1138657965, 6576893.056932898], [306505.0, 6576910.0], [306466.0, 6576932.0], [306499.7873536852, 6577025.305778683], [306309.8318959912, 6577007.09443945], [306213.4917476695, 6577102.251977742], [306149.28571428574, 6577231.428571428], [306190.0791974657, 6577292.618796199], [306154.57021071535, 6577373.794706732], [306547.95198609657, 6577709.221289905], [306634.02755267423, 6577900.761750405], [306606.0, 6577943.0], [306627.36626506026, 6578069.990361446], [306689.58562671253, 6578103.516929274], [306721.8658321173, 6578164.850625912], [306672.3333333333, 6578202.0], [306632.3056876058, 6578367.553097836], [306725.8660130719, 6578390.114379085], [306735.21218812704, 6578474.681991728], [306845.0, 6578540.0], [306813.6111111111, 6578571.388888889], [306888.0764231869, 6578698.821159345], [306955.29411764705, 6578678.137254902], [307057.45002309163, 6578760.405423237], [307120.0, 6578725.0], [307072.5, 6578800.0], [306988.2530180912, 6578764.232176198], [306952.26077018015, 6578803.913716647], [306873.9830823573, 6578981.521348454], [307046.5729704909, 6579064.627964512], [307092.25938917673, 6579307.047210298], [307046.0244636518, 6579333.381308844], [307051.01315462723, 6579432.605736389], [306928.63497267757, 6579556.4408014575], [307086.27450963465, 6579608.931890015], [307081.2, 6579653.0], [307351.2206534921, 6579818.956799303], [307162.2368249239, 6579986.400647602], [307041.4771830686, 6580183.6254540915], [307093.4210526316, 6580277.368421053], [307064.70407607616, 6580303.75613084], [307219.13632133877, 6580781.884969491], [307147.81150852353, 6580839.156543007], [307127.5, 6580927.5], [307053.64178383374, 6580881.920758311], [307038.37078651687, 6580981.573033708], [307086.0491643263, 6581067.850664063], [307168.125, 6581087.708333333], [307145.0, 6581160.0], [307179.28571428574, 6581195.714285715], [307054.20505777135, 6581283.696544539], [306854.7036438817, 6581221.362657307], [306698.49089577526, 6581528.642181042], [306765.77907785523, 6581540.236327896], [306919.06810990593, 6581688.252706073], [306910.0, 6581825.0], [306983.3714285714, 6581776.085714285], [307042.57386902877, 6581822.281240114], [307168.3333333333, 6581823.333333333], [307115.0, 6581860.0], [307210.73040523863, 6581952.256766099], [307195.92390927376, 6582008.925573975], [307273.03118733846, 6582152.063463265], [307416.1403508772, 6582172.01754386], [307557.5167785235, 6582299.161073825], [307602.40640769864, 6582284.1978641], [307848.17149997, 6582542.772662831], [307821.0847880299, 6582578.678304239], [307815.0, 6582680.0], [307721.1828596313, 6582749.7779552555], [307872.85087307077, 6582836.3620037995], [307976.5272701943, 6582803.708392524], [308003.79377431906, 6582953.968871595], [307847.66213946586, 6583113.617963079], [307752.1377857342, 6583166.016433088], [307701.3902576278, 6583130.173594151], [307586.0, 6583189.0], [307520.51505973976, 6583138.670962944], [307317.55026964814, 6583332.411945257], [307375.31700288184, 6583454.409221902], [307407.85714285716, 6583395.714285715], [307602.2653312218, 6583588.371314125], [307609.2926883089, 6583660.872221882], [307690.54682794446, 6583679.080072104], [307754.53843195626, 6583793.316690748], [307735.6787979213, 6583858.130012976], [307774.38472960494, 6583936.258074507], [307695.10985846835, 6584054.787437117], [307760.7461024499, 6584125.7461024495], [307664.8414958645, 6584220.257959498], [307844.8377562984, 6584380.5510466], [307846.6666666667, 6584505.0], [307880.0, 6584555.0], [307928.0256111758, 6584520.072282781], [308025.5291629194, 6584586.179086001], [308026.67763157893, 6584714.046052632], [307982.52992156544, 6584704.096525164], [307940.0, 6584745.0], [307896.1182876641, 6584674.504698795], [307734.6234822237, 6584770.251157267], [307651.3157894737, 6584666.842105263], [307621.0, 6584682.0], [307645.0, 6584720.0], [307589.4488711819, 6584744.342629482], [307530.0, 6584855.0], [307501.75054704596, 6584825.875273523], [307409.1033598752, 6584897.819178645], [307508.57268230413, 6585079.572363172], [307451.48071750894, 6585177.6788047], [307558.82035928144, 6585304.86227545], [307398.13898348366, 6585535.296422423], [307451.6666666667, 6585606.666666667], [307340.29411764705, 6585704.117647059], [307405.0, 6585767.2727272725], [307400.7444186525, 6585858.576287994], [307519.33983794565, 6585789.268181123], [307612.85714285716, 6585843.571428572], [307595.54667153955, 6585953.937539709], [307469.89390149567, 6586094.058250519], [307559.5047443238, 6586267.635703276], [307546.6373836385, 6586440.711834453], [307613.1752394237, 6586525.8470365945], [307586.00790924457, 6586724.581760971], [307655.0, 6586790.0], [307611.52265542676, 6586893.656480506], [307528.23529411765, 6586836.176470588], [307432.2565459217, 6586903.537480632], [307402.7622773053, 6587136.604928215], [307262.0, 6587217.0], [307213.38870431896, 6587200.348837209], [307190.0, 6587245.0], [307148.3333333333, 6587216.666666667], [307101.94444444444, 6587243.531746032], [307038.80597014923, 6587198.432835821], [307065.1583758278, 6587042.926408667], [307000.0, 6586995.0], [306970.81196581194, 6587024.188034188], [306912.2727272727, 6586976.363636363], [306885.0, 6586990.0], [306915.0, 6587020.0], [306926.05881708354, 6587193.543270417], [306830.0, 6587255.0], [306777.56529719045, 6587237.9740223065], [306766.26662444585, 6587173.255224826], [306730.0, 6587155.0], [306657.65643270744, 6587222.505138895], [306812.8111933274, 6587754.455365367], [306863.39650248457, 6588068.488629422], [306797.6261095475, 6588251.365615453], [306866.5789473684, 6588332.105263158], [306815.0, 6588465.918367347], [306844.72810243274, 6588510.348776364], [306766.49007612036, 6588637.2631613985], [306710.5976047948, 6588675.4257155135], [306817.859311535, 6588767.931452084], [306759.5887816835, 6588912.009828114], [306850.667752443, 6588945.667752443], [306853.94391053874, 6589000.142318643], [306885.0, 6589020.0], [306885.0, 6589135.737704918], [306931.92307692306, 6589145.384615385], [307062.0459793907, 6589386.820223206], [307115.6973260746, 6589685.107572881], [307186.466139268, 6589664.0732852295], [307281.90580904763, 6589549.749053698], [307327.65625, 6589582.65625], [307364.5, 6589555.5], [307460.46968610556, 6589679.687091231], [307445.2863676824, 6589841.343304332], [307635.2426257312, 6589930.93296153], [307580.0, 6590015.0], [307638.84344228863, 6589992.801083727], [307657.5, 6590097.5], [307746.7683884901, 6590118.9472626215], [307781.87348854926, 6590356.781251283], [307896.3374559135, 6590456.097904226], [307876.9851855558, 6590639.4769611405], [307995.2209812018, 6590853.795718221], [307996.92307692306, 6591009.615384615], [308020.0, 6590995.0], [307977.25467617007, 6591184.449127863], [308055.10273715784, 6591192.224221972], [308137.85647939384, 6591336.280650909], [308232.9702771518, 6591337.725668431], [308220.5214095782, 6591265.7528788345], [308258.06680499774, 6591236.872600838], [308439.26157729176, 6591391.887125411], [308438.96475770924, 6591631.982378854], [308527.8354649117, 6591772.995198413], [308483.6711361378, 6591963.725279281], [308605.0, 6592060.0], [308590.843902439, 6592102.468292683], [308682.0909090909, 6592201.454545454], [308622.0303782338, 6592259.375984639], [308681.3554843875, 6592303.362690152], [308719.28571428574, 6592465.714285715], [308681.45645645645, 6592503.543543544], [308727.2641509434, 6592583.396226415], [308659.6180666678, 6592662.78539305], [308746.7957826181, 6592836.849483686], [308735.0, 6592890.0], [308866.99136535346, 6592926.567728009], [308871.82677327906, 6593016.055710662], [308933.91154104745, 6593057.777663038], [308896.25981441827, 6593121.259814418], [308846.5267175573, 6593125.0], [308856.1194029851, 6593046.791044776], [308796.1918702158, 6593057.586749219], [308777.7965672603, 6593411.99132953], [308694.14634146343, 6593505.243902439], [308558.2342564298, 6593504.825733986], [308323.66008308675, 6593698.302270772], [308205.15340965835, 6593743.808987818], [308100.7419551996, 6593817.035503585], [308035.0, 6593787.2727272725], [307940.0, 6593835.0], [307871.010089794, 6593706.122757927], [307810.9892459214, 6593729.849589228], [307546.52333269734, 6593308.047311038], [307383.42285626737, 6592988.85034073], [307342.9454022989, 6593013.922413793], [307287.5, 6592942.5], [307290.0262299177, 6593024.957282705], [307200.0, 6593085.0], [307128.34437086096, 6593013.344370861], [307059.7457562421, 6593008.496844471], [306995.0, 6593080.0], [307055.0, 6593190.0], [307013.57764876634, 6593232.1335268505], [306947.0399487991, 6593194.502742398], [306920.5754114367, 6593232.213332643], [306979.6601627769, 6593395.79295352], [307040.4151624549, 6593477.292418772], [306941.5105374858, 6593485.11475248], [306871.7482517483, 6593387.447552447], [306802.1506682868, 6593445.0], [306589.6885814595, 6593197.9841306675], [306527.2727272727, 6593243.181818182], [306459.62026858033, 6593201.778788566], [306379.6469355247, 6593194.646935524], [306276.0932726034, 6592944.177037155], [306179.91978609626, 6592863.689839573], [306112.7301365448, 6592735.780482254], [306015.7320383741, 6592817.840676756], [306073.9366152535, 6592902.06948467], [306098.3333333333, 6593040.0], [306055.4372623574, 6593030.171102662], [306022.9918172881, 6593154.614768063], [306204.92425425583, 6593336.972512885], [306272.88144600147, 6593319.768119922], [306393.6970343846, 6593429.715469926], [306401.77745009074, 6593490.924455536], [306278.3537226682, 6593482.050449373], [306308.6781609195, 6593649.597701149], [306478.90540165716, 6593829.539561399], [306467.64784946234, 6593880.268817204], [306569.0825882649, 6594012.049548297], [306412.32365145226, 6594093.340248963], [306356.7823807068, 6594082.904746532], [306245.0, 6594200.0], [306341.85638946417, 6594277.99878298], [306375.0, 6594410.0], [306346.26620149094, 6594430.085567254], [306457.5742127577, 6594668.103288937], [306485.04366812226, 6594783.100436681], [306425.3363518758, 6594829.831824062], [306422.96858975076, 6594886.416276339], [306490.5763345801, 6594956.868412104], [306441.84210526315, 6595024.736842105], [306479.9355781775, 6595054.73598004], [306467.3296703297, 6595090.857142857], [306571.9322567136, 6595492.6139922775], [306548.6901524173, 6595553.900681743], [306561.9696969697, 6595740.454545454], [306617.7586206897, 6595824.137931035], [306574.7791981406, 6595877.7919814065], [306585.0, 6596090.0], [306538.8960989638, 6596181.363653626], [306573.48188346677, 6596269.983782052], [306483.14990873507, 6596452.626748574], [306545.0, 6596530.0], [306519.6965138454, 6596674.452786025], [306448.38433843385, 6596721.332133213], [306461.8583706098, 6596858.91216636], [306331.21491391177, 6596896.111811183], [306138.94095247856, 6597074.582906479], [306215.0, 6597213.333333333], [306018.16725392366, 6597085.254863275], [305890.1015222114, 6597198.86450169], [305872.65110941086, 6597359.47972456], [305785.0, 6597430.0], [305813.56632125797, 6597640.931951699], [305880.75788780226, 6597642.07137124], [305931.2709481234, 6597804.060538275], [305856.35135135136, 6597861.3513513515], [305753.38349111215, 6597605.181635874], [305613.8456493067, 6597790.577430076], [305500.0, 6597775.0], [305478.5714285714, 6597809.285714285], [305519.6153846154, 6597877.692307692], [305435.0, 6597910.0], [305373.89285714284, 6598020.607142857], [305323.72464393615, 6598006.924902892], [305294.7368421053, 6597888.157894737], [305211.5597362057, 6597846.5988508], [305120.0, 6597925.0]]]}}]}