{"type": "FeatureCollection", "crs": {"type": "name", "properties": {"name": "EPSG:25833"}}, "features": [{"type": "Feature", "properties": {"station": "20.11.0", "name": "Tveitdalen", "series": ["1001.1"], "nodes": 32, "fine_vertices": 34, "fine_area_m2": 3150.0, "reduced_vertices": 4, "reduced_area_m2": 3150.0, "outline_tolerance_m": 20.0, "windows": [[453, 464], [873, 895]], "placed_on": "number", "distance_m": 32.53907611666022, "uncertainty_m": 32.53907611666022, "elvid": "020-65-2694", "objectid": 11639980, "lake": false, "confluence_near": false, "reach_up_m": 611.9062537149575, "reach_down_m": 132.53907611666023, "reach_fork": false, "seeded_by": "river", "lake_rule": null, "lake_number": null, "lake_name": null, "lake_distance_m": null, "node_offset_m": 2.809918378906285, "chain_nodes": 63, "lowered_nodes": 14, "lowered_max_m": 0.6576690673828125, "direction_ok": true, "end_extended_m": 0.0, "end_closed": true, "downstream_checked": "whole", "a0": 0.0032, "area_up": 0.41440000000000005, "area_down": 0.4439, "swing": 137.71875, "largest_step": 0.4152, "largest_step_at_m": 10.0, "checked_up_m": 24.14213562373095, "checked_down_m": 20.0, "drains": false, "monotone": false, "causes": ["swing", "chain_not_draining"]}, "geometry": {"type": "Polygon", "coordinates": [[[105175.0, 6491550.0], [105240.0, 6491485.0], [105265.0, 6491510.0], [105204.0, 6491571.0], [105175.0, 6491550.0]]]}}]}