{"type": "FeatureCollection", "crs": {"type": "name", "properties": {"name": "EPSG:25833"}}, "features": [{"type": "Feature", "properties": {"station": "20.2.0", "name": "Austen\u00e5", "series": ["1001.1"], "nodes": 2908825, "fine_vertices": 24194, "fine_area_m2": 290882950.0, "reduced_vertices": 1200, "reduced_area_m2": 290882950.0000005, "outline_tolerance_m": 20.0, "windows": [[501, 429], [1103, 1219], [2302, 2530], [4701, 4929], [9500, 9030]], "placed_on": "number", "distance_m": 15.468342075287776, "uncertainty_m": 30.0, "elvid": "020-65-1", "objectid": 11641750, "lake": false, "confluence_near": false, "reach_up_m": 1000.0, "reach_down_m": 130.0, "reach_fork": false, "seeded_by": "river", "lake_rule": null, "lake_number": null, "lake_name": null, "lake_distance_m": null, "node_offset_m": 2.843443339928126, "chain_nodes": 105, "lowered_nodes": 44, "lowered_max_m": 0.15606689453125, "direction_ok": true, "end_extended_m": 0.0, "end_closed": true, "downstream_checked": "whole", "a0": 290.8825, "area_up": 290.8757, "area_down": 290.8861, "swing": 2.3377136816406498e-05, "largest_step": 290.8821, "largest_step_at_m": 0.0, "checked_up_m": 20.0, "checked_down_m": 24.142135623731065, "drains": false, "monotone": false, "causes": ["chain_not_draining"]}, "geometry": {"type": "Polygon", "coordinates": [[[85550.0, 6580775.0], [85446.78811615438, 6580625.71459267], [85297.096725968, 6580523.94005083], [85271.08695652174, 6580293.9130434785], [85182.24489795919, 6580245.867346939], [85155.45977492258, 6580186.880177202], [85099.27646396396, 6580192.063626126], [85063.02311340334, 6580137.627742136], [84969.31312518343, 6580128.119015524], [84915.6426354334, 6580181.254027788], [84801.47384081628, 6580072.203924781], [84834.06415208674, 6579961.509180619], [84749.13363533409, 6579825.956964892], [84753.89142295867, 6579748.133153033], [84669.82505416371, 6579618.891079192], [84842.51141092228, 6579429.788927647], [84771.35375360273, 6579325.186954755], [84806.44366197183, 6579225.8802816905], [84728.19397570926, 6579243.62223487], [84555.90388661753, 6579135.710790519], [84597.51066796223, 6579018.267363108], [84510.0, 6578965.0], [84354.74734899958, 6579016.477015141], [84237.91420772923, 6578958.16203582], [84107.99267019254, 6578793.58881654], [84028.6128949849, 6578906.919800558], [83935.40084388186, 6578871.286919831], [83870.0, 6578955.0], [83822.97062877497, 6578940.093856014], [83802.54385964913, 6579021.228070175], [83610.79566854991, 6579015.79566855], [83550.0, 6578955.0], [83342.79569892473, 6579059.086021505], [83268.70254590463, 6579124.135321774], [83001.22807017544, 6578919.385964912], [82958.18889353494, 6578950.905553233], [82636.32851701946, 6578701.32851702], [82606.89698409259, 6578705.106116937], [82270.0, 6578485.0], [82188.50024988016, 6578507.076614939], [82091.51885749679, 6578427.257019156], [82073.83843734812, 6578450.80427045], [81838.57069408741, 6578449.0], [81585.05958314419, 6578271.5216881875], [81382.22556839178, 6578224.525484259], [81165.39215686274, 6578279.31372549], [81088.35051546391, 6578217.680412371], [81125.0, 6578150.0], [80976.77222898904, 6578079.043848964], [80923.33333333333, 6578108.333333333], [80885.0, 6578070.0], [80932.34209847898, 6577985.016756896], [81001.75675675676, 6577984.864864865], [81035.12415349887, 6577925.0], [81090.0, 6577925.0], [81187.83050847458, 6578009.610169492], [81240.0, 6577975.0], [81314.43444730078, 6578000.501285347], [81430.0, 6577895.0], [81662.98151986946, 6577981.131081021], [81876.28532828759, 6577915.500331417], [82046.66666666667, 6578028.333333333], [82145.6144895566, 6577852.5649101], [82124.4499178982, 6577793.045977011], [82000.0, 6577785.0], [81907.5, 6577692.5], [81788.5, 6577673.5], [81671.78990457651, 6577562.311092657], [81675.0, 6577506.0], [81579.64249190917, 6577520.668024031], [81455.10541621229, 6577457.579062159], [81445.96808683506, 6577377.789330748], [81324.56521739131, 6577251.304347826], [81373.45704126824, 6577176.915293933], [81333.57894736843, 6577150.263157895], [81408.17312938489, 6577077.44725305], [81500.0, 6577095.0], [81579.48428013633, 6577165.776973946], [81629.14403400065, 6577040.52466268], [81681.28803590393, 6577007.889173455], [81704.83870967742, 6576925.322580645], [81621.07585358933, 6576906.945048709], [81535.0, 6576806.666666667], [81553.15267922681, 6576720.829459261], [81699.25925925926, 6576556.481481481], [81783.06873184898, 6576567.381413359], [81749.05307475485, 6576506.285328128], [81820.68237190525, 6576437.283428808], [81888.77129581827, 6576445.0], [81982.78149441445, 6576341.9631856], [82125.26775846479, 6576284.470511404], [82286.17353075661, 6576380.817266116], [82600.0, 6576325.0], [82666.0087331091, 6576404.210479731], [82837.87210584345, 6576236.753031974], [82897.63685138147, 6576292.271914364], [82840.5878303501, 6576171.988420823], [82753.18862673154, 6576196.848058068], [82744.28571428571, 6576085.0], [82617.41725822809, 6576122.84272149], [82492.94994104406, 6576018.879301104], [82403.33940652746, 6576024.24659771], [82345.0, 6575900.0], [82469.1847826087, 6575775.815217392], [82282.16442384498, 6575739.421087245], [82064.50965001379, 6575462.72168869], [82162.66666666667, 6575187.666666667], [82089.08486200747, 6575107.1449498655], [81861.15170143341, 6575074.542919876], [81792.0275716536, 6575018.12732944], [81694.16355489171, 6574991.070094953], [81643.42604393832, 6574873.94321699], [81658.90744650058, 6574744.1591227455], [81809.0246799165, 6574789.60102174], [81875.11837609175, 6574702.040691264], [81841.27565851477, 6574544.383169666], [81745.81246871865, 6574534.634728297], [81685.04192590508, 6574243.279686717], [81704.61538461539, 6574118.076923077], [81665.97549814389, 6574094.697113489], [81622.5, 6574217.5], [81557.14285714286, 6574152.142857143], [81530.0, 6574195.0], [81466.69141531322, 6574134.535962877], [81361.10927810876, 6574206.879142746], [81317.58307858801, 6574182.597998386], [81277.94097693803, 6574091.270309046], [81241.59141044316, 6574149.148893503], [81051.68658571565, 6574020.058801033], [80996.48648648648, 6574053.6486486485], [80960.0, 6574005.0], [80926.73901136519, 6574081.147473641], [80776.23561198093, 6574019.212168956], [80721.69699518122, 6574136.765628199], [80554.8013961114, 6574040.394844044], [80380.55715673682, 6574234.5929682655], [80445.0, 6574330.0], [80431.96612665684, 6574442.091310751], [80286.10417283341, 6574474.491712789], [80235.16129032258, 6574435.9677419355], [80109.23765660646, 6574445.374971671], [79999.92111503889, 6574723.707326634], [79942.0, 6574661.8], [79899.78953784207, 6574717.532295117], [79667.66152920303, 6574415.85963413], [79538.97637725306, 6574456.680117953], [79438.67295597485, 6574376.327044025], [79382.5, 6574432.5], [79327.98764609658, 6574378.193430747], [79389.06420172876, 6574133.845370456], [79309.59918675573, 6574051.450769678], [79160.0, 6574055.0], [79112.5, 6574007.5], [79050.0, 6574025.0], [78963.31251816626, 6573817.573612972], [78912.28013331664, 6573739.120932761], [78808.24947589099, 6573774.129979036], [78797.2413879514, 6573713.034256113], [78642.50630782169, 6573605.916736754], [78516.15384615384, 6573644.230769231], [78502.93173979624, 6573609.894775661], [78555.0, 6573490.0], [78648.64836813792, 6573436.032443935], [78554.62900505902, 6573344.435075886], [78586.66235539755, 6573251.30186924], [78729.4271262751, 6573265.735895394], [78900.74983914742, 6572979.896279101], [78960.45454545454, 6572822.121212121], [78682.6001377245, 6572789.141032178], [78600.0, 6572695.0], [78526.30769230769, 6572681.769230769], [78531.82997606364, 6572598.351779803], [78682.43508478874, 6572376.439544214], [78802.98184492654, 6572300.321229951], [78886.71368124119, 6572356.14245416], [78860.15809051457, 6572504.736515809], [79062.54923919783, 6572681.832580422], [79383.62441991914, 6572340.3471216215], [79352.96214209893, 6572164.299637818], [79290.0, 6572215.0], [79187.66402422992, 6572053.5192777775], [79319.80755164642, 6571986.127912203], [79286.28221888481, 6571921.063184238], [79373.25254343214, 6571821.509830917], [79262.50743590627, 6571751.445027201], [79129.92075432112, 6571722.140272754], [78975.28425466975, 6571524.845428372], [79074.58165534651, 6571368.983590792], [78985.0, 6571216.666666667], [79109.00921658987, 6571242.488479262], [79215.0, 6571110.0], [79165.58823529411, 6571048.235294118], [79204.8795180723, 6570960.120481928], [79365.0, 6570800.0], [79376.42857142857, 6570720.580847723], [79449.84460694698, 6570660.073126143], [79659.37113029772, 6570613.72545986], [79707.36948198166, 6570436.5393825695], [79868.75, 6570303.75], [79905.70348205873, 6570317.962877715], [80107.22079767956, 6570188.826139698], [80233.61641221374, 6570212.433206107], [80316.44922946757, 6570050.747339034], [80466.06403565395, 6569930.839472392], [80640.62867658462, 6569915.650904091], [80778.65715041617, 6569790.337990222], [80876.45504374827, 6569766.230918718], [80921.62483565889, 6569845.0], [81028.10271484272, 6569906.765051501], [81031.0319097895, 6570079.116243536], [81213.49869959956, 6570268.699838846], [81230.0, 6570235.0], [81260.44734319727, 6570265.447343198], [81453.72278757961, 6570156.093694038], [81555.0, 6570200.0], [81531.56357388316, 6570305.4639175255], [81623.12577504618, 6570387.964057921], [81650.41035330886, 6570597.324471711], [81703.36555575594, 6570641.703412334], [81900.0, 6570445.0], [81981.95253212257, 6570533.365946813], [82081.29596005447, 6570476.295960055], [82044.75414174981, 6570439.75414175], [82205.23485161671, 6570191.188746071], [82375.35471331389, 6570077.7696793005], [82393.56476744753, 6570099.52281136], [82308.08081834741, 6570361.467151839], [82355.72796934866, 6570461.954022989], [82313.49746881201, 6570493.626898391], [82346.2796642503, 6570592.000763068], [82451.84210526316, 6570575.263157895], [82504.7059497441, 6570673.739861165], [82840.00657163879, 6570735.013143278], [82851.2048192771, 6570757.409638554], [82904.92295414083, 6570748.363619621], [82940.0, 6570845.0], [83157.39556679441, 6570787.267893769], [83230.151011159, 6570645.112765864], [83380.0, 6570535.0], [83412.47768730835, 6570577.4626508085], [83655.07444576352, 6570528.117399471], [83673.20173891114, 6570557.806060125], [83905.0, 6570390.0], [83888.62068965517, 6570352.586206896], [83990.70928817532, 6570322.691620755], [84023.70689655172, 6570267.844827586], [83945.0, 6570170.0], [84082.96006257013, 6570055.769925264], [84160.53473854819, 6570030.775649718], [84286.45596328941, 6569916.231815648], [84552.74652497463, 6569941.054017679], [84653.92166467477, 6569817.715764972], [84745.17622190587, 6569802.463439886], [84855.77986424058, 6569844.704703219], [84796.53805992634, 6569595.85682176], [84968.76431518888, 6569451.075668675], [84901.82692307692, 6569298.365384615], [84990.0, 6569185.0], [85056.31503915442, 6569198.263007831], [85143.25888411363, 6569048.660408594], [85295.1282051282, 6568950.897435897], [85286.94237617352, 6568892.185173195], [85187.23896310614, 6568780.018833495], [85355.57755566484, 6568585.4631618615], [85470.1947308133, 6568620.6471935855], [85512.75590551182, 6568677.755905512], [85544.77453044734, 6568636.465083136], [85575.73508162568, 6568454.943070896], [85368.48495687018, 6568226.51504313], [85341.61995429777, 6568253.380045703], [85263.44739438132, 6568158.092529205], [85450.35551601557, 6567893.655297414], [85616.17164165789, 6567809.039752351], [85799.96588429042, 6567986.555736448], [86055.4531128165, 6567666.9134851545], [86328.68143253442, 6567838.478585608], [86500.00015688121, 6567840.400298362], [86742.62886743089, 6567999.809407336], [86892.5, 6567862.5], [86875.0, 6567800.0], [86953.95878238684, 6567646.412467135], [86800.71428571429, 6567434.285714285], [86940.9574468085, 6567305.957446809], [86931.18728665682, 6567195.01557023], [86879.48474128544, 6567141.216724759], [86811.09751139191, 6567124.16475081], [86745.0, 6566750.0], [86706.83603964253, 6566737.263154065], [86685.0794044665, 6566519.8808933], [86765.0, 6566480.0], [86666.3740902077, 6566297.3821986355], [86595.2024322593, 6566271.794310717], [86530.94519379662, 6566174.467561941], [86346.74140152146, 6566032.401874151], [86305.0, 6565820.0], [86194.62383509064, 6565613.915177213], [86452.7797833935, 6565577.02166065], [86498.48455965791, 6565610.261497933], [86730.54984633978, 6565547.53538337], [86885.67656765676, 6565555.396039604], [86906.00191617451, 6565621.915362026], [87161.98013018866, 6565565.86860921], [87159.42489719082, 6565331.530937982], [87081.5811965812, 6565243.418803419], [87155.0, 6565170.0], [87115.0, 6565100.0], [87165.32730825599, 6564974.399934864], [87105.93023255814, 6564878.604651162], [87135.42189281642, 6564822.109464082], [87119.33333333333, 6564741.666666667], [87066.65718256451, 6564754.787934178], [86905.8523438252, 6564639.739842354], [86925.0, 6564480.0], [86887.5, 6564457.5], [86850.0, 6564495.0], [86736.16945532218, 6564384.583481666], [86713.1944088583, 6564286.361118228], [86752.14285714286, 6564278.571428572], [86655.16738845165, 6564250.002885417], [86647.3442004992, 6564176.401939782], [86735.0, 6564110.0], [86721.66666666667, 6564063.333333333], [86818.69198177975, 6564004.352808129], [86997.26719621614, 6564160.167006607], [87170.0, 6564155.0], [87241.6327969661, 6564097.96695548], [87230.4125138681, 6564025.927174924], [87418.60320401026, 6563882.83204904], [87540.02609302067, 6563894.796281049], [87540.5867100244, 6563693.539435524], [87584.45578231293, 6563647.210884354], [87551.29298317604, 6563510.910135413], [87630.19738373262, 6563346.404103247], [87738.27251474485, 6563340.71741873], [87835.0, 6563260.0], [87775.79933388843, 6563184.3880099915], [87825.0, 6563080.0], [87782.14285714286, 6563052.857142857], [87846.90240452616, 6562980.968882603], [88084.17118997913, 6562980.828810021], [88128.33333333333, 6562936.666666667], [88115.0, 6562860.0], [88187.17391304347, 6562823.9130434785], [87767.94809828344, 6562508.75812511], [87733.65797137699, 6562290.577308629], [87657.04545454546, 6562275.075757576], [87645.0, 6562343.333333333], [87539.03314832509, 6562317.134878204], [87512.95665634675, 6562259.659442725], [87447.26195949459, 6562337.626831446], [87333.57142857143, 6562308.571428572], [87225.0, 6562340.0], [87256.53846153847, 6562322.307692308], [87196.17174426068, 6562103.692193183], [87014.11582120843, 6562121.936413686], [87044.89807976941, 6561960.0977400355], [86985.0, 6561900.0], [87229.59414930266, 6561847.794849818], [87398.04782769801, 6561653.5112749385], [87438.18987894242, 6561702.339030161], [87488.94322116826, 6561656.486548258], [87637.96726177074, 6561662.466434603], [87737.78210116731, 6561592.782101167], [87770.0, 6561625.0], [87932.90655350301, 6561400.597512519], [87933.83798246036, 6561219.02503124], [88082.8656270364, 6561189.518866189], [88105.0, 6561090.0], [88151.82948179677, 6561064.390172735], [88167.7566932954, 6560972.022507136], [88213.17483550841, 6560968.022028332], [88313.09523809524, 6560832.380952381], [88276.89047261815, 6560697.569392348], [88345.0, 6560610.0], [88320.83482101212, 6560390.09687121], [88358.71763653998, 6560323.715359992], [88328.89437151513, 6560278.850728354], [88465.0, 6560131.836115326], [88416.5676363385, 6560002.1360256225], [88553.49446898172, 6559938.316179748], [88639.56784092187, 6559805.107720955], [88744.10267023675, 6559739.72731089], [88649.28571428571, 6559634.285714285], [88615.0, 6559530.0], [88652.63741562198, 6559482.179363549], [88584.35493449133, 6559290.645065509], [88769.2676409141, 6559098.055997494], [88743.98742342238, 6558931.760108644], [88936.46960843804, 6558755.287696269], [89016.8323217942, 6558592.850224093], [89055.76241739166, 6558289.947004615], [89142.0731707317, 6558206.585365853], [89200.0, 6558195.0], [89299.11764705883, 6558102.94117647], [89327.55060474752, 6558108.400069462], [89525.21126760563, 6557999.788732395], [89364.87736559198, 6557846.311177932], [89416.73469387754, 6557813.979591837], [89352.48463166603, 6557739.422093438], [89363.10973762386, 6557666.533866567], [89141.01743385785, 6557673.720479688], [89037.10609384092, 6557584.040386212], [88917.21518987342, 6557651.582278481], [88870.0, 6557745.0], [88797.35294117648, 6557730.588235294], [88734.83612522265, 6557838.5835522255], [88540.0, 6557965.0], [88507.95131204552, 6557922.268416061], [88535.0, 6557884.084507043], [88367.66846354153, 6557802.980697662], [88426.18226040364, 6557712.15659769], [88381.75128713422, 6557517.331481378], [88295.0, 6557445.534591195], [88318.39683685727, 6557408.820248437], [88196.66666666667, 6557281.666666667], [88092.86798954882, 6557318.958358383], [87981.21951219512, 6557295.0], [87977.14285714286, 6557236.428571428], [87916.52487785419, 6557269.726561601], [87765.5300305618, 6557214.16966382], [87732.09556217941, 6556775.969146224], [87624.46464077944, 6556668.244745595], [87727.28633440257, 6556451.712652438], [87824.33496820022, 6556436.09355988], [87908.125, 6556286.875], [88116.74131500383, 6556288.8341476545], [88219.25703216433, 6556168.214819], [88190.707210855, 6556001.004904189], [88296.36106112257, 6555893.967879942], [88108.0303030303, 6555662.424242424], [88134.99050736253, 6555516.240076891], [88193.37271576741, 6555417.644336878], [88169.08030061018, 6555382.478540156], [88250.07936507936, 6555194.761904762], [88616.8415771687, 6554823.968676258], [88684.21560953348, 6554831.373713203], [88865.0, 6554720.0], [88801.85649302378, 6554636.46174845], [88638.41557738921, 6554571.484875925], [88511.86170212766, 6554621.483451537], [88410.35514235783, 6554535.482601033], [88332.8, 6554567.4], [88272.67418792457, 6554507.65715488], [88175.26315789473, 6554578.157894737], [88143.537882296, 6554523.779776471], [88254.25886097376, 6554412.863275643], [88208.8476127437, 6554278.203183008], [88360.59633616469, 6554055.30237074], [88295.8923330628, 6553952.5417367965], [88167.56558404316, 6553979.144805319], [88151.27932351337, 6553898.9634479], [88201.46895172611, 6553801.816511855], [88215.0, 6553646.666666667], [88052.30889591188, 6553624.976720218], [87958.63593322189, 6553647.9134987565], [87875.0, 6553520.0], [87951.16179200544, 6553406.006206737], [87930.29846621069, 6553264.70153379], [88040.62530455683, 6552877.974784409], [88255.6539261463, 6552778.015656329], [88333.77560805621, 6552819.389795225], [88388.49196538937, 6552779.245982694], [88442.14025645085, 6552802.959926728], [88540.0, 6552775.0], [88570.0, 6552815.0], [88715.78947368421, 6552770.7894736845], [88749.0, 6552804.0], [88721.0, 6552876.0], [88866.4375, 6553021.4375], [89001.2532793898, 6553000.337038402], [89065.24463326443, 6553111.230043733], [89192.5, 6553057.5], [89235.618299007, 6553095.467709992], [89420.23094388536, 6552976.004113918], [89465.0, 6552880.0], [89439.29470508685, 6552819.68012067], [89583.10720679413, 6552739.896651931], [89887.35924271803, 6552802.359242718], [89923.79310344828, 6552838.793103448], [90072.04557985664, 6552826.029222569], [90112.22222222222, 6552877.222222222], [90406.21891462294, 6552861.226534552], [90555.38461538461, 6552919.615384615], [90605.0, 6552870.0], [90458.33333333334, 6552753.333333333], [90441.67567567568, 6552673.837837838], [90532.10530602276, 6552674.41055812], [90624.69838360274, 6552572.122979503], [90625.86313455904, 6552435.300150874], [90600.78343027637, 6552388.179078388], [90673.90625, 6552365.15625], [90725.01558667088, 6552279.974022215], [90911.63888788264, 6552167.4738438595], [90908.83509467008, 6552033.193659187], [90942.16589411093, 6551975.854634483], [90872.83491045593, 6551850.339798233], [90770.0, 6551865.0], [90749.47214393156, 6551826.783898232], [91417.82357685633, 6551678.773880916], [91527.64705882352, 6551559.705882353], [91759.01560943208, 6551485.460843573], [91810.40404040404, 6551492.111111111], [91845.0, 6551450.0], [91796.26279639314, 6551367.906886721], [91958.55845866632, 6551195.944060465], [92072.18908398504, 6551285.132275077], [92178.65938402335, 6551200.1974325515], [92418.74819786531, 6551163.44822573], [92600.0, 6550965.0], [92656.2893641738, 6550976.798039683], [92711.3302002452, 6550828.348998774], [92655.35256410256, 6550754.519230769], [92544.7944173767, 6550811.726140672], [92553.65416938481, 6550603.190767344], [92400.0, 6550541.666666667], [92366.09586633899, 6550552.968044554], [92219.9059849952, 6550457.780023692], [92190.28910529519, 6550504.543517955], [92052.56580669413, 6550495.94079396], [92053.95048071296, 6550368.950480713], [92010.83692799487, 6550325.836927995], [92275.36363870089, 6550062.892115468], [92301.43753000622, 6550072.006804581], [92388.08784684149, 6549975.253805263], [92624.58150446496, 6550128.453912517], [92825.73868431513, 6550023.466142955], [93020.6043956044, 6549993.846153846], [93125.5432555976, 6549894.982243333], [93047.22857142857, 6549833.942857143], [93230.46942326879, 6549625.162044821], [93245.65604875294, 6549363.967518803], [93346.22575663732, 6549297.075252213], [93430.0, 6549325.0], [93719.82737446995, 6549025.80404106], [93815.0, 6548980.0], [93795.0, 6548870.0], [93859.49607616743, 6548799.160047488], [93711.28867205077, 6548571.911742632], [93723.93345817592, 6548345.015108933], [93763.85693050911, 6548215.919732441], [93802.723683414, 6548222.906471076], [94094.98098859315, 6547975.418250951], [94317.89560951533, 6547852.469219642], [94336.01154814621, 6547776.74133889], [94452.53123289435, 6547677.531232894], [94400.0, 6547625.0], [94320.0, 6547645.0], [94246.0655737705, 6547552.540983606], [94371.97338509027, 6547374.747197644], [94630.81576558691, 6547110.226903874], [94765.62392211748, 6547118.502892041], [94884.94065794817, 6546944.19880373], [94981.57530219317, 6546938.3104984965], [95019.44750721662, 6547055.853851482], [95129.77990430623, 6546941.392344497], [95220.74834263118, 6547000.897816645], [95264.071543397, 6546931.487527246], [95214.41218637992, 6546847.429390681], [95279.66937573589, 6546774.14054725], [95442.12678729597, 6546832.873212704], [95496.0, 6546779.0], [95666.00404071403, 6546797.560684741], [95803.23999392842, 6546719.308800036], [95873.32491316697, 6546474.816833631], [95823.00872046078, 6546411.233676051], [95944.67268302909, 6546261.862907504], [95954.86272960735, 6546166.111352589], [96094.94467135273, 6546078.15420914], [96316.57894736843, 6546022.631578947], [96398.97938850897, 6546099.23358514], [96472.49305622635, 6546074.054319823], [96590.554588048, 6546128.598434243], [96761.11111111111, 6546072.777777778], [96786.89445196211, 6546111.123139378], [96864.95308064716, 6546013.548053251], [96742.5, 6545867.5], [96774.80608916274, 6545820.480246466], [96980.0, 6545795.0], [97048.42105263157, 6545851.513157895], [97142.63831359828, 6545803.60399398], [97152.46631278073, 6545723.901592487], [97193.60655737705, 6545784.508196721], [97330.0, 6545795.0], [97366.72231054584, 6545684.870164282], [97327.26890756303, 6545660.420168067], [97365.0, 6545600.0], [97215.58466868775, 6545537.212357442], [97224.8779424756, 6545435.078116816], [97350.0, 6545355.0], [97611.42556644851, 6545423.501322563], [97751.01148734079, 6545345.147203719], [97875.27472527472, 6545388.516483516], [97978.03797126027, 6545307.739126611], [98028.57142857142, 6545206.428571428], [98110.0, 6545195.0], [98281.89584743833, 6545102.44657993], [98489.27703472001, 6545204.792146769], [98607.20567375887, 6545088.353191489], [98639.49640287769, 6545100.323741008], [98847.90448303343, 6544948.224863103], [98822.39077581478, 6544901.707433843], [98826.66666666667, 6544798.333333333], [98788.97781256321, 6544819.869821392], [98594.92527442361, 6544750.381716619], [98437.5, 6544642.5], [98465.0, 6544590.0], [98388.36492890996, 6544529.004739337], [98441.79248608398, 6544472.862367266], [98412.61904761905, 6544437.619047619], [98273.3881177601, 6544551.7578873485], [98157.09324470941, 6544504.613509532], [98038.74928615031, 6544322.565520822], [97844.84092552421, 6544296.341287057], [97870.82114201995, 6544198.48376693], [97768.89689565294, 6544220.93965671], [97725.37029789084, 6544139.8838479165], [97626.0152020561, 6544139.295947941], [97477.02668498161, 6544016.399850063], [97486.17965634205, 6543945.2388177505], [97679.7571158953, 6543891.276759986], [97914.95412844037, 6543891.788990825], [98029.57690713328, 6543800.86742598], [98152.5, 6543860.454545454], [98246.33909853929, 6543785.021984356], [98381.0, 6543778.666666667], [98462.74390132313, 6543942.491627472], [98577.17212424177, 6543831.522250216], [98670.0, 6543805.0], [98738.4083358502, 6543716.591664149], [98791.37004644741, 6543755.008913317], [99007.51770538243, 6543706.17917847], [99075.94806688734, 6543759.907601491], [99277.70747129823, 6543688.427056445], [99310.332564192, 6543633.046336293], [99285.22421731273, 6543561.681342275], [99484.62622810765, 6543529.838388153], [99540.0, 6543585.0], [99705.49754846183, 6543600.794215611], [99762.4847836987, 6543522.157488158], [99905.79951011442, 6543568.5265142955], [99839.41509936328, 6543732.739173667], [99975.15051249748, 6543770.81570562], [100246.57030740954, 6543622.769992317], [100367.20930232559, 6543617.790697674], [100654.7709403775, 6543403.404623678], [100691.44695897006, 6543397.092558458], [101154.0, 6543091.0], [101205.45457094858, 6543112.920621243], [101322.64705882352, 6542943.9215686275], [101245.31629517021, 6542836.194616016], [101459.6986878264, 6542554.922740469], [101588.52642283135, 6542551.0247907145], [101801.78044388781, 6542671.197135522], [101887.43304923782, 6542685.607158932], [101956.43321285711, 6542768.172759999], [102096.561311335, 6542760.472343379], [102185.72093023255, 6542700.5813953485], [102225.55555555556, 6542739.444444444], [102330.0, 6542635.0], [102410.4424778761, 6542657.920353983], [102755.39546844593, 6542949.6045315545], [102627.92397660819, 6543077.076023391], [102721.51417241886, 6543191.177118519], [102754.36791907216, 6543187.260777859], [102835.21944018536, 6543282.149746802], [102952.25352112675, 6543257.253521127], [103194.65793785827, 6543409.0303077735], [103387.92731734793, 6543232.285561704], [103663.71593234528, 6543324.113777176], [103725.0, 6543430.0], [103683.3702129006, 6543471.6297871], [103696.98179991482, 6543730.424389629], [103797.34510403557, 6543823.1723755235], [103995.09996058716, 6543864.310197942], [104060.71428571429, 6543989.285714285], [103981.27094190462, 6544098.952069327], [104033.21501014198, 6544192.517748479], [104135.0, 6544180.0], [104053.06863527534, 6544251.0055865925], [104063.56638001381, 6544311.709936602], [104163.28125, 6544347.1875], [104096.5541831757, 6544460.295746365], [104153.53942657684, 6544531.419331817], [104287.14285714286, 6544533.571428572], [104398.28524319868, 6544459.4765045345], [104497.90839694656, 6544522.6946564885], [104545.0, 6544480.0], [104557.08407748821, 6544371.243302606], [104721.08719854959, 6544276.311508812], [104920.74996299525, 6544299.929690969], [105040.1904258746, 6544239.876368379], [105088.40909090909, 6544296.590909091], [105055.0, 6544330.0], [105173.98413385861, 6544442.650689586], [105174.70370370371, 6544570.37037037], [105283.11880090315, 6544636.489431514], [105118.33333333333, 6544850.666666667], [105097.85714285714, 6544932.857142857], [105147.13208901651, 6545010.875807609], [105025.63601541426, 6545184.817252027], [105099.11863356095, 6545271.833807623], [105002.70197143438, 6545453.786780524], [104930.0, 6545495.0], [104912.5, 6545460.0], [104814.18135798119, 6545501.737281638], [104741.04311441335, 6545446.813419061], [104605.0, 6545570.0], [104605.43082746811, 6545611.592432427], [104422.4236263015, 6545790.400743336], [104262.22140487921, 6545638.098064153], [104115.0, 6545740.0], [103803.03011198426, 6545774.232099592], [103830.96692497443, 6545908.46085005], [103703.77214712517, 6545966.354196621], [103719.81068030212, 6546061.481735272], [103642.14285714286, 6546134.285714285], [103711.88607594937, 6546236.126582279], [103673.0, 6546258.0], [103776.14130434782, 6546338.858695652], [103830.0, 6546285.0], [103956.02802757724, 6546399.570934162], [103928.46046677923, 6546514.212606267], [104224.97217407747, 6546548.314782718], [104323.08029403449, 6546688.484591462], [104435.0, 6546700.0], [104226.13492817618, 6546923.709965904], [104260.0, 6546965.0], [104433.51470761868, 6546880.627885485], [104655.0, 6547000.0], [104576.92465144987, 6547092.428447062], [104454.49451429067, 6547141.052991623], [104483.33408552408, 6547231.668171048], [104540.49488054607, 6547194.7440273035], [104599.7193976512, 6547263.83929726], [104517.08037545621, 6547453.694890645], [104398.70698503658, 6547542.114235535], [104433.94767516549, 6547670.3060316965], [104621.53773158252, 6547691.988137945], [104783.6866606875, 6547846.547928954], [104787.22957324074, 6547943.473373392], [104644.64262717322, 6548014.285254346], [104612.66666666667, 6547950.333333333], [104585.0, 6547970.0], [104614.74051596632, 6548159.144122571], [104630.61911134477, 6548142.187294677], [104555.36170212766, 6548279.212765957], [104508.20222171843, 6548237.70913625], [104384.28571428571, 6548347.857142857], [104163.32444615486, 6548244.507870986], [103977.58533140065, 6548233.04160395], [103895.0, 6548150.0], [103912.14976564243, 6548104.251171788], [103815.84333935952, 6548034.200783724], [104007.74593830621, 6547883.488467421], [103934.22885880704, 6547780.425196314], [104027.60653220632, 6547721.667936399], [103887.0, 6547586.0], [103715.03368510363, 6547619.884097849], [103350.26106585667, 6547858.12635186], [103270.78947368421, 6547995.263157895], [103218.76237623763, 6547968.118811881], [103137.44431503858, 6548013.7035958655], [103214.47368421053, 6548077.894736842], [103181.72978612316, 6548164.6290814215], [103221.28095615965, 6548248.12042465], [103194.35345424799, 6548350.501221046], [103025.82077944616, 6548517.801739421], [102839.00990099013, 6548582.425742574], [102714.99705688348, 6548479.161018203], [102554.17396885328, 6548562.379125217], [102372.25598689792, 6548496.966235325], [102270.0, 6548635.0], [102234.98843233161, 6548611.658954888], [101979.92307284288, 6548847.087642635], [101896.42857142858, 6548839.189152015], [101905.0, 6548770.0], [101815.13783597518, 6548711.316333563], [101781.36363636363, 6548644.545454546], [101755.62955564038, 6548661.208035577], [101553.18628816427, 6548532.041303848], [101524.54545454546, 6548558.636363637], [101409.07648789698, 6548460.874122581], [101307.4795838882, 6548591.476079482], [101175.29411764706, 6548488.315508021], [101004.0958282842, 6548693.131046311], [100857.22773475315, 6548743.307115198], [100588.00677169641, 6548666.380082951], [100497.03469370653, 6548721.061761502], [100419.78596750705, 6548587.917205104], [100435.0, 6548560.0], [100358.29725352235, 6548520.39229175], [100255.65408801762, 6548619.182790039], [100113.58212350094, 6548486.780168866], [100045.38185980204, 6548550.604978363], [99940.36100592183, 6548548.631703327], [99867.38513669487, 6548666.641749028], [99601.35689155103, 6548942.675924614], [99614.4482862297, 6548985.747143717], [99764.42807409036, 6549007.9377987785], [99746.70659722222, 6549154.529513889], [99820.0, 6549165.0], [99899.65686274509, 6549273.543417367], [99940.46511627907, 6549256.162790698], [99950.0, 6549305.0], [100013.35944428023, 6549296.984924623], [100048.33333333333, 6549333.333333333], [99997.9213483146, 6549368.828250402], [99979.52049974819, 6549561.632523858], [99875.75554167968, 6549639.609740868], [99813.64024916117, 6549792.039708841], [99867.26992723723, 6549935.149728584], [99846.1158403045, 6550023.585460244], [99784.97389744096, 6550088.928397204], [99727.85468337299, 6550251.459961113], [99396.66666666667, 6550465.0], [99273.77594267414, 6550433.611928599], [99069.8068921295, 6550592.5570004], [99016.0, 6550577.0], [98948.04095334005, 6550704.099697885], [99003.05959675973, 6550834.785628139], [98913.86221294364, 6550886.21085595], [98830.0, 6550805.0], [98753.18927974865, 6550846.233862185], [98834.0625, 6550943.75], [98651.67887192457, 6551026.26960023], [98548.22109516093, 6551121.688640793], [98609.21754491451, 6551256.90524334], [98432.67123287672, 6551463.561643835], [98505.0, 6551530.0], [98409.77505302179, 6551603.813420439], [98309.20206197692, 6551774.921989847], [98211.70042868207, 6551804.50071447], [98275.0, 6551910.0], [98251.25, 6551935.625], [98293.22589820143, 6551957.515424179], [98375.798694698, 6552268.119921298], [98240.72878791433, 6552411.757195806], [98151.875, 6552400.625], [97985.0, 6552530.0], [98000.76914640889, 6552561.139340028], [97908.64111871972, 6552668.210097358], [97881.06321042418, 6552865.747158303], [97840.49853185829, 6552877.0649794955], [97682.05832200561, 6553057.6529099345], [97675.91844035866, 6553160.126234779], [97523.17423271669, 6553286.854774013], [97525.0, 6553324.285714285], [97457.8362311715, 6553377.742591516], [97480.64341157273, 6553503.229084539], [97625.0, 6553600.0], [97640.04553734063, 6553669.453551913], [97597.33324352681, 6553772.9047507085], [97734.37921172261, 6553855.528235361], [97785.23100364061, 6553945.2598790955], [97709.33969818916, 6554197.903128206], [97757.39592142693, 6554265.385657723], [97832.22222222222, 6554217.222222222], [97964.23111685416, 6554303.844218823], [97917.11970074812, 6554465.087281795], [97826.50503858607, 6554488.484471039], [97826.83802682212, 6554752.442323217], [97756.50465766448, 6554871.8951544445], [97668.17829761913, 6554923.929820455], [97672.17842323652, 6555017.178423236], [97723.0, 6555068.0], [97612.63455270337, 6555149.530500473], [97650.33684172439, 6555184.167594688], [97908.65860063481, 6555228.848483235], [97999.28571428571, 6555394.285714285], [97985.0, 6555450.0], [98025.50980485955, 6555482.395106945], [98123.52476290832, 6555421.601685985], [98159.52996110573, 6555489.660292334], [97907.22345986798, 6555782.987781287], [97938.35370734191, 6555829.969438987], [97903.40682565115, 6555949.223999603], [97768.68114024014, 6556030.4337718645], [97636.92531737094, 6556274.43365124], [97430.0, 6556465.0], [97367.3795053854, 6556465.0], [97316.49356744597, 6556655.746783723], [97379.44306058205, 6556777.146078107], [97346.11111111111, 6556841.111111111], [97395.0, 6556890.0], [97287.24761128805, 6556889.199082896], [97196.55405405405, 6556987.77027027], [97210.06684038012, 6557019.481867114], [96951.92628911509, 6557316.408278588], [96800.0, 6557335.0], [96759.20216886135, 6557294.202168861], [96712.07243460765, 6557325.0], [96673.09338521402, 6557295.992217898], [96442.09678313289, 6557537.911555166], [96452.59160495312, 6557643.425272059], [96657.9986780394, 6557727.587821152], [96576.20171460521, 6557871.594582842], [96622.01004003845, 6557944.854136052], [96590.38954066567, 6558081.88101484], [96395.38461538462, 6557895.0], [96265.93074315862, 6557861.43697928], [96155.11494317488, 6557902.675319742], [96011.36194779443, 6558013.323971073], [96019.95909817601, 6558114.722611063], [95877.62514931045, 6558144.673145835], [95773.1386861314, 6558251.569343066], [95738.19180355336, 6558224.27510901], [95584.80680685329, 6558433.348624546], [95623.75868055556, 6558604.20775463], [95746.19112557202, 6558684.298533123], [95748.95089694936, 6558780.183938034], [95610.0, 6558955.0], [95475.1464188289, 6558884.357546153], [95480.47838402854, 6559016.4002549965], [95329.41766835008, 6559174.246707433], [95373.37683840113, 6559253.035014094], [95286.86558378869, 6559421.427335618], [95321.02546248706, 6559575.643913092], [95425.0, 6559640.0], [95361.32352941176, 6559704.852941177], [95165.0, 6559820.0], [95248.73333333334, 6559924.666666667], [95159.56555772995, 6560045.508806262], [95006.39488384448, 6560100.928014165], [95083.41415989831, 6560222.330756671], [95142.37539398094, 6560138.982733527], [95401.12467182186, 6560396.146801537], [95647.96172033453, 6560202.6760230465], [95698.84615384616, 6560056.153846154], [95829.53047111735, 6559872.460749963], [95932.77899163954, 6559854.136392317], [95915.89867957747, 6559949.724867923], [95980.0, 6559975.0], [96080.19230769231, 6559907.802197802], [96120.0, 6559935.0], [96148.08901140635, 6559891.1735048], [96205.12112645005, 6559966.603466499], [96320.0, 6559955.0], [96370.0, 6560005.0], [96477.33051247112, 6559784.580818003], [96435.0, 6559738.0], [96529.6625696488, 6559629.223163836], [96627.71464003042, 6559691.408102919], [96886.83018928798, 6559426.26470313], [97103.10040647074, 6559588.871953491], [97035.0, 6559730.0], [97095.0, 6559840.0], [97022.58620689655, 6559912.75862069], [97057.71693344567, 6560060.905644482], [97097.9601087942, 6560074.320036265], [97316.91753565357, 6559978.960017286], [97385.35672202052, 6559997.646173122], [97246.38051842611, 6560148.4245176], [97184.83416148102, 6560302.624378889], [97159.61538461538, 6560321.538461538], [97179.22166779521, 6560342.849638908], [97160.75953998955, 6560435.158389963], [97094.06332453826, 6560517.189973615], [97097.66544654843, 6560603.74669568], [96958.36633663366, 6560775.049504951], [96985.5700925328, 6560872.351360652], [97064.56682310619, 6560934.712197302], [97089.60166102738, 6561016.902491541], [97013.9695796687, 6561206.332818196], [97065.6970260223, 6561259.024163568], [96993.63838993051, 6561359.906254097], [96787.83072159992, 6561321.299408238], [96687.75611831558, 6561433.038361426], [96491.11518951433, 6561303.785924732], [96173.03299872774, 6561687.923528227], [96282.13114754099, 6561820.737704918], [96229.16431571904, 6561920.711354215], [96272.96838202066, 6561972.83047842], [96177.63775419057, 6562062.312555259], [96113.33333333333, 6562048.333333333], [95987.01967799642, 6562152.606440072], [95965.0, 6562220.0], [96017.87449392713, 6562246.437246963], [95984.23076923077, 6562324.615384615], [96035.0, 6562350.0], [96002.69230769231, 6562383.076923077], [96031.89994195483, 6562528.495153059], [95936.97368270127, 6562560.234109693], [95798.52112676056, 6562842.394366197], [95712.5, 6562917.5], [95824.65093332579, 6563026.0501298215], [95851.89677843524, 6563146.716841414], [95779.87111013025, 6563262.287816557], [95823.96950142957, 6563363.619839965], [95926.286640364, 6563387.929759619], [95887.48912858205, 6563542.29470767], [96113.33084947839, 6563719.061102832], [96000.0, 6563865.0], [95831.93247661283, 6563830.448807173], [95810.0, 6563795.0], [95749.20250844749, 6563855.797491552], [95505.84351776919, 6563819.493427267], [95309.83926179461, 6563647.287083533], [95201.97142180271, 6563809.645229689], [95235.0, 6563923.333333333], [95141.38091313664, 6563875.901269161], [95095.38461538462, 6563942.692307692], [95110.85480093677, 6564017.072599532], [95008.07587754025, 6564073.686710067], [94982.60930043372, 6564046.455599894], [94805.0, 6564145.0], [94745.31751034083, 6564096.7399964], [94648.53382881066, 6564173.813615064], [94742.0683823604, 6564268.515535441], [94704.49160222644, 6564342.019061453], [94686.405814302, 6564595.132448746], [94756.88996464082, 6564787.185742612], [94321.28713802181, 6565134.346558857], [94316.70578894623, 6565235.366527611], [94362.14285714286, 6565267.142857143], [94304.67801718047, 6565852.853707161], [94228.5713431615, 6565927.027345947], [94124.7950601712, 6566207.059389003], [94205.0, 6566433.969127311], [94411.8387776607, 6566616.238145417], [94285.0, 6566722.655146631], [94285.0, 6566820.0], [94096.39327866914, 6567012.026742883], [94172.97445603745, 6567147.506295189], [94164.1443210571, 6567194.426121363], [94050.49114122511, 6567235.596215427], [94016.0502077137, 6567364.343351692], [93972.98567193489, 6567394.55192541], [93695.0, 6567156.956521739], [93701.40644044276, 6567091.720250912], [93565.02278331877, 6567035.53830701], [93529.07527773624, 6567059.200310031], [93447.88176629254, 6566984.506335117], [93291.78782572871, 6567046.925018025], [93183.492217268, 6566878.990742058], [93077.73277436856, 6566883.245891599], [93017.94409512173, 6566825.958071342], [92850.18747439067, 6567040.235073989], [92833.70370370371, 6567126.481481481], [92646.43452519155, 6567215.900626887], [92476.04169594799, 6567244.516540925], [92420.5452262752, 6567184.831658447], [92348.87267904509, 6567292.1962864725], [92412.54011775, 6567369.108718806], [92172.0900086445, 6567565.849071318], [92210.79618904166, 6567639.909269508], [92123.90636884818, 6567785.3673612755], [92045.0, 6567965.0], [92067.77580071174, 6567999.519572954], [91897.52001733257, 6568240.925827322], [91900.00287726581, 6568586.409756668], [91972.96238244514, 6568675.329153605], [92013.57142857143, 6568895.714285715], [92113.5824148099, 6569059.346991726], [92203.61584218625, 6569060.22740215], [92455.0, 6569253.269939841], [92463.99145000873, 6569311.008549991], [92248.08269060438, 6569446.000141409], [91825.49735424318, 6569891.903494516], [91908.69591895532, 6570251.547667671], [91882.4697145265, 6570311.525334457], [91933.96880163281, 6570398.263193702], [91908.7053561205, 6570499.957769], [91784.12829299636, 6570610.963803812], [91809.09276129365, 6570626.357462355], [91782.25413384596, 6570794.654716864], [91939.20105141097, 6571099.7139260415], [91971.32632803111, 6571198.005016954], [92132.48511904762, 6571390.967261905], [92065.50098929378, 6571372.488984244], [92020.0, 6571395.0], [91963.91304347826, 6571373.188405797], [91780.0, 6571455.0], [91740.94594594595, 6571429.189189189], [91666.80835849357, 6571536.276815509], [91739.35897435897, 6571610.769230769], [91723.46083379231, 6571768.744309688], [91692.2228541882, 6571814.899172699], [91495.0, 6571750.0], [91508.33333333333, 6571703.333333333], [91400.80357142857, 6571624.196428572], [91293.13432835821, 6571731.865671642], [91178.0, 6571713.0], [91156.34146341463, 6571751.5040650405], [91100.0, 6571715.0], [91076.58803161177, 6571738.411968389], [90908.49391821268, 6571697.528632005], [90713.46755548661, 6571834.463475171], [90578.0487804878, 6571751.341463415], [90484.32031068868, 6571792.936281166], [90390.5, 6571946.5], [90433.48716364101, 6572058.733845897], [90372.57445281665, 6572163.218514532], [90393.33333333333, 6572225.0], [90315.0, 6572240.638297873], [90315.0, 6572304.653364074], [90514.903356518, 6572427.076206251], [90592.77709811598, 6572513.903841449], [90654.28571428571, 6572515.0], [90643.11778505998, 6572668.692594478], [90524.48119295985, 6572692.012538027], [90239.88603455892, 6572623.862996135], [90176.16231053557, 6572570.010236806], [90040.0, 6572565.0], [89914.05334335087, 6572771.84823441], [89840.31895940517, 6572778.354209464], [89821.21527777778, 6572836.215277778], [89856.15384615384, 6572981.923076923], [89774.49275362318, 6573010.507246377], [89775.6816329871, 6573073.79920514], [89850.62138101182, 6573115.3776394585], [89939.11764705883, 6573209.411764706], [89922.97295353186, 6573290.135232341], [90032.55349543362, 6573433.040478949], [89902.02859320038, 6573577.94167944], [89836.8327910179, 6573705.043686804], [89663.59812884232, 6573733.517763166], [89646.35102435222, 6573984.196448295], [89496.38849902195, 6574147.9536514245], [89558.77726106478, 6574213.777261064], [89444.98407643312, 6574298.582802548], [89319.6773491713, 6574283.981484843], [89254.6572769953, 6574381.253521127], [89293.33333333333, 6574515.0], [89081.33555978759, 6574588.541139592], [89063.78894083282, 6574676.094176707], [88937.17642476957, 6574710.63027392], [88857.68474374255, 6574683.542908224], [88857.72082455945, 6574737.279175441], [88757.22824706002, 6574864.961286209], [88720.0, 6574855.0], [88720.36216384592, 6574906.789429965], [88554.8620338102, 6574984.763621552], [88519.23529411765, 6575063.05882353], [88604.45945945947, 6575165.675675675], [88545.0, 6575230.0], [88611.6385255648, 6575240.990487515], [88710.0, 6575345.0], [88920.52951866963, 6575360.79114378], [89044.75728155341, 6575328.106796117], [89025.0, 6575360.0], [89070.71428571429, 6575420.857142857], [89016.59984789658, 6575433.070384871], [88982.03780799774, 6575519.887750404], [88845.71428571429, 6575555.0], [88896.99952101137, 6575677.04811818], [89104.90579039937, 6575745.742266887], [89082.55357769672, 6575832.629406305], [89002.3033144655, 6575914.059487638], [88805.0, 6575895.0], [88693.64113371284, 6575964.087949697], [88719.53020134228, 6576011.979865772], [88598.57604986713, 6576082.77948528], [88601.77314360524, 6576104.845316294], [88497.68478421279, 6576224.008598046], [88529.57142857143, 6576293.714285715], [88491.69468772567, 6576345.7948043775], [88516.59741194718, 6576505.374822668], [88366.25, 6576676.875], [88455.01071782333, 6576818.854554298], [88396.66666666667, 6576925.0], [88480.52483037997, 6576899.896050652], [88504.0, 6577164.142857143], [88571.11167991688, 6577209.983454047], [88659.26908150065, 6577334.307891333], [88564.34997050039, 6577446.397538109], [88283.24864239935, 6577584.496858316], [88257.81619952405, 6577621.586897224], [88313.33333333333, 6577745.0], [88266.66666666667, 6577725.0], [88124.70380247841, 6577782.601902322], [88077.71428571429, 6577878.428571428], [87969.8563042695, 6577969.103580588], [87864.542380052, 6578272.544474186], [87873.57142857143, 6578447.142857143], [87825.0, 6578480.0], [87853.0, 6578537.714285715], [87816.38018244455, 6578681.973410607], [87610.30864197531, 6578918.395061729], [87576.1195912866, 6579149.88090268], [87517.08181782461, 6579298.963753493], [87460.89743589744, 6579333.076923077], [87469.60377358491, 6579386.739622641], [87425.0, 6579513.333333333], [87258.24395169338, 6579405.438601436], [87180.28662939036, 6579416.674253764], [87104.32250839866, 6579351.562150056], [86951.72214655495, 6579416.116033551], [86877.61412135931, 6579637.802672022], [86740.1126464331, 6579809.405340061], [86889.0797020167, 6579893.098178881], [86820.75508156764, 6580050.939021189], [86825.0, 6580190.0], [86743.81818181818, 6580227.545454546], [86664.05544477137, 6580183.732412043], [86514.8084650225, 6580349.08988546], [86263.76652899713, 6580460.229543263], [86132.33758348513, 6580436.3296903465], [85926.61288498095, 6580444.634435361], [85796.21918384198, 6580498.780816158], [85671.62888864276, 6580740.547737852], [85550.0, 6580775.0]]]}}]}