{"type": "FeatureCollection", "crs": {"type": "name", "properties": {"name": "EPSG:25833"}}, "features": [{"type": "Feature", "properties": {"station": "200.4.0", "name": "Skogsfjordvatn", "series": ["1001.0"], "nodes": 3, "fine_vertices": 12, "fine_area_m2": 250.0, "reduced_vertices": 4, "reduced_area_m2": 250.0, "outline_tolerance_m": 20.0, "windows": [[461, 456]], "placed_on": "number", "distance_m": 8.027391322891809, "uncertainty_m": 30.0, "elvid": "200-149-82", "objectid": 11153436, "lake": false, "confluence_near": false, "reach_up_m": 1000.0, "reach_down_m": 130.0, "reach_fork": false, "seeded_by": "river", "lake_rule": null, "lake_number": null, "lake_name": null, "lake_distance_m": null, "node_offset_m": 15.91826697855472, "chain_nodes": 133, "lowered_nodes": 52, "lowered_max_m": 0.48110198974609375, "direction_ok": true, "end_extended_m": 362.13203435596427, "end_closed": false, "downstream_checked": "whole", "a0": 0.00030000000000000003, "area_up": 0.00030000000000000003, "area_down": 0.0029000000000000002, "swing": 8.666666666666666, "largest_step": 0.0025, "largest_step_at_m": 28.28427124746213, "checked_up_m": -0.0, "checked_down_m": 28.28427124746213, "drains": false, "monotone": false, "causes": ["swing", "chain_not_draining", "chain_end_open"]}, "geometry": {"type": "Polygon", "coordinates": [[[656710.0, 7769025.0], [656705.0, 7769020.0], [656730.0, 7768995.0], [656735.0, 7769000.0], [656710.0, 7769025.0]]]}}]}