{"type": "FeatureCollection", "crs": {"type": "name", "properties": {"name": "EPSG:25833"}}, "features": [{"type": "Feature", "properties": {"station": "205.6.0", "name": "Didnojokka", "series": ["1001.1"], "nodes": 1111710, "fine_vertices": 8522, "fine_area_m2": 111171050.0, "reduced_vertices": 344, "reduced_area_m2": 111171049.99999979, "outline_tolerance_m": 20.0, "windows": [[457, 487], [1255, 1135], [2674, 2334]], "placed_on": "number", "distance_m": 185.69931596644759, "uncertainty_m": 185.69931596644759, "elvid": "205-27-238", "objectid": 11087321, "lake": false, "confluence_near": true, "reach_up_m": 1000.0, "reach_down_m": 2.2737367544323206e-13, "reach_fork": false, "seeded_by": "river", "lake_rule": null, "lake_number": null, "lake_name": null, "lake_distance_m": null, "node_offset_m": 20.07852473284428, "chain_nodes": 105, "lowered_nodes": 12, "lowered_max_m": 0.72528076171875, "direction_ok": true, "end_extended_m": 0.0, "end_closed": true, "downstream_checked": "none", "a0": 111.171, "area_up": 0.2864, "area_down": 111.171, "swing": 0.9974237885779564, "largest_step": 111.1695, "largest_step_at_m": -14.142135623731065, "checked_up_m": 185.5634918610417, "checked_down_m": 0.0, "drains": false, "monotone": false, "causes": ["swing", "downstream_unread", "chain_not_draining"]}, "geometry": {"type": "Polygon", "coordinates": [[[730260.0, 7695745.0], [730065.8644533794, 7695551.7413077], [729885.9358930988, 7695483.074424898], [729772.7777777778, 7695281.666666667], [729841.1422012657, 7695227.30549696], [729761.5256542229, 7695135.119680535], [729932.2360657813, 7694795.376639785], [729909.0, 7694746.0], [730109.9696233292, 7694636.403402187], [730140.3866100721, 7694397.847353189], [730055.0, 7694370.0], [730104.5, 7694332.5], [730161.6256157636, 7694186.6256157635], [730021.0, 7694046.0], [730045.0, 7694020.0], [729947.3575129533, 7694004.844559586], [729773.1465848043, 7693898.146584804], [729577.8445485265, 7693948.524694066], [729392.5, 7693757.5], [729318.2444988729, 7693775.0604455955], [729289.3458597042, 7693682.160176107], [729136.5061209344, 7693571.031917921], [728964.0111202723, 7693714.039555189], [728862.9851299798, 7693729.88440421], [728676.7865429234, 7693551.786542923], [728625.2158273382, 7693562.230215827], [728715.0, 7693450.0], [728681.4374812952, 7693360.215325579], [728805.0, 7693220.0], [728777.0, 7693194.0], [728905.0, 7692970.0], [729005.0, 7692870.0], [728970.8823529412, 7692835.882352941], [728976.2605042016, 7692421.260504202], [728931.4285714285, 7692376.428571428], [728859.1684624406, 7692407.841737174], [728688.3903734747, 7692269.446197761], [728590.0, 7692295.0], [728520.1717214357, 7692225.171721436], [728256.8041957871, 7692161.822708773], [728176.8072289156, 7692082.289156627], [728231.1666608091, 7691989.898428988], [728239.4413458537, 7691785.165276249], [728403.541438173, 7691736.61672803], [728622.4630590731, 7691417.463059073], [728558.6250843947, 7691336.374915605], [728645.0, 7691250.0], [728605.0, 7691200.0], [728697.8618278273, 7690993.835061491], [728626.1111111111, 7690863.333333333], [728710.0253015131, 7690596.93674209], [728881.456356112, 7690314.281439343], [729035.0, 7690120.0], [728920.0, 7690005.0], [728690.4796199438, 7690022.7632880695], [728669.3796633697, 7689867.227138643], [728727.8301886793, 7689820.377358491], [728648.5848440307, 7689753.045892537], [728718.6026027756, 7689664.410411102], [728691.1014084507, 7689554.4056338025], [728924.756097561, 7689190.243902439], [728996.0459348509, 7689184.272100612], [728804.2105263158, 7689041.466165413], [728855.0, 7688990.0], [728821.6666666666, 7688956.666666667], [728847.1866747041, 7688826.7479293505], [729009.5873015873, 7688671.452380952], [729006.7030321215, 7688589.707738485], [729274.6821854394, 7688373.204796866], [729222.5163890382, 7688258.833960236], [729046.6666666666, 7688181.666666667], [728959.7849462365, 7688094.784946237], [728873.9971950762, 7688144.031229342], [728769.7291551844, 7687997.460685792], [728821.7780912064, 7687728.585524249], [729142.6829268293, 7687479.56445993], [729186.8309494457, 7687521.956964711], [729435.6275066098, 7687440.447811834], [729489.0934065934, 7687474.418081918], [729608.1040844892, 7687276.895915511], [729759.4444444445, 7687125.555555556], [729706.9191919192, 7687068.080808081], [729841.3505886602, 7686933.649411339], [729810.0585809589, 7686778.432587245], [730154.0283513188, 7686392.316010857], [730077.8996451204, 7686178.125657393], [729932.7567179537, 7686017.818534825], [729990.3846153846, 7685916.923076923], [729954.500949233, 7685855.602887929], [729701.2953454758, 7685901.734887165], [729558.4526261586, 7685834.549433574], [729492.7272727273, 7685737.7272727275], [729373.0752212389, 7685742.190265487], [729396.9289340101, 7685591.116751269], [729515.0, 7685500.0], [729475.2543900083, 7685392.935641817], [729100.0, 7685035.0], [729086.7857142857, 7685048.214285715], [729015.0, 7684980.0], [729075.0, 7684920.0], [728993.6111111111, 7684821.388888889], [728924.9151582342, 7684851.531719796], [728809.8465184456, 7684689.860676919], [729016.9680247176, 7684522.220816484], [729022.1532846715, 7684379.927007299], [729091.8942875903, 7684281.720288903], [729056.4285714285, 7684242.857142857], [729087.6853739433, 7684194.686800067], [728990.0, 7684095.0], [728761.1764705882, 7684036.176470588], [728730.935946982, 7684005.935946982], [728605.9307088077, 7684035.683240264], [728551.0, 7683906.0], [728635.181271705, 7683735.913320461], [728727.3108898054, 7683747.67819622], [729076.6666666666, 7683545.0], [729138.6003714334, 7683592.469187912], [729207.5078240847, 7683550.735387438], [729458.7640449438, 7683508.483146068], [729524.5871559633, 7683429.495412844], [729475.0, 7683380.0], [729602.5301991511, 7683237.778321907], [729640.0, 7683245.0], [729668.5294117647, 7683188.235294118], [729897.6495410394, 7683040.381780727], [729971.2703517361, 7682938.379958619], [730040.0, 7682915.0], [730072.1989354757, 7682837.466444991], [730312.1146878741, 7682825.239148405], [730751.925273291, 7682432.240985479], [731075.8873966908, 7682260.88739669], [731210.0, 7682395.0], [731307.3318216176, 7682390.22297808], [731390.0, 7682305.0], [731491.0182286871, 7682404.01491438], [731614.6223564955, 7682279.9546827795], [731790.0, 7682165.0], [731867.6822079981, 7682203.5973143205], [732000.0710874368, 7682078.572076745], [732069.7142857143, 7682142.428571428], [732222.1402727526, 7681876.143890899], [732300.0, 7681845.0], [732390.1462451449, 7681962.201780557], [732495.0993381517, 7681898.57425003], [732841.1811364439, 7681963.171057335], [733000.0, 7681925.0], [733140.0, 7682065.0], [733234.0, 7682021.0], [733366.1831784829, 7682019.799465983], [733508.7885663934, 7681899.857243258], [733606.3718084033, 7681938.302153891], [733992.9268292683, 7681717.926829268], [734030.0, 7681755.0], [734137.8694158075, 7681734.095074456], [734478.4848154503, 7681518.134194822], [734671.4772770855, 7681519.936237999], [734888.0769230769, 7681273.846153846], [734883.1846414455, 7681244.259498266], [735183.3333333334, 7681091.666666667], [735544.2726756006, 7680797.958594758], [735695.0, 7680580.0], [735695.0, 7680520.0], [735803.6330678992, 7680435.507613856], [735806.1157722862, 7680341.56085112], [736066.4851809709, 7680268.257578193], [736240.0974536876, 7680447.273306975], [736524.4006986263, 7680640.518884085], [736797.8597339783, 7680755.205562273], [736889.2760180995, 7680732.601809955], [737033.6594296207, 7680859.430348565], [737220.0, 7680755.0], [737591.9047619047, 7681088.968253968], [737698.6819934566, 7681071.6056390675], [737813.3333333334, 7681173.888888889], [737870.0, 7681155.0], [737931.1111111111, 7681216.111111111], [738010.0, 7681205.0], [738057.7777777778, 7681252.777777778], [738114.9259125406, 7681211.436573907], [738264.8322246143, 7681378.657796915], [738288.2254756591, 7681484.608554839], [738145.0, 7681580.0], [738141.3237193285, 7681682.057684029], [737987.873341632, 7681850.723605506], [738066.9387755102, 7681968.0612244895], [738005.0, 7682030.0], [737990.4545454546, 7682125.454545454], [738084.8361252731, 7682217.592862345], [738160.0, 7682175.0], [738320.0, 7682275.0], [738536.2380616087, 7682491.238061609], [738633.1860435957, 7682473.19618153], [739134.1620111732, 7682936.033519553], [739263.9534913704, 7683136.140423369], [739374.5348821337, 7683110.525859598], [739649.6666666666, 7683384.666666667], [739485.141465073, 7683593.189934806], [739552.1279391698, 7683697.292887867], [739737.2727272727, 7683853.181818182], [739739.9058698744, 7683969.168069922], [740216.3518092214, 7684248.262620303], [739910.437894184, 7684562.706855883], [739954.4368932039, 7684630.563106796], [739661.9827084955, 7684850.028744629], [739602.7685782413, 7684860.656921854], [739219.8739628701, 7685194.695097248], [739025.0, 7685270.0], [739051.1447368421, 7685331.855263158], [738919.67520386, 7685397.644043426], [738711.8267249878, 7685619.967270272], [738512.7629077464, 7685898.435119497], [738382.538251285, 7686142.0669063255], [738251.431950896, 7686223.569670665], [738183.5224780932, 7686160.0185429845], [737970.0, 7686165.0], [737928.2458494554, 7686123.245849456], [737701.1271998727, 7686070.169277217], [737372.6646706586, 7686322.904191617], [737201.9539021753, 7686317.3116311], [736934.9123396584, 7686620.715967115], [736856.6666666666, 7686771.666666667], [736895.0, 7686810.0], [736846.610870842, 7686858.389129158], [736932.2126188418, 7686934.662921349], [736954.5171110836, 7687173.1259972975], [736895.4192995181, 7687267.448167765], [736980.0188679246, 7687327.433962264], [736967.2533879695, 7687504.336108032], [736593.3687457163, 7687936.326250857], [736503.0632773683, 7687972.19856731], [736565.0283750229, 7688100.815198577], [736375.4249976231, 7688480.424997623], [736790.0, 7688895.0], [736836.5198237885, 7688881.696035243], [737112.4137931034, 7689143.620689655], [737298.6796743595, 7689147.243426625], [737427.9076396808, 7689229.338654504], [737374.1916892201, 7689426.297139526], [737200.4235460977, 7689640.97041331], [737234.2308516476, 7689708.415384208], [737173.9321303528, 7689827.285726825], [737227.4186602454, 7690034.447834225], [737130.6592948603, 7690318.091337858], [737369.2811839323, 7690481.596194503], [737302.2747172827, 7690613.127406815], [737398.4278970615, 7690721.580717809], [737295.0, 7690820.0], [737469.4398944804, 7690925.48190408], [737543.2511232985, 7691052.638925598], [737625.0, 7691120.0], [737595.0, 7691150.0], [737712.3867859261, 7691224.488988272], [737726.2047313845, 7691359.38408629], [737910.6388535466, 7691502.101542668], [737851.2820263093, 7691576.350025468], [737683.8612747723, 7691574.57096947], [737659.0462427746, 7691637.283236994], [737775.0, 7691800.0], [737758.6170212766, 7691901.914893617], [737818.753074803, 7691991.8703639135], [737884.7058823529, 7692028.529411765], [737992.2109158187, 7691956.859389454], [738111.1538461539, 7692016.153846154], [738065.0, 7692100.0], [738113.2208588957, 7692148.220858896], [738057.7272727273, 7692166.818181818], [737897.3420566459, 7692382.638597216], [737955.0, 7692480.0], [737856.6666666666, 7692525.0], [737760.0, 7692525.0], [737669.7311522237, 7692783.734955123], [737515.0, 7692860.0], [737529.5454545454, 7692903.636363637], [737409.2873750291, 7693004.805859103], [737473.75, 7693121.25], [737421.8181818182, 7693173.181818182], [737370.2011011526, 7693115.790870943], [737219.6618357488, 7693162.890499195], [737152.3076923077, 7693247.307692308], [737093.1720430107, 7693188.172043011], [737045.7142857143, 7693273.571428572], [737114.8387096775, 7693328.870967742], [737161.9361602982, 7693283.501863933], [737235.0, 7693410.0], [737205.9908855418, 7693443.480326109], [737298.0769230769, 7693546.153846154], [737034.814734186, 7693842.762968014], [736870.0234383602, 7693770.543442177], [736532.2177642573, 7693991.508478649], [736546.122268163, 7694064.796219728], [736480.3539658388, 7694198.794703672], [736194.2247394801, 7694285.033820354], [736030.104465262, 7694454.895534738], [735905.8080189876, 7694443.830616577], [735771.0, 7694606.0], [735807.3469476654, 7694643.167544016], [735549.3223967981, 7694903.881231189], [735327.3529411765, 7694751.764705882], [735275.704355885, 7694619.564411492], [735291.9011317809, 7694588.6432938725], [735018.3720930233, 7694298.2558139535], [734874.5693558904, 7694268.81167228], [734966.4318087761, 7694024.063462374], [734922.4284089758, 7693849.589462598], [734865.8131506224, 7693804.093575606], [734855.7407407408, 7693710.740740741], [734810.0, 7693665.0], [734745.0, 7693680.0], [734675.0, 7693610.0], [734704.2857142857, 7693542.142857143], [734637.1000747406, 7693580.114126395], [734476.6666666666, 7693420.555555556], [734530.9285714285, 7693297.557142857], [734396.0735449406, 7693215.5500877295], [734218.0657401269, 7693434.552599015], [734013.0434782609, 7693552.826086956], [733921.7206808113, 7693543.041501516], [733562.5, 7693887.5], [733504.1373341028, 7693837.538949798], [733427.7777777778, 7693892.777777778], [733383.5, 7693848.5], [733320.4351721345, 7693888.820135849], [733210.1813186813, 7693815.137362638], [732952.7694603602, 7693954.685874938], [732809.0219682034, 7693931.6174384495], [732782.2464454976, 7693842.478672986], [732626.5557733669, 7693869.7738761185], [732570.9328048149, 7693826.783230095], [732443.6155848489, 7693796.446233939], [732190.315458652, 7694042.936908269], [732035.3314994074, 7694028.719064562], [731506.1059626316, 7694668.823551958], [731501.0604988454, 7694854.673804659], [731283.8775331142, 7695058.960659576], [731152.2727272727, 7695267.2727272725], [731205.0, 7695320.0], [731025.0, 7695420.0], [731062.8538663172, 7695437.853866317], [730982.7357623556, 7695610.4981592065], [730793.9734882348, 7695814.620939357], [730740.0, 7695775.0], [730552.9933007307, 7695826.700669927], [730435.7539491368, 7695882.891279895], [730335.7651322266, 7695738.620755915], [730260.0, 7695745.0]]]}}]}