{"type": "FeatureCollection", "crs": {"type": "name", "properties": {"name": "EPSG:25833"}}, "features": [{"type": "Feature", "properties": {"station": "212.10.0", "name": "Masi", "series": ["1001.1"], "nodes": 35146, "fine_vertices": 1480, "fine_area_m2": 3514550.0, "reduced_vertices": 71, "reduced_area_m2": 3514550.0000002338, "outline_tolerance_m": 20.0, "windows": [[467, 498], [972, 1086]], "placed_on": "number", "distance_m": 336.7761573459962, "uncertainty_m": 336.7761573459962, "elvid": "212-79-3016", "objectid": 11055484, "lake": false, "confluence_near": false, "reach_up_m": 1000.0, "reach_down_m": 436.7761573459961, "reach_fork": false, "seeded_by": "river", "lake_rule": null, "lake_number": null, "lake_name": null, "lake_distance_m": null, "node_offset_m": 8.0891161447854, "chain_nodes": 138, "lowered_nodes": 60, "lowered_max_m": 2.91998291015625, "direction_ok": true, "end_extended_m": 24.14213562373095, "end_closed": true, "downstream_checked": "whole", "a0": 3.5146, "area_up": 0.0001, "area_down": 3.7162, "swing": 0.999971547260001, "largest_step": 3.7156000000000002, "largest_step_at_m": 317.9898987322349, "checked_up_m": 330.41630560342685, "checked_down_m": 327.9898987322349, "drains": false, "monotone": false, "causes": ["swing", "chain_not_draining"]}, "geometry": {"type": "Polygon", "coordinates": [[[834730.0, 7725525.0], [834626.1216108006, 7725582.686935133], [834490.0, 7725485.0], [834434.4050692016, 7725521.061146453], [834146.6372643822, 7725377.6722024], [834138.1818181818, 7725422.2727272725], [834071.6720142602, 7725436.82174688], [833978.1226006653, 7725314.9172048], [834015.6876939018, 7725178.816758111], [833915.5882352941, 7725092.94117647], [833926.2045150455, 7724934.206478149], [833994.2857142857, 7724851.857142857], [834123.5576923077, 7724841.442307692], [834168.0577126656, 7724737.870258915], [834318.4424352307, 7724603.920548176], [834207.8363567671, 7724377.426881054], [834270.0, 7724285.0], [834364.1485432998, 7724303.521024912], [834491.5429326288, 7724267.819022457], [834564.3628509719, 7724298.045356371], [834655.7591414944, 7724280.7591414945], [834803.1451099913, 7724376.350370271], [834988.7140081582, 7724370.312250305], [835199.058261462, 7724496.351157266], [835195.7497414685, 7724442.807652534], [835331.3487523278, 7724237.846051517], [835405.3104024029, 7724333.461788381], [835667.3238180196, 7724475.936663693], [835668.72, 7724501.533333333], [835800.3762642794, 7724578.469910843], [835993.9130434783, 7724751.0869565215], [836080.0, 7724665.0], [836262.0, 7724783.0], [836407.7142857143, 7724637.285714285], [836625.0, 7724770.0], [836582.356703493, 7724846.894940288], [836661.5599798387, 7724866.862399193], [836687.2036726464, 7724953.521955157], [836909.726956839, 7725005.022928518], [836960.0, 7724955.0], [837032.9261871931, 7724973.433074581], [837063.2450331126, 7725071.490066225], [837079.2452830189, 7725018.018867925], [837157.7650385089, 7725094.549180761], [837418.8586351008, 7725158.9755487405], [837461.174027935, 7725264.679124198], [837569.948206407, 7725245.0], [837638.0110274933, 7725280.784982936], [837646.9230769231, 7725378.076923077], [837508.5066409378, 7725469.426200749], [837237.5965007428, 7725279.731231794], [837069.0377281066, 7725201.358622188], [837060.0, 7725355.0], [836926.9294003007, 7725497.999183304], [836800.3703703703, 7725483.148148148], [836590.0, 7725615.0], [836563.8287560581, 7725580.105008078], [836317.5, 7725767.5], [836260.2941176471, 7725730.009970089], [836048.0569867728, 7725863.358205896], [835969.6020192242, 7725810.998557697], [835880.0, 7725875.0], [835853.4920634921, 7725848.492063492], [835720.9866380838, 7725891.237883342], [835609.4087318158, 7725968.457678732], [835462.9754902411, 7725850.248905732], [835275.7142857143, 7725960.714285715], [835105.2993570855, 7725859.882132334], [834977.3684210526, 7725902.368421053], [834882.5705290762, 7725811.774081801], [834869.1987945614, 7725598.493545218], [834730.0, 7725525.0]]]}}]}