{"type": "FeatureCollection", "crs": {"type": "name", "properties": {"name": "EPSG:25833"}}, "features": [{"type": "Feature", "properties": {"station": "22.16.0", "name": "Myglevatn ndf.", "series": ["1001.0"], "nodes": 1824048, "fine_vertices": 13304, "fine_area_m2": 182405150.0, "reduced_vertices": 674, "reduced_area_m2": 182405150.00000092, "outline_tolerance_m": 20.0, "windows": [[535, 444], [1099, 1235], [2298, 2552], [4697, 4204]], "placed_on": "number", "distance_m": 461.9398592628941, "uncertainty_m": 461.9398592628941, "elvid": "022-48-1774", "objectid": 11818660, "lake": true, "confluence_near": false, "reach_up_m": 1000.0, "reach_down_m": 561.9398592628943, "reach_fork": false, "seeded_by": "river", "lake_rule": null, "lake_number": null, "lake_name": null, "lake_distance_m": null, "node_offset_m": 10.568484633060512, "chain_nodes": 200, "lowered_nodes": 151, "lowered_max_m": 1.317657470703125, "direction_ok": true, "end_extended_m": 494.5584412271571, "end_closed": true, "downstream_checked": "whole", "a0": 182.40480000000002, "area_up": 0.0004, "area_down": 206.5427, "swing": 0.9999978070752523, "largest_step": 182.4171, "largest_step_at_m": 153.13708498984852, "checked_up_m": 456.98484809835065, "checked_down_m": 459.41125496954555, "drains": false, "monotone": false, "causes": ["swing", "chain_not_draining"]}, "geometry": {"type": "Polygon", "coordinates": [[[62315.0, 6521330.0], [62360.354609929076, 6521284.645390071], [62291.97660909813, 6521189.859623855], [62376.23859831024, 6521065.363775203], [62575.0, 6520673.333333333], [62549.56342471124, 6520652.293203156], [62433.71031284136, 6520691.0328759], [62386.68087563231, 6520652.101061261], [62430.4180966483, 6520432.838050625], [62320.0, 6520405.0], [62280.0, 6520445.0], [62072.92306549829, 6520373.509579682], [62200.0, 6520195.0], [62234.39271862735, 6520222.994073302], [62546.78083855115, 6519971.780838551], [62294.6474671242, 6519744.148623046], [62090.0, 6519775.0], [61998.342066176025, 6519573.910925005], [62115.0, 6519520.0], [62030.707574675434, 6519468.599147976], [62048.93108529124, 6519382.541104827], [62317.44748336818, 6519367.558824124], [62397.26495726495, 6519309.188034188], [62486.8, 6519321.8], [62593.89845026677, 6519181.44362063], [62566.41466208477, 6519168.951890035], [62624.74135816673, 6519120.216112206], [62526.42857142857, 6518981.428571428], [62559.827290999776, 6518927.761110698], [62485.5256694525, 6518881.682585707], [62472.76919035002, 6518814.766701573], [62654.28761477777, 6518647.862844333], [62636.59356933984, 6518553.331574659], [62794.378162082605, 6518505.650814093], [62765.626799641504, 6518404.059800537], [62798.15789473684, 6518355.263157895], [62744.20214494131, 6518283.036084869], [62809.175012759806, 6518179.092983145], [62613.100981658616, 6517992.300815319], [62602.221149212535, 6517917.989858841], [62813.32369942197, 6517807.398843931], [62751.72398082742, 6517710.569506241], [62798.706862586456, 6517529.513629641], [62920.0, 6517465.0], [63012.34953460999, 6517465.320156978], [63111.88029186428, 6517294.146897568], [63040.3642384106, 6517177.880794702], [63103.77570489028, 6517086.879859939], [63057.23819203247, 6516930.097937129], [63217.62886567534, 6516974.333862225], [63305.32405299558, 6516935.744253988], [63624.71739494955, 6516603.415102411], [63545.857142857145, 6516520.857142857], [63601.98952179663, 6516433.125202665], [63725.78520088826, 6516342.762993809], [63732.15308148912, 6516167.153081489], [63687.692307692305, 6516122.692307692], [63743.846153846156, 6516048.846153846], [63621.41532988401, 6515960.7743083965], [63674.93788819876, 6515889.8136645965], [63645.0, 6515840.0], [63792.01463753405, 6515878.922713322], [63851.82452188903, 6515737.808634265], [63800.20397664047, 6515705.9279489005], [63988.54141495503, 6515389.387453733], [63829.30072422225, 6515352.237383609], [63790.0, 6515285.0], [63749.72094823992, 6515286.54833522], [63538.66266950533, 6515073.402122473], [63597.72312488223, 6514971.529935682], [63590.71428571428, 6514858.571428572], [63625.0, 6514760.0], [63535.0, 6514701.111111111], [63535.0, 6514650.0], [63615.0, 6514570.0], [63603.17531701563, 6514454.988941316], [63700.0, 6514365.0], [63716.0, 6514413.0], [63877.575830268615, 6514412.370627698], [63913.86138613861, 6514341.138613861], [63961.794871794875, 6514345.0], [64079.08465522147, 6514107.687712595], [64240.25162620666, 6514001.691003045], [64151.686493797664, 6513862.493225712], [64023.88927171671, 6513510.080532391], [64075.97276264591, 6513399.027237354], [64195.0, 6513280.0], [64195.0, 6513220.0], [64104.13596195499, 6513150.170543308], [64138.139534883725, 6513084.534883721], [64190.0, 6513105.0], [64225.0, 6513070.0], [64219.80611984044, 6512944.698818072], [64470.47275075366, 6512669.772737796], [64411.46834440427, 6512379.376323288], [64455.0, 6512300.0], [64380.901639344265, 6512168.852459016], [64415.92670402847, 6512012.382423339], [64589.48152317246, 6511816.23679096], [64499.02166098939, 6511797.076572672], [64435.0, 6511710.0], [64661.03588907015, 6511479.380097879], [64734.51288520029, 6511463.9518543845], [64665.0, 6511400.0], [64680.55875207774, 6511252.932063249], [64832.28869587762, 6511232.711304123], [64861.92307692308, 6511203.076923077], [64636.207416803285, 6511067.474240984], [64588.018146351606, 6510881.796206459], [64497.899537906225, 6510901.377748029], [64390.45528493619, 6510764.112761321], [64502.422326138134, 6510729.527570565], [64475.0, 6510585.714285715], [64399.7311827957, 6510525.806451613], [64439.6951537259, 6510402.652423137], [64494.83180807035, 6510414.644388868], [64558.34405433751, 6510380.581131699], [64610.0, 6510395.0], [64716.44927536232, 6510327.391304348], [64685.0, 6510260.0], [64745.0, 6510260.0], [64837.290502793294, 6510167.709497207], [64769.310577833705, 6510066.631305461], [64881.256952169075, 6510017.035595106], [64920.0, 6510075.0], [65002.222222222226, 6510061.666666667], [65117.62455354333, 6509950.589922869], [65218.75, 6509963.75], [65239.76099364636, 6509912.6437467765], [65090.09157539102, 6509756.554750592], [65113.82352941176, 6509651.176470588], [65029.0136374324, 6509553.075476134], [65056.66855071703, 6509508.376698558], [64895.3769886776, 6509368.579952622], [64885.0, 6509320.0], [64994.94914859998, 6509254.0782181155], [64904.020121559115, 6509153.1915214695], [64763.73915931518, 6508965.780995071], [64795.71195895277, 6508926.390580187], [64756.42857142857, 6508817.142857143], [64806.81800208262, 6508719.260411715], [64692.106286504764, 6508495.0], [64528.68872724402, 6508506.145253962], [64466.666666666664, 6508428.333333333], [64399.177597218426, 6508426.64553719], [64345.270681375216, 6508312.559430262], [64417.551176983194, 6508242.076960922], [64643.06947280163, 6508278.941799959], [64746.57894736842, 6508122.105263158], [64785.51226916159, 6507822.87002145], [64625.0, 6507780.0], [64673.39664487376, 6507707.40503269], [64594.05947179698, 6507680.248527169], [64593.60809476802, 6507570.062520566], [64642.12769460883, 6507475.969033289], [64643.63897366567, 6507388.295172228], [64465.0, 6507130.0], [64470.86073018672, 6507049.77489627], [64559.0, 6506966.0], [64597.84709632417, 6506748.955568208], [64680.792486750615, 6506608.184395559], [64590.69270026552, 6506524.885586151], [64485.0, 6506574.0], [64496.97834750479, 6506453.560021169], [64622.60649087221, 6506317.70791075], [64565.0, 6506276.0], [64577.17391304348, 6506205.9130434785], [64494.517316186255, 6505994.22015171], [64488.50993377483, 6505888.410596026], [64556.63232323233, 6505747.2107744105], [64199.07829580098, 6505560.025752839], [64185.0, 6505510.0], [64345.34994660839, 6505424.381947084], [64488.04034966712, 6505195.304975038], [64587.535211267605, 6504937.840375586], [64552.306072492785, 6504886.038799236], [64693.80576579456, 6504721.469500737], [64688.2046847789, 6504683.064929175], [64771.08108108108, 6504548.243243244], [64782.6565037572, 6504398.537727618], [64696.36363636364, 6504386.818181818], [64695.22432478394, 6504180.987753654], [64667.746405855854, 6504149.653576311], [64704.047821312975, 6504015.042163177], [64981.800671260615, 6503825.223660383], [64994.387125059606, 6503751.170478635], [65120.842493539385, 6503723.876675281], [65245.62944007333, 6503609.370559927], [65320.13941220799, 6503600.627982919], [65396.2251547046, 6503506.125773523], [65382.40740740741, 6503437.037037037], [65454.88524900773, 6503459.642666089], [65418.727502561465, 6503394.718320491], [65535.0, 6503320.0], [65512.44860457092, 6503254.691627425], [65439.707936108, 6503201.822757648], [65438.719063781646, 6503027.934167727], [65468.171428571426, 6502967.114285714], [65571.62978182093, 6502998.574258154], [65633.8679245283, 6503065.660377358], [65627.29594298593, 6503135.599430814], [65805.0, 6503144.444444444], [65757.89940150855, 6503280.353829959], [65883.08469495595, 6503361.492639522], [65961.08695652174, 6503357.173913044], [65988.57142857143, 6503412.142857143], [66110.0, 6503515.0], [66158.68811548979, 6503467.714443403], [66194.00282220132, 6503525.945437442], [66259.35847287107, 6503548.194022802], [66347.20119661425, 6503392.345398847], [66444.21637738125, 6503374.593771342], [66556.65987780041, 6503462.65784114], [66708.28098199208, 6503431.208099351], [66718.4043441375, 6503349.873692369], [66580.71428571429, 6503205.714285715], [66728.67965367966, 6503023.67965368], [66710.95567192353, 6502982.466053705], [66860.29471132575, 6502925.286061847], [66948.85736922469, 6502695.539355564], [66899.36977485256, 6502301.06401475], [67221.02987395179, 6502066.63509772], [67425.0, 6501860.0], [67455.8198241003, 6501769.714447795], [67664.42832382869, 6501771.428771106], [67884.3729812715, 6501925.155035888], [67898.06540846432, 6501988.662291131], [68090.13646320722, 6502105.306772877], [68153.91304347826, 6502096.739130435], [68135.0, 6502040.0], [68208.31460674157, 6501982.235955056], [68251.31206933023, 6502059.757539478], [68303.52024922118, 6502028.239875389], [68387.61904761905, 6502062.619047619], [68573.08116982682, 6501936.64460619], [68807.82608695653, 6502102.391304348], [68875.90500594662, 6502079.841406994], [68963.31081081081, 6502148.310810811], [68970.42385179045, 6502260.708714693], [68749.31783964107, 6502811.884635918], [68819.63215941847, 6503116.070936208], [68865.76923076923, 6503176.538461538], [68848.52262596913, 6503259.031427582], [68899.6283015809, 6503316.847790092], [68854.87583981242, 6503431.514218263], [69000.96537837687, 6503528.35085855], [69000.56096641696, 6503603.362561388], [69147.5, 6503692.5], [69210.0, 6503675.0], [69260.0, 6503725.0], [69314.89236790607, 6503681.086105675], [69332.5766826039, 6503800.022925095], [69267.92178409826, 6503901.835811247], [69261.37398752247, 6503998.492714391], [69342.76873596285, 6503997.203036058], [69410.67538876785, 6503920.800023701], [69460.0, 6503965.0], [69533.34792859548, 6503897.489053553], [69669.86683760112, 6504051.634454608], [69715.01824817518, 6504046.003649635], [69714.40331537713, 6504180.673932407], [69815.46509611151, 6504248.042258824], [69882.9268292683, 6504197.926829268], [69887.00968250394, 6504264.3267282145], [69977.6946932107, 6504263.335917645], [69985.20439555583, 6504347.112165074], [70107.55311964515, 6504449.845442538], [70177.59127725949, 6504359.551413786], [70199.16394716395, 6504164.173271174], [70261.25, 6504086.25], [70300.0, 6504125.0], [70309.77570093458, 6504015.61682243], [70372.41282628087, 6503998.649378308], [70400.0, 6504075.0], [70430.40471405962, 6504044.59528594], [70502.89915758661, 6504086.3025272405], [70651.80341089435, 6503967.98864062], [70841.77864854634, 6503923.405383692], [70867.9496842743, 6503718.930762627], [70995.86883358427, 6503678.318129484], [71027.85714285714, 6503554.285714285], [70922.90115560302, 6503456.7400588095], [70785.38038530225, 6503214.147129626], [70888.2047060323, 6502917.27815857], [70896.87789567983, 6502738.31110283], [70993.41333333333, 6502661.586666667], [71027.16040425125, 6502683.289520944], [71048.28219967161, 6502839.199657085], [71183.20232024445, 6502708.978954445], [71429.87179509083, 6502875.018314987], [71500.0, 6502865.0], [71610.0, 6502975.0], [71682.93817825645, 6502912.347395597], [71952.6238889404, 6502935.163993059], [72068.41704223136, 6502843.536955311], [72220.38369429404, 6502900.5867346935], [72341.36363636363, 6502804.545454546], [72393.41623236792, 6502932.455804629], [72582.32602761203, 6502932.5272057615], [72567.22222222222, 6503032.222222222], [72610.0, 6503075.0], [72832.10485204971, 6502924.511182899], [72943.46854722932, 6502797.007740418], [73078.29568884724, 6503013.410965323], [73047.89719949084, 6503028.876863417], [72967.87406923565, 6503231.619964164], [73095.0, 6503370.83943662], [73074.75724991853, 6503460.242750081], [72961.363103374, 6503541.403316709], [72915.83018176431, 6503538.1194372075], [72764.21922573991, 6503638.093735789], [72855.6540455041, 6503824.956953405], [72800.92396237879, 6503855.232161113], [72829.62965185958, 6504043.104476867], [72801.66666666667, 6504106.666666667], [73010.0, 6504315.0], [73035.0, 6504380.0], [72978.07692307692, 6504453.076923077], [73020.0095371669, 6504621.362973352], [72959.16563238678, 6504667.977852898], [72942.38532110091, 6504645.0], [72750.91165870793, 6504745.337350662], [72795.12402672188, 6504902.315986003], [72982.64770572649, 6504898.443918431], [73063.45286686532, 6505000.862489842], [73035.0, 6505120.0], [72946.01910828025, 6505225.159235668], [72967.90221042355, 6505319.3979362855], [72916.17647058824, 6505404.352941177], [72849.36930261219, 6505424.764759769], [72895.2752293578, 6505509.847094801], [72865.0, 6505526.666666667], [72883.80281690141, 6505607.394366197], [72836.86330375086, 6505688.023846355], [72900.0, 6505755.0], [72996.35059799695, 6505731.178167439], [73048.07024035792, 6505909.478760721], [72984.33823529411, 6505951.544117647], [72985.15739598643, 6506058.104305308], [73047.30769230769, 6506107.692307692], [72992.17724280422, 6506212.250056751], [73015.52486187845, 6506282.237569061], [72946.89210539193, 6506310.742972589], [72980.32123015355, 6506412.307322781], [73420.0, 6506435.0], [73501.53561517113, 6506396.950046253], [73575.50005207141, 6506468.550686736], [73567.51111178228, 6506500.087300692], [73688.48616249106, 6506672.209375276], [73758.75, 6506706.25], [73725.0, 6506740.0], [73778.95786724282, 6506749.965191698], [73983.91997530314, 6506934.737670231], [73973.71861376941, 6507184.15589324], [74028.59448826309, 6507185.089509252], [73918.77190770068, 6507444.793171451], [73940.21867503229, 6507504.53773759], [73836.54130702835, 6507645.271270037], [73851.0472972973, 6507694.881756756], [73795.0, 6507740.0], [73814.52380952382, 6507781.428571428], [73759.50137087204, 6507839.088267791], [73773.33333333333, 6507995.0], [73665.45276064533, 6507980.165671097], [73585.47669550971, 6508059.62098035], [73437.66147656427, 6508065.974689604], [73395.0, 6508135.0], [73435.0, 6508190.0], [73391.25, 6508233.75], [73516.43811644925, 6508292.666242444], [73573.9064208423, 6508247.020547385], [73734.52536533565, 6508533.127255065], [73673.93939393939, 6508529.848484849], [73571.72837971889, 6508602.718778015], [73455.80946127127, 6508630.9301310275], [73376.73590504451, 6508593.991097922], [73298.23075998772, 6508702.781540803], [73018.45257852854, 6508910.651870441], [72796.51685393258, 6509009.494382023], [72553.42386628177, 6508911.848723967], [72348.776191654, 6508942.824988516], [72306.51515151515, 6509072.7272727275], [72345.69294178259, 6509110.486862442], [72413.5357327202, 6509068.53573272], [72731.77358128823, 6509419.693702665], [72913.27865881287, 6509387.667874943], [73125.71741000688, 6509410.273302768], [73141.79509933424, 6509573.204900666], [73059.79129276807, 6509918.140593068], [72859.52203505342, 6510103.207628427], [72778.53672777105, 6510094.084109805], [72595.17989791969, 6510317.699882092], [72474.28571428571, 6510357.857142857], [72399.0156062425, 6510301.794717887], [72350.0, 6510345.0], [72320.0, 6510315.0], [72212.85442347171, 6510342.503086952], [72269.4776119403, 6510431.1567164175], [72236.42857142857, 6510481.428571428], [72282.97244504516, 6510649.521778973], [72134.64395397625, 6510779.568927528], [72010.96118181663, 6510725.973892047], [71987.00172650808, 6510748.435881399], [71815.20256916997, 6510672.514822135], [71855.0, 6510730.0], [71770.22207048745, 6510821.437657761], [71642.4389688554, 6510817.000717537], [71670.44217687075, 6510849.795918368], [71554.70704671417, 6510981.733966745], [71655.0, 6511120.0], [71562.0922677063, 6511155.914879792], [71467.23404255319, 6511266.70212766], [71473.68595171662, 6511401.2602398535], [71560.0, 6511555.0], [71645.2605973116, 6511529.297633452], [71679.1200258857, 6511652.965676074], [71838.95587087548, 6511845.829965758], [71993.93071279817, 6511788.930712799], [72118.26389135714, 6511844.768727062], [72154.42470918824, 6511815.769047423], [72322.26423902894, 6511910.8870214755], [72365.97232822278, 6511996.729643763], [72439.575136763, 6511998.589216618], [72570.1461988304, 6512134.2105263155], [72469.88129154796, 6512247.008547009], [72475.0, 6512360.909090909], [72420.0, 6512445.0], [72362.47963152998, 6512441.165308769], [72170.05765028777, 6512589.840511985], [72085.0, 6512760.0], [72183.8838464313, 6512856.432694606], [72148.8223938224, 6512913.8223938225], [72195.0, 6512960.0], [72168.29227404483, 6513000.061588933], [72245.24678877546, 6513089.867777602], [72091.84684684685, 6513272.252252252], [72025.0, 6513400.0], [72075.43467069478, 6513449.880443544], [72267.51111111112, 6513387.488888889], [72342.05882352941, 6513445.294117647], [72276.02681769305, 6513511.831776986], [72186.42857142857, 6513691.428571428], [72315.0, 6513799.777777778], [72398.44349711889, 6513792.195220969], [72493.8634065065, 6513881.124409337], [72662.64705882352, 6513907.647058823], [72615.11121408711, 6513982.687673772], [72542.5, 6513992.5], [72468.49070464367, 6514105.9107602425], [72166.85762703657, 6514178.341926335], [72010.96553715874, 6514259.416772878], [72220.06581541197, 6514479.338186524], [72015.90722747774, 6514676.536196577], [72127.8655198288, 6514865.540949893], [72092.78736528248, 6515003.042874221], [71990.73025516403, 6515042.869987849], [72030.0, 6515095.0], [72125.89930391213, 6515099.99042978], [72139.4949843148, 6515255.5725480905], [72322.50436053322, 6515341.241748674], [72454.70588235294, 6515277.647058823], [72589.5792880259, 6515415.420711974], [72628.4, 6515376.6], [72860.6461780512, 6515578.290928716], [72953.21905088206, 6515583.748810284], [73206.71428571429, 6515802.0], [73060.30378523814, 6515901.132324896], [73068.33333333333, 6516016.666666667], [73125.0, 6516080.0], [73101.7781838628, 6516114.832724206], [73221.48148148149, 6516264.62962963], [73423.12146424805, 6516348.617943814], [73498.88092237253, 6516453.934720907], [73381.20339038817, 6516570.795407666], [73290.81081081081, 6516495.540540541], [73235.22743682416, 6516520.914023526], [73011.94029850746, 6516359.179104477], [72965.0, 6516390.0], [72999.28571428571, 6516425.714285715], [72948.80837359099, 6516476.191626409], [72770.96774193548, 6516453.70967742], [72720.37804878049, 6516535.37804878], [72716.75512521861, 6516694.7485504905], [72801.40427838481, 6516809.558096818], [72992.14760393619, 6516896.140435342], [72943.41717259324, 6516957.974848222], [72806.52099400171, 6517012.0437018], [72765.4806116876, 6517063.93773894], [72854.50877815216, 6517190.491221848], [72744.73881776036, 6517250.020331345], [72720.0, 6517295.0], [72621.93548387097, 6517270.483870967], [72604.70588235294, 6517211.470588235], [72420.16658811811, 6517113.696195082], [72296.0681309583, 6517248.833716305], [72232.01963004908, 6517218.046432616], [72100.72833683432, 6517288.508550744], [71932.27830440862, 6517315.039399652], [71845.41666666667, 6517390.833333333], [71770.0, 6517375.0], [71544.37125345721, 6517498.832347662], [71673.0, 6517672.0], [71491.2136108252, 6517743.818695013], [71446.2135062084, 6517808.867323782], [71226.99401038219, 6517854.6523644375], [71256.94476395161, 6517912.0685331505], [71128.69036372224, 6517977.785781766], [70897.02759010567, 6517986.539617241], [70943.23576210722, 6518122.683517417], [70905.0, 6518190.0], [70977.08165859991, 6518271.961160083], [71084.57510085794, 6518264.241578861], [71201.15384615384, 6518407.692307692], [71147.78978512104, 6518528.057321777], [71194.90426649497, 6518596.578230371], [71051.06328300675, 6518717.436500992], [71015.44775049743, 6518710.748040272], [70836.3849258626, 6518878.462314657], [70883.58712715856, 6518996.467817896], [70796.74813136732, 6519110.821485254], [70794.80113758052, 6519366.070691704], [70658.93057539334, 6519455.234727785], [70660.3453768629, 6519697.812247181], [70717.48442605518, 6519751.832149092], [70705.25200623949, 6519927.305445857], [70627.43100172759, 6519998.079094405], [70680.45602884961, 6520088.672855275], [70844.03414105768, 6520142.3032908775], [70777.89285141305, 6520265.663049904], [70834.04607433472, 6520299.929074115], [70918.10622727938, 6520255.863762644], [70947.33662907462, 6520379.248416499], [71091.4705882353, 6520468.235294118], [71120.0, 6520525.0], [71160.0, 6520505.0], [71243.9407696261, 6520655.612120755], [71177.14285714286, 6520737.857142857], [71113.60051298494, 6520707.048733569], [71056.77214438486, 6520745.432990387], [71239.99219426558, 6520880.091106175], [71185.0, 6520970.0], [71241.45206438069, 6520988.817354794], [71200.82278481012, 6521035.5696202535], [71238.53642384105, 6521075.854304636], [71213.5294117647, 6521175.882352941], [71291.71014115048, 6521235.080929925], [71219.95328155036, 6521464.565655561], [71183.57142857143, 6521452.857142857], [71033.92687417081, 6521714.132527282], [71088.16119471841, 6521791.398754395], [71082.8417266187, 6521920.791366907], [71028.63636363637, 6521939.090909091], [71046.89973614775, 6521995.9102902375], [70952.9883891903, 6522091.8399287015], [70983.46680160565, 6522427.747318348], [70931.28515466604, 6522485.6530395495], [71040.7042341937, 6522560.454545454], [71160.0, 6522575.0], [71187.51378484615, 6522616.612385872], [71087.98726337434, 6522794.444724795], [70966.36363636363, 6522827.7272727275], [70993.15771034923, 6522867.704480272], [70936.74917527536, 6523040.586612979], [70953.26589956346, 6523155.799912597], [71025.0, 6523240.0], [70994.98858798033, 6523334.813237943], [70878.30121078367, 6523388.113248061], [70581.91747150071, 6523655.848799051], [70658.36468064971, 6523857.55596128], [70597.82335038502, 6523965.300983427], [70632.13586787577, 6524093.128487452], [70573.22935779816, 6524152.743119266], [70430.83997596384, 6524153.263135178], [70246.75324675324, 6524448.506493507], [70140.05188067445, 6524354.948119326], [70029.77383158583, 6524453.460099995], [69981.91034537173, 6524618.171552121], [69810.91101039533, 6524737.100846083], [69712.142143556, 6524596.0284539815], [69690.70557462168, 6524700.472970088], [69530.0, 6524865.0], [69508.39976975103, 6524843.399769751], [69204.57875457876, 6525048.663003663], [69152.77879256786, 6524997.927132902], [69088.662025795, 6525030.0411324855], [68865.79817467935, 6524851.026715781], [68842.6068328887, 6524698.077008003], [68729.20112935582, 6524678.722119028], [68710.17741215264, 6524775.197678014], [68507.56682115988, 6524828.273936747], [68413.2351870988, 6524912.124278135], [68333.81322591186, 6524845.4149105055], [68277.13553833537, 6524960.1006696755], [68260.35551502899, 6525082.511044132], [68069.20885839954, 6525209.1661287], [67925.96261551377, 6525051.206189468], [67781.2334801762, 6525063.722466961], [67744.55704897529, 6525000.841868381], [67596.51670074982, 6524984.6182685755], [67500.0, 6525175.0], [67438.62408302022, 6525150.68795849], [67362.74364906251, 6525230.944653755], [67268.75, 6525273.75], [67318.04717375422, 6525193.318082642], [67236.55616031667, 6525113.8124690745], [67060.71139171284, 6525077.225193173], [67026.32684935856, 6525090.942405626], [66940.0, 6525045.0], [66882.59149879507, 6525140.144477445], [66657.35953076532, 6525188.08881081], [66489.16167601291, 6525409.590651562], [66401.65610360981, 6525306.942683935], [66280.0, 6525285.0], [66240.0, 6525325.0], [66166.87661777395, 6525300.625539258], [66193.1269864714, 6525225.976912868], [66119.97114106812, 6525133.2683636425], [65788.19095959976, 6525205.479539063], [65822.18655392707, 6525253.681984026], [65770.68111455109, 6525441.594427245], [65707.77777777778, 6525397.222222222], [65616.28129316634, 6525413.054507923], [65585.83216325982, 6525496.409524762], [65460.171531087675, 6525425.350184759], [65380.0, 6525465.0], [65310.246913580246, 6525423.024691358], [65265.45471805582, 6525462.941902411], [65291.06708650604, 6525499.832283735], [65267.095065771784, 6525611.406550785], [65185.38461538462, 6525679.038461538], [65150.0, 6525645.0], [65103.73170731707, 6525751.707317073], [65005.0, 6525682.5], [64954.55061018136, 6525542.99225167], [64759.316960859556, 6525692.950882578], [64702.237925302325, 6525623.626945743], [64541.05263157895, 6525773.421052632], [64530.0, 6525685.0], [64368.0, 6525523.0], [64375.09875467127, 6525327.2771926345], [64140.697818793196, 6525104.860436241], [64000.80153572778, 6525098.775569996], [63849.72296792857, 6524977.940443294], [63687.517985611514, 6524793.669064748], [63715.159961804515, 6524591.555008055], [63785.0, 6524500.0], [63651.180650082184, 6524373.221680938], [63642.06577557718, 6524304.042561405], [63778.989843777556, 6524161.018619741], [63813.95330711614, 6524056.252942531], [63958.72204128617, 6523996.264598764], [63845.461757242374, 6523856.763357824], [63675.551546796094, 6523790.53513896], [63606.12160520633, 6523846.374538791], [63576.67769649816, 6523741.644607004], [63462.86269121139, 6523677.648192771], [63224.59731580407, 6523689.090774001], [63243.21030634868, 6523560.71841149], [63193.750901377716, 6523483.637926373], [63226.652843518365, 6523235.4680988], [63171.11034392388, 6522928.276583251], [63027.77023918345, 6522749.769824406], [62924.75422209077, 6522746.707898846], [62889.28571428572, 6522594.285714285], [62969.10388324001, 6522504.056479815], [62878.50993377483, 6522321.589403974], [62891.68053489006, 6522154.2587391315], [62948.365565989545, 6522001.512266154], [62910.21976005197, 6521771.022622486], [62781.41093937974, 6521803.083874897], [62707.692307692305, 6521743.461538462], [62676.717606543265, 6521784.360740422], [62441.02715102365, 6521502.2026908705], [62344.63553530752, 6521418.54214123], [62315.0, 6521330.0]]]}}]}