{"type": "FeatureCollection", "crs": {"type": "name", "properties": {"name": "EPSG:25833"}}, "features": [{"type": "Feature", "properties": {"station": "22.22.0", "name": "S\u00f8gne", "series": ["1001.1"], "nodes": 2046431, "fine_vertices": 22156, "fine_area_m2": 204643650.0, "reduced_vertices": 1247, "reduced_area_m2": 204643650.00000003, "outline_tolerance_m": 20.0, "windows": [[445, 500], [1093, 1296], [2196, 2138], [4595, 4110], [9394, 7986]], "placed_on": "number", "distance_m": 453.5302308880774, "uncertainty_m": 453.5302308880774, "elvid": "022-11-1", "objectid": 11816131, "lake": false, "confluence_near": false, "reach_up_m": 1000.0, "reach_down_m": 553.5302308880773, "reach_fork": false, "seeded_by": "river", "lake_rule": null, "lake_number": null, "lake_name": null, "lake_distance_m": null, "node_offset_m": 4.891114045741598, "chain_nodes": 179, "lowered_nodes": 174, "lowered_max_m": 21.95274642109871, "direction_ok": true, "end_extended_m": 495.2691193458119, "end_closed": false, "downstream_checked": "whole", "a0": 204.6431, "area_up": 204.4968, "area_down": 204.7555, "swing": 0.0007149031655599263, "largest_step": 204.7067, "largest_step_at_m": 309.7056274847728, "checked_up_m": 442.13203435596483, "checked_down_m": 448.70057685089023, "drains": false, "monotone": false, "causes": ["chain_not_draining", "chain_end_open"]}, "geometry": {"type": "Polygon", "coordinates": [[[74065.0, 6490430.0], [73997.72727272726, 6490405.454545454], [73971.04395604396, 6490352.087912088], [74013.33333333333, 6490285.0], [73912.06775076916, 6490294.139733388], [73748.53893497458, 6490175.904468825], [73624.21052631579, 6490159.2105263155], [73590.0, 6490125.0], [73533.99627283728, 6490166.195862775], [73575.0, 6490242.5], [73525.0, 6490280.0], [73589.4357469015, 6490395.538160469], [73531.875, 6490453.4375], [73488.20791338307, 6490370.03297243], [73416.48148148147, 6490302.592592592], [73448.14578005116, 6490267.877237852], [73372.14036392493, 6490111.33753422], [73316.43116967898, 6490075.059444196], [73312.74611630126, 6489990.017180937], [72956.89852685771, 6489715.013915836], [72946.29629629629, 6489745.0], [72840.75425814844, 6489682.07903378], [72731.73703000917, 6489745.600537169], [72702.5, 6489812.5], [72651.72737620944, 6489782.036425726], [72635.23557811155, 6489597.635504578], [72583.125, 6489588.125], [72494.4781553398, 6489654.847893242], [72371.41760900158, 6489446.526290675], [72319.37086092716, 6489524.834437086], [72336.59416646838, 6489668.944912674], [72366.53716907075, 6489709.959962939], [72355.0, 6489860.0], [72308.4016776818, 6489890.410130757], [72288.23039392174, 6490050.3942284975], [72209.7684076325, 6490147.687186988], [72136.25, 6490081.25], [72100.4854368932, 6490148.009708738], [72056.10861105399, 6490144.109241921], [71971.91147054914, 6490298.191749884], [71915.0, 6490250.0], [71879.85066094882, 6490108.726906859], [71884.59303882196, 6490034.935672515], [71713.45165383765, 6489892.915320392], [71685.34107956679, 6489908.502040536], [71545.22516847828, 6489864.628504793], [71398.48528514963, 6489697.055036054], [71390.0, 6489535.0], [71272.62884365526, 6489515.264183629], [71248.17450199535, 6489561.005206113], [71176.55679287305, 6489611.886414254], [71194.6359223301, 6489630.218446602], [71093.71685606061, 6489618.982007576], [71107.67584493184, 6489534.768460666], [70946.7599525653, 6489350.737802813], [71019.17322834645, 6489312.519685039], [70973.33333333333, 6489225.0], [70790.83333333333, 6489222.5], [70580.77069167989, 6489247.940112952], [70446.15384615384, 6489131.923076923], [70410.0, 6489155.0], [70388.14151669231, 6489119.1520873755], [70445.18796992481, 6489032.894736842], [70428.21782178218, 6488958.685368537], [70491.74305295284, 6488816.743052953], [70465.0, 6488790.0], [70514.6401308615, 6488715.539803708], [70493.43569002702, 6488645.821576506], [70530.99589322382, 6488341.305954825], [70600.50306919392, 6488211.303040108], [70579.26880382118, 6488107.821793892], [70505.31356509884, 6488124.860259032], [70475.0, 6487955.0], [70529.0, 6487928.0], [70631.20431234759, 6487712.583423841], [70602.64705882352, 6487677.647058823], [70645.0, 6487550.0], [70609.30493273542, 6487505.381165919], [70649.15978976504, 6487450.777072021], [70671.1581920904, 6487253.4463276835], [70641.0, 6487202.0], [70725.0, 6487181.428571428], [70772.7094972067, 6487099.385474861], [70703.15494611204, 6487047.991456329], [70678.32670273955, 6486852.200254575], [70600.0, 6486775.0], [70536.0751565762, 6486816.9624217115], [70474.4602992819, 6486748.737481869], [70299.15506988791, 6486768.466152262], [70259.65725950863, 6486588.465725951], [70116.75777294916, 6486563.374355014], [70094.38356164383, 6486660.616438356], [70033.62895114746, 6486613.608305835], [70043.43343755143, 6486508.742252207], [70001.5261474518, 6486421.291549338], [70101.17339617478, 6486269.119914963], [70066.37868315751, 6486068.272098945], [69990.44794528675, 6486053.053913085], [69898.72194209506, 6485955.451557191], [69895.41158836908, 6485799.402188006], [69580.95244448209, 6485498.939335331], [69507.41587575496, 6485502.303710095], [69421.95942275767, 6485343.332706426], [69449.70588235294, 6485254.705882353], [69360.16593449116, 6485160.6772813145], [69270.0, 6485115.0], [69240.12738853504, 6485055.700636943], [69223.22403302138, 6484961.433298936], [69347.32427791241, 6484832.162210508], [69294.84428993713, 6484772.789741044], [69375.49796462792, 6484680.655328673], [69526.88371784436, 6484730.997560802], [69634.28571428571, 6484692.142857143], [69684.00781132643, 6484723.964999249], [69763.15789473684, 6484634.47368421], [69745.76923076923, 6484582.307692308], [69775.0, 6484540.0], [69678.86058981234, 6484467.238605898], [69695.0, 6484390.0], [69647.22114100805, 6484341.225748112], [69703.08891634535, 6484278.336876637], [69820.0, 6484305.0], [69865.71428571429, 6484259.285714285], [69910.0, 6484285.0], [70070.8546555233, 6484162.710049292], [70180.21554790656, 6484293.377347325], [70243.05555555555, 6484288.333333333], [70276.07208409811, 6484320.029200735], [70511.66666666667, 6484146.666666667], [70576.875, 6484211.875], [70616.98751300729, 6484185.306971904], [70627.45078523467, 6484045.642679183], [70815.74289145455, 6484070.706484149], [70809.29222144358, 6483977.740014016], [70743.0, 6483929.0], [70833.17272355384, 6483782.179979521], [70965.03710855643, 6483837.44288382], [71063.05650644783, 6483818.590621336], [71103.55072463768, 6483737.101449275], [71077.5, 6483685.0], [71113.0, 6483612.0], [71163.49693251534, 6483632.668711657], [71292.61403035701, 6483443.000226387], [71242.40135371611, 6483370.535546785], [71275.0, 6483260.0], [71170.48884984886, 6483225.881455455], [71021.04060005237, 6483036.340232125], [70976.19137366132, 6483095.8456697], [70863.40871795251, 6482968.234393692], [70782.24806201551, 6482986.550387597], [70699.02075091185, 6482927.862692957], [70708.51089299888, 6482899.21511669], [70541.60663298923, 6482660.893916099], [70595.78411722345, 6482418.7212235145], [70589.61661341853, 6482271.709265175], [70646.24082232012, 6482290.345080764], [70855.76744074661, 6482155.942872663], [70926.77476429442, 6482276.014679905], [71112.84250208725, 6482221.667994594], [71056.74892283588, 6482133.688307873], [71133.30955625021, 6482076.267832812], [71056.86373234382, 6481804.162185531], [70917.5, 6481907.5], [70890.0, 6481825.0], [70825.0, 6481865.0], [70742.19981043236, 6481815.963463928], [70655.35011024516, 6481614.135667038], [70726.19343610144, 6481583.774241671], [70727.5, 6481493.4375], [70644.08045977012, 6481378.735632184], [70730.5493454766, 6481262.664120216], [70646.43852526695, 6481087.951232019], [70620.8231707317, 6480955.823170732], [70565.95394736843, 6480933.322368421], [70563.47444571399, 6481139.593288229], [70505.0, 6481170.0], [70520.46235510062, 6481227.6307608355], [70287.17775591218, 6481439.4060665695], [70215.0, 6481470.0], [70229.56521739131, 6481513.695652174], [70122.86775420843, 6481540.879860968], [70044.92424242424, 6481453.762626262], [70055.63025210085, 6481393.095238095], [69992.72689425478, 6481422.636136553], [69749.05188709401, 6481303.677413091], [69740.0, 6481235.0], [69680.23986892968, 6481302.9558661645], [69590.78637333574, 6481245.134493433], [69616.2862672588, 6481166.008733419], [69435.32415595741, 6481157.5041342145], [69367.08433443421, 6481111.100556334], [69361.4845661407, 6480983.17405648], [69238.54779411765, 6480853.25367647], [69255.0, 6480810.0], [69199.0, 6480796.0], [69185.4718350755, 6480706.2993612075], [69138.0, 6480681.0], [69194.93670886075, 6480608.734177215], [69230.0, 6480625.0], [69215.83333333333, 6480565.0], [69153.90006589914, 6480565.0], [69111.75885395941, 6480462.34580183], [69044.0, 6480475.0], [69036.46153846153, 6480437.307692308], [68867.7426789817, 6480362.097665795], [68855.56446940266, 6480278.675004974], [68804.95487050022, 6480246.493460426], [68670.38461538461, 6480065.384615385], [68749.76744186046, 6479972.771317829], [68856.6445013607, 6479935.425363374], [68924.05090675644, 6480031.594656172], [69240.0, 6480055.0], [69359.48911486448, 6480150.693468919], [69408.34784502025, 6480240.176114916], [69515.8566754158, 6480174.620891039], [69593.75, 6480258.75], [69616.57407407407, 6480237.87037037], [69591.78294573643, 6480143.217054264], [69669.86377792295, 6480044.888395253], [69819.67312697209, 6480133.600363269], [69843.73573717469, 6480090.663202659], [69914.66774824429, 6480139.769979553], [70115.04444444444, 6479893.911111111], [70067.9713437712, 6479817.4583271025], [70128.31425760739, 6479756.728599716], [70084.151298504, 6479629.074243147], [70063.91188949902, 6479456.023815854], [70130.86885651798, 6479426.149878265], [70136.80750244368, 6479325.021262472], [70180.56818181818, 6479311.4772727275], [70046.22238202606, 6479131.77577081], [70101.0, 6479094.0], [70065.0, 6479030.0], [70095.0, 6479000.0], [70009.375, 6479033.125], [69962.58557963984, 6479006.517780912], [69957.9384975143, 6478877.441157552], [70000.02494346148, 6478820.224491154], [69960.0, 6478775.0], [69890.23897607438, 6478791.098697829], [69780.569334168, 6478654.860698086], [69615.43478260869, 6478580.434782608], [69729.65383324078, 6478445.272892883], [69725.91636778327, 6478232.284847482], [69671.07142857143, 6478166.071428572], [69747.66705110454, 6478122.719333467], [69820.19230769231, 6478204.807692308], [69873.4, 6478151.6], [69949.28571428571, 6478194.761904762], [70041.03514066407, 6478083.872317383], [70121.54217876661, 6477861.635544691], [70075.0, 6477850.0], [70115.15050262047, 6477794.813793283], [70089.73426150122, 6477754.245560937], [70170.65168539326, 6477655.891385768], [70207.14285714286, 6477707.857142857], [70236.66666666667, 6477678.333333333], [70496.93052460514, 6477857.484430142], [70592.14285714286, 6477752.857142857], [70675.0, 6477740.0], [70659.44106463878, 6477707.764258555], [70752.83898778343, 6477602.449149394], [70784.01709551338, 6477415.760425543], [70851.95555555556, 6477412.608888889], [71025.01775742424, 6477619.982242576], [71005.0, 6477640.0], [71077.65914525384, 6477822.932829184], [71264.61231015188, 6477789.540367706], [71255.0, 6477740.0], [71311.19084973936, 6477704.012601852], [71277.6156562578, 6477530.942344102], [71361.98256575133, 6477447.553414827], [71452.38499197076, 6477431.578491185], [71470.0, 6477265.0], [71540.0, 6477335.0], [71589.2378584937, 6477285.196576907], [71529.35080016426, 6477168.961207682], [71555.93750953994, 6477128.363534075], [71488.77358490566, 6477073.773584906], [71449.53488372093, 6477083.837209302], [71440.0, 6477035.0], [71369.0935390921, 6477041.557032083], [71415.84323683006, 6476858.925851859], [71481.02994929843, 6476886.529890344], [71680.0, 6476805.0], [71829.35489762046, 6476875.393755211], [71946.99104537052, 6477045.726310521], [72029.66167851802, 6477043.419500457], [72126.71383647798, 6476979.795597484], [72201.65821501015, 6477100.745436106], [72278.16881556956, 6477039.269381741], [72532.72211758136, 6477242.277882419], [72563.9242608435, 6477151.610136585], [72638.09523809524, 6477078.80952381], [72702.79983023401, 6477091.024784267], [72773.23892450251, 6477178.668236932], [72835.74447541367, 6477163.616713121], [72886.8767345419, 6477243.748843639], [72937.72846918885, 6477209.847687207], [72832.82841823057, 6476965.7372654155], [72900.15154885713, 6476919.621266893], [72725.0, 6476670.0], [72795.24348883342, 6476628.516989825], [72775.75850192705, 6476558.23483198], [72859.18370612779, 6476500.889501411], [72802.32638323733, 6476353.048010932], [72888.0867612313, 6476303.454709563], [72989.79756058445, 6476136.240953689], [72875.42998628969, 6475935.902837109], [72910.0, 6475885.0], [72947.39954041952, 6475898.619196324], [72984.13522517106, 6475751.696296073], [72906.16666666667, 6475627.333333333], [73010.0, 6475535.0], [73014.60396039604, 6475582.277227723], [73113.19732860675, 6475513.261869975], [73222.15982723923, 6475401.217216898], [73257.53738812206, 6475463.40988321], [73337.49347258486, 6475382.5195822455], [73304.19354838709, 6475348.870967742], [73334.91879350349, 6475328.387470998], [73416.88223542339, 6475477.679488495], [73506.81167716085, 6475518.188322839], [73643.19245376394, 6475705.946815696], [73719.02440644406, 6475717.992395002], [73764.47204968944, 6475665.0], [73882.99231376719, 6475650.542063164], [73912.83572853684, 6475606.081465649], [73754.26251896813, 6475357.981790592], [73887.23036654058, 6475149.480497169], [73957.65658047675, 6475160.001143271], [74040.1948051948, 6475094.805194805], [73976.83420152233, 6474979.033161707], [74070.45137018937, 6474892.277469044], [74347.99752063284, 6475133.127241372], [74451.83565004088, 6475018.073044427], [74433.25842696629, 6474928.483146068], [74476.16019516793, 6474916.612518096], [74503.33333333333, 6475001.666666667], [74540.0, 6474985.0], [74606.25065507209, 6475142.9575886885], [74745.0, 6475070.0], [74722.89211004652, 6475046.049785884], [74871.86046511628, 6474892.9069767445], [74921.48273964554, 6474925.988493097], [74931.3521474843, 6474843.350038069], [74827.24274406332, 6474837.757255937], [74885.67977067977, 6474670.67977068], [74855.0, 6474640.0], [74879.38745335492, 6474615.612546645], [74998.59556494192, 6474646.383315734], [75080.0, 6474495.0], [75127.29206010922, 6474513.634895789], [75174.79705117714, 6474363.760147441], [75363.54911495904, 6474345.959938739], [75411.38694660024, 6474320.679467689], [75391.11679614251, 6474180.311813555], [75306.66666666667, 6474045.0], [75260.0, 6474045.0], [75212.56302521008, 6473955.546218487], [75283.94736842105, 6473866.315789473], [75380.0, 6473865.0], [75445.43153067432, 6473787.874323418], [75438.98305084746, 6473749.237288136], [75570.0, 6473835.0], [75688.27564460206, 6473775.880441332], [75795.8649064895, 6473899.722869338], [75951.37516250128, 6473763.18265874], [75904.28229665072, 6473688.373205742], [75948.69881109643, 6473654.767503303], [75855.0, 6473440.0], [75890.50237341772, 6473401.578322785], [75848.7979966611, 6473340.843071787], [75895.0, 6473280.0], [75723.62440379584, 6473106.776129476], [75817.5, 6473007.5], [75760.9831128628, 6472911.447875643], [75880.0, 6472836.910828025], [75941.50548681103, 6472682.765360856], [75865.0, 6472570.0], [75905.19925280199, 6472519.601494396], [75687.99078579534, 6472350.158291474], [75640.58174198965, 6472221.368391708], [75429.29866045571, 6471909.510301188], [75550.0, 6471805.0], [75663.2256650338, 6471853.602451637], [75805.4685721447, 6471998.792726817], [75900.0, 6471915.0], [75921.62095328767, 6471957.95926719], [76095.0, 6471870.0], [76122.66719219334, 6471733.793312262], [76025.96488469534, 6471537.046820406], [75990.0, 6471585.0], [76039.6438547486, 6471327.539571695], [75949.65645866247, 6471227.174855454], [75869.81193690808, 6471210.976231727], [75849.29493956192, 6471047.60826923], [75748.125, 6471025.625], [75712.65736146811, 6470912.233247654], [75761.65796344647, 6470862.5326370755], [75743.61111111111, 6470748.611111111], [75695.0, 6470700.0], [75749.96933065527, 6470699.055363887], [75873.78274062386, 6470635.0], [75994.77725922783, 6470460.222740772], [76092.94685990339, 6470475.917874396], [76096.18453855142, 6470505.486382579], [76275.36585365853, 6470559.390243903], [76416.84570071258, 6470301.504608076], [76524.94381809758, 6470224.055405394], [76405.22950819672, 6470014.196721312], [76440.47070466302, 6469950.040666511], [76247.74411802783, 6469863.482653607], [76211.10330104396, 6469891.899961751], [75998.36716159852, 6469810.768571206], [75912.62472885032, 6469727.1041214755], [75684.80939670301, 6469688.483182999], [75592.03551582507, 6469572.005315294], [75580.7369438815, 6469408.258540314], [75794.35768140556, 6469379.001126239], [76015.0, 6469270.0], [75992.25842988712, 6469216.634838315], [76036.57471815783, 6469132.237546974], [76160.0, 6469105.0], [76178.33333333333, 6469068.333333333], [76230.0, 6469085.0], [76268.1308411215, 6469028.925233644], [76300.0, 6469045.0], [76293.01546391753, 6468875.489690722], [76133.45819271082, 6468864.932406948], [76111.15384615384, 6468786.153846154], [76160.21023765997, 6468726.837294333], [76225.0, 6468720.0], [76165.0, 6468660.0], [76277.3517821539, 6468473.415009969], [76265.0, 6468380.0], [76430.0391218031, 6468348.437463506], [76404.35329294343, 6468312.92982707], [76503.89075630253, 6468218.336134454], [76471.66666666667, 6468170.0], [76530.63711098062, 6468026.259541985], [76412.0017779523, 6467804.567183145], [76261.55943786583, 6467847.485797762], [76223.12449295851, 6467949.877129574], [76147.18141001214, 6468018.882638664], [75879.02114684402, 6467863.266560964], [75840.0, 6467935.0], [75752.84753363229, 6467791.381165919], [75735.30413853834, 6467708.596747228], [75832.68800266483, 6467558.943156974], [75747.19424460431, 6467470.755395683], [75705.0, 6467483.333333333], [75687.23735729227, 6467375.131062271], [75560.22617177728, 6467355.311272187], [75439.02034099554, 6467131.815648315], [75505.0636085864, 6467038.899028708], [75454.41352395546, 6466970.617384951], [75464.52746489245, 6466875.351411666], [75512.92631886314, 6466851.736908701], [75449.54545454546, 6466761.818181818], [75476.3721974241, 6466678.7655257825], [75599.33743330356, 6466613.529694366], [75543.55047698214, 6466485.631465926], [75687.36842105263, 6466386.754385965], [75725.0, 6466393.333333333], [75705.07135153074, 6466242.718548632], [75675.91743366892, 6466197.568355422], [75763.76674354792, 6466257.532735537], [75821.96423788318, 6466225.965641999], [75766.9061893846, 6466134.526538529], [75824.85738669922, 6466097.9809604045], [75745.0, 6465940.0], [75831.7183167932, 6465864.121472806], [75815.92156862745, 6465783.352941177], [75865.78744601578, 6465693.196727749], [75782.51970433745, 6465540.826063608], [75880.0, 6465415.0], [75967.14285714286, 6465562.142857143], [76010.0, 6465545.0], [76085.46824580368, 6465386.337740311], [76046.00782749093, 6465318.569809497], [76066.66666666667, 6465225.0], [76141.29451101355, 6465240.66438808], [76151.45794216603, 6465307.04134092], [76278.53658536586, 6465293.536585365], [76335.71428571429, 6465350.714285715], [76387.71507498027, 6465323.820047356], [76460.17389045561, 6465470.247236962], [76343.28718457933, 6465669.685803003], [76489.68481375359, 6465703.481375358], [76558.69565217392, 6465646.739130435], [76719.90017159902, 6465786.8180579785], [76753.33333333333, 6465775.0], [76755.30810423405, 6465960.043975078], [76715.0, 6466040.0], [76787.45518704432, 6466153.0241708495], [76874.35601405584, 6466214.672852318], [76917.0443024477, 6466177.569034016], [76961.94196632059, 6466211.54761543], [77039.3448172971, 6466171.716282593], [76955.38496305294, 6466069.010443962], [77034.94058066988, 6466024.339650168], [77096.21212121213, 6465901.818181818], [77057.85714285714, 6465844.285714285], [77011.71043655387, 6465576.490019605], [77100.6278732658, 6465518.294316425], [77117.35888287422, 6465343.258320001], [77076.43457743572, 6465293.500442515], [77146.25, 6465141.25], [77271.17512900848, 6465359.0741338], [77230.3448275862, 6465411.8965517245], [77313.11475409837, 6465451.229508197], [77344.0350877193, 6465513.070175438], [77233.4853029619, 6465610.107231855], [77390.61538461539, 6465756.356643356], [77424.87802612166, 6465881.891476698], [77534.98008741216, 6465990.0199125875], [77558.57142857143, 6465966.428571428], [77600.0, 6465995.0], [77623.57142857143, 6465948.571428572], [77585.0, 6465910.0], [77726.8646744165, 6465760.012262496], [77729.8111332008, 6465670.636182902], [77574.8253836815, 6465506.587751052], [77516.08844198126, 6465390.790059232], [77388.05803250633, 6465340.017356852], [77354.3398259428, 6465117.867965189], [77274.09090909091, 6465101.818181818], [77270.11412129956, 6464975.260338093], [77248.20662528407, 6464962.993873842], [77119.96186147351, 6464636.616780952], [77204.88758029978, 6464599.249464668], [77150.90909090909, 6464453.181818182], [77281.50880307578, 6464394.18223603], [77360.24980124387, 6464248.510418254], [77311.42857142857, 6464116.428571428], [77270.0, 6464145.0], [77150.86690376315, 6463888.851621144], [77146.13793625565, 6463667.508384914], [77201.09042692854, 6463646.954786535], [77198.17737245573, 6463497.396246365], [77109.26440019193, 6463352.828892692], [77102.41590099077, 6463278.532756011], [76949.47463789258, 6463069.384092229], [77073.0, 6462847.0], [77068.12367321944, 6462689.883441175], [76999.11924119241, 6462562.0596205965], [76939.85210126004, 6462584.782349889], [76860.56962972276, 6462468.109018413], [76903.71807359853, 6462383.260155928], [76747.4382880344, 6462192.992341539], [76786.92468619246, 6462129.581589958], [76857.13475131315, 6462141.947992996], [76875.0, 6462090.0], [76799.50147068703, 6462022.262176617], [76775.98208770846, 6462028.038295244], [76708.65762005834, 6461959.293851725], [76642.72727272728, 6461974.090909091], [76336.46162902607, 6461877.58276413], [76165.81395348837, 6461903.837209302], [76079.98974168488, 6461848.044187074], [75845.80669816564, 6461800.225264035], [75870.0, 6461745.0], [75849.73293113596, 6461674.844761625], [75917.77595381819, 6461616.16307316], [75997.59026763003, 6461627.522246784], [76038.03278688525, 6461563.032786885], [76118.01508590585, 6461611.689735742], [76180.01311147945, 6461525.353642278], [76187.36915349281, 6461232.587980327], [76801.0738893268, 6461515.0], [76881.72043010753, 6461515.0], [76913.88888888889, 6461463.333333333], [76847.39520958083, 6461332.335329342], [76863.19895155971, 6461274.039936173], [77091.37931034483, 6461157.413793104], [77075.0, 6461120.0], [77164.79508196721, 6461088.319672131], [77205.64912280702, 6461116.603238867], [77322.96560682962, 6461058.424442201], [77362.70866499866, 6461140.600673196], [77540.13705972259, 6460953.887346379], [77828.80117686273, 6460962.550686064], [77815.0, 6460890.0], [77863.125, 6460858.125], [77976.90513979986, 6460974.939595746], [78171.56523342333, 6460710.344981835], [78223.5602036846, 6460712.460863107], [78334.3995429899, 6460621.708980747], [78229.13793103448, 6460404.137931035], [78257.95256114262, 6460422.540132723], [78558.4345196488, 6460279.227523992], [78571.99027787936, 6460341.259211925], [78961.08893229553, 6460358.266634787], [79020.0, 6460315.0], [79199.50405737238, 6460332.128081417], [79329.04387594684, 6460258.13705874], [79319.55518079043, 6460207.596186004], [79408.46958764816, 6460127.643044406], [79690.82869422824, 6460101.766504252], [79833.08616722067, 6460214.174124265], [80076.66666666667, 6460116.111111111], [80156.03172729458, 6460144.773430589], [80352.63823255834, 6459932.828165743], [80760.0, 6459975.0], [80794.32567617636, 6459943.508706928], [80830.55837873988, 6459975.418410253], [80816.03448275862, 6460056.8965517245], [80895.26515151515, 6460159.734848484], [80855.0, 6460200.0], [80912.85123966943, 6460276.363636363], [80843.48869920157, 6460365.943502903], [80797.44463567417, 6460368.574592248], [80627.14440490707, 6460547.999987659], [80566.73326172461, 6460539.761506006], [80531.56, 6460676.08], [80469.85564848124, 6460685.495086889], [80445.10476221895, 6460847.694287249], [80343.9515774679, 6460951.2128055785], [80421.41025641025, 6461030.833333333], [80456.42857142857, 6461142.857142857], [80421.10132907305, 6461154.632890309], [80443.947064184, 6461226.350540941], [80587.71280802973, 6461277.0395289175], [80671.03270355148, 6461362.296347302], [80797.52007568507, 6461246.952048038], [80827.5737704918, 6461342.213114754], [80920.0, 6461275.0], [80951.74157303371, 6461310.786516854], [80887.48520710059, 6461350.946745562], [80890.0, 6461455.0], [80984.43786982249, 6461407.781065089], [81023.57142857143, 6461448.571428572], [81000.0, 6461495.0], [80982.0, 6461463.0], [80869.84533391347, 6461587.421946299], [80917.53513386752, 6461602.0778708905], [80980.0, 6461555.0], [80998.730964467, 6461646.573604061], [81090.0, 6461655.0], [81165.0, 6461730.0], [81145.0, 6461760.0], [81212.79823034878, 6461785.033407682], [81209.95911733685, 6461989.7159580225], [81247.33552624167, 6462023.681386861], [81357.5, 6462003.5], [81392.78084822204, 6462038.784798477], [81599.24424551717, 6461957.8508898495], [81749.89061547877, 6461805.390547417], [81832.22222222222, 6461852.777777778], [81947.34177215189, 6461792.341772152], [82001.9548907437, 6461810.874050455], [82041.31578947368, 6461702.631578947], [81995.0, 6461640.0], [82051.92205205502, 6461530.445859015], [82193.90101288745, 6461534.697574752], [82311.55761331267, 6461690.048121501], [82371.07372270325, 6461651.801767842], [82453.91304347826, 6461498.478260869], [82490.0, 6461515.0], [82593.65709984626, 6461416.259442439], [82678.12791076372, 6461466.299218369], [82786.741595352, 6461377.659195868], [82947.5, 6461515.0], [82980.0, 6461505.0], [83001.32743362832, 6461560.752212389], [82965.89987875399, 6461612.530946436], [83075.81030966068, 6461680.4691266455], [83026.05263157895, 6461801.052631579], [83118.34660201201, 6461922.444090613], [83107.43096072158, 6461982.901640921], [83219.16256157635, 6462115.0], [83272.14876302566, 6462127.396027978], [83295.0, 6462250.0], [83228.67088607595, 6462299.746835443], [83185.12913364328, 6462259.117260627], [83032.87008983712, 6462302.531485216], [82945.99412667725, 6462403.5064457655], [82889.7660388528, 6462627.091171286], [82942.74300213112, 6462697.020762813], [82875.72902741592, 6462897.857744444], [82953.46153846153, 6463011.538461538], [82905.10989010989, 6462989.89010989], [82875.0, 6463020.0], [82935.90126291619, 6463104.219288174], [82880.53855525404, 6463310.684873611], [82855.0, 6463307.787610619], [82926.01804298381, 6463437.834302033], [83099.71757818598, 6463431.099709604], [83019.95131304074, 6463497.385293301], [83127.58112094396, 6463508.89380531], [83056.365040922, 6463539.414982462], [83044.20126583778, 6463643.324389402], [82882.1052631579, 6463690.263157895], [82755.93838565923, 6463669.571496616], [82703.05278261236, 6463751.906922241], [82743.37716310124, 6463922.774219921], [82675.0, 6463980.0], [82695.0, 6464010.0], [82616.80940034897, 6464034.465740087], [82620.98584345155, 6464084.189359807], [82519.3446787784, 6464118.919353894], [82439.28466248672, 6464092.143558342], [82329.08763414682, 6464118.685484069], [82248.51063829787, 6464010.265957447], [82279.06783551615, 6463981.15805898], [82196.88331192575, 6463898.200532381], [82133.09503304253, 6464040.391968303], [82037.69230769231, 6463983.461538462], [82016.53035154266, 6464021.185025511], [81930.50682868443, 6463995.705841379], [81799.89622054352, 6464029.805516449], [81677.87119610532, 6463959.246137233], [81557.12707170294, 6464140.3779509375], [81538.16523909467, 6464266.0547960745], [81492.04091598222, 6464303.033292572], [81503.80769230769, 6464431.653846154], [81581.83669885801, 6464521.881764576], [81584.44444444444, 6464605.0], [81638.58605842102, 6464602.939865816], [81709.03643744987, 6464791.6013625], [81607.74584171444, 6464912.85591606], [81497.97277850384, 6464957.702559441], [81404.98112019057, 6464875.670863062], [81262.09391974255, 6465051.453674316], [81343.92180224588, 6465210.328016844], [81160.3819595868, 6465286.986814092], [81184.83078230002, 6465385.643370135], [81152.98589974242, 6465465.945526544], [81253.49746174071, 6465521.006265648], [81194.59748574957, 6465609.096081429], [81135.60185458785, 6465587.932096941], [81076.08922268735, 6465653.0706722485], [81074.018243773, 6465768.218925276], [80933.2540884798, 6465868.148264772], [80786.0, 6465855.0], [80804.3694617827, 6465771.904190645], [80844.0, 6465775.0], [80852.19787244924, 6465730.795785813], [80703.80364066265, 6465689.130906225], [80666.85393258427, 6465713.764044944], [80565.0, 6465675.714285715], [80564.49275362318, 6465725.0], [80484.0, 6465725.0], [80410.0, 6465875.0], [80338.64571893426, 6465839.322859467], [80303.53813319675, 6465971.621984121], [80432.85714285714, 6466055.0], [80470.35462547219, 6466017.397763253], [80526.90975834068, 6466108.034217666], [80720.49851383879, 6466099.068862654], [80874.15872136405, 6466200.877435055], [80946.49316909486, 6466188.533923405], [80973.12659242128, 6466239.420606661], [81153.47079574964, 6466181.455056407], [81176.36553868809, 6466129.071597415], [81246.61344537816, 6466194.974789916], [81162.76098181546, 6466256.251590212], [81135.16614864023, 6466394.153277366], [81379.52971673079, 6466634.801288925], [81348.45329508361, 6466718.383917946], [81449.93855794956, 6466830.155523372], [81554.35897435897, 6466835.0], [81555.0, 6466796.0], [81636.63585176782, 6466780.2325721225], [81684.85317752285, 6466853.718229794], [81739.0790744251, 6466798.480442998], [81792.63157894737, 6466854.47368421], [81865.68716563188, 6466797.885719909], [81984.43522504752, 6466842.483145176], [82207.70731723223, 6466696.634903643], [82403.18802697734, 6466619.443897182], [82428.23019876327, 6466723.230198763], [82521.60158690726, 6466680.6812525345], [82513.47874047332, 6466740.0631768955], [82412.5, 6466837.5], [82511.75762933354, 6466936.757629334], [82593.76110347602, 6466966.433814903], [82675.31152647975, 6467089.912772586], [82599.60440069684, 6467096.887469788], [82577.15014634596, 6467346.389466367], [82436.08958312684, 6467242.322161605], [82265.85003125129, 6467257.413407561], [82163.62505220615, 6467309.958416669], [81990.74405372416, 6467307.219707781], [82021.0458795401, 6467356.915147568], [81910.88285366843, 6467484.000405351], [81639.70285695858, 6467572.618878152], [81710.93108331042, 6467674.117299972], [82145.02183606195, 6467653.0545573095], [82200.0, 6467735.0], [82265.90909090909, 6467748.181818182], [82248.40236686391, 6467825.0], [82167.06441691826, 6467823.350102988], [82074.49475959179, 6467929.536066591], [82050.0, 6467925.0], [81964.29407243212, 6468037.655662182], [82013.89058997211, 6468087.10864454], [81971.92350411537, 6468151.235563602], [81835.6501107333, 6468210.542715918], [81685.21101878934, 6468233.030489172], [81654.15163441598, 6468349.968908635], [81729.84944638058, 6468423.4854072], [81818.56739230875, 6468446.432607691], [81855.97361091623, 6468409.026389084], [82065.20155631469, 6468489.616493249], [82041.2403687171, 6468541.926242371], [82200.30687927008, 6468756.499345042], [82304.01469883368, 6468681.785109443], [82358.37837837837, 6468751.756756756], [82409.85611510792, 6468734.928057554], [82460.0, 6468765.0], [82470.88033221358, 6468716.479599589], [82425.22388059701, 6468681.119402985], [82572.2028738699, 6468519.62990303], [82866.15384615384, 6468638.076923077], [82949.14849428867, 6468556.318795431], [83112.78383294269, 6468586.720955872], [83143.63720876262, 6468779.130353709], [83187.91907514451, 6468821.069364162], [83267.10473839141, 6468759.473459311], [83369.27625096274, 6468871.172883998], [83375.0, 6468970.0], [83539.33958148421, 6469060.816797798], [83630.44084751871, 6469169.978362701], [83722.01168860425, 6469222.913896828], [83747.65305464609, 6469301.754109273], [83860.47768536124, 6469280.846110224], [83856.8250948142, 6469387.645894048], [84040.19734764379, 6469393.192009481], [84115.0, 6469540.0], [84065.33642517553, 6469625.7959298985], [84188.13596637534, 6469682.692307692], [84240.0, 6469635.0], [84292.0, 6469697.181818182], [84360.90909090909, 6469647.0661157025], [84393.61406224349, 6469664.077605009], [84381.05372572743, 6469761.960317835], [84527.47088667456, 6469765.702020847], [84488.95385809659, 6469882.092283807], [84525.12205543474, 6470088.15655628], [84515.0, 6470250.0], [84454.9626838649, 6470303.8868111065], [84465.73138007545, 6470528.172468732], [84227.09161035632, 6470337.079814998], [84089.68287526428, 6470289.503171247], [83937.32302413874, 6470380.56273532], [83916.25994898743, 6470483.823176915], [83989.6883840076, 6470555.311615992], [83964.70588235294, 6470580.294117647], [83768.86916316577, 6470512.151020578], [83714.1840223291, 6470343.00346366], [83644.98541281518, 6470376.023731647], [83655.04730622028, 6470456.682435406], [83504.75949275309, 6470407.083234328], [83523.30580453954, 6470531.928762469], [83481.25, 6470556.25], [83505.0, 6470580.0], [83464.07649005912, 6470672.192402152], [83606.88430038736, 6470784.446764066], [83577.33152495975, 6470833.139255891], [83252.02995781259, 6470827.284593413], [83121.71383220167, 6471003.308994287], [83025.0, 6470982.0], [82865.05703890978, 6471096.492261208], [82810.0, 6471055.0], [82764.28571428571, 6471077.857142857], [82781.08108108108, 6471113.918918919], [82716.3514446958, 6471202.904122476], [82806.06486618136, 6471373.592401158], [82737.12949492241, 6471375.262067253], [82756.2614837827, 6471531.322741596], [82554.47516772286, 6471727.815636996], [82449.11773474663, 6471773.671905315], [82372.69933271583, 6471742.412968705], [82132.02313759312, 6471554.87288418], [82063.01909924833, 6471635.942702255], [81901.23480568369, 6471718.325595245], [81895.13861386139, 6471808.717821782], [81948.75, 6471865.15625], [81873.0, 6471962.0], [81905.0, 6471980.0], [81881.85699319016, 6472074.106862231], [81985.0, 6472130.0], [81917.94234592446, 6472202.743538767], [81945.88235294117, 6472231.470588235], [81834.43072114536, 6472273.754064477], [81751.92307692308, 6472366.538461538], [81510.6524139983, 6472192.107007299], [81453.45548465477, 6472325.642881475], [81738.36042402414, 6472650.567847206], [81692.86545229366, 6472701.406464724], [81536.3433529594, 6472640.850635265], [81515.0, 6472675.0], [81452.8460595858, 6472633.540907918], [81438.84615384616, 6472663.58974359], [81410.0, 6472635.0], [81250.07706557825, 6472853.298587042], [81156.875, 6472951.875], [81137.5, 6472932.5], [80962.51801544699, 6473038.022028], [80846.74575043595, 6473188.033081431], [80983.57142857143, 6473388.571428572], [80930.31666834158, 6473468.877571784], [81039.42802502806, 6473625.731676292], [81003.3938831161, 6473650.159316035], [81088.75, 6473776.25], [80951.39023911033, 6473857.901668527], [80892.283386139, 6473938.384716082], [80956.63016717968, 6473976.974860684], [80885.0, 6474020.0], [80919.7260150376, 6474063.888155683], [80872.85714285714, 6474179.285714285], [80693.51289509647, 6474194.094898381], [80669.74529008455, 6474281.008784501], [80503.5653431151, 6474262.714221196], [80455.0, 6474363.333333333], [80282.50415079598, 6474304.315688381], [80163.75166865336, 6474325.6864699265], [79962.33168624222, 6474230.279767219], [79861.5625, 6474295.15625], [79749.6623536583, 6474482.994907555], [79815.0, 6474530.0], [79785.0, 6474560.0], [79878.07692307692, 6474653.076923077], [79915.0, 6474646.666666667], [79895.58626268472, 6474732.367406979], [79828.73161966448, 6474816.903573456], [79898.46463968053, 6474956.955433694], [79991.40505561279, 6474932.425040209], [80248.90989930023, 6475166.047398633], [80473.69512533727, 6474977.967371872], [80586.63407190121, 6475065.321628542], [80665.0, 6475066.666666667], [80659.54545454546, 6475134.545454546], [80721.7951399263, 6475151.002888159], [80729.69251981453, 6475356.702416245], [80788.75, 6475416.25], [80760.0, 6475445.0], [80658.24099680904, 6475445.177589883], [80628.69075142991, 6475504.0169414645], [80714.12337021882, 6475618.2600264475], [80353.3505236529, 6475837.599308857], [80302.86807792638, 6475836.024999992], [80189.4930514339, 6475888.912512311], [80183.10594594313, 6475953.273121448], [80326.04100631442, 6476081.728854169], [80248.80568874546, 6476151.279408914], [80274.99605236847, 6476230.020606529], [80500.77659071825, 6476073.28487258], [80565.0, 6476110.0], [80504.58013019497, 6476147.013600404], [80542.24879053875, 6476213.017387822], [80686.05597929197, 6476295.404030947], [80935.41725019824, 6476114.065586111], [81078.37322386402, 6476175.104331215], [81181.77958105593, 6476148.180744415], [81240.3538253592, 6476221.844062169], [81112.59200554377, 6476331.200004917], [81196.99206696574, 6476435.922389386], [81248.6601545815, 6476439.433590969], [81166.10861918853, 6476523.790534365], [81134.93827160494, 6476479.074074074], [81074.95166487648, 6476551.058002148], [81075.0, 6476654.444444444], [81028.2, 6476655.2], [80960.7480967226, 6476855.472879446], [81010.0, 6476895.0], [81176.2579671858, 6476831.687736575], [81279.86976387838, 6476875.130236122], [81156.97229309697, 6476923.012685088], [81098.57999345541, 6477042.257405428], [80946.38912961789, 6477163.780274166], [80968.24030924775, 6477243.0574834775], [81125.0, 6477240.0], [81148.17009805611, 6477348.158660091], [81035.0, 6477450.0], [81145.95116971544, 6477453.801566815], [81258.33333333333, 6477606.666666667], [81216.42857142857, 6477648.571428572], [81245.0, 6477690.0], [81150.70841889117, 6477766.0369609855], [81288.09702879586, 6477871.183721406], [81322.61752073071, 6477934.45154548], [81253.2640346562, 6478003.893979161], [81368.35021337096, 6478051.819914826], [81525.17918088737, 6478049.8208191125], [81573.93939393939, 6478178.636363637], [81458.73270174899, 6478212.420844434], [81436.66666666667, 6478295.0], [81473.33333333333, 6478295.0], [81442.51937984496, 6478356.279069767], [81480.95282353477, 6478475.270157098], [81225.3022341664, 6478676.882352126], [81273.08719539367, 6478713.819833713], [81061.14215399646, 6478869.726572626], [81030.0, 6478835.0], [81020.83333333333, 6478864.166666667], [80957.96150625113, 6478836.633516779], [80913.0, 6478868.0], [80966.4667165113, 6478948.714227685], [80818.55555555556, 6479105.333333333], [80948.9966247477, 6479262.944109478], [80807.32435439891, 6479481.732264386], [80730.10309278351, 6479531.597938145], [80654.47825881749, 6479477.110702591], [80596.50393129842, 6479556.849084483], [80763.46325875439, 6479794.134185311], [80830.0, 6479755.0], [80898.69116035986, 6479883.051479325], [81034.80671414039, 6479920.193285859], [81011.91960174576, 6479870.959170825], [81046.9475950547, 6479825.763101236], [81200.0, 6479805.0], [81211.62162162163, 6479851.486486486], [81315.5672450055, 6479927.881908229], [81442.0980455674, 6479872.254447213], [81655.0, 6480030.0], [81631.41304347826, 6480077.173913044], [81558.70478203059, 6480067.772140368], [81517.17391304347, 6480151.739130435], [81690.8697509021, 6480259.8586437255], [81720.0, 6480235.0], [81752.0, 6480256.333333333], [81732.23519599666, 6480347.452043369], [81795.0, 6480390.0], [81787.5, 6480442.5], [81907.23693848838, 6480529.200317483], [82107.10309367106, 6480461.151448716], [82273.76849368046, 6480529.141631757], [82346.23350976063, 6480532.532203295], [82369.70588235294, 6480725.294117647], [82466.9383216348, 6480765.028297265], [82468.73014059928, 6481193.535769425], [82390.18385650225, 6481344.340807175], [82384.03604684562, 6481473.215522419], [82254.14584763341, 6481726.173301229], [82163.65156884778, 6481833.989108825], [82333.53658536586, 6481919.268292683], [82313.81596184034, 6482039.913739055], [82347.12121212122, 6482071.818181818], [82267.49936800032, 6482186.006720116], [82327.56807523801, 6482230.30807989], [82295.47619047618, 6482358.571428572], [82356.9904157994, 6482446.919986446], [82435.0, 6482480.0], [82309.39705932925, 6482606.879177155], [82274.97658867828, 6482730.351272212], [82217.20186849064, 6483153.892568867], [82163.64756293519, 6483165.605249063], [82117.02604161846, 6483233.56105595], [81916.26829268293, 6483250.87108014], [81895.0, 6483380.0], [81925.0, 6483410.0], [81880.0, 6483455.0], [81797.37288135593, 6483444.745762712], [81755.0, 6483500.0], [81789.28571428571, 6483568.571428572], [81737.18936906624, 6483632.330334181], [81640.0, 6483625.0], [81568.64363697883, 6483507.278384317], [81460.0, 6483485.0], [81390.0, 6483555.0], [81159.58333333333, 6483382.222222222], [81098.47712345472, 6483463.697168727], [81046.83897715429, 6483426.702330458], [80947.51699863168, 6483491.927937803], [80923.36183128544, 6483718.713611616], [80814.70798857321, 6483622.85452581], [80728.75154031679, 6483669.316555796], [80491.18055555555, 6483501.342592592], [80330.0, 6483455.0], [80314.28571428571, 6483385.0], [80229.28422201202, 6483405.918197866], [80133.50097470816, 6483352.093500989], [80038.0, 6483183.0], [79893.91468309905, 6483172.538115285], [79716.81818181818, 6483087.2727272725], [79606.98315553684, 6483119.213261641], [79515.36986766203, 6482859.752290465], [79588.04321522373, 6482819.633857483], [79708.27158227457, 6482639.804393632], [79538.49218786444, 6482561.968289285], [79391.01140520767, 6482619.463094469], [79329.92335108806, 6482535.113203398], [79333.30233791817, 6482409.705424704], [79400.35138448942, 6482317.431521027], [79178.35007276284, 6482295.178925019], [79128.08346400897, 6482233.602776666], [79172.77777777778, 6482167.777777778], [79110.0, 6482105.0], [78920.70351758794, 6482199.170854271], [78811.65230809181, 6482182.053634245], [78610.0, 6482325.0], [78556.0, 6482325.0], [78570.86378737542, 6482256.395348838], [78519.16034155598, 6482263.60056926], [78484.09516943042, 6482205.158615718], [78366.97674418605, 6482225.0], [78130.69491782496, 6482375.765415509], [77986.15677273019, 6482493.319150824], [77909.3524272286, 6482520.116988504], [77745.85249064126, 6482622.012243769], [77715.65770171149, 6482494.300733496], [77460.88324019109, 6482539.06655646], [77398.20320285253, 6482452.439628582], [77357.50512398023, 6482515.331283742], [77212.61321019879, 6482590.769111224], [77111.77536225604, 6482533.301789414], [76851.31671007976, 6482631.999385639], [76669.8185718116, 6482661.622575744], [76665.4332676491, 6482815.266653497], [76773.96919111132, 6482827.149367991], [76886.25, 6482892.5], [76860.0, 6482945.0], [76691.33301504725, 6482996.401611187], [76723.69565217392, 6483043.043478261], [76511.82948582261, 6483260.904613724], [76456.79487179487, 6483213.487179487], [76395.0, 6483300.0], [76536.72793512343, 6483375.852102887], [76494.21492921493, 6483454.504504505], [76535.0, 6483480.0], [76374.06086440403, 6483680.83841436], [76260.69486783126, 6483609.692327477], [76097.64176829415, 6483794.989151646], [76040.62245465817, 6483768.819153803], [75756.39329519191, 6483913.960602551], [75686.59103986443, 6483876.120765422], [75550.75722453819, 6483887.323700616], [75505.35117759401, 6483934.675634289], [75375.92038078321, 6483873.922515127], [75400.42082701759, 6483740.133352861], [74983.49374830832, 6483824.984842816], [74928.07692307692, 6483854.615384615], [74885.09778357236, 6483784.934810951], [74810.19599040542, 6483824.488881561], [74776.65777222664, 6483887.447484955], [74900.16427520415, 6484098.783477582], [75004.08252640413, 6484367.326176876], [75023.96848257749, 6484504.372422777], [74826.50095334605, 6484587.741232572], [74844.92728851007, 6484701.374178227], [74931.69597759642, 6484798.502297884], [75042.8414290045, 6484805.170471593], [75127.25908861952, 6484910.191283029], [75210.0, 6484915.0], [75435.60718403806, 6484783.884897756], [75439.60034502587, 6484743.668775158], [75383.39057899902, 6484707.841020608], [75432.88894360754, 6484549.26425797], [75488.30186040462, 6484496.5930223735], [75708.57172709166, 6484506.428272909], [75686.42857142857, 6484528.571428572], [75710.0, 6484575.0], [75820.0, 6484565.0], [75927.4705882353, 6484651.025210084], [76004.51674767074, 6484909.079937682], [75898.9882737933, 6484964.432778838], [75881.24511166986, 6485005.533619287], [75945.0, 6485050.0], [75855.0, 6485120.0], [75910.0, 6485222.5], [75895.0, 6485260.0], [75936.95232168675, 6485344.215401312], [75823.69041101326, 6485525.818421692], [75764.28571428571, 6485480.714285715], [75710.0, 6485535.0], [75610.56983139482, 6485520.795690199], [75583.79464285714, 6485658.4375], [75612.79720650637, 6485687.736386139], [75580.95510642721, 6485768.078247475], [75454.56233421751, 6485807.175066313], [75474.45049934984, 6485871.356715459], [75360.0, 6485975.0], [75285.09741476209, 6485958.812289247], [75145.0, 6486030.0], [75157.68387468018, 6486171.329051881], [75050.33021290528, 6486296.795041916], [74981.59932633674, 6486256.291545078], [74941.2424223565, 6486368.944763255], [74786.30938466167, 6486615.949829995], [74812.31374172185, 6486797.773178808], [74860.4, 6486865.8], [74814.19331548907, 6486967.7862765575], [74885.0, 6487030.0], [74945.0, 6486960.0], [75020.67263914332, 6486979.92473295], [75127.67622976372, 6487132.583127247], [75236.31892001138, 6487087.087540101], [75249.21052631579, 6487125.263157895], [75300.0, 6487085.0], [75414.70588235294, 6487107.94117647], [75464.19494028307, 6486996.681075549], [75614.21599045333, 6487012.780142182], [75705.0, 6487110.0], [75666.31025324274, 6487329.867794573], [75731.04522312069, 6487318.620844564], [75833.4375, 6487391.5625], [75820.62408326892, 6487418.44703104], [75915.0, 6487573.333333333], [75867.59708737864, 6487557.354368932], [75806.58641296881, 6487617.132504465], [75816.57894736843, 6487684.736842105], [75756.85595567866, 6487725.567867036], [75793.01308258381, 6487872.913600436], [75911.9119653022, 6488046.150484597], [75844.1352397764, 6488253.270435596], [76082.28848399463, 6488564.12656657], [76199.16600977455, 6488663.33359609], [76282.19355311176, 6488617.1935531115], [76453.65030940674, 6488724.377650531], [76606.41834830475, 6488649.973646526], [76681.22115706767, 6488772.84041415], [76785.0715114416, 6488824.726611967], [76643.0, 6489042.0], [76670.27998168029, 6489057.344989696], [76576.16541353383, 6489178.834586466], [76507.5, 6489136.666666667], [76460.0, 6489185.0], [76365.36532791622, 6489133.34349968], [76333.56632209787, 6489206.199366187], [76111.22807017544, 6489339.385964912], [76077.86250455573, 6489414.389120476], [76021.81358109253, 6489400.405518006], [75880.44937552908, 6489576.925782415], [75660.51726320313, 6489404.163398045], [75528.0, 6489507.0], [75474.09236750646, 6489454.019090458], [75305.0, 6489580.0], [75393.65546218488, 6489633.697478992], [75337.74295212301, 6489721.615191673], [75306.66666666667, 6489724.523809524], [75111.66977721032, 6489879.455636009], [75056.53951591112, 6489955.224801694], [74898.44661002196, 6489922.70645124], [74698.65666854905, 6490130.059726017], [74689.69011725293, 6490256.448911223], [74846.12605216718, 6490483.591372967], [74672.19906976963, 6490613.47445616], [74583.4990807581, 6490480.285451645], [74490.0, 6490425.0], [74426.23595480053, 6490558.558036571], [74353.85931922856, 6490618.924866081], [74306.81950672314, 6490562.134088761], [74157.2725338563, 6490627.455445148], [74076.42857142857, 6490513.593073593], [74065.0, 6490430.0]]]}}]}