{"type": "FeatureCollection", "crs": {"type": "name", "properties": {"name": "EPSG:25833"}}, "features": [{"type": "Feature", "properties": {"station": "234.18.0", "name": "Polmak nye", "series": ["1001.0"], "nodes": 62785, "fine_vertices": 1722, "fine_area_m2": 6278450.0, "reduced_vertices": 76, "reduced_area_m2": 6278449.999999754, "outline_tolerance_m": 20.0, "windows": [[447, 483], [1089, 1073]], "placed_on": "number", "distance_m": 158.31615346806367, "uncertainty_m": 158.31615346806367, "elvid": "234-62-6512", "objectid": 10826055, "lake": false, "confluence_near": false, "reach_up_m": 1000.0, "reach_down_m": 139.6856627186521, "reach_fork": false, "seeded_by": "river", "lake_rule": null, "lake_number": null, "lake_name": null, "lake_distance_m": null, "node_offset_m": 4.7895406889632035, "chain_nodes": 111, "lowered_nodes": 60, "lowered_max_m": 2.8188743591308594, "direction_ok": true, "end_extended_m": 14.142135623730951, "end_closed": true, "downstream_checked": "partly", "a0": 6.2785, "area_up": 6.2685, "area_down": 6.2822000000000005, "swing": 0.0015927371187385183, "largest_step": 6.2814, "largest_step_at_m": 62.426406871193194, "checked_up_m": 148.99494936611745, "checked_down_m": 90.71067811865532, "drains": false, "monotone": false, "causes": ["downstream_unread", "chain_not_draining"]}, "geometry": {"type": "Polygon", "coordinates": [[[990490.0, 7827155.0], [990396.6666666666, 7827168.333333333], [989989.0909090909, 7826882.851239669], [989732.1577726218, 7826618.13225058], [989525.0, 7826470.0], [989547.1582733813, 7826392.446043165], [989470.0, 7826315.0], [989405.0, 7826330.0], [989249.2857142857, 7826205.714285715], [989286.3971813866, 7826139.965077967], [989157.8651576727, 7826079.269684655], [989130.0, 7826165.0], [989063.1189805606, 7826098.11898056], [988956.8779668307, 7826098.183412683], [988714.4727530078, 7826225.093418259], [988538.7433209632, 7826176.036579395], [988439.5337084, 7826014.5337084], [988235.0, 7825810.0], [988269.2857142857, 7825774.285714285], [988159.4117647059, 7825664.411764706], [988197.8571428572, 7825605.714285715], [987956.4010155242, 7825309.594926932], [988061.0, 7825164.0], [988012.2340440905, 7825117.828761381], [988030.0833333334, 7825034.583333333], [988274.7590063096, 7824790.179597754], [988457.922702239, 7824668.587304763], [988527.7910860012, 7824726.569365976], [988719.0, 7824720.0], [988705.0, 7824790.0], [988770.1185050136, 7824825.255241568], [988950.3791469195, 7824704.62085308], [989325.0, 7824330.0], [989370.0, 7824405.0], [989498.1818181818, 7824295.0], [989580.0, 7824295.0], [989683.5754189944, 7824398.575418995], [989911.5384615385, 7824351.153846154], [989980.0, 7824415.0], [990132.8282828283, 7824295.404040404], [990200.0, 7824305.0], [990282.5886864814, 7824268.604985618], [990427.1428571428, 7824356.428571428], [990509.4409837392, 7824337.160019416], [990712.6423712112, 7824423.23735461], [990713.75, 7824494.583333333], [990665.0, 7824626.666666667], [990713.110182854, 7824661.412909839], [990660.5801293849, 7824884.283609625], [990951.3049781056, 7825179.009333948], [990869.940267422, 7825344.940267422], [990933.6666666666, 7825408.666666667], [990995.0, 7825620.0], [990965.6747590146, 7825667.718671903], [991055.0, 7825780.909090909], [991219.6726190476, 7825828.84469697], [991283.3333333334, 7825788.333333333], [991370.0, 7825875.0], [991432.01050465, 7825865.468002861], [991500.0, 7825955.0], [991555.7919403077, 7825910.366447754], [991784.174482975, 7826171.963136883], [991882.4702886248, 7826235.602716468], [991841.8, 7826264.0], [991867.8735632184, 7826377.126436782], [991645.4844653902, 7826461.681677642], [991627.5, 7826553.75], [991687.9676108842, 7826515.356834997], [991756.5745594699, 7826635.120646759], [991691.08262537, 7826646.212641644], [991473.837426226, 7826544.088397941], [991411.9255097916, 7826627.32575068], [990988.1270918978, 7826895.909617136], [990684.5853410629, 7827163.616850147], [990678.4802817426, 7827135.898848949], [990564.2857142857, 7827229.285714285], [990490.0, 7827155.0]]]}}]}