{"type": "FeatureCollection", "crs": {"type": "name", "properties": {"name": "EPSG:25833"}}, "features": [{"type": "Feature", "properties": {"station": "234.13.0", "name": "Veahkkava, Iesjokka", "series": ["1001.0"], "nodes": 20773460, "fine_vertices": 44268, "fine_area_m2": 2077347050.0, "reduced_vertices": 2051, "reduced_area_m2": 2077347049.999999, "outline_tolerance_m": 20.0, "windows": [[424, 516], [1222, 1100], [2820, 2299], [5701, 4698], [12099, 9497]], "placed_on": "name", "distance_m": 51.88334273614225, "uncertainty_m": 51.88334273614225, "elvid": "234-62-48", "objectid": 10828354, "lake": false, "confluence_near": false, "reach_up_m": 1000.0, "reach_down_m": 151.88334273614214, "reach_fork": false, "seeded_by": "river", "lake_rule": null, "lake_number": null, "lake_name": null, "lake_distance_m": null, "node_offset_m": 5.386055079801898, "chain_nodes": 128, "lowered_nodes": 50, "lowered_max_m": 0.0584259033203125, "direction_ok": true, "end_extended_m": 10.0, "end_closed": true, "downstream_checked": "whole", "a0": 2077.346, "area_up": 2077.3409, "area_down": 2077.3494, "swing": 2.455055633417189e-06, "largest_step": 0.004400000000259752, "largest_step_at_m": -14.142135623731065, "checked_up_m": 38.28427124746213, "checked_down_m": 48.28427124746213, "drains": true, "monotone": true, "causes": []}, "geometry": {"type": "Polygon", "coordinates": [[[860585.0, 7775610.0], [860368.2754517408, 7775392.7448215075], [860325.0, 7775270.0], [860370.3846153846, 7775221.153846154], [860238.9755501222, 7775087.828850856], [860225.0, 7774990.0], [860348.618623357, 7774860.804333328], [860421.2583425221, 7774864.244994487], [860571.3715448474, 7774633.517367187], [860622.2023861799, 7774610.209506543], [860618.1481481482, 7774576.851851852], [860974.7288888888, 7774220.271111111], [861260.8266666667, 7774114.173333334], [861239.1184295819, 7774075.747468155], [861310.1057158215, 7774001.737143881], [861423.6148648649, 7774014.560810811], [861444.5710247726, 7773873.609603129], [861361.7591530427, 7773753.853065656], [861742.4656697616, 7773356.465046239], [861644.4312084138, 7773227.66974315], [861700.4385964912, 7773156.783625731], [861779.5869379218, 7772819.529898279], [862007.5340457467, 7772552.111655047], [861904.4871794871, 7772450.512820513], [861847.0700488713, 7772528.276704677], [861763.9822614545, 7772482.338705543], [861679.2920353982, 7772585.619469026], [861544.7487985126, 7772508.1739827795], [861482.5, 7772407.5], [861585.0, 7772336.341463415], [861548.7915806302, 7772223.084986945], [861308.6990406082, 7771935.347514966], [861105.0, 7771750.0], [861165.8130257397, 7771640.123386615], [861034.7318689334, 7771511.283343159], [860744.0, 7771509.0], [860641.500069512, 7771449.312526067], [860429.3846153846, 7771252.692307692], [860461.9230769231, 7771198.461538462], [860436.8581910302, 7770964.662316784], [860558.6390003202, 7770799.548750401], [860535.0, 7770770.0], [860643.8, 7770628.8], [860120.8023156056, 7770105.802315606], [860170.5014848663, 7769898.863503396], [860130.0, 7769795.0], [860110.0, 7769815.0], [859931.3250935293, 7769688.190992812], [859905.0, 7769510.0], [859830.3944310554, 7769451.928430758], [859854.1191039364, 7769350.922102543], [859979.7815145275, 7769224.783802333], [859783.5724905089, 7769028.480898399], [859740.0, 7769075.0], [859708.1238615665, 7769042.795992714], [859616.4511941848, 7769091.451194185], [859526.0172867125, 7769026.802414408], [859429.9230769231, 7769165.384615385], [859393.2672539939, 7769365.955098039], [859287.7118331176, 7769550.267842103], [859058.441516101, 7769504.687189704], [859061.2416826908, 7769458.494133351], [858902.0, 7769397.0], [858856.9827005392, 7769429.151330439], [858771.4841266727, 7769339.179979817], [858869.2500397994, 7769207.341154116], [858631.9387322026, 7769161.621987416], [858786.0714285715, 7769018.928571428], [858727.0282076941, 7768971.390062721], [858637.768126064, 7769023.859400236], [858450.2, 7768835.2], [858575.0, 7768710.0], [858463.4156924941, 7768757.639410196], [858276.4462809918, 7768596.4049586775], [858243.3333333334, 7768640.555555556], [858075.2952313748, 7768509.373944442], [858132.7884677728, 7768326.8372175535], [858035.7976138669, 7768220.530525368], [857905.2641359157, 7768147.1964177545], [857712.1794871795, 7768284.102564103], [857688.3647396998, 7768392.96231236], [857607.4606575378, 7768490.047210955], [857430.8453871447, 7768484.8261879925], [857362.274335265, 7768556.322701642], [856961.8082788672, 7768234.869281046], [856904.515409152, 7768264.358071682], [856727.602011506, 7768602.602011506], [856610.2858666986, 7768541.042358441], [856627.2445695897, 7768357.57843926], [856580.0, 7768315.0], [856334.9553571428, 7768598.125], [856245.5555555555, 7768579.444444444], [856210.0, 7768615.0], [856113.8944614043, 7768581.17531618], [856084.8896782909, 7768610.511582528], [856002.2222222222, 7768567.222222222], [855931.3638130809, 7768618.48149692], [855707.7891998866, 7768469.144343473], [855745.0, 7768400.0], [855679.1885083008, 7768415.071153693], [855576.5862643991, 7768317.941574456], [855664.2307692308, 7768199.230769231], [855535.4705507208, 7768067.950608637], [855515.2065318103, 7767846.710346528], [855553.3902229341, 7767736.319512426], [855455.4176929372, 7767659.633463601], [855409.884773308, 7767526.84764099], [855334.4875053094, 7767555.0], [855390.6953821417, 7767318.582770715], [855476.2121212122, 7767267.2727272725], [855427.0, 7767112.0], [855531.7850988791, 7766876.908179775], [855393.1479126919, 7766750.673474204], [855373.7412587412, 7766636.223776224], [855413.0, 7766611.0], [855351.3291139241, 7766535.506329114], [855379.0, 7766504.0], [855325.0, 7766450.0], [855451.5681093043, 7766221.921841996], [855537.1977832828, 7766252.791918832], [855575.3190184049, 7765912.245398773], [855660.0, 7765855.0], [855743.060420669, 7765906.3481554], [855827.007333584, 7765777.49083302], [855818.0859946244, 7765613.704274545], [855864.1962859037, 7765379.164032871], [856004.6566773349, 7765226.077974978], [856124.2176970628, 7764959.2176970625], [856065.0, 7764900.0], [856034.4489012905, 7764728.660620858], [856122.0719985167, 7764548.1004282655], [856234.27734375, 7764092.12890625], [856206.399188876, 7764118.392236385], [856070.155082855, 7763968.979129498], [856061.4095228607, 7763682.396480194], [856156.4615715636, 7763446.936386066], [856015.0, 7763269.117647059], [856112.1428571428, 7763062.857142857], [856005.9691629956, 7762945.154185022], [856025.0, 7762850.0], [856105.0, 7762770.0], [856084.61822265, 7762676.427654796], [856265.0, 7762486.0], [856217.6252061388, 7762425.121454783], [856283.1287489324, 7762296.69560532], [856283.0, 7762032.5], [856161.3148543498, 7761807.381723827], [856107.2739156736, 7761813.177056851], [856028.4054794315, 7762240.030880211], [855966.5, 7762259.5], [855955.0, 7762340.0], [855873.9857288481, 7762415.122324159], [855842.6546800233, 7762608.606116677], [855720.0, 7762575.0], [855645.4545454546, 7762598.636363637], [855450.3814124945, 7762547.733676387], [855300.860917491, 7762431.386418941], [855235.5865921788, 7762421.9273743015], [855215.0, 7762470.0], [855236.7256510025, 7762491.7256510025], [855241.3559078637, 7762708.51189155], [855103.5313114967, 7762860.575297083], [854966.0714285715, 7762843.452380952], [854933.635934337, 7763026.942919388], [854859.3672280848, 7763118.734456169], [854881.8085106383, 7763163.617021277], [854810.0, 7763255.0], [854778.1818181818, 7763239.545454546], [854544.7400506272, 7763506.025884547], [854565.0, 7763600.0], [854461.4090073708, 7763722.98031765], [854253.8292519738, 7763561.170748026], [854203.2666666667, 7763611.733333333], [854115.4784688995, 7763634.928229665], [854132.3959344365, 7763747.576675822], [853961.9527458411, 7763916.012755119], [853905.3706671887, 7763876.040967298], [853876.7853367282, 7763923.576852637], [853769.7801314438, 7763920.191841766], [853687.2908199319, 7764009.184094849], [853576.8482712301, 7763974.897096049], [853380.0, 7764115.0], [853128.4270061223, 7764231.787878768], [852935.8325437175, 7764438.573123819], [852967.8571428572, 7764495.714285715], [852931.1538461539, 7764550.769230769], [852862.2368421053, 7764502.763157895], [852770.0, 7764595.0], [852725.0, 7764600.0], [852766.25, 7764641.25], [852705.0, 7764740.0], [852741.3112262941, 7764778.230604306], [852666.7647058824, 7764908.235294118], [852715.0, 7765030.0], [852653.870426177, 7765091.129573823], [852440.3318901615, 7765200.916078723], [852240.3241704981, 7764988.704774086], [852205.8823529412, 7765009.705882353], [851971.4360313315, 7764793.563968669], [851880.097100933, 7764814.621631799], [851777.4003223322, 7764591.2728982065], [851698.859486514, 7764549.622454969], [851649.3103448276, 7764438.793103448], [851565.6176625482, 7764477.1435878035], [851320.0, 7764245.0], [851296.9387755102, 7764257.448979592], [851209.5392114413, 7764138.462796967], [851000.0, 7764115.0], [850990.0, 7764085.0], [850904.0, 7764099.0], [850891.0372851184, 7764041.188881381], [850787.3759751731, 7763974.663995077], [850654.2566278143, 7763772.863622781], [850718.7598304432, 7763613.280095493], [850402.7724827057, 7763252.604150653], [850458.0769230769, 7763163.846153846], [850353.0847457628, 7763041.915254237], [850263.7113402062, 7763131.288659794], [850118.2850753778, 7763051.665727416], [849927.5952121872, 7762892.595212188], [849965.8957630284, 7762909.017587668], [850165.263278179, 7762706.719992687], [850193.8517251137, 7762531.448478035], [850280.1648351648, 7762436.593406593], [850326.666502007, 7762305.034411604], [850451.8017018425, 7762119.93308076], [850525.3511937688, 7762077.535722794], [850738.7736320116, 7761780.257797741], [850810.3731343284, 7761614.0298507465], [850765.0, 7761570.0], [850791.6666666666, 7761476.666666667], [850541.00228072, 7761207.703124542], [850434.1344622343, 7761197.260628681], [850294.5782589372, 7760993.090802843], [850302.2222222222, 7760889.444444444], [850238.127090301, 7760946.672240803], [850055.088182197, 7760880.824191084], [849820.0, 7760655.0], [849692.4690885675, 7760741.570164131], [849509.1674491446, 7761156.137221816], [849350.0, 7761295.0], [849292.9689601008, 7761237.968960101], [849047.9683296836, 7761521.030947383], [848972.1212121212, 7761562.171717172], [848895.0, 7761500.0], [848877.5, 7761402.5], [848679.5454545454, 7761204.545454546], [848730.6882821388, 7761131.9226393625], [848730.0, 7761045.0], [848640.4672897196, 7761134.53271028], [848589.5131051552, 7761092.161913389], [848514.0689695601, 7761117.13683883], [848440.1433846428, 7761088.674726988], [848303.0, 7760886.0], [848312.7666325624, 7760856.7001023125], [848150.1270608589, 7760734.3288429305], [848146.6858580338, 7760636.793882184], [848036.4319621283, 7760486.885656319], [848150.1767283748, 7760395.47530308], [848040.9231839372, 7760305.566944917], [847976.27925117, 7760157.971918877], [848103.1836341573, 7760032.5281653], [848051.9443531398, 7759927.148226052], [848105.3307392997, 7759777.8015564205], [848218.9216153144, 7759691.522139721], [847970.6230529594, 7759445.0], [847872.2222222222, 7759445.0], [847785.0, 7759377.5], [847570.9285548853, 7759436.970812147], [847553.9855929988, 7759586.312523221], [847615.3506976806, 7759674.951007761], [847389.3147475076, 7759771.852494206], [847249.3134118029, 7759645.343294099], [847116.9679368698, 7759713.52553465], [846931.2389324848, 7759522.314017487], [846795.4166666666, 7759340.416666667], [846925.4787265193, 7759190.315651961], [846919.3979057592, 7759065.497382199], [847044.8453834921, 7758899.566994867], [847270.2218423544, 7758454.995043892], [847263.5601995742, 7758411.329625942], [847539.9054069683, 7757964.824158943], [847465.0, 7757910.0], [847503.1818181818, 7757857.2727272725], [847349.3591985516, 7757685.3247972755], [847464.3126504781, 7757485.013964367], [847485.0, 7757350.0], [847415.6400152574, 7757281.376432359], [847539.3179126962, 7757084.42736603], [847632.5016607282, 7757177.498641223], [847883.992601531, 7756853.91856608], [847865.0, 7756670.0], [847945.7254351488, 7756500.958450309], [847878.0235270322, 7756379.270414285], [847805.0, 7756310.0], [847836.2743686669, 7756150.53025299], [847894.5909064148, 7756059.501417193], [847731.3962368929, 7755841.590371157], [847820.7203395779, 7755804.122461402], [847810.5786056389, 7755594.724982054], [847964.5623115017, 7755351.795248911], [847830.0, 7755205.0], [847720.849981838, 7755241.200508536], [847607.0628642492, 7755131.380771805], [847583.6915504512, 7755027.871205906], [847350.0, 7754815.0], [847293.220338983, 7754883.135593221], [847086.1803471429, 7754816.295987819], [846890.9300693233, 7754863.313472643], [846627.2505835377, 7754752.879952047], [846563.2780416515, 7754631.7219583485], [846425.0, 7754770.0], [846478.5648703154, 7754813.953788135], [846389.2857142857, 7754954.0], [846410.0, 7754995.0], [846275.555720821, 7754853.222396502], [846080.8706720978, 7754839.618126273], [845978.8403249842, 7754919.663945953], [845930.0, 7754880.0], [845868.1727441134, 7754913.170944804], [845723.7726846866, 7754809.8903236445], [845609.890255009, 7754903.885701275], [845420.0, 7754775.0], [845194.3049327354, 7754831.322869956], [844933.8399871133, 7755105.1319768345], [844852.2133599202, 7755073.494516451], [844828.5714285715, 7755099.285714285], [844610.1374664368, 7755162.168727315], [844245.2000000001, 7754758.2], [844324.8, 7754711.8], [844325.0204918033, 7754665.717213115], [844240.9753935762, 7754645.961654789], [844262.9069767442, 7754464.4186046515], [844160.7971014492, 7754375.072463769], [844137.0619187837, 7754296.204295053], [843965.3846153846, 7754251.923076923], [843981.4398649255, 7754196.638319711], [843750.4408794234, 7753946.332442602], [843751.0549716647, 7753793.10105687], [843865.8590563397, 7753595.716199197], [843641.6666666666, 7753346.666666667], [843669.6112221756, 7753299.460063598], [843571.7924402421, 7753183.514784056], [843457.382852643, 7753295.525026569], [843249.3648291142, 7753081.188974685], [843172.8355569941, 7752926.8606106285], [842926.0004786979, 7752779.540449976], [842984.647887324, 7752645.422535211], [842886.2615236696, 7752485.947833325], [842950.5233709363, 7752405.174456979], [843010.0, 7752425.0], [843098.8481163107, 7752271.237885439], [843160.3294527411, 7752053.878047617], [843065.0, 7751960.0], [843172.1303992369, 7751852.869600763], [843133.2366459111, 7751730.212579259], [843289.910421134, 7751624.970140378], [843410.0, 7751665.0], [843450.3935057787, 7751535.063291139], [843705.0415280754, 7751344.291075351], [843774.0, 7751419.0], [843868.1230610134, 7751354.850051707], [843937.3033707865, 7751130.014044944], [843867.4309704875, 7750968.996030392], [843910.258956912, 7750840.509931956], [844015.6188639551, 7750714.388148667], [844143.7368421053, 7750782.947368421], [844222.5160480045, 7750612.980742395], [844358.6408182038, 7750439.743441574], [844255.6676524668, 7750356.698158879], [844350.0, 7750075.0], [844384.702851583, 7750110.441210127], [844543.2766144003, 7750104.200207945], [844683.1924923816, 7749933.284052981], [844930.2498212105, 7749466.803923586], [845025.156275272, 7749536.059984658], [845083.2511468453, 7749501.7488531545], [845200.099490841, 7749563.634634517], [845244.2857142857, 7749450.714285715], [845300.0, 7749465.0], [845399.75, 7749366.25], [845433.1270694757, 7749147.244398757], [845417.2460665518, 7748945.733042119], [845465.0, 7748850.0], [845424.608340046, 7748763.2009009505], [845582.2626925184, 7748603.602719507], [845556.9189532982, 7748532.15882246], [845585.0, 7748495.6435643565], [845542.2432977189, 7748439.826389151], [845657.4159021407, 7748244.189602447], [845704.2316518355, 7748062.296975593], [845573.1321380759, 7747802.244814155], [845589.5251462423, 7747740.311665075], [845480.5553246159, 7747507.87357561], [845513.0014643606, 7747387.3566973265], [845448.1041973274, 7747373.059692706], [845451.5789473684, 7747317.631578947], [845381.6874660879, 7747343.860553445], [845271.4515394656, 7747295.989123881], [845239.5898229236, 7747184.343196636], [845285.8372353007, 7747051.774223749], [845341.7392438974, 7747018.818159778], [845489.2101740295, 7746564.732262383], [845568.6232590643, 7746149.542902778], [845380.2688172043, 7745974.892473118], [845435.0, 7745760.0], [845435.0, 7745540.434782608], [845593.0302529683, 7745370.584934462], [845566.6666666666, 7745178.333333333], [845594.8570187851, 7745066.53599273], [845453.3387500932, 7744957.94964891], [845492.1074380166, 7744838.429752066], [845455.0, 7744780.0], [845483.5714285715, 7744738.571428572], [845445.0, 7744700.0], [845487.3656651576, 7744658.602003018], [845320.8293952844, 7744443.238230064], [845274.2420537898, 7744415.012224939], [845218.0695405077, 7744283.171506652], [845286.298284983, 7744081.335587543], [845900.7043687946, 7743417.69791248], [845835.0, 7743350.0], [845861.5299891104, 7743103.12606316], [845760.0518762955, 7742991.071288071], [845720.0, 7742905.0], [845638.085106383, 7742940.106382979], [845595.7142857143, 7742900.714285715], [845562.380952381, 7742932.714285715], [845438.6275505179, 7742901.830955502], [845266.3396340385, 7743011.965116127], [845093.4722661105, 7742830.655734555], [845043.195073648, 7742936.52858863], [844840.5974852012, 7742835.49397265], [844730.0, 7742925.0], [844591.5743829219, 7742807.508338893], [844504.0, 7742819.0], [844414.5520581114, 7742777.130750605], [844337.5, 7742785.0], [844287.1184665303, 7742748.036485744], [844222.2727272727, 7742793.636363637], [844167.4487384275, 7742714.309899585], [844001.957127405, 7742630.229276607], [843957.8947368421, 7742569.736842105], [843920.0, 7742595.0], [843862.0, 7742525.4], [843557.5893709676, 7742479.526444637], [843532.0491803279, 7742663.661202186], [843444.7997473836, 7742625.920366397], [843377.5703971119, 7742687.090252708], [843246.5547600966, 7742692.464831767], [843180.8431208053, 7742573.259228188], [843069.4069582624, 7742539.12685479], [843031.1444341049, 7742601.233880481], [842920.0, 7742645.0], [842896.1946581757, 7742553.81294309], [842927.7177232438, 7742513.6924085645], [842808.359375, 7742362.8515625], [842782.549368951, 7742205.013448585], [842703.0555555555, 7742183.611111111], [842682.1161482311, 7742099.403413489], [842534.0057636887, 7741982.982708934], [842534.7542745174, 7741880.859419938], [842444.1086684588, 7741845.785803636], [842472.5, 7741792.5], [842415.0, 7741713.703703703], [842421.5079099579, 7741410.981421434], [842618.6239152449, 7741256.2147182785], [842645.0, 7741124.0], [842620.0, 7740925.0], [842680.0, 7740945.0], [842785.3493726526, 7740788.055687989], [842819.7140381283, 7740596.811091854], [842944.374499466, 7740395.915652361], [842903.2766936421, 7740273.180100464], [842982.1428571428, 7740017.142857143], [842736.6666666666, 7739771.666666667], [842665.8333333334, 7739780.833333333], [842489.1379310344, 7739604.137931035], [842658.5031847134, 7739326.496815287], [842783.557841837, 7739202.568588489], [842687.1554361616, 7738708.383422879], [842793.2486073951, 7738652.325101978], [842652.8360982041, 7738463.655607183], [842705.0, 7738320.0], [842664.7737333989, 7738187.570093458], [842605.0, 7738130.0], [842618.1598748936, 7737971.789059613], [842548.9444444445, 7737881.833333333], [842510.1502265597, 7737952.607422283], [842391.0625888355, 7737853.124177168], [842791.295416016, 7737414.706933484], [842775.9932432432, 7737270.502252252], [842911.2599506596, 7737383.312656112], [842983.7558685446, 7737371.056338028], [843102.324238992, 7737438.683678325], [843288.0398162327, 7737610.375191424], [843429.737482738, 7737525.964261296], [843562.5057959815, 7737597.04984544], [843757.8170555163, 7737562.817055516], [843810.0, 7737615.0], [843950.3858731197, 7737533.194395533], [844026.4353831222, 7737593.197031598], [844088.125, 7737706.875], [844142.0116624756, 7737590.65141232], [844256.2690505699, 7737618.272545707], [844345.7361858133, 7737537.487345129], [844423.5714285715, 7737387.142857143], [844397.1085653979, 7737312.260826935], [844484.0986726697, 7737124.60556682], [844519.443508222, 7736611.193736375], [844504.3206499729, 7736582.415817628], [844521.5575533619, 7736484.764362677], [844505.0, 7736230.0], [844404.976359338, 7736088.841607565], [844452.744963423, 7735903.738266736], [844404.5459072782, 7735847.509715578], [844475.0, 7735780.0], [844416.9287532351, 7735547.009619799], [844625.0878395108, 7735274.564631287], [844620.0, 7735115.0], [844770.0, 7734955.0], [844800.0, 7735005.0], [844848.7829232945, 7735014.033874684], [844834.692196739, 7734855.0471569775], [844886.6666666666, 7734411.666666667], [844827.6093586357, 7734303.4630392715], [844855.0, 7734045.714285715], [844924.6830805134, 7734049.4301050175], [844963.9549645928, 7733853.9650395755], [845055.5, 7733959.5], [845284.3542414521, 7733742.789919023], [845276.4788732395, 7733654.859154929], [845410.9133587045, 7733759.6714710975], [845520.0, 7733915.0], [845572.2222222222, 7733877.222222222], [845599.9866820988, 7733974.555857194], [845641.2834229824, 7733959.286653207], [845675.0, 7733380.0], [845570.4040303292, 7733252.111650528], [845614.9682887134, 7733100.412463185], [845641.1375383879, 7732760.033587726], [845494.3564356435, 7732725.0], [845371.9733566504, 7732572.960454927], [845432.8448275862, 7732493.706896552], [845444.1844416562, 7732368.971141782], [845503.8020752115, 7732293.359446743], [845560.4406518667, 7731968.95064031], [845645.9694843444, 7731747.658560138], [845645.7051282051, 7731500.78525641], [845765.0, 7731370.0], [845752.4285714285, 7731332.285714285], [845862.3481650603, 7731246.453439011], [845759.1045916771, 7731129.021943384], [845773.1148919527, 7730435.2983914055], [845832.2675192616, 7730182.344768345], [845890.8121434165, 7729269.45250558], [845947.868852459, 7729312.868852459], [846027.6082753299, 7729242.492525067], [845965.0, 7729130.0], [846093.7662337662, 7729001.7532467535], [846299.0978425047, 7729048.686432376], [846436.3817129581, 7728946.685223763], [846398.8880485279, 7728501.897934293], [846445.865394711, 7728410.448684297], [846396.0585395292, 7728316.712130356], [846462.9946173852, 7728078.577945107], [846407.8976429091, 7727938.716836422], [846459.7227191413, 7727234.722719141], [846435.8328364142, 7727030.832836415], [846344.7489539749, 7726939.748953975], [846390.8620689656, 7726854.0], [846405.0, 7726600.0], [846550.4838709678, 7726416.451612903], [846545.9927260705, 7726363.107125144], [846637.2527472527, 7726375.439560439], [846720.0, 7726485.0], [846783.3274021352, 7726473.202846975], [846757.4942456725, 7726186.112035874], [846883.9475629897, 7726046.857497157], [846879.9644157748, 7725945.569601831], [846825.0, 7725860.0], [846867.6071616673, 7725805.21936357], [846882.6046584324, 7725655.5824242765], [846783.837650581, 7725558.995764239], [847016.5252716659, 7725105.178247418], [847026.3400685762, 7725009.8034399655], [846945.0385387186, 7724987.5552950865], [846884.4444444445, 7725049.444444444], [846741.6666666666, 7724906.666666667], [846755.0, 7724830.0], [846893.162782108, 7724744.865753061], [846845.7407407408, 7724620.925925926], [846885.0, 7724400.0], [846931.6666666666, 7724353.333333333], [846871.2725765865, 7724258.428334636], [846994.8785425101, 7723779.230769231], [847025.0, 7723475.0], [847061.5337430564, 7723424.7661032975], [847058.5138072157, 7723167.781757115], [847130.8179634922, 7723018.441424146], [847162.437201876, 7722857.933707895], [847240.0, 7722895.0], [847280.0, 7722855.0], [847403.7290877717, 7722885.768949528], [847480.4142088091, 7722633.864923181], [847581.8004857969, 7722555.77147341], [847650.0, 7722435.0], [847818.75, 7722536.25], [847840.0, 7722485.0], [847897.1849503465, 7722618.887047156], [848055.9793814434, 7722601.701030928], [848088.7890152932, 7722553.094956961], [848128.6815232548, 7722570.760986595], [848245.0119321038, 7722447.005116973], [848240.0, 7722165.0], [848260.2496798976, 7722179.167733675], [848304.6570749144, 7722078.592578581], [848441.069124424, 7722180.953917051], [848535.8112513659, 7722136.217270701], [848575.0, 7721758.0], [848650.0, 7721629.0], [848608.2804696155, 7721549.026869448], [848625.3231264335, 7721496.1274523325], [848609.6791345801, 7721163.714704804], [848667.2222222222, 7720914.444444444], [848638.2911284971, 7720620.069468234], [848690.7448275862, 7720463.155172414], [848727.4838284877, 7719988.392092098], [848654.5238732013, 7719921.95320856], [848702.369577979, 7719712.925490449], [848602.2484860505, 7719688.829430875], [848635.0, 7719600.0], [848626.211108054, 7719043.9938942855], [848480.0, 7718965.0], [848480.0, 7718929.0], [848446.5358394852, 7718946.401363468], [848270.5198626778, 7718907.373712604], [848165.0, 7718820.0], [848150.9714793839, 7718584.767280455], [847895.0, 7718370.0], [847845.8503759496, 7718165.967772245], [847962.3076923077, 7718073.461538462], [847975.0, 7718010.0], [847925.0, 7717960.0], [847900.3247754214, 7717607.459013905], [847855.0, 7717430.0], [847880.0, 7717375.0], [847602.1875, 7717097.1875], [847649.0, 7717016.0], [847630.3333333334, 7716995.777777778], [847755.6245239909, 7716834.851485148], [847820.0, 7716795.0], [847870.5974959619, 7716886.473290935], [848052.3529411765, 7716806.764705882], [848120.0, 7716875.0], [848158.7587514227, 7716810.591334644], [848243.7686567164, 7716223.003731343], [848307.3076923077, 7716172.307692308], [848174.6110161906, 7716047.473948525], [848170.2216236175, 7715941.212845946], [848216.4406779661, 7715813.389830508], [848300.0, 7715785.0], [848341.2985889759, 7715823.193766807], [848472.2081218275, 7715777.66497462], [848491.3258450194, 7715720.954932295], [848421.6057855029, 7715705.469196077], [848378.816632051, 7715562.343802194], [848489.9317590988, 7715428.935225303], [848543.602994459, 7715437.982308137], [848597.8571428572, 7715324.285714285], [848531.015625, 7715225.9375], [848555.0, 7715130.0], [848412.8128600965, 7714984.162271511], [848428.1707317074, 7714914.146341464], [848319.3040264323, 7714823.587632104], [848335.0, 7714669.411764706], [848273.5169687766, 7714583.473258874], [848290.0, 7714515.0], [848322.3899371069, 7714530.597484277], [848385.0, 7714484.545454546], [848400.8232719671, 7714302.190602755], [848496.614047192, 7714205.455239224], [848590.0, 7714225.0], [848680.2302638483, 7714085.100249785], [848752.560857532, 7714098.945324345], [848824.868133747, 7713921.062520751], [848780.0, 7713575.0], [848744.2857142857, 7713609.285714285], [848454.168797954, 7713340.831202046], [848282.2792682264, 7713388.681894828], [848263.6075413075, 7713277.097626275], [848350.8599711643, 7713012.868586337], [848311.6666666666, 7712906.666666667], [848348.3333333334, 7712843.333333333], [848315.0, 7712810.0], [848363.6187845304, 7712649.502762431], [848335.0, 7712600.0], [848424.9114017477, 7712410.199444842], [848295.0901838363, 7712119.819632327], [848305.706661434, 7711953.4214473795], [848601.1423223797, 7711947.1202866305], [848771.6518254675, 7712004.501038884], [848795.0, 7712093.333333333], [848884.6361435311, 7712034.553699239], [848863.0538471079, 7711839.725039102], [848765.0, 7711670.0], [848779.6153846154, 7711596.923076923], [848689.6168864402, 7711483.158038796], [848734.1025458683, 7711277.81965581], [848724.3796709302, 7710820.844533719], [848837.0360953646, 7710696.764115558], [848959.3370462644, 7710271.664673848], [848985.0, 7710010.0], [849215.7811917058, 7709850.28129534], [849236.7670817602, 7709905.752831349], [849360.7680390417, 7709902.405176946], [849430.0, 7709955.0], [849489.1775027204, 7709926.595729053], [849521.5294117647, 7709963.8], [849495.0, 7710054.0], [849550.0338093697, 7710067.227865286], [849669.4532499949, 7709977.855016046], [849690.0, 7710045.0], [849709.228450874, 7710025.771549126], [849784.3624354936, 7710075.26704078], [849840.0, 7710055.0], [849903.6281063539, 7710127.377399505], [849916.2519406639, 7710235.83462711], [850044.1495207284, 7710312.509345163], [850059.829843584, 7710591.334393973], [850299.8436378415, 7710542.44568477], [850250.325476213, 7710431.879726864], [850612.457159563, 7710278.586942709], [850747.8517936933, 7710531.683882426], [850940.4272886903, 7710765.714868777], [850993.3333333334, 7710741.666666667], [851103.534262213, 7710817.347998467], [851119.906375993, 7710958.6693251645], [851350.4434291424, 7711212.781283151], [851502.2915113452, 7711539.361360705], [851565.0, 7711554.0], [851592.4111675126, 7711405.979695432], [851565.0, 7711160.0], [851653.7637536993, 7710982.576693843], [851843.1283138918, 7711212.709437964], [851903.761859054, 7711136.077774367], [852074.067218296, 7711069.736970062], [852150.0, 7711235.0], [852223.9757163593, 7711290.268312065], [852260.0, 7711255.0], [852388.9097744361, 7711394.135338346], [852363.2655749469, 7711467.588626806], [852507.0652173914, 7711592.451690821], [852600.0, 7711605.0], [852699.1857342357, 7711701.766569986], [852711.0302219554, 7711166.818519505], [852777.731160454, 7711084.258292101], [852669.074074074, 7710914.814814814], [852650.4256670902, 7710709.682337993], [852709.5454545454, 7710644.545454546], [852636.9137429487, 7710574.0127157075], [852553.0399317538, 7710091.013156541], [852641.8139538409, 7710009.322114509], [852605.0, 7709900.0], [852631.5429357963, 7709885.253924558], [852629.2608812364, 7709519.785112477], [852726.0496446377, 7709425.811498886], [852778.5714285715, 7709472.142857143], [852940.0, 7709485.0], [852970.0, 7709455.0], [853106.9026548673, 7709503.091024021], [853243.7536788979, 7709490.230395426], [853378.3870967742, 7709389.838709678], [853484.6784996651, 7709529.758874749], [853521.3716193995, 7709786.230061974], [853633.4862377761, 7709969.537453583], [853955.0, 7710206.1260807095], [853955.0, 7710250.0], [854073.3477321814, 7710310.205183585], [854106.9230769231, 7710233.461538462], [854204.9884074146, 7710259.438749322], [854339.8480522586, 7710110.754179743], [854300.5163366485, 7710079.923293019], [854295.0, 7709986.0], [854345.0, 7709940.0], [854287.5, 7709882.5], [854325.0, 7709840.0], [854289.0, 7709726.0], [854362.9654903192, 7709568.350452455], [854424.216395419, 7709560.783604581], [854444.9969945324, 7709405.1728754], [854405.0498488952, 7709343.72351756], [854463.0861278303, 7709235.741616509], [854419.6708456582, 7709145.5516334735], [854567.8816765199, 7708896.433146925], [854485.4136118765, 7708698.781482643], [854527.3134328359, 7708475.149253732], [854494.27176781, 7708474.474934037], [854471.2635528104, 7708366.560563287], [854580.7202792208, 7708230.127458506], [854596.1630105614, 7708047.905950713], [854673.1896518546, 7707956.905186369], [854755.9499747347, 7707953.810005053], [854794.4801482782, 7707916.118524207], [854865.982532751, 7707899.017467249], [854925.0704225352, 7707968.943661972], [855022.4566929134, 7707887.456692914], [855125.2583921877, 7707984.219325315], [855107.5610240037, 7708150.870328084], [855050.8680537674, 7708242.288201061], [855060.6276150143, 7708361.343000058], [855239.3080384601, 7708571.5401923], [855357.4128083584, 7708810.163768566], [855423.9556627407, 7708786.482965361], [855376.6962676962, 7708664.620334621], [855372.032732618, 7708407.3997618845], [855408.8851324569, 7708357.791751214], [855403.8003192055, 7708281.199680794], [855566.1996807945, 7708188.800319206], [855711.4733429856, 7708241.765027253], [855771.4136354271, 7707990.960653882], [855871.3580246913, 7708013.641975309], [855961.630832069, 7707865.436031959], [855909.7279038997, 7707825.993591416], [855973.8484691068, 7707746.493816809], [855945.0, 7707640.0], [856091.6291577418, 7707531.212931241], [856140.0, 7707555.0], [856187.951407051, 7707487.405847892], [856145.0, 7707370.769230769], [856205.33632287, 7707281.871334943], [856335.8113913236, 7707238.582928556], [856360.4048927239, 7707361.476358378], [856469.9046475335, 7707461.292353619], [856594.9689762361, 7707427.944201173], [856691.2632502712, 7707438.741783675], [856700.0, 7707405.0], [856810.0, 7707465.0], [856873.5267197121, 7707394.482710775], [856924.5063892736, 7707489.2149423305], [856897.1345933056, 7707517.697606642], [856940.0, 7707565.0], [856995.0, 7707531.818181818], [856995.0, 7707460.0], [857122.7608809648, 7707400.812794966], [857212.3335773799, 7707270.013816798], [857457.6873263103, 7707094.21022103], [857470.0, 7707145.0], [857609.2783505154, 7707097.474226804], [857635.7135804429, 7707047.541014719], [857817.8531790935, 7706981.466933789], [857775.0, 7706880.0], [857811.7508860786, 7706701.09751898], [857863.9785735488, 7706617.616671614], [857815.0, 7706460.0], [857871.0580431228, 7706372.336698107], [857833.775510204, 7706297.006802721], [857873.8153937268, 7706244.630593863], [857873.9033942559, 7706002.7154047], [858023.783574051, 7705875.65782198], [858055.2771382617, 7705891.924181164], [858300.0, 7705695.0], [858383.6960926194, 7705723.5875542695], [858430.7899845114, 7705858.596661503], [858500.0, 7705905.0], [858592.0000926383, 7705776.998795701], [858525.0, 7705580.0], [858500.0, 7705595.0], [858455.2266696929, 7705505.061336059], [858477.4698380753, 7705305.826521713], [858578.7602123758, 7705164.576467359], [858613.8478982332, 7705155.822510943], [858817.6706557673, 7704938.0704314485], [858765.3836802646, 7704729.565254577], [858694.7915332146, 7704713.018702736], [858487.9479768786, 7704559.49132948], [858427.3047074641, 7704599.375703819], [858417.0979020979, 7704489.51048951], [858515.0, 7704437.5], [858518.7029952792, 7704358.399906398], [858469.4293500882, 7704354.623899054], [858467.411640727, 7704103.774697403], [858414.6792163501, 7704081.794550258], [858455.525837207, 7703786.343012413], [858315.012314758, 7703669.189132596], [858346.7857142857, 7703481.785714285], [858295.0, 7703430.0], [858278.7944003344, 7703286.53572921], [858310.0, 7703245.0], [858315.0, 7703290.0], [858471.4339422482, 7703464.91458197], [858681.4123972855, 7703461.466425458], [858850.857366276, 7703261.978696748], [858966.4737052589, 7703348.263420865], [859130.0, 7703375.0], [859162.8571428572, 7703410.714285715], [859258.0621893575, 7703382.277655758], [859293.6095422776, 7703432.216555569], [859255.0, 7703544.0], [859517.8747264053, 7703417.153451108], [859644.2168274027, 7703446.496508148], [859635.117820324, 7703383.696612665], [859683.9781021541, 7703396.719735746], [859725.0, 7703460.0], [859685.0, 7703500.0], [859752.4688673072, 7703563.621005384], [859908.1260434057, 7703477.0788435275], [859955.0, 7703352.7272727275], [859930.4624623077, 7703338.862730011], [859951.8349101959, 7703246.729308726], [860281.6666666666, 7703213.333333333], [860401.3044540762, 7703140.414364672], [860523.7980371001, 7703014.2190554375], [860594.6153846154, 7703098.076923077], [860642.5196850394, 7703083.582677165], [860757.7777777778, 7703149.444444444], [860842.9378697138, 7703108.736110309], [860849.0322580645, 7703180.023041475], [860964.7672253259, 7703262.690875233], [861037.7070063695, 7703207.29299363], [861049.1304347826, 7703127.608695652], [861074.0, 7703145.0], [861166.1561288972, 7703050.958736341], [861172.1739130435, 7702870.652173913], [861247.9689150151, 7702884.064458213], [861319.3266432354, 7703121.018415845], [861273.1355932204, 7703296.779661017], [861280.0, 7703385.0], [861394.2825112108, 7703313.946188341], [861415.0, 7703200.0], [861488.3333333334, 7703114.444444444], [861583.5567010309, 7703158.917525773], [861586.4057669543, 7703258.4487292105], [861882.6480945697, 7703452.08282297], [861880.0, 7703565.0], [862044.0145914671, 7703488.632835708], [862120.1660805894, 7703247.928320252], [862193.8333333334, 7703279.5], [862291.7236723548, 7703155.341341369], [862364.6733317925, 7703186.14908149], [862490.7883999745, 7703054.509445494], [862488.1075680647, 7702942.734862369], [862551.4921389065, 7702902.109463337], [862840.7799921745, 7703060.403985914], [863047.1641842274, 7703188.368806933], [862976.1518254075, 7703301.6782298265], [863012.3279482216, 7703423.947588425], [862970.7142857143, 7703474.285714285], [863021.1949666279, 7703541.2889596475], [863151.5710389209, 7703551.860214615], [863105.0, 7703630.0], [863160.8415841584, 7703671.881188119], [863170.0, 7703805.0], [863231.4739359705, 7703757.473667984], [863275.2631578947, 7703578.157894737], [863382.4483140316, 7703526.8898081435], [863426.4059590317, 7703558.594040968], [863490.0, 7703495.0], [863690.550348873, 7703567.597587166], [863766.526153311, 7703510.149136919], [863653.1719170122, 7703388.9722203445], [863676.5296343077, 7703283.430007121], [863859.1375385898, 7703220.536009611], [863922.0380434783, 7703154.320652174], [863908.1227000982, 7703098.726785595], [863811.7433913018, 7703082.11650001], [863824.9918596144, 7703032.82440467], [863941.052631579, 7702976.578947368], [863998.2993197279, 7702996.700680272], [864060.0, 7702935.0], [864134.1199857317, 7702958.786107452], [864159.3086103525, 7702758.637393579], [864310.9561440403, 7702902.13237735], [864336.1861861862, 7702749.144144144], [864419.4976816074, 7702676.746522411], [864490.0, 7702805.0], [864600.7289116309, 7702740.316463203], [864641.9866725964, 7702772.000241497], [864679.1018766756, 7702389.252680965], [864716.9333585763, 7702345.0], [864784.7873847787, 7702370.664214751], [864765.3853936171, 7702166.669660601], [864870.6756918654, 7702190.830837427], [864907.0773678223, 7702098.499916751], [865084.6153846154, 7702158.076923077], [865102.4845183314, 7702263.311877883], [865168.4198820367, 7702291.679155145], [865211.5149599663, 7702086.742520017], [865323.6741214057, 7702087.523961661], [865365.2272727273, 7702031.818181818], [865493.5742588807, 7702087.047884162], [865540.1847956319, 7702357.502633452], [865652.8092894164, 7702417.7719560405], [865692.5839793282, 7702569.237726098], [865768.8688705702, 7702519.180334834], [865825.0, 7702550.0], [865793.1305030374, 7702667.740086001], [865867.1428571428, 7702685.0], [865929.1803278689, 7702834.180327869], [865995.0, 7702900.0], [865965.0, 7702950.0], [866009.4736842106, 7703011.315789473], [866155.0514555313, 7703091.603357198], [866275.0, 7703000.0], [866275.0, 7702926.0], [866338.1488577075, 7702931.1162056355], [866347.4492895073, 7702994.102398627], [866440.0, 7703035.0], [866496.6666666666, 7702978.333333333], [866563.2585931183, 7703007.633780972], [866675.5023039168, 7702945.408531608], [866690.9315683467, 7702793.136863307], [866738.232838087, 7702842.026895131], [866769.0718400284, 7703066.281897214], [866895.919926698, 7702981.18966875], [867058.3689832623, 7703069.79654213], [867056.6790528488, 7703108.393921813], [867258.2849172509, 7703126.417284455], [867303.664414333, 7703347.906149611], [867427.4086378737, 7703307.591362126], [867500.5526937888, 7703363.284311255], [867604.3935479205, 7703252.474637318], [867701.6874992483, 7703330.560420102], [867793.0504263222, 7703272.0756394835], [867762.4193548387, 7703226.129032258], [867969.0505019582, 7703037.136019618], [867957.8576508225, 7702983.11354394], [868068.6295585085, 7702915.104251198], [868120.0, 7702975.0], [868252.1699775102, 7702967.956921937], [868300.3381897865, 7703012.9378412785], [868299.3946798196, 7703195.31795062], [868440.4733769805, 7703354.6735331165], [868502.0460706548, 7703340.740426546], [868520.3459119496, 7703484.213836478], [868580.0670623126, 7703445.377774224], [868708.7651674981, 7703447.800591577], [868775.1263025246, 7703538.402453621], [868844.9067683115, 7703503.6278880285], [868946.7872490817, 7703564.754559094], [869078.9598194186, 7703596.000364923], [869113.0749014454, 7703818.731931669], [869011.4548914963, 7703904.548914963], [869015.0, 7704010.0], [869075.0, 7704090.0], [869062.8048780488, 7704133.089430895], [869114.2307692308, 7704178.461538462], [869049.6679735524, 7704273.577512687], [869207.7031148002, 7704421.488706271], [869126.3677504519, 7704687.388364518], [869151.7003659761, 7704824.231015485], [869112.131163982, 7704856.171588745], [869076.3031202491, 7705054.430608847], [869155.0, 7705150.0], [869136.3715823207, 7705217.563153475], [869324.6637267508, 7705388.853636897], [869316.1983098184, 7705647.710988561], [869625.0471954388, 7705731.862345118], [869644.1150946326, 7705788.310487803], [869513.7812509327, 7705951.11722774], [869486.2248934574, 7705944.492879886], [869433.0, 7706008.0], [869460.6762092793, 7706052.507403751], [869393.4961648204, 7706147.641259024], [869493.9032992036, 7706391.039817975], [869670.1588920186, 7706435.02559744], [869676.561765464, 7706711.561765464], [869721.5754836944, 7706804.377753239], [869676.3461538461, 7706852.5], [869702.1518452436, 7706965.977087051], [869651.3636363636, 7706994.545454546], [869744.1088114626, 7707319.217694649], [869695.5575868373, 7707328.839122486], [869787.8048780488, 7707471.341463415], [869875.0, 7707480.0], [869985.0, 7707390.0], [869971.9565217391, 7707246.521739131], [870010.0, 7707205.0], [870069.4699173782, 7707221.961901545], [870124.921875, 7707141.484375], [870181.3580246913, 7707180.555555556], [870213.6625421823, 7707150.8312710915], [870320.0, 7707195.0], [870341.6711663067, 7707124.4249460045], [870433.0555555555, 7707048.055555556], [870466.404494382, 7707081.404494382], [870756.1168674373, 7706889.879422953], [870848.6531585221, 7706918.444576877], [870906.0, 7706875.0], [870941.9027149291, 7706885.25873048], [871034.3644333124, 7706807.936756418], [871097.6923076923, 7706887.307692308], [871130.3836720503, 7706854.61632795], [871242.3642570635, 7706857.217835877], [871354.1385096164, 7706962.069779148], [871348.6439037087, 7706993.639586851], [871484.1142830466, 7707003.947664488], [871586.7109332363, 7706790.839548845], [871720.1510277982, 7706704.334532693], [871820.4245973646, 7706812.920937043], [871869.780091662, 7706778.100024122], [872026.2385388985, 7706827.497906718], [872238.5547564751, 7706747.10951295], [872202.8197607335, 7706675.639521467], [872470.4459031192, 7706351.580251333], [872556.0, 7706335.0], [872699.0, 7706415.0], [872802.6975935624, 7706354.376578507], [872852.0176593529, 7706398.409401064], [872798.2282826344, 7706671.37227921], [873017.464989482, 7706745.993699572], [873042.1428571428, 7706931.428571428], [873223.202816271, 7706976.085565542], [873217.4570756704, 7707023.8753173165], [873301.3301820973, 7707094.94377911], [873368.1578947369, 7707244.736842105], [873587.6954564061, 7707176.796970937], [873653.2022786429, 7707220.468185762], [873869.9482131896, 7707085.395023877], [873930.0, 7707105.0], [873972.0, 7707051.545454546], [874060.7483413748, 7707069.105286796], [874010.6283759412, 7707144.894770556], [874060.0924299523, 7707263.594987455], [874133.4427969181, 7707303.335949993], [874132.3316708229, 7707327.506234414], [874077.4160734792, 7707329.540145427], [874100.4912336941, 7707493.0001457445], [874196.7495029821, 7707530.0397614315], [874260.7755241079, 7707461.429190622], [874424.7368421053, 7707558.157894737], [874467.2427523698, 7707634.640809081], [874490.2891664635, 7707868.327321713], [874632.0, 7707945.0], [874674.6467120263, 7707908.574997765], [874728.3965911423, 7707943.396591142], [874819.8341811588, 7707759.1731325155], [874975.6966463306, 7707784.30728057], [875112.7027027027, 7707762.567567567], [875230.1160815402, 7707666.74405436], [875321.9888163968, 7707740.533879177], [875496.604268274, 7707694.880548739], [875695.0, 7707516.666666667], [875688.5653221698, 7707560.016376244], [875744.4245471949, 7707595.0], [875822.634018541, 7707539.205069641], [875930.7262815076, 7707715.013749379], [876073.7836276663, 7707881.913355781], [876166.8178162746, 7708113.022273054], [876045.9302325582, 7708220.930232558], [876069.4368108466, 7708349.931139136], [876020.1281624086, 7708393.304434597], [875974.956397501, 7708666.0735917585], [876017.4860168839, 7708773.092189307], [875975.0, 7708800.0], [876028.2156514992, 7708950.365792829], [875995.9223300971, 7709005.497572816], [876045.0, 7709120.0], [876000.3746431072, 7709273.504612778], [876102.2030711375, 7709364.661548104], [876062.4556375414, 7709390.737529364], [876041.783780062, 7709579.80419899], [875999.6149994972, 7709567.551054532], [876015.0, 7709820.0], [876083.3118849357, 7709894.674489023], [875965.313615977, 7710000.313615977], [876085.0, 7710120.0], [876085.0, 7710163.333333333], [876202.5217391305, 7710132.565217392], [876293.5889283711, 7710236.073499158], [876310.0, 7710305.0], [876403.7367088607, 7710250.513924051], [876480.0, 7710315.0], [876699.3093307891, 7710104.567149447], [876798.3333333334, 7710176.666666667], [876750.7814003942, 7710209.024490856], [876727.1739130435, 7710393.478260869], [876783.0214987557, 7710533.132227584], [876911.6981938732, 7710566.558911605], [876875.0, 7710640.0], [876910.4317236969, 7710675.431723697], [876857.3728186326, 7710758.84396191], [876853.1039876312, 7710988.103987631], [876925.0, 7711060.0], [876868.0769230769, 7711133.076923077], [876908.9097114481, 7711303.009790739], [876965.0, 7711310.0], [876939.7837673075, 7711397.925173669], [876835.0, 7711450.0], [876850.9530791789, 7711490.6158357775], [876801.5847298752, 7711580.28487839], [876690.54604319, 7711504.923895238], [876666.6390049572, 7711415.220458146], [876534.3748569104, 7711355.323556447], [876450.0871566298, 7711367.720235166], [876458.5173005856, 7711454.424341699], [876400.2458097241, 7711491.058634171], [876391.6666666666, 7711623.333333333], [876338.6230965967, 7711644.252357246], [876313.9664158883, 7711897.16235514], [876155.0, 7712061.818181818], [876197.5120772946, 7712218.115942029], [876155.0, 7712250.0], [876224.756097561, 7712311.219512195], [876226.1553969545, 7712494.964342025], [876050.9544926793, 7712743.697002931], [876059.6153846154, 7712845.384615385], [875975.0, 7712930.0], [875944.1157869132, 7713164.182680613], [875903.5276773603, 7713194.053998274], [875896.4492753623, 7713438.550724638], [875855.0, 7713480.0], [875953.7112756748, 7713628.205937272], [876009.4358909792, 7713916.031044913], [875772.1676300578, 7714128.323699422], [875816.3764825001, 7714228.696063715], [875624.7234214714, 7714419.126980361], [875630.8887643883, 7714494.860955485], [875516.0856698152, 7714616.96959944], [875516.3829350836, 7714657.992513589], [875291.8564382689, 7714890.218495559], [874916.6990754715, 7714943.380231242], [874724.5104391458, 7715291.12331145], [874715.0, 7715390.0], [874808.7080094356, 7715662.335883567], [874848.7898903092, 7715897.559000346], [874844.7032668133, 7716191.33103584], [874936.4982449263, 7716183.270637707], [874961.9470924633, 7716361.857394222], [875084.6097985434, 7716257.404868464], [875233.665315674, 7716361.965332161], [875459.5017739993, 7716376.958624], [875489.1674492862, 7716473.996525169], [875584.2857142857, 7716395.0], [875667.8574931826, 7716389.721126871], [875794.882482556, 7716260.470069776], [875824.7019100664, 7716163.655061937], [876055.8862427745, 7716191.301965318], [876104.8206579413, 7716139.940219314], [876190.0278214115, 7716193.811942007], [876360.0, 7716155.0], [876395.7142857143, 7716189.285714285], [876500.9261939218, 7716118.111432706], [876590.0, 7716225.0], [876725.1704341585, 7716211.494438465], [876867.1573351088, 7716311.066370378], [876963.7538587805, 7716220.834583501], [877116.7828438248, 7716220.834807176], [877127.7777777778, 7716362.777777778], [877230.5601927462, 7716321.227200976], [877326.1700437028, 7716398.432657926], [877410.0, 7716315.0], [877483.8095238095, 7716363.095238095], [877588.9060402685, 7716326.953020134], [877675.0, 7716370.0], [877703.8851563585, 7716462.841234468], [877777.3835924002, 7716455.770698863], [877761.9434233458, 7716607.403512329], [877942.9090909091, 7716654.454545454], [877963.508128377, 7716626.989162164], [878062.6203439665, 7716600.496387144], [878193.8285601415, 7716625.106538211], [878252.911553802, 7716836.067005823], [878216.1356466877, 7716870.812302839], [878389.4969628901, 7717208.540070372], [878541.1248144896, 7717149.566738194], [878610.0073479242, 7717258.533301842], [878759.0835384968, 7717358.638820501], [878836.9381147717, 7717332.687295076], [879006.3414900413, 7717508.553776644], [879159.6997752571, 7717561.841434549], [879305.581085662, 7717490.499501797], [879335.7114361938, 7717516.781911973], [879403.3700902876, 7717469.815571646], [879536.6666666666, 7717451.666666667], [879663.7364138803, 7717525.753866641], [879737.1003717472, 7717483.550185873], [879780.0, 7717505.0], [879857.278209751, 7717447.932737012], [880308.201233405, 7717493.349918969], [880295.1457075347, 7717561.2536098715], [880390.0, 7717555.0], [880450.2102261824, 7717627.368060315], [880546.443331246, 7717655.1878522225], [880729.0909090909, 7717793.181818182], [880780.513749417, 7717756.45792971], [880819.1229908783, 7717780.438504561], [880994.9941543279, 7717771.582335955], [880955.1879182211, 7718087.82061259], [881055.7299224136, 7718157.243742247], [881090.0, 7718135.0], [881160.0, 7718205.0], [881074.5281949888, 7718366.850864808], [881097.9657875093, 7718469.036451854], [881322.2256394296, 7718725.704194186], [881351.9978032217, 7718868.736072726], [881475.0, 7719000.0], [881457.7945685502, 7719060.219010075], [881851.9230769231, 7719436.923076923], [881871.0, 7719404.0], [881913.4815618221, 7719473.253796095], [881845.5067402854, 7719517.958477514], [881827.0309237615, 7719609.438149461], [881687.6899251748, 7719627.620547366], [881654.377593361, 7719720.497925311], [881605.0, 7719730.0], [881666.8993219999, 7719990.189601895], [881523.1815367015, 7720425.966486663], [881540.3167476244, 7720635.766113155], [881778.2876215834, 7720850.63879168], [881748.4615384615, 7720933.076923077], [881833.1914893617, 7720989.503546099], [881845.0, 7721123.333333333], [881895.0, 7721190.0], [881854.7885835095, 7721414.883720931], [881825.178603706, 7721429.045015619], [881758.2634846721, 7721557.35845063], [881793.6764705882, 7721703.382352941], [881709.4740687673, 7721799.520289751], [881700.0, 7721973.75], [881618.9631359966, 7722034.527648003], [881658.057740307, 7722334.852179334], [881625.0, 7722550.0], [881714.3023255814, 7722628.139534884], [881771.6666666666, 7722606.666666667], [881845.0, 7722740.0], [881805.6442777183, 7722818.067166845], [881874.3353474321, 7722905.679758308], [881837.0037144036, 7722955.606685926], [881895.0, 7723060.0], [881754.0699313018, 7723212.064470671], [881855.0340724653, 7723413.393984497], [881844.0842636713, 7723661.169313245], [881741.0608866262, 7723803.878688089], [881782.5888127016, 7724032.5026088655], [881955.0, 7724210.0], [881926.6666666666, 7724251.666666667], [881982.1760705019, 7724333.336218927], [881745.2012437452, 7724498.958840397], [881669.2530565588, 7724703.233398239], [881654.5454545454, 7724832.2727272725], [881545.2363299351, 7724939.986098239], [881463.080395093, 7724956.389939142], [881545.0, 7725113.333333333], [881635.0, 7725190.0], [881598.5294004256, 7725274.541147103], [881725.9090909091, 7725425.454545454], [881745.0, 7725490.0], [881646.7846775821, 7725611.852330541], [881762.40549066, 7725724.324510818], [881765.0, 7725790.0], [881701.4, 7725854.007692307], [881732.2023030621, 7726097.063595917], [881673.4393063583, 7726175.414258189], [881720.2941176471, 7726214.705882353], [881627.6707406915, 7726318.836970568], [881796.4864864865, 7726525.0], [881857.9314451152, 7726525.0], [882123.8481149568, 7726840.943294191], [882139.2857142857, 7726925.714285715], [882082.7777777778, 7726982.222222222], [882105.0, 7727185.0], [882171.6666666666, 7727296.666666667], [882162.3333333334, 7727337.333333333], [882217.8571428572, 7727392.857142857], [882195.0, 7727510.0], [882109.7435897436, 7727570.897435897], [882149.8551605426, 7727615.777320733], [882201.4348391952, 7727557.671147657], [882534.3873066374, 7727553.125311316], [882637.6884978071, 7727679.5713082], [882873.75, 7727608.75], [882910.0, 7727645.0], [883031.1732018178, 7727567.40374775], [883075.360090644, 7727607.473229531], [883254.0, 7727497.0], [883264.328358209, 7727538.432835821], [883400.0, 7727525.0], [883454.6084302104, 7727573.056981507], [883599.3181823161, 7727548.220957371], [883749.4030924911, 7727372.079421405], [883933.3333333334, 7727391.666666667], [884083.162137306, 7727241.837862694], [884238.6440759371, 7727246.822037969], [884305.3935054507, 7727354.476052927], [884285.0, 7727380.0], [884461.5397796825, 7727656.756009502], [884585.2736318408, 7727667.835820896], [884852.8297078684, 7727817.063088893], [884890.0, 7727765.0], [885046.4074910445, 7727873.526699529], [885051.9266055046, 7727922.0642201835], [885133.124027946, 7727939.061623424], [885285.7310153135, 7727803.032722157], [885227.4052796265, 7727632.696858714], [885370.0, 7727485.0], [885414.1758312776, 7727570.084416286], [885723.0863537538, 7727296.114833049], [885753.9029779058, 7727306.126801153], [885771.6666666666, 7727265.0], [885858.4813284103, 7727430.671254196], [885974.5012645473, 7727418.899173231], [886084.5862423368, 7727282.90699759], [886069.3609022556, 7727237.443609023], [886208.6150544987, 7727018.29742336], [886260.7453402086, 7727002.754151436], [886330.8185683913, 7727146.796598157], [886441.7296978629, 7727091.216163105], [886580.0942311684, 7727081.952954704], [886640.7322175732, 7727027.133891214], [886757.0295230906, 7727034.286908464], [886815.01212627, 7727074.583713241], [887085.2019329141, 7726996.127263702], [887221.7378164952, 7727146.642950057], [887490.0, 7727055.0], [887445.0, 7727130.0], [887577.2131851084, 7727291.193034763], [887895.0249143249, 7727493.421112911], [887956.5174278833, 7727788.263976628], [887841.8521410105, 7727920.328934133], [887815.0, 7728070.0], [887845.0, 7728100.0], [887781.3745935553, 7728248.048457399], [887832.7586206896, 7728313.362068965], [887795.0, 7728370.0], [887856.0549435795, 7728514.526560193], [887911.5407698026, 7728522.278639185], [887958.891113377, 7728676.108886623], [887916.25, 7728718.75], [887870.7142857143, 7728655.714285715], [887838.9049435788, 7728674.559967759], [887851.6910493623, 7728753.0267135585], [887757.5258458647, 7728812.319078947], [887752.3991883007, 7728976.124365496], [887729.9133012379, 7729020.600277451], [887730.1456310679, 7729136.019417476], [887798.9412978257, 7729197.361740171], [887836.564117552, 7729336.054433071], [887929.2294713161, 7729480.382452194], [887870.5555555555, 7729547.222222222], [887885.0, 7729605.0], [887794.7821163402, 7729826.168696592], [887688.0128205129, 7729901.08974359], [887715.0, 7729990.0], [887664.2722930697, 7730031.448934653], [887717.0677440779, 7730152.993137038], [887827.1772255524, 7730259.754301597], [887893.7361375847, 7730483.398374213], [887942.5337527221, 7730521.962778566], [887977.2277520925, 7730592.7000962505], [888166.0169491526, 7730784.745762712], [888185.0, 7730920.0], [888249.0, 7731000.0], [888209.494261358, 7731224.833328428], [888256.8002363268, 7731302.755927606], [888121.4611177838, 7731437.01470701], [888040.3251509262, 7731599.502349122], [888085.0, 7731830.0], [888113.8032625151, 7731845.969963348], [888123.5998922994, 7732034.50188476], [888032.6470588235, 7732202.352941177], [888067.9937034918, 7732308.883800802], [888029.0, 7732434.0], [888067.4868421053, 7732472.486842105], [888005.9623453687, 7732680.535531281], [887962.9748079217, 7732712.74734659], [888020.5124303408, 7732864.487569659], [887912.0001391401, 7732972.9998608595], [887988.5802469136, 7733192.181069959], [887929.8837693699, 7733234.566098304], [888108.1047124851, 7733410.3865103675], [888284.0, 7733345.0], [888294.0, 7733395.0], [888416.0683050107, 7733396.679171499], [888365.0, 7733530.0], [888413.1651376147, 7733559.816513762], [888340.1014004909, 7733584.778401839], [888066.1764597567, 7733534.371181551], [887737.1367745531, 7733579.778954357], [887641.61078814, 7733666.944025174], [887287.8062064787, 7733720.205420553], [887266.4814814815, 7733768.518518519], [887337.0127772863, 7733975.346770009], [887644.4871794871, 7734345.897435897], [887907.4943995262, 7734462.676114798], [887768.7509235695, 7734530.500369428], [887707.2127859109, 7734505.885114364], [887493.0822826808, 7734730.856005308], [887405.0, 7734880.0], [887567.4399917057, 7735042.439991706], [887607.8106657356, 7735182.779026381], [887233.68770174, 7735438.645962654], [887156.5588615782, 7735389.204398448], [886950.0, 7735455.0], [886914.8387096775, 7735421.129032258], [886779.2579261914, 7735542.623696231], [886644.8, 7735620.2], [886663.1246806387, 7735684.270466118], [886294.405221867, 7735651.60642441], [886197.9514197318, 7735755.690144657], [886240.4124457309, 7736014.61649783], [886186.0307235597, 7736086.975648818], [885909.211713594, 7736076.75418575], [885593.2673395621, 7736390.906745015], [885444.4709273342, 7736226.09756428], [885374.1325421643, 7736219.624240491], [885331.9228450874, 7736146.078963231], [885155.0, 7736340.0], [885212.7883917342, 7736574.358893958], [885080.730994152, 7736724.356725146], [885095.0, 7736780.0], [885028.4093264248, 7736853.989637306], [885167.5, 7736967.5], [885120.3256200348, 7737014.674379965], [885327.5060935554, 7737218.341458074], [885330.7387552577, 7737375.0], [885387.0503281769, 7737378.698685472], [885471.1218185546, 7737478.811929828], [885440.3521862562, 7737550.887096276], [885607.7157493226, 7737609.870469538], [885653.0113578825, 7737726.396177571], [885757.6897655957, 7737830.819248999], [885812.3202191851, 7738099.174302695], [885794.1406607379, 7738186.328623182], [885905.9450056262, 7738180.271956438], [885862.6382010813, 7738430.783537637], [886077.6253969811, 7738790.498952885], [886033.9224572004, 7739082.849949648], [885797.4354739322, 7739427.045743193], [885790.0, 7739615.0], [885733.9513931773, 7739611.545360093], [885764.71940923, 7739790.162811928], [885719.1906834431, 7739816.580714545], [885556.7369500961, 7739681.618203322], [885364.7222222222, 7739779.722222222], [885312.9629629629, 7739727.962962963], [885261.4285714285, 7739753.571428572], [885115.0444388748, 7739668.609670516], [884971.6818123942, 7739517.004706415], [884863.3333333334, 7739535.666666667], [884791.5017009558, 7739478.201360765], [884665.8059467919, 7739570.852895149], [884586.8362904077, 7739563.952560153], [884451.6449238287, 7739699.837722241], [884370.0, 7739575.0], [884337.8301471989, 7739576.286794112], [884362.052588296, 7739742.754018355], [884330.825048464, 7739896.245638986], [884293.077837606, 7739919.211533769], [884187.883253686, 7739717.367225245], [884152.282890897, 7739730.476885302], [884075.0, 7739666.666666667], [884068.7550693359, 7739714.544468425], [883965.5358507165, 7739822.35697914], [883992.4636510501, 7739859.822294023], [883959.3135117585, 7739908.434760425], [884035.0, 7740060.0], [883998.0, 7740097.0], [883787.3972567373, 7740012.429397804], [883661.7258581205, 7739944.147495681], [883445.710267866, 7740205.835059384], [883347.9302531545, 7740200.082121875], [883162.311313075, 7739923.202930866], [883075.9896630191, 7739960.231599031], [882952.1220089403, 7739867.403365764], [882840.0, 7739945.0], [882778.1116001131, 7739896.209674163], [882805.4545454546, 7739798.636363637], [882764.6411928815, 7739774.316365543], [882741.25, 7739883.75], [882606.3157894737, 7740018.684210527], [882569.2313851784, 7740011.975076399], [882447.1596767395, 7740166.689301467], [882241.5526007877, 7739954.834829703], [882129.6314542021, 7739955.009965596], [882014.908960943, 7740160.920071774], [881723.14637243, 7740204.807170533], [881664.8900490217, 7740270.0], [881600.0, 7740255.0], [881272.9484973296, 7740568.090580915], [881174.7421461645, 7740534.328083161], [881139.4551624478, 7740748.59492544], [880990.0614909614, 7740712.726256189], [880909.2105263157, 7740894.2105263155], [880955.0, 7740940.0], [880936.7910447761, 7741003.731343283], [881013.249744918, 7741111.643513068], [880935.0, 7741280.0], [881027.5, 7741392.5], [881061.8658833777, 7741502.085744949], [880883.3562413072, 7741710.406623594], [880957.0490447814, 7741959.2994328085], [881082.1601656091, 7742039.846131991], [881057.8571428572, 7742132.857142857], [881150.0, 7742225.0], [881212.5, 7742207.5], [881265.0, 7742260.0], [881223.2385730055, 7742367.926421476], [881085.1251917852, 7742481.700149814], [881011.8131005793, 7742481.373798842], [880946.0840505454, 7742541.0840505455], [880884.6840148699, 7742479.68401487], [880829.4172898049, 7742548.7862484045], [880697.0472460553, 7742444.068317476], [880410.0, 7742715.0], [880358.1870562107, 7742715.0], [880416.0717841998, 7742890.3572614], [880445.0, 7742900.0], [880385.0, 7742960.0], [880382.1464806595, 7743071.915028535], [880445.0, 7743130.0], [880445.0, 7743200.589076351], [880325.5567318868, 7743306.4684281], [880278.3622020205, 7743304.305497378], [880264.227728028, 7743373.796831017], [880407.4971399434, 7743655.508855885], [880342.6943880833, 7743754.394845991], [880172.4861451463, 7743744.176998143], [880096.9230769231, 7743801.923076923], [880060.0, 7743765.0], [879925.7101737204, 7743783.526314909], [879830.0005903306, 7743890.001180661], [879845.0, 7743920.0], [879742.4740160108, 7744042.214436341], [879551.8335923434, 7744165.0038514715], [879369.43714628, 7744090.382533978], [879400.025971097, 7744197.619894827], [879330.2631578947, 7744235.7894736845], [879280.0, 7744325.0], [879204.1918332763, 7744303.939357119], [879093.2698149089, 7744430.92677738], [878523.1290129607, 7744140.657504002], [878506.0759621264, 7744086.461645992], [878373.3333333334, 7744061.666666667], [878347.323943662, 7744009.647887324], [878312.8571428572, 7744042.142857143], [878247.0066462755, 7744020.785939333], [878109.5857988165, 7744115.295857988], [878008.125, 7744036.875], [877977.6924311141, 7744125.274366763], [877914.2857142857, 7744110.714285715], [877840.0, 7744185.0], [877792.5753768844, 7744172.4623115575], [877460.9375725966, 7744399.686020706], [877462.6887254599, 7744567.688725459], [877575.0, 7744680.0], [877532.5478927203, 7744711.839080459], [877601.5306122449, 7744846.530612245], [877550.8310301293, 7744894.158733408], [877605.0, 7745080.0], [877569.0529586598, 7745102.969467712], [877648.0320874138, 7745228.890638284], [877615.0, 7745314.0], [877778.6356677903, 7745413.659933698], [877905.931301672, 7745749.570681793], [877812.100897196, 7745939.228922699], [877756.4101937392, 7746010.187105536], [877746.6451268222, 7746108.322563411], [877847.6508050176, 7746151.895579421], [877743.6344910025, 7746266.45955998], [877806.2987012987, 7746288.181818182], [877905.0991947165, 7746516.841590219], [877849.455975134, 7746518.953111265], [877757.5937457054, 7746845.934406968], [877809.3255806661, 7747019.409480161], [877768.5294117647, 7747087.05882353], [877793.0, 7747136.0], [877708.0227313875, 7747309.210914158], [877709.3546394663, 7747495.305900658], [877735.9962829327, 7747509.722332952], [877816.1843722383, 7747415.141509668], [877952.0850313911, 7747328.957484305], [878014.9436200864, 7747410.349518498], [878031.3559126469, 7747637.450091931], [878099.1147910055, 7747758.803537038], [878030.4234769688, 7747825.765230312], [878016.8795158847, 7747961.098336034], [878228.7822060308, 7748006.68612562], [878195.0, 7748150.0], [878229.33656837, 7748211.042788213], [878124.2747960816, 7748223.13321628], [878016.9144759177, 7748439.07069156], [878048.5812133072, 7748485.225048924], [877939.6867320504, 7748599.655855192], [877819.2795943351, 7748572.243083362], [877800.0, 7748685.0], [877666.0, 7748685.0], [877700.4826214322, 7748739.433013987], [877656.3991676471, 7748842.693645558], [877655.3161715184, 7748995.300082317], [877697.2916666666, 7749057.708333333], [877640.4851672058, 7749156.043842702], [877710.8439082212, 7749446.242914957], [877733.7945217661, 7749673.151652121], [877575.0, 7749792.857142857], [877544.9189189189, 7749904.945945946], [877492.6394281983, 7749870.092952132], [877408.2430714187, 7749967.215447717], [877531.599690881, 7750154.250386399], [877404.1610197953, 7750272.118099874], [877319.3066106287, 7750205.7156447675], [877292.4063743824, 7749879.136865615], [877186.5175793185, 7749846.7120142635], [877093.4472664398, 7749840.733641865], [876927.138952741, 7749697.896364824], [876879.2857142857, 7749735.714285715], [876865.0, 7749820.0], [876776.0245348215, 7749938.677920612], [876476.6248949958, 7750181.003316514], [876503.9484078005, 7750304.751913108], [876486.5541146805, 7750506.36804731], [876330.9141466806, 7750618.986791797], [875986.7116826525, 7750639.069638504], [875873.9969609603, 7750690.331093406], [875737.9235932862, 7750809.236829981], [875765.0, 7750870.0], [875639.8910778766, 7750960.031654239], [875633.6885245901, 7751062.208293153], [875567.0, 7751154.0], [875608.368222338, 7751255.99328421], [875560.223880597, 7751336.119402985], [875584.4671943389, 7751415.508451848], [875543.0402010051, 7751563.718592965], [875601.8950176154, 7751569.998356527], [875616.1650485437, 7751674.077669903], [875502.5987073205, 7751782.7300829], [875493.5386225975, 7752186.455871113], [875583.6791267316, 7752319.192356409], [875631.2702620304, 7752304.610801564], [875783.794711708, 7752466.851022136], [875784.1983372922, 7752571.202494062], [875507.7272727273, 7752858.333333333], [875470.0, 7752835.0], [875419.8899521749, 7752892.106215061], [875525.92934271, 7753241.759445314], [875457.8554216868, 7753276.927710843], [875404.360885359, 7753219.667836473], [875264.4444444445, 7753370.555555556], [875210.0, 7753335.0], [875137.5, 7753359.166666667], [875165.0, 7753490.0], [875119.5454545454, 7753535.454545454], [875105.4812422068, 7753659.210730778], [874784.0145985401, 7753880.98540146], [874589.5830085736, 7754075.416991427], [874600.6760960005, 7754136.332360379], [874300.4477611941, 7754524.552238806], [874333.8146551724, 7754580.711206896], [874093.3145039877, 7754533.09813504], [874048.75, 7754566.25], [874092.7520752214, 7754776.737929388], [874416.6324401113, 7755173.8990227], [874427.8681615702, 7755350.077130991], [874477.537753114, 7755347.125389817], [874488.0061345778, 7755648.680419312], [874674.4268218834, 7755834.747934417], [874807.6489633931, 7755811.168645037], [874925.0, 7755910.0], [874974.0909090909, 7756044.545454546], [875176.6713077197, 7756148.883983492], [875110.4809843401, 7756279.317673378], [875171.6666666666, 7756383.333333333], [875031.1301862069, 7756488.365411099], [875313.8888888889, 7756816.666666667], [875305.9565217391, 7756873.9130434785], [875359.3425076453, 7756872.171253823], [875423.7400408032, 7756943.976591861], [875393.1585191506, 7757028.158519151], [875465.4666666667, 7757100.466666667], [875566.319286899, 7757115.508367401], [875711.6900413241, 7757242.242426937], [875837.4494924113, 7757411.325761383], [875789.0287461118, 7757515.971253889], [875816.1147883239, 7757643.866604662], [875889.1880468086, 7757703.567499723], [875945.0, 7757840.0], [875925.0, 7757880.0], [875998.0434782609, 7757892.173913044], [875984.6691425615, 7758048.143139689], [876145.5172962974, 7758166.844890542], [876235.2251023193, 7758129.924965894], [876332.1052631579, 7758232.894736842], [876605.8253291425, 7758149.073599266], [876700.0964395932, 7758246.890063675], [876793.1578947369, 7758182.894736842], [876848.9840827049, 7758219.6932658665], [876995.0, 7758098.0], [877002.1331411337, 7758042.98113137], [877180.5724981026, 7757919.867693681], [877559.0821256039, 7758224.082125604], [877702.2222222222, 7758137.222222222], [878005.1744862648, 7758335.880246259], [877941.875, 7758373.125], [878059.24071991, 7758518.16647919], [878090.7142857143, 7758601.428571428], [878052.5682195085, 7758658.6476707375], [878090.2230248518, 7758817.955658153], [878190.1666543828, 7758943.147071997], [878170.7561342844, 7759018.48477566], [878035.9716036507, 7759164.280467421], [878083.5714285715, 7759228.571428572], [878014.0870825929, 7759371.228135815], [878045.0, 7759390.0], [877923.301263209, 7759365.018943742], [877825.5494876216, 7759639.492968512], [877791.027772313, 7759935.816941431], [877624.4902728518, 7760268.851622196], [877934.7420193169, 7760551.76980964], [878023.0, 7760788.0], [878114.6450918253, 7760879.645091825], [878276.1289951601, 7761120.496202628], [878352.1464365819, 7761306.814039484], [878435.0, 7761345.045045045], [878435.0, 7761406.666666667], [878400.1568244416, 7761386.607703103], [878219.9811716273, 7761533.66807414], [878154.4337952426, 7761526.564283253], [878065.8823529412, 7761610.294117647], [878000.0, 7761595.0], [877885.5737557445, 7761709.426244255], [877758.5183204206, 7761630.141047412], [877640.4309413783, 7761786.292824135], [877662.6513733095, 7761887.5800597975], [877580.0, 7761985.0], [877502.5, 7761985.0], [877450.0, 7761905.0], [877393.8947368421, 7761962.543859649], [877330.0, 7761955.0], [877278.9615846339, 7762017.593186035], [877287.2146496307, 7762243.266431701], [877216.6666666666, 7762255.0], [877194.2697442195, 7762488.925715696], [877293.6554621849, 7762544.705882353], [877275.0, 7762610.0], [877320.0, 7762655.0], [877359.5962886456, 7762642.157960439], [877464.9843078867, 7762901.861088382], [877382.0954501807, 7762988.488707543], [877236.3277862866, 7762946.0029382445], [877080.2911677345, 7763007.970634962], [876961.6582143637, 7763223.341785636], [876966.40178932, 7763286.835916871], [876900.8333333334, 7763349.166666667], [876797.9222785123, 7763323.688372668], [876785.0, 7763260.0], [876570.8041055069, 7763058.209970628], [876420.0444877703, 7763083.771559352], [876326.9117133281, 7763056.087784115], [876317.9855072463, 7763167.739130435], [876226.5024819542, 7763237.476877266], [876093.8152068048, 7763581.527394446], [875940.6049195053, 7763739.430663995], [875989.2884108085, 7763821.343998906], [875847.3660893971, 7763971.440637009], [875774.9603753911, 7763951.041710115], [875780.5043940591, 7763879.408276571], [875710.0, 7763805.0], [875624.260769553, 7763840.542745326], [875675.0, 7764014.285714285], [875536.5047000276, 7763964.313657727], [875420.4017331842, 7763959.870490011], [875400.0, 7764025.0], [875296.9378641008, 7763979.004468614], [875288.5384831724, 7764049.974219556], [875172.8571428572, 7764045.0], [875121.2305833196, 7764108.223022155], [874981.9354838709, 7764173.70967742], [875016.4329037104, 7764223.98559163], [874996.0, 7764295.0], [875060.0, 7764295.0], [875078.75, 7764331.822033898], [874975.7142857143, 7764349.285714285], [874834.2857142857, 7764540.714285715], [874866.2267104489, 7764625.006002663], [874729.0066812276, 7764758.732114751], [874725.0, 7764860.0], [874878.7288135593, 7765013.72881356], [874904.3146647016, 7765269.314664702], [874920.1516842071, 7765285.151684207], [874892.7550415088, 7765394.0741030825], [874784.3549848719, 7765572.756357906], [875005.0, 7765970.0], [874966.0024536822, 7766018.011450517], [875060.5873356125, 7766160.348191432], [874754.4664884196, 7766461.286339814], [874605.9375, 7766536.25], [874722.2752403643, 7766674.178545761], [874767.0819043055, 7766810.678333732], [874594.2551553013, 7766984.729399663], [874608.5882987315, 7767301.135862219], [874577.9518916394, 7767348.052312003], [874655.241283019, 7767452.531687458], [874673.9634146341, 7767774.817073171], [874543.493329087, 7767922.382376392], [874303.6596728107, 7767777.374658787], [874267.5, 7767812.5], [874092.5972041272, 7767601.885896171], [874032.5233644859, 7767632.476635514], [873843.462741192, 7767477.246647054], [873727.4633472638, 7767501.368526258], [873660.5198710827, 7767476.2361621335], [873522.8784938818, 7767629.9227541555], [873563.2948657561, 7767711.705134244], [873448.7237623346, 7767824.509644489], [873841.1728939429, 7768326.9698305875], [873959.3023255814, 7768421.710963455], [873947.2118049905, 7768657.130689633], [873734.9888268156, 7768869.975418994], [873783.3605584308, 7768950.599774936], [873703.7112811555, 7769124.553430822], [873497.4648344967, 7769072.808104312], [873268.0677966102, 7768943.06779661], [873006.1271990271, 7768945.491203891], [872938.0125974888, 7769168.1195726935], [872825.0, 7769360.52631579], [872962.7000358428, 7769377.251792966], [873039.338585001, 7769500.175881678], [872995.0, 7769590.0], [873017.8571428572, 7769786.700201207], [872928.719911762, 7769954.928446613], [872993.2608695652, 7770028.260869565], [873005.4220413557, 7770206.373721382], [873073.4776681535, 7770431.121285682], [873161.5987652802, 7770547.089909428], [872560.0, 7771085.0], [872338.3342884671, 7771025.161621965], [872302.8813559322, 7771052.966101695], [872230.0, 7771035.0], [872131.4312702522, 7770873.438047523], [871980.999784417, 7770982.277550844], [871902.0618556701, 7770930.051546392], [871873.3333333334, 7770948.333333333], [871757.2778608205, 7770870.505065604], [871690.0, 7770915.0], [871626.1702127659, 7770893.723404256], [871531.1834967529, 7771002.22526423], [871285.0, 7770890.0], [871235.0, 7770940.0], [871262.2857142857, 7770980.142857143], [871155.0277383348, 7771022.566283489], [870968.178182626, 7770825.0], [870746.1312221757, 7770678.8789795255], [870652.540786379, 7770772.313690803], [870537.7777777778, 7770832.333333333], [870470.9752870199, 7770769.348127762], [870304.4240400668, 7770797.23706177], [870119.9341270832, 7770897.447603391], [870027.5460636516, 7770991.909547739], [870365.6221882598, 7771346.64562757], [870365.1882149811, 7771560.758154653], [870277.378957619, 7771548.74737423], [870205.0, 7771620.0], [870216.4893617021, 7771741.70212766], [870160.2322166311, 7771809.258929767], [870104.8811069371, 7771786.220276734], [870044.2608089261, 7771682.246735134], [869999.6354883082, 7771668.91709391], [869952.9012695595, 7771579.516050782], [869858.7365883806, 7771556.26341162], [869841.3321948509, 7771633.771425931], [869759.0712164256, 7771704.38081095], [869710.0, 7771655.0], [869630.0, 7771695.0], [869617.3913043478, 7771631.956521739], [869551.9587536464, 7771629.904013819], [869535.0, 7771533.333333333], [869433.4171343518, 7771325.016073001], [869310.0, 7771225.0], [869278.1730769231, 7771256.826923077], [869194.7850100388, 7771212.824630037], [869090.3891749871, 7771307.80318991], [868964.2808199007, 7771519.046394283], [868995.0, 7771560.0], [868977.6923076923, 7771681.153846154], [869035.0, 7771800.0], [868931.5614199036, 7771992.285850988], [868584.8916617972, 7772325.374309632], [868444.9210271413, 7772370.491226226], [868230.0, 7772185.0], [868045.2452401364, 7772191.380227179], [867936.4285714285, 7772338.571428572], [867975.0, 7772440.0], [867862.8125, 7772535.625], [867912.4563881252, 7772641.197667323], [867825.0, 7772750.0], [867875.2819714883, 7772824.683516475], [867829.2346938775, 7772954.234693877], [867889.1176470588, 7773014.117647059], [867820.1066324649, 7773200.161723622], [867606.7908769395, 7773442.372466398], [867567.9772624656, 7773569.722021076], [867491.2762611345, 7773652.445702016], [867478.4887404384, 7774296.189061706], [867736.5456426479, 7774569.063427908], [867712.0588235294, 7774612.588235294], [867535.6560088203, 7774664.212789415], [867456.1538461539, 7774759.615384615], [867057.9876251023, 7774361.603134205], [866577.39727965, 7773944.193443029], [866491.7073170731, 7773953.536585365], [866362.1823685328, 7773844.83162869], [866143.920376648, 7774041.753949335], [866096.5707964601, 7773991.349557522], [865996.690824925, 7774042.571188164], [865885.1972230987, 7773946.0539602395], [865686.3899272055, 7773944.975650945], [865563.0861723447, 7773837.685370741], [865471.4880968321, 7773900.871693936], [865330.0, 7773818.333333333], [865066.5116279069, 7773938.488372093], [865027.4883720931, 7773927.511627907], [864980.0, 7773975.0], [864880.7610258313, 7773942.00490037], [864757.5985821887, 7774035.385467434], [864713.3333333334, 7774005.0], [864570.0, 7774065.0], [864527.5471698113, 7774043.773584906], [864444.2857142857, 7774077.857142857], [864357.4869109947, 7774015.837696335], [864205.298165496, 7774021.6974180965], [864028.4900620391, 7774115.647028584], [864043.1712376799, 7774219.814430887], [863720.0, 7774635.0], [863635.7962179533, 7774590.167995134], [863430.0, 7774825.0], [863353.3333333334, 7774808.333333333], [863312.9892101417, 7774747.109207272], [862688.713276626, 7775393.973916268], [862526.746031746, 7775507.619047619], [862576.7359746643, 7775709.249704479], [862531.103423161, 7775749.810633649], [862579.1782353247, 7775804.777205844], [862533.912399995, 7775852.049886562], [862605.0, 7775940.0], [862583.4375, 7776078.4375], [862414.765775401, 7775909.765775401], [862158.6681222707, 7775857.816593886], [862040.1167003928, 7775734.739399423], [861836.106520206, 7775892.71714756], [861862.2222222222, 7776026.111111111], [861705.49386199, 7776010.278993519], [861458.4347287297, 7776193.43472873], [861432.0, 7776167.0], [861239.5496557954, 7776268.408208398], [861094.0, 7776238.0], [861020.0, 7776275.0], [860949.5652173914, 7776228.043478261], [860988.1030540299, 7776080.746200664], [860834.4809505359, 7775956.439391421], [860714.1404986756, 7775772.3126748875], [860615.8422535211, 7775741.6197183095], [860585.0, 7775610.0]]]}}]}