{"type": "FeatureCollection", "crs": {"type": "name", "properties": {"name": "EPSG:25833"}}, "features": [{"type": "Feature", "properties": {"station": "237.1.0", "name": "B\u00e5tsfjord", "series": ["1001.1"], "nodes": 225114, "fine_vertices": 3430, "fine_area_m2": 22511450.0, "reduced_vertices": 139, "reduced_area_m2": 22511449.999999788, "outline_tolerance_m": 20.0, "windows": [[488, 433], [1286, 1167], [2334, 2245]], "placed_on": "number", "distance_m": 6.084245873451029, "uncertainty_m": 30.0, "elvid": "237-24-3", "objectid": 11241427, "lake": false, "confluence_near": false, "reach_up_m": 1000.0, "reach_down_m": 130.0, "reach_fork": false, "seeded_by": "river", "lake_rule": null, "lake_number": null, "lake_name": null, "lake_distance_m": null, "node_offset_m": 3.318984420187502, "chain_nodes": 116, "lowered_nodes": 92, "lowered_max_m": 0.4925537109375, "direction_ok": true, "end_extended_m": 0.0, "end_closed": true, "downstream_checked": "whole", "a0": 22.511400000000002, "area_up": 0.0008, "area_down": 22.5145, "swing": 0.9999644624501363, "largest_step": 22.5095, "largest_step_at_m": -20.0, "checked_up_m": 30.0, "checked_down_m": 24.142135623731065, "drains": true, "monotone": true, "causes": ["swing"]}, "geometry": {"type": "Polygon", "coordinates": [[[1043885.0, 7897540.0], [1043860.724280879, 7897392.396289321], [1043578.5463311807, 7897265.501881768], [1043564.8132124186, 7897173.694137794], [1043342.6394129926, 7897098.411572931], [1043411.7647205315, 7897010.105022136], [1043317.2208318437, 7897008.637230366], [1043157.4871564236, 7896859.085324016], [1043140.0, 7896748.333333333], [1042980.0, 7896655.0], [1042914.1425670563, 7896478.052014127], [1042992.5442115747, 7896421.386909612], [1042865.9949404593, 7896312.851353263], [1042826.2658227849, 7896146.329113924], [1042625.0, 7895930.0], [1042684.1956134426, 7895870.804386557], [1042586.2095812841, 7895680.577724909], [1042473.4924078091, 7895739.8806941435], [1042405.0, 7895648.242280285], [1042405.0, 7895587.142857143], [1042202.978365969, 7895294.173799163], [1042250.3846153846, 7895254.615384615], [1042082.2906964768, 7895179.867410129], [1041902.3504124241, 7895034.711669832], [1041738.4076400747, 7894832.961799626], [1041748.8461538461, 7894780.769230769], [1041716.210131332, 7894725.754221388], [1041670.0, 7894765.0], [1041640.0, 7894735.0], [1041597.1931064003, 7894805.499848523], [1041322.0, 7894699.0], [1041243.9307282416, 7894640.774422735], [1041273.8152404837, 7894582.940257921], [1041222.5373134328, 7894507.910447761], [1041170.0, 7894525.0], [1041123.6363636364, 7894440.454545454], [1041024.6036585366, 7894407.5711382115], [1040871.2884125925, 7894233.273048624], [1040455.0, 7893907.325520047], [1040507.1626018267, 7893843.745110106], [1040485.0, 7893620.0], [1040545.0, 7893580.0], [1040482.206314307, 7893225.21252129], [1040336.2186379929, 7892732.311827957], [1040200.2068184527, 7892485.260372328], [1040321.3720269458, 7892298.572212322], [1040274.9461400359, 7892186.858168761], [1040311.8431272355, 7892164.797365583], [1040224.6606724965, 7892005.987816984], [1040583.3333333334, 7891631.666666667], [1040635.0, 7891700.0], [1040730.0, 7891605.0], [1040753.9092211578, 7891652.818442316], [1040882.9143470665, 7891491.599928422], [1040985.0052336092, 7891540.588543153], [1041060.0, 7891505.0], [1041135.9906103286, 7891584.176838811], [1041292.6560476777, 7891506.131053171], [1041590.4636177863, 7891509.897930376], [1041621.2265709157, 7891549.524236984], [1041774.3232633088, 7891437.595269131], [1041876.6666666666, 7891461.666666667], [1041954.4444444445, 7891539.444444444], [1042004.0728476822, 7891491.026490066], [1042332.4542875465, 7891599.450488591], [1042392.5350492712, 7891531.365361286], [1042621.3658396844, 7891707.662022903], [1042715.7961897093, 7891821.622848388], [1042811.4285714285, 7892005.0], [1042867.3826541466, 7891969.381042892], [1043034.446220425, 7892025.598288198], [1043175.7387650494, 7892227.061679228], [1043254.3265461528, 7892192.451050542], [1043344.5176880531, 7892367.0787557755], [1043460.154661685, 7892432.4176283665], [1043481.1320754717, 7892416.886792453], [1043459.8627852756, 7892456.897405738], [1043598.3079847909, 7892741.4068441065], [1043696.7383966245, 7892868.261603376], [1043635.0, 7892930.0], [1043699.2857142857, 7893005.714285715], [1043521.25, 7893183.75], [1043694.0942217595, 7893305.169182718], [1043734.1689780564, 7893419.08884344], [1043978.4847736625, 7893683.102880659], [1043964.4328097731, 7893734.493891798], [1044095.7069924952, 7893719.635570002], [1044247.0156025412, 7893751.797682683], [1044455.2233009709, 7893903.40776699], [1044570.5436505674, 7893918.591510648], [1044703.0480567551, 7894140.373801876], [1044911.791218557, 7894307.013677342], [1045059.1891891892, 7894354.72972973], [1045684.7064036779, 7894998.953708769], [1045686.5914901553, 7895134.085098446], [1045721.148277249, 7895176.075881486], [1045685.0, 7895260.0], [1045875.5462802993, 7895470.7053007465], [1045868.6740331491, 7895594.231541939], [1045930.0, 7895655.0], [1046015.5877032989, 7895639.667444667], [1046035.2680525164, 7895823.856673961], [1046250.4010506778, 7895973.829266609], [1046393.40755147, 7896003.7019604705], [1046533.7979972482, 7895975.50222849], [1046427.9665017854, 7896245.235485972], [1046463.5104424178, 7896290.5614220025], [1046441.0624544742, 7896475.246910471], [1046550.9601880689, 7896707.2963883225], [1046490.4034582132, 7896814.596541787], [1046451.1752083586, 7897021.453980739], [1046516.5637773215, 7897134.001424933], [1046539.8850574712, 7897316.781609195], [1046645.0, 7897580.0], [1046325.6489192791, 7897903.481830468], [1046409.3377841935, 7898051.313605197], [1046344.8951532723, 7898119.266072906], [1046349.5531089472, 7898239.945443196], [1046419.7348200296, 7898384.3559915], [1046484.1900274733, 7898437.731075077], [1046477.3258679381, 7898567.5739918575], [1046357.0464011908, 7898784.759590364], [1046116.8263206092, 7898666.864717706], [1045937.6470588235, 7898642.647058823], [1045900.4918032787, 7898605.491803279], [1045772.0, 7898599.0], [1045453.1825121206, 7898763.78211779], [1045304.7189743873, 7898649.398740173], [1045046.5383063036, 7898721.317284192], [1044745.2257133942, 7898564.817000429], [1044784.7704108692, 7898494.659703387], [1044583.4721698815, 7898252.184125127], [1044500.1650107404, 7898239.623519169], [1044337.6643011947, 7898050.4931741925], [1044203.9644970414, 7897835.343195266], [1044071.6107036708, 7897881.320096777], [1043922.3442307658, 7897819.934522909], [1043849.0129278669, 7897675.9450590415], [1043937.3868954758, 7897586.645865834], [1043885.0, 7897540.0]]]}}]}