{"type": "FeatureCollection", "crs": {"type": "name", "properties": {"name": "EPSG:25833"}}, "features": [{"type": "Feature", "properties": {"station": "24.8.0", "name": "M\u00f8ska (Skolandsvatnet)", "series": ["1001.0"], "nodes": 1212376, "fine_vertices": 11242, "fine_area_m2": 121237650.0, "reduced_vertices": 588, "reduced_area_m2": 121237649.9999995, "outline_tolerance_m": 20.0, "windows": [[505, 458], [1196, 1083], [2395, 2108], [4790, 4440]], "placed_on": "number", "distance_m": 35.46762669048558, "uncertainty_m": 35.46762669048558, "elvid": "024-106-556", "objectid": 10880938, "lake": true, "confluence_near": false, "reach_up_m": 1000.0, "reach_down_m": 135.46762669048553, "reach_fork": false, "seeded_by": "lake", "lake_rule": "lake_line", "lake_number": 11466, "lake_name": "Skolandsvatnet", "lake_distance_m": 1.1128952935660383, "node_offset_m": null, "chain_nodes": null, "lowered_nodes": null, "lowered_max_m": null, "direction_ok": null, "end_extended_m": null, "end_closed": null, "downstream_checked": null, "a0": null, "area_up": null, "area_down": null, "swing": null, "largest_step": null, "largest_step_at_m": null, "checked_up_m": null, "checked_down_m": null, "drains": null, "monotone": null, "causes": []}, "geometry": {"type": "Polygon", "coordinates": [[[36145.0, 6492820.0], [36082.28894507656, 6492705.200168563], [35998.681318681316, 6492641.813186813], [35823.035507421024, 6492674.819936091], [35676.558005560306, 6492598.44199444], [35742.605169792194, 6492532.394830208], [35560.543930369306, 6492388.996859171], [35392.832316087464, 6492472.257450822], [35287.64540184134, 6492441.303776953], [35195.37917964892, 6492522.708562309], [34971.43481575937, 6492231.041472311], [34746.2962962963, 6492076.481481481], [34758.539323738776, 6491915.733767216], [34714.23778199229, 6491848.213852163], [34464.90566037736, 6491893.490566038], [34548.24817518248, 6491999.598540146], [34560.0, 6492135.0], [34401.357251474416, 6492068.288928013], [34111.98165379847, 6492314.375895407], [34028.34569743476, 6492165.83777408], [33939.87326070552, 6492200.9749365095], [33686.83693750641, 6491694.124642089], [33572.24582347133, 6491407.016828056], [33468.815063023016, 6491399.361273776], [33419.09090909091, 6491275.0], [33332.163091431095, 6491332.653900509], [33258.0, 6491327.0], [33031.67133634453, 6491102.836425092], [33080.0, 6490995.0], [33014.75650964023, 6491025.069568674], [32922.93660844657, 6490801.5921346685], [32937.55850765261, 6490746.3457961045], [32783.29039649015, 6490680.8482527835], [32855.0, 6490590.0], [32853.95725171572, 6490538.90533407], [32636.95348837209, 6490593.488372093], [32549.936298774664, 6490523.945044039], [32495.0, 6490378.75], [32385.0, 6490230.0], [32395.0, 6490140.0], [32320.714285714286, 6489995.714285715], [32359.10442073171, 6489874.950457317], [32287.264150943396, 6489788.301886792], [32340.117056856187, 6489748.662207358], [32265.755031627337, 6489682.872656333], [32225.14223406284, 6489768.454349924], [32061.670686044843, 6489701.91074926], [31960.0, 6489575.0], [31841.444379841327, 6489591.573325581], [31824.77247598635, 6489509.891695784], [31949.678746287296, 6489273.044721468], [31922.14285714286, 6489231.428571428], [31998.640453601154, 6489155.880440104], [31971.969296663425, 6489070.856263772], [32021.90358101968, 6488954.990466777], [31776.91658352992, 6488756.636371787], [31779.273495254063, 6488587.309968846], [31572.146596858638, 6488592.958115183], [31446.31219427386, 6488522.045022306], [31310.110057580136, 6488525.505315342], [31311.791148959932, 6488726.044255201], [31194.688279301747, 6488715.673316708], [31170.0, 6488685.0], [31125.704326311352, 6488824.233180824], [30898.935884548962, 6488823.883323245], [30844.038767589096, 6488764.697768619], [30731.84058958131, 6488825.0], [30664.060914631922, 6488705.772108471], [30623.344419295947, 6488732.781473098], [30509.279363740367, 6488715.969207088], [30457.594232685566, 6488333.646077713], [30235.77706033907, 6488167.65196094], [30257.71503055834, 6488026.1182279615], [30210.0, 6488015.0], [30200.0, 6487945.0], [30072.7977331677, 6487956.590449707], [30095.244386638275, 6487701.030711663], [30065.0, 6487590.0], [30198.15526127685, 6487496.791317106], [30093.290802645944, 6487413.230862429], [30144.291857820725, 6487352.811322091], [30065.76923076923, 6487257.692307692], [30113.748988877654, 6487071.171638018], [30038.333333333332, 6487033.333333333], [30085.0, 6486960.0], [30036.666666666668, 6486911.666666667], [30065.0, 6486820.0], [30042.43842364532, 6486797.438423646], [30201.153846153848, 6486643.846153846], [30055.0, 6486530.0], [29988.375620958504, 6486333.893846797], [29865.675675675677, 6486278.783783784], [29699.965467507318, 6486308.605472452], [29442.673099405416, 6486122.023557377], [29297.34265734266, 6485973.531468531], [29175.14805195832, 6485956.700439839], [29175.02419970765, 6485873.017602469], [28931.515151515152, 6485735.909090909], [28867.551020408162, 6485658.469387755], [28955.478389970307, 6485635.7175849555], [28915.526315789473, 6485575.7894736845], [28969.999999999996, 6485515.0], [29170.0, 6485555.0], [29302.663381373604, 6485344.590108142], [29232.898994006773, 6485201.410422973], [29293.560885608855, 6485161.439114391], [29095.58108821304, 6484791.040672205], [29135.841118401375, 6484715.032853633], [28786.056015042705, 6484403.47623947], [28953.345221441767, 6484217.837637543], [28948.530866231973, 6484155.298807497], [28806.63819642644, 6484104.21958403], [28859.46161280059, 6483993.657732341], [28793.135751295336, 6483898.711917099], [28713.125916145418, 6483903.118586982], [28731.145675265554, 6483776.9802731415], [28590.079587962886, 6483669.591028045], [28515.476215480663, 6483748.608164268], [28231.347881412265, 6483740.87316962], [28198.382590625723, 6483665.712306627], [28267.142857142855, 6483575.0], [28330.109099444282, 6483569.786529774], [28287.92924264111, 6483488.990603024], [28341.547218793887, 6483410.403881347], [28297.84763167068, 6483342.961640642], [28342.890173410404, 6483250.260115607], [28375.98899551182, 6483280.465437269], [28497.5, 6483107.5], [28425.767185627297, 6483073.130494564], [28430.0, 6482995.0], [28512.350484381514, 6483045.100476366], [28536.276595744683, 6482978.723404256], [28593.75, 6483038.75], [28736.310533821925, 6482923.247756469], [28758.040684442192, 6482809.8782582255], [28879.052845635233, 6482713.202663317], [28931.495778194523, 6482743.773627307], [28993.709677419356, 6482641.935483871], [28907.33404710921, 6482577.665952891], [28955.0, 6482530.0], [28935.0, 6482470.0], [28987.941176470587, 6482312.63194072], [28935.0, 6482130.0], [28871.210318592875, 6482098.339680184], [28829.73177535854, 6482013.301962256], [28664.444444444445, 6482012.777777778], [28614.149935953323, 6482089.396232394], [28542.321282552657, 6482106.776235359], [28450.246622339666, 6481976.834857545], [28370.0, 6481995.0], [28339.333336016232, 6481901.972102487], [28214.359667522513, 6481846.673869109], [28144.348924937545, 6481715.01243841], [28179.454752491554, 6481691.575630478], [28115.92260799639, 6481577.306259496], [28155.0, 6481440.0], [28206.785714285714, 6481457.261904762], [28395.0, 6481240.0], [28395.0, 6481140.0], [28357.08092485549, 6481102.080924856], [28359.751520168604, 6480876.889539377], [28314.22019436249, 6480821.887364951], [28470.049504950493, 6480634.950495049], [28444.389477554174, 6480434.341337369], [28644.324324324323, 6480455.0], [28760.70851013556, 6480303.806935173], [28918.685042449226, 6480226.1495861765], [28880.75440210846, 6480130.355388145], [29069.008203361063, 6479957.430213571], [29214.583333333332, 6479942.916666667], [29225.0, 6479890.0], [29172.01042865377, 6479777.343739423], [29310.0, 6479815.0], [29369.818652849743, 6479937.948186529], [29335.0, 6479960.0], [29385.0, 6480010.0], [29352.072060920684, 6480125.475787353], [29434.23917000364, 6480170.367673826], [29431.09523375966, 6480247.354836095], [29558.257414386368, 6480330.113878421], [29639.746707128073, 6480157.416375871], [29817.586434541874, 6480077.413565458], [29927.714398829445, 6480113.699843273], [29969.73208882856, 6480015.5525954105], [30362.100456521828, 6479784.105573343], [30467.42389778808, 6479660.608817696], [30508.320977450905, 6479410.153945012], [30698.11208940061, 6479227.372163901], [30595.255148623317, 6479071.111183404], [30736.274106084267, 6478793.763047842], [30877.876095839863, 6478716.527406247], [31053.062273936543, 6478470.081666515], [31090.0, 6478505.0], [31154.741379310344, 6478381.551724138], [31200.0, 6478425.0], [31307.896898378218, 6478356.771144095], [31247.407055035128, 6478211.6708138175], [31290.506329113923, 6478158.670886076], [31332.49675368289, 6478186.664502455], [31432.859555305375, 6478127.859555305], [31481.633429996873, 6478138.317459681], [31427.056825177006, 6477942.184480789], [31556.516853932582, 6477840.505617977], [31580.0, 6477855.0], [31610.47825128323, 6477755.88165339], [31489.058549472877, 6477518.91217579], [31524.892260876717, 6477465.161608685], [31444.468892261, 6477401.28983308], [31477.000717298433, 6477325.539151832], [31393.077522559473, 6477217.358900738], [31423.60079791249, 6477146.659690306], [31650.6173747014, 6477208.929799639], [31760.0, 6477185.0], [31839.23076923077, 6477235.769230769], [31884.285714285714, 6477190.714285715], [32015.082909512294, 6477348.363468313], [32125.0, 6477350.0], [32140.90847633001, 6477294.320332845], [31995.0, 6477174.125068569], [31995.0, 6477117.741935484], [31911.583765112264, 6477028.075993092], [31896.731932522263, 6476958.153899355], [32044.14600709618, 6476893.45859144], [31960.594405594406, 6476763.706293706], [32015.393782030478, 6476690.050667756], [32077.272727272728, 6476705.909090909], [32160.0, 6476635.0], [32247.64929574675, 6476654.224520672], [32340.45135428093, 6476428.177031421], [32315.0, 6476390.0], [32369.788937409026, 6476376.302765648], [32378.709863648455, 6476299.202332859], [32501.08238496211, 6476377.649844895], [32647.5, 6476227.5], [32592.954545454544, 6476172.045454546], [32554.34131736527, 6476209.341317365], [32501.61799983297, 6476156.617999833], [32375.645658614747, 6476155.022808495], [32464.4894431587, 6476022.127191951], [32440.0, 6475965.0], [32349.398681180657, 6475960.879736236], [32272.63690922731, 6475831.185296324], [32172.003897864848, 6475777.952138915], [32339.12955465587, 6475596.194331984], [32298.248748063794, 6475515.365143965], [32312.164728727465, 6475469.578782465], [32139.134477825464, 6475287.467811159], [32220.146127868822, 6475184.326149397], [32378.685514234756, 6475216.930114275], [32415.28368794326, 6475163.191489362], [32356.587834339138, 6475080.128934163], [32440.255972696246, 6474979.385665529], [32410.97439180538, 6474924.696542894], [32487.99727918575, 6474829.012082679], [32257.93090864592, 6474737.0126269935], [32129.665901328728, 6474623.463681103], [32126.3687081577, 6474436.032729978], [32053.776084708803, 6474357.923067147], [32117.861408424826, 6474269.029813037], [32201.8, 6474274.8], [32256.500402900885, 6474133.804995971], [32356.95930183084, 6474036.247225822], [32478.40092700284, 6474045.650486224], [32678.99898109299, 6473643.866988387], [32396.998652565147, 6473445.506911613], [32441.02526724976, 6473381.428571428], [32548.508519591687, 6473439.782040556], [32681.08769853414, 6473267.157784126], [32778.80042462845, 6473301.932059448], [32765.0, 6473260.0], [32923.52250872734, 6473188.904203457], [32910.17480136837, 6473127.233059697], [33063.11320754717, 6473191.949685534], [33145.39966545707, 6473313.066742313], [33091.26315759964, 6473412.187998963], [33288.496785839605, 6473579.500459165], [33340.0, 6473555.0], [33586.48887212373, 6473776.858921162], [33691.96428571428, 6473788.75], [33716.15605840672, 6473974.111924861], [33893.5241941881, 6474095.73750011], [34059.43443917361, 6473971.018161175], [34290.74094501271, 6474165.974122817], [34280.58759170147, 6474338.224565105], [34236.11111111111, 6474394.444444444], [34246.8801843318, 6474473.834101383], [34321.67870036101, 6474560.060168472], [34380.0, 6474685.0], [34430.0, 6474665.0], [34484.851289749204, 6474708.213775167], [34414.75849078796, 6474781.34073041], [34523.73179691403, 6474874.9151976835], [34640.0, 6474865.0], [34749.51422954564, 6474983.682675225], [34877.043322579506, 6474933.308885582], [34866.28585244477, 6474982.403441829], [34758.70433953995, 6475115.360002786], [34785.0, 6475213.333333333], [34741.24189800661, 6475260.5735599855], [34802.16981132075, 6475346.603773585], [34767.08997526129, 6475478.850526698], [34740.0, 6475755.0], [34697.19244823386, 6475727.113276492], [34651.92307692308, 6475813.076923077], [34708.380678409325, 6475867.565073349], [34712.93310130264, 6476006.901481507], [34800.86343461066, 6476059.963712649], [34785.0, 6476100.0], [34829.447861945075, 6476122.223930973], [34835.97777237945, 6476393.233329285], [34888.24324324324, 6476432.432432433], [34864.425087108015, 6476536.236933798], [34899.27455815865, 6476677.302826871], [34850.0, 6476665.0], [34857.66254387245, 6476723.215653026], [34767.86450618217, 6476822.0054372], [34705.0, 6476815.714285715], [34700.53191489362, 6476954.468085106], [34637.83859258101, 6476939.106807696], [34580.0, 6477025.0], [34538.57142857143, 6476996.428571428], [34363.207848227255, 6477067.158728896], [34323.85651366571, 6477144.151157939], [34452.02943177437, 6477194.631588668], [34581.51203937474, 6477314.42064378], [34639.91925759062, 6477253.654985389], [34745.75972390352, 6477257.45473384], [34790.0, 6477425.0], [34849.51122853369, 6477377.021136063], [34880.24385462406, 6477392.545864707], [34752.85820315261, 6477712.443627624], [34735.43996999844, 6477849.361083072], [34589.74110628417, 6478043.689491365], [34634.41918913578, 6478107.155175792], [34651.92413866207, 6478322.693103996], [34691.99580193176, 6478378.945634716], [34614.5965482539, 6478366.077545619], [34564.88259934842, 6478537.745383208], [34640.41876892028, 6478588.259334006], [34579.83792542582, 6478636.214128917], [34492.089507488214, 6478583.115065741], [34500.9375, 6478696.5625], [34537.5, 6478757.5], [34560.0, 6478715.0], [34661.92682926829, 6478860.8292682925], [34635.0, 6478890.0], [34683.2802358868, 6478942.774411807], [34597.562032626825, 6479059.0083748], [34685.0, 6479130.0], [34706.001259445846, 6479285.409319899], [34646.5, 6479321.5], [34600.0, 6479275.0], [34586.38075313807, 6479293.305439331], [34623.0, 6479388.0], [34545.391061452516, 6479366.9273743015], [34554.462819146436, 6479485.584227279], [34505.38461538462, 6479549.615384615], [34466.666666666664, 6479545.0], [34535.19377424163, 6479708.873237782], [34515.70921591004, 6479739.29078409], [34594.83056002077, 6479913.894727834], [34670.0, 6479895.0], [34663.81594099919, 6479963.473770612], [34721.875, 6480033.125], [34722.46198394219, 6480142.328349684], [34805.0, 6480134.444444444], [34805.0, 6480031.538461538], [34878.22384428224, 6479979.111922141], [34953.86235583078, 6480024.17873059], [34997.05667112991, 6480006.223497915], [35098.07692307692, 6480174.615384615], [35082.79952359877, 6480227.63694751], [35257.34707877359, 6480522.972988443], [35226.70987948231, 6480572.013739882], [35292.5, 6480697.5], [35214.59536967141, 6480777.22098344], [35431.408535306786, 6481015.619573575], [35475.0, 6481110.253164557], [35421.844702867005, 6481149.781082197], [35245.0, 6481130.0], [35248.07692307692, 6481263.076923077], [35305.0, 6481320.0], [35278.61643835616, 6481363.97260274], [35443.63636363637, 6481531.363636363], [35484.67699783425, 6481506.510027036], [35629.21209858103, 6481521.516056758], [35720.64843929449, 6481619.119603916], [35810.88363460676, 6481616.809537799], [36005.0, 6481720.0], [36035.56594420424, 6481853.207843353], [35945.0, 6481910.0], [36020.52879581152, 6482002.183994017], [35952.88829682258, 6482097.806723242], [36030.0, 6482215.0], [36120.23131768813, 6482186.451791687], [36399.105636066495, 6482259.274829643], [36391.51292990707, 6482401.719929103], [36480.0, 6482465.0], [36721.79530201342, 6482480.016778523], [36791.033512022164, 6482528.761486286], [36835.33359521829, 6482705.331438519], [36987.661398864475, 6482721.223078602], [36941.0, 6482884.0], [36965.0, 6482960.0], [36888.681345293924, 6483036.318654706], [36992.621537895284, 6483101.459528265], [37022.056434796395, 6483083.386061557], [37360.14510313369, 6483113.944117023], [37361.766897474634, 6483173.383448738], [37436.38293531323, 6483288.001298811], [37523.517292677854, 6483232.571625342], [37668.482400955494, 6483325.0], [37828.646346537746, 6483365.241476469], [37894.447665102336, 6483344.5837833015], [38010.0, 6483425.0], [38087.99417546414, 6483386.412449946], [38195.40677908389, 6483408.112566828], [38168.08199121523, 6483462.818448024], [38010.738418676534, 6483536.696266657], [38252.70763189718, 6483572.898960793], [38377.828304142844, 6483677.390746246], [38753.086177230594, 6483650.444095623], [39072.64113097107, 6483710.3612252185], [39149.39780733774, 6483700.856110797], [39344.166666666664, 6484039.166666667], [39315.99542431331, 6484081.371364163], [39455.0, 6484150.0], [39443.419154343384, 6484192.463100741], [39138.81898509072, 6484342.245739432], [39146.117706917765, 6484482.944107351], [39022.77862947791, 6484591.251324118], [38801.72183595837, 6484660.09688822], [38599.62095511611, 6484657.676199833], [38635.563796862145, 6484723.662566946], [38859.05034785536, 6484795.949652145], [39467.359109809215, 6484877.307681516], [39537.5, 6484797.5], [39610.0, 6484885.0], [39680.0, 6484875.0], [39783.35164835164, 6484978.351648352], [39937.35085819763, 6485000.104619987], [39758.97993311037, 6485194.548494983], [39910.694348355086, 6485355.382064556], [39880.25667351129, 6485393.429158111], [40110.0, 6485715.0], [40169.57026713125, 6485695.49941928], [40337.45365589396, 6485851.715536068], [40459.319972461046, 6486036.255958298], [40435.38747991753, 6486085.448154039], [40539.19495606958, 6486241.3135122275], [40442.43988848592, 6486291.466900012], [40266.666666666664, 6486201.666666667], [40226.92240942946, 6486224.595053872], [40140.0, 6486185.0], [40026.654367673276, 6485971.887360115], [39903.69158878505, 6485878.6915887855], [39825.22969452995, 6485987.758406347], [39916.68508744812, 6486084.887090024], [39916.884057971016, 6486220.579710145], [40025.0, 6486370.0], [39982.142857142855, 6486398.571428572], [39965.0, 6486480.0], [39915.0, 6486590.0], [39965.769230769234, 6486669.230769231], [39925.0, 6486710.0], [39985.0, 6486790.0], [39922.348906914136, 6486933.438028907], [39725.30794840967, 6486962.361107022], [39605.01054685464, 6486897.145017308], [39589.13726747915, 6486934.137267479], [39657.40565397, 6487049.492932538], [39625.0, 6487090.0], [39665.0, 6487130.0], [39604.70957400426, 6487203.478956683], [39563.27238335435, 6487330.8070617905], [39515.0, 6487316.666666667], [39509.959069366654, 6487350.590262818], [39555.67455967095, 6487399.934364251], [39437.27597845328, 6487528.683860241], [39571.013071895424, 6487673.986928104], [39545.2384610488, 6487704.595367125], [39677.402731934184, 6487805.890911163], [39769.25678178132, 6487828.58127424], [39715.50006995391, 6488036.392177104], [39601.01827751803, 6488132.816335737], [39648.453237410075, 6488216.258992806], [39527.676579925654, 6488347.100371747], [39370.41608917308, 6488432.270560788], [39418.03738317757, 6488512.570093458], [39440.0, 6488495.0], [39465.0, 6488560.0], [39339.402163006365, 6488658.324708459], [39382.50366389839, 6488707.816316561], [39330.71428571429, 6488775.714285715], [39449.22683302958, 6488848.456469929], [39435.0, 6488910.0], [39494.28638059701, 6488969.286380597], [39320.558980247006, 6489035.552523565], [39377.648846921715, 6489183.022856438], [39462.03048804662, 6489283.266463148], [39433.86439370214, 6489368.5671575535], [39679.09812577974, 6489640.338069756], [39770.0, 6489645.0], [39834.5469977468, 6489735.661371453], [39804.819277108436, 6489840.180722891], [39762.72727272727, 6489806.818181818], [39710.58187622477, 6489842.510277568], [39613.188679245286, 6489795.547169811], [39603.94753467536, 6490014.396519542], [39687.45901639344, 6490132.2950819675], [39638.13600000188, 6490190.900202434], [39985.300734785546, 6490509.599661359], [39920.21279382329, 6490574.019200151], [39671.74181432748, 6490443.22008886], [39586.93296602387, 6490527.77318641], [39345.0, 6490400.888353292], [39345.0, 6490460.0], [39397.51317452002, 6490530.746915673], [39325.0, 6490617.006802721], [39388.91304347826, 6490711.739130435], [39270.13654572524, 6490814.881427387], [39018.027887793185, 6490593.435520984], [38959.333333333336, 6490605.666666667], [38900.56134916666, 6490809.505564305], [38867.22782747779, 6490851.295672755], [38703.00977902161, 6490703.864250356], [38575.70136392123, 6490905.889712018], [38572.18592964824, 6490988.391959799], [38538.99513993974, 6491038.761369101], [38551.219547084795, 6491214.193452978], [38774.46223608769, 6491403.898952322], [38848.06512520887, 6491397.140374867], [39032.74791398992, 6491508.698085385], [39261.416906914295, 6491719.944931083], [39355.0, 6491676.0], [39366.881107491856, 6491737.451140065], [39464.0, 6491725.0], [39556.26676427982, 6491791.155236063], [39617.93655569597, 6491782.936555696], [39685.0, 6491850.0], [39685.0, 6491955.634903973], [39749.23968964834, 6491935.760310352], [39971.36637335008, 6492096.772348506], [39965.96216216216, 6492194.681081081], [40057.05784675093, 6492278.498579315], [40146.24864184321, 6492309.902966013], [40164.609518845326, 6492392.304832343], [40081.42206798379, 6492571.141975015], [39915.066666666666, 6492585.133333334], [39880.0, 6492515.0], [39785.9071590191, 6492519.373161153], [39614.40742074723, 6492420.231487203], [39388.35322946713, 6492480.139925996], [39250.00739575703, 6492398.629436467], [39288.61792995629, 6492310.954414664], [39140.0, 6492175.0], [38885.66827305695, 6492293.747295025], [38640.833333333336, 6492194.166666667], [38617.5, 6492217.5], [38405.888897501725, 6492097.809526198], [38320.0, 6492135.0], [38285.33046798604, 6492093.3965615835], [38051.127266796895, 6492070.795064433], [37930.0, 6492135.0], [37847.83973101709, 6492095.159708601], [37810.0, 6492005.0], [37760.0, 6492045.0], [37696.63594470046, 6492006.474654377], [37544.55714040548, 6492131.269800293], [37435.52966232042, 6492063.523303912], [37300.26315789473, 6492185.263157895], [37339.8, 6492257.6], [37255.0, 6492300.0], [37262.2891566265, 6492351.024096386], [37196.25, 6492355.625], [37150.0, 6492425.0], [37059.166666666664, 6492432.5], [36912.78381046397, 6492504.842053307], [36905.420173780105, 6492593.788987053], [36785.68755570008, 6492883.437778501], [36833.23998621759, 6492937.359979327], [36772.12887258576, 6493035.522738225], [36662.608695652176, 6493092.391304348], [36544.169278996866, 6493078.887147335], [36465.1595266706, 6493109.29872677], [36427.77777777778, 6493077.222222222], [36345.551550181204, 6493089.028440987], [36115.69498069498, 6492849.305019305], [36145.0, 6492820.0]]]}}]}