{"type": "FeatureCollection", "crs": {"type": "name", "properties": {"name": "EPSG:25833"}}, "features": [{"type": "Feature", "properties": {"station": "24.9.0", "name": "Tingvatn (Lygne)", "series": ["1001.0"], "nodes": 2717564, "fine_vertices": 18790, "fine_area_m2": 271756650.0, "reduced_vertices": 891, "reduced_area_m2": 271756649.9999991, "outline_tolerance_m": 20.0, "windows": [[1404, 659], [2022, 1457], [3221, 2924], [5580, 4687]], "placed_on": "number", "distance_m": 164.7909747231236, "uncertainty_m": 164.7909747231236, "elvid": "024-106-1", "objectid": 10746896, "lake": true, "confluence_near": true, "reach_up_m": 1000.0, "reach_down_m": 264.79097472312355, "reach_fork": false, "seeded_by": "lake", "lake_rule": "inside", "lake_number": 1232, "lake_name": "Lygne", "lake_distance_m": 0.0, "node_offset_m": null, "chain_nodes": null, "lowered_nodes": null, "lowered_max_m": null, "direction_ok": null, "end_extended_m": null, "end_closed": null, "downstream_checked": null, "a0": null, "area_up": null, "area_down": null, "swing": null, "largest_step": null, "largest_step_at_m": null, "checked_up_m": null, "checked_down_m": null, "drains": null, "monotone": null, "causes": []}, "geometry": {"type": "Polygon", "coordinates": [[[42690.0, 6528965.0], [42428.318269977666, 6528938.453201587], [42302.46472342251, 6529095.516839495], [42185.555555555555, 6529110.555555556], [42150.0, 6529075.0], [42110.0, 6529101.666666667], [41940.0, 6529005.0], [41930.0, 6528955.0], [41812.70978823918, 6529027.838797569], [41785.0, 6528840.0], [41631.81907483479, 6528665.099124843], [41443.24204640378, 6528552.2894301675], [41429.508670520234, 6528346.416184971], [41474.0779328363, 6528282.745810234], [41440.971722845825, 6528172.3186711585], [41556.40707322632, 6527997.7950342335], [41488.96551724138, 6527892.586206896], [41602.267705085425, 6527737.256978572], [41587.177121463676, 6527669.605035173], [41712.832417051555, 6527680.529804216], [41700.81890162548, 6527499.042559404], [41735.0, 6527358.571428572], [41595.0, 6527260.0], [41664.42428035044, 6527146.020025032], [41597.874626633464, 6527039.402780022], [41554.41645842836, 6527026.021534283], [41533.529411764706, 6526778.618873754], [41653.522927942504, 6526719.503499507], [41621.75151989023, 6526555.84407663], [41349.605345622, 6526537.860990627], [41212.384746395604, 6526338.1483689295], [41350.27440874222, 6526234.72849658], [41465.18817667662, 6526058.282415999], [41560.94977262368, 6526007.457131409], [41641.57433812786, 6525865.109717213], [41579.99259858846, 6525825.405747044], [41673.94736842105, 6525738.947368421], [41537.70180300221, 6525643.55390206], [41411.67712679249, 6525598.697271285], [41367.495617553555, 6525655.382981252], [41225.11749302974, 6525645.802808064], [41083.11160936722, 6525367.957149975], [41005.0, 6525180.0], [41064.759488532574, 6525093.311853055], [40992.27272727273, 6524977.2727272725], [40985.05280528053, 6524860.851485148], [41095.0, 6524740.0], [41061.31578947369, 6524600.52631579], [41104.41000937303, 6524444.904653674], [41173.71162916391, 6524371.044211186], [41093.481661072925, 6524241.48751176], [41255.70536517906, 6524056.549172769], [41220.69912121346, 6523937.191720534], [41300.0, 6523875.0], [41336.243026922144, 6523899.162017948], [41453.25842696629, 6523822.752808989], [41724.86991163351, 6523844.421501167], [41797.88343558282, 6523700.674846626], [41885.294117647056, 6523641.470588235], [41911.51472937348, 6523669.16864352], [42066.71441701039, 6523529.070369677], [42069.0, 6523398.0], [42016.91234023572, 6523239.040719386], [41927.33681818693, 6523198.253773391], [41853.12998872895, 6523061.383522843], [41776.24616022464, 6523016.577558751], [41780.43873284346, 6522821.988145016], [41830.53846153846, 6522763.538461538], [41960.0, 6522775.0], [41992.51860729154, 6522839.1081115175], [42056.959600100905, 6522772.364359083], [41854.15009049744, 6522613.840276904], [41815.0, 6522540.0], [41711.97859150441, 6522517.110916634], [41640.79432079816, 6522404.742900997], [41633.524705132295, 6522270.4233343955], [41495.0, 6522200.0], [41713.52709100473, 6521910.699631773], [41700.0, 6521865.0], [41645.52902151489, 6521883.43633118], [41589.55713882894, 6521786.889225904], [41363.30050696347, 6521738.72414195], [41256.77328857506, 6521762.480700423], [41102.79013954296, 6521706.688871538], [40781.10384373668, 6521520.813890883], [40693.88806879825, 6521337.531664029], [40641.153846153844, 6521354.615384615], [40403.62606272169, 6521106.477253533], [40327.198618668896, 6521155.930305568], [40228.87708517123, 6521047.523106394], [40120.0, 6520995.0], [39974.127855845625, 6520997.282753932], [39997.10354848517, 6521146.053277644], [39724.12870939587, 6521118.711277619], [39580.20547945205, 6520948.493150685], [39742.30434782609, 6520745.869565218], [39702.692307692305, 6520618.461538462], [39814.14824081834, 6520596.806425103], [39727.704864216226, 6520448.241846304], [39656.42857142857, 6520431.428571428], [39685.0, 6520390.0], [39645.0, 6520340.0], [39694.824294838385, 6520268.242948384], [39635.0, 6520240.0], [39683.0, 6520176.0], [39635.0, 6520140.0], [39681.737278720095, 6520053.244204133], [39511.59259788511, 6519861.8533866815], [39505.0, 6519710.0], [39295.87351587925, 6519452.866178999], [39205.729342384046, 6519460.898503394], [39174.61015175301, 6519211.598639456], [39104.61538461538, 6519155.0], [38964.61538461538, 6519155.0], [38890.0, 6519285.0], [38880.0, 6519255.0], [38811.17647058824, 6519255.0], [38745.0, 6519170.0], [38729.79645538271, 6519030.696153549], [38642.43369720333, 6518927.98042886], [38665.0, 6518870.0], [38564.513235406106, 6518832.559476855], [38550.18845949576, 6518746.706907298], [38413.45448488394, 6518618.668942279], [38355.0, 6518430.0], [38408.50276184115, 6518309.618785857], [38275.62945019883, 6518149.271076494], [38366.03773584906, 6518058.962264151], [38453.193033381714, 6518101.806966619], [38511.0, 6518044.0], [38465.0, 6517990.0], [38480.826535931716, 6517921.899528243], [38296.757686571254, 6517877.713036652], [38225.314621857644, 6517742.376991133], [38082.840855367904, 6517794.029833976], [37940.23178865433, 6517638.431198019], [37972.25925925926, 6517535.481481481], [37934.166666666664, 6517499.166666667], [38085.64223899834, 6517340.701528263], [38144.444444444445, 6517398.703703703], [38305.574892513985, 6517308.328156518], [38383.6278058417, 6517178.79046569], [38387.62992362116, 6517017.964012933], [38606.28025984824, 6516882.423576976], [38741.47138085504, 6516755.4035351], [38714.404536862006, 6516707.476370511], [38908.99684318643, 6516588.50561127], [38922.19719156606, 6516365.638782724], [39041.091522495495, 6516236.505104867], [38940.18699041559, 6516174.948759443], [38828.23485900838, 6516259.838282732], [38680.98383528401, 6516201.54125141], [38451.24676582074, 6516166.51309712], [38457.72727272727, 6516022.7272727275], [38495.05872753799, 6515973.191303844], [38340.816698033035, 6515763.199498334], [38292.9020979021, 6515756.888111888], [38424.61501427899, 6515659.624643025], [38410.88999174164, 6515636.490252311], [38811.62175964616, 6515276.621759647], [38782.086420592146, 6515247.086420592], [38685.834161326544, 6515264.076464954], [38509.098217899504, 6514993.699115695], [38535.0, 6514917.777777778], [38512.6560332871, 6514856.152565881], [38383.273419239864, 6514809.341591797], [38261.52100964015, 6514692.455221135], [38291.74866801499, 6514558.5491868025], [38232.8, 6514567.4], [38161.389396709325, 6514496.444241316], [38128.256435407, 6514519.303643063], [38078.333333333336, 6514436.666666667], [38155.126582278484, 6514250.126582279], [38135.0, 6514230.0], [38190.78947368421, 6514104.862761743], [38131.03018964661, 6514035.384561888], [38216.958900045654, 6513843.605405123], [38333.529411764706, 6513820.294117647], [38415.0, 6513719.133574007], [38380.66682492982, 6513663.134061958], [38517.89435516511, 6513530.060446457], [38618.162368509715, 6513513.136081133], [38680.3738317757, 6513560.607476636], [38784.497041420116, 6513530.857988166], [38763.913456394774, 6513447.584057665], [38874.910779411264, 6513414.318479338], [39040.83925597416, 6513234.881359382], [39160.178041543026, 6513292.715133531], [39185.76271186441, 6513251.779661017], [39303.982109465054, 6513306.533416063], [39438.060876174786, 6513100.014305845], [39569.323156132916, 6513180.960334208], [39640.0, 6513105.0], [39708.66024864394, 6513108.549939423], [39615.0, 6512910.0], [39685.0, 6512834.285714285], [39706.498749028084, 6512747.79931881], [39897.71414574764, 6512764.374225035], [40019.92332454135, 6512535.2036259575], [40094.28128231644, 6512460.710961738], [40131.25659854472, 6512496.2063018605], [40214.99193352446, 6512458.055478276], [40185.326171533474, 6512300.93723067], [40129.70088636722, 6512276.190248007], [40035.101048821016, 6512140.075786616], [39980.24118079902, 6511914.305370461], [40036.63169175333, 6511762.465500595], [39898.42105263158, 6511601.842105263], [39933.970887499374, 6511521.543130334], [39816.30630630631, 6511481.306306306], [39671.454545454544, 6511336.454545454], [39631.25, 6511365.0], [39594.292237442925, 6511329.520547945], [39487.396422602214, 6511384.2480393415], [39366.41806678844, 6511311.016443818], [39370.3787075582, 6511177.449536475], [39131.78590329917, 6511083.805162927], [39103.1198333912, 6511008.214320135], [39020.40404040404, 6510947.323232323], [39081.51118385161, 6510902.555919258], [39075.0, 6510850.0], [39199.90193086943, 6510798.628657967], [39236.58021175298, 6510684.887862863], [39409.66729771683, 6510613.147302907], [39445.0, 6510550.0], [39626.82309895005, 6510557.702831689], [39626.846153703365, 6510465.131609738], [39680.0, 6510435.0], [39766.666666666664, 6510492.777777778], [39867.88421530631, 6510444.131403589], [39900.0, 6510495.0], [39991.721608354324, 6510428.972899929], [40072.59140837639, 6510499.587635156], [40095.269230769234, 6510600.91025641], [40224.553211364866, 6510617.810718898], [40247.25099601594, 6510581.972111554], [40310.0, 6510615.0], [40374.24535704944, 6510559.616793094], [40515.43646931603, 6510582.884698567], [40549.04109589041, 6510535.95890411], [40605.339762799435, 6510567.242147191], [40693.82352941176, 6510471.764705882], [40641.036036036036, 6510393.963963964], [40745.0, 6510290.0], [40641.36363636364, 6510296.363636363], [40530.818976010356, 6510206.237015238], [40442.27272727273, 6510195.454545454], [40333.58965741602, 6510105.799407428], [40392.07317073171, 6510027.073170732], [40365.0, 6510000.0], [40415.98039215686, 6509948.823529412], [40405.0, 6509850.0], [40532.32786007753, 6509717.447983814], [40618.78843582888, 6509737.431483957], [40757.22192621911, 6509661.77386208], [40823.15514881635, 6509460.024871617], [40736.84210526316, 6509345.0], [40576.73962596126, 6509391.064205628], [40495.0, 6509250.0], [40592.615713385116, 6509021.509773723], [40690.19995858795, 6509048.7497147275], [40705.0, 6508906.666666667], [40513.87016191674, 6508908.187883304], [40524.44635986104, 6508618.211542495], [40631.25869048648, 6508497.809197348], [40575.59552776193, 6508440.843471668], [40562.142857142855, 6508330.0], [40636.95121951219, 6508303.902439024], [40538.076393195806, 6508125.219269803], [40595.0, 6507960.0], [40419.32698054673, 6507859.593965787], [40457.307692307695, 6507796.923076923], [40442.885746007145, 6507635.866208514], [40521.19565675733, 6507552.826059456], [40525.0, 6507450.0], [40600.0, 6507375.0], [40720.0, 6507375.0], [40760.0, 6507335.0], [40874.592429053, 6507376.669974201], [41005.0, 6507281.06031208], [40687.54679470602, 6507071.291672401], [40730.0621669627, 6506976.589698046], [40720.57956811118, 6506862.003413072], [40873.89008414858, 6506866.042635117], [41044.70767666497, 6506960.973563802], [41228.35991356519, 6506925.868120947], [41288.90896718671, 6506826.961791139], [41177.048192771086, 6506747.951807229], [41195.691544532805, 6506651.919583546], [41274.23098041403, 6506507.376752454], [41096.525449864785, 6506398.616662715], [41250.15206812652, 6506242.413828062], [41351.7300572033, 6506227.710683147], [41498.03159902049, 6506151.350716366], [41765.928664908715, 6506197.1444936255], [41820.92831962397, 6506237.961222092], [41863.37209302325, 6506207.0930232555], [42040.0, 6506235.0], [42073.79682021355, 6506156.140752835], [42493.65630952548, 6506472.5076421965], [42653.40888066605, 6506451.591119334], [42746.126017757, 6506333.246922568], [42979.279823200966, 6506335.506738273], [43039.28571428572, 6506264.285714285], [42978.57142857143, 6506203.571428572], [43157.27771010962, 6505974.555420219], [43121.0, 6505902.0], [43189.27665332576, 6505819.237179474], [43165.0, 6505744.912280702], [43277.19545767378, 6505602.195457674], [43217.992494636084, 6505542.992494636], [43370.94672599777, 6505344.785085483], [43438.90943949475, 6505346.398443667], [43570.61093910468, 6505570.053188439], [43715.52210340967, 6505720.109015289], [43993.399246649526, 6505679.196529257], [44185.0, 6505730.0], [44179.12280701754, 6505690.96491228], [44332.65511393099, 6505646.841746838], [44458.782826265066, 6505675.122524804], [44564.42468619247, 6505491.558577406], [44749.80392156863, 6505661.470588235], [44759.34098861252, 6505595.862917968], [44686.79076500275, 6505498.230563453], [44829.13086178689, 6505176.738276427], [44927.056671640166, 6505114.003058488], [45139.2519421956, 6505121.564934743], [45161.08901217819, 6504949.112115842], [45402.47763801623, 6505000.455835918], [45485.48264585057, 6504920.260172035], [45498.78194207836, 6504811.090289609], [45445.58823529412, 6504731.764705882], [45503.88799183575, 6504658.890010205], [45455.21368989971, 6504606.159830048], [45351.42857142857, 6504653.571428572], [45300.15369893112, 6504619.653702386], [45085.0, 6504580.0], [45065.0, 6504520.0], [45158.687838290425, 6504374.003582832], [45217.2636286201, 6504371.258517887], [45342.68292682927, 6504243.048780488], [45360.20671754125, 6504148.394273595], [45270.489765623606, 6504070.644319196], [44940.20524660424, 6504149.312762744], [44870.53217172815, 6504034.0243128035], [44862.078828797705, 6503886.840397135], [44729.21686746988, 6503685.662650603], [44672.35020559303, 6503742.6450127065], [44448.51506764667, 6503493.530619465], [44559.73684210526, 6503361.578947368], [44536.71470444553, 6503327.394561146], [44725.0, 6502986.666666667], [44659.034211008024, 6502902.71381902], [44682.74260233253, 6502845.290295906], [44763.26475494153, 6502938.709944509], [45005.42322337908, 6502996.084644676], [45139.33022443067, 6503107.139859614], [45528.616554021435, 6503083.475735161], [45528.361862527716, 6503120.945011087], [45601.36363636363, 6503145.454545454], [45651.47882141472, 6503060.248198714], [45725.92197659298, 6503119.078023407], [45801.17117117117, 6503043.828828828], [45895.333333333336, 6503068.066666666], [45938.333333333336, 6503026.666666667], [45915.0, 6502990.0], [46035.87882981741, 6502930.767099624], [45931.014784496765, 6502649.448243465], [45955.0, 6502640.0], [45921.92307692308, 6502606.923076923], [45955.52825293117, 6502539.112632479], [45920.29134966212, 6502407.961904989], [45751.20203432157, 6502217.133670742], [45628.67960452065, 6502143.040610683], [45687.163588390504, 6502041.715039578], [45585.0, 6501960.0], [45622.0, 6501941.5], [45602.17897960874, 6501804.555567634], [45522.307692307695, 6501753.461538462], [45472.0, 6501787.0], [45346.105043240634, 6501776.037438106], [45136.11111111111, 6501503.333333333], [45163.52229237846, 6501462.216561432], [44987.442348008386, 6501292.211740042], [44972.5, 6501217.5], [44801.98831213297, 6501192.192093429], [44811.50829172155, 6501097.330264474], [44743.856564479276, 6501052.496511111], [44597.79717161908, 6500767.357022528], [44422.13836477987, 6500685.71278826], [44355.38461538462, 6500541.153846154], [44570.3453134651, 6500334.4329061145], [44522.5, 6500250.0], [44639.96023509865, 6500227.474713338], [44906.18311411258, 6500404.664953679], [45124.27907555703, 6500399.279075557], [45316.95626878697, 6500498.478134394], [45400.91569047884, 6500402.535972683], [45312.94392048132, 6500225.290698582], [45325.10101010101, 6500149.090909091], [45159.77204603486, 6499986.748880583], [45137.84827586207, 6500006.986206897], [44995.0, 6499860.0], [45015.92005550219, 6499820.413064362], [44929.640215198386, 6499674.31069267], [45037.06894864859, 6499430.712444807], [45121.68331694098, 6499319.790911227], [45095.0, 6499280.0], [45229.27619531662, 6499263.805861508], [45368.75950085929, 6499028.691602997], [45468.93286293028, 6498922.79855987], [45830.70052329285, 6499226.864359269], [45903.10344827586, 6499120.172413793], [45980.0, 6499095.0], [46054.62502337759, 6499229.714793342], [46144.448848935266, 6499195.945409914], [46287.44292237443, 6499275.821917809], [46323.58016255195, 6499248.355628623], [46370.25862068965, 6499296.666666667], [46541.67768097633, 6499219.118954544], [46552.99354893884, 6499341.330328539], [46792.24305436291, 6499585.711921954], [46753.877389753645, 6499665.199046768], [47010.0, 6499965.0], [47107.85215441523, 6499901.356322331], [47365.760869565216, 6499919.239130435], [47335.457785241764, 6499963.603523698], [47414.61711896704, 6500100.861190218], [47740.11279292099, 6500166.145857364], [47768.28109588077, 6500214.176707783], [47738.32430879671, 6500328.664861759], [47812.296504985854, 6500355.785219469], [47750.77731092437, 6500510.31512605], [47913.845176295734, 6500680.965021871], [48060.42162744292, 6500919.162854573], [47971.6460107194, 6501183.79733647], [48075.53497942387, 6501261.156424839], [47999.38783929238, 6501320.45510527], [48000.622533579524, 6501425.689511604], [48121.23030635896, 6501580.884779528], [48042.01818181818, 6501672.981818181], [48040.22763393333, 6501852.359492351], [48018.07692307692, 6501943.076923077], [48015.0, 6502070.0], [47970.555555555555, 6502114.444444444], [48032.929596262926, 6502175.67400734], [47983.802678077795, 6502272.036257878], [48085.0, 6502390.0], [47993.374304023535, 6502433.288685787], [48013.94795344576, 6502496.269245242], [47960.810513957214, 6502641.967818942], [48342.323440030006, 6502918.6540881805], [48354.2829807174, 6503147.415883072], [48448.72073072374, 6503465.632487412], [48688.273615635175, 6503684.055374593], [48814.18890185018, 6503687.837514581], [48964.956553550604, 6503908.723185034], [49045.76629974598, 6503931.155800169], [49133.87283236994, 6503826.907514451], [49572.87672239916, 6504028.531840609], [49659.13043478261, 6503971.0869565215], [49872.90909025869, 6504014.648673761], [50137.0070508928, 6503917.339180688], [50228.469390964994, 6503991.904754415], [50250.0, 6503915.0], [50325.421858554306, 6503981.566393916], [50395.62629003803, 6503837.044047231], [50488.171428571426, 6503736.085714285], [50580.0, 6503795.0], [50739.68368451955, 6503748.761948366], [50811.086956521736, 6503836.956521739], [50807.206732108876, 6503904.875354478], [51030.858570120516, 6503978.384359675], [51058.0, 6503943.0], [51117.142857142855, 6504002.142857143], [51216.23389514093, 6503989.155119373], [51284.92133427342, 6503912.719589524], [51301.850203755894, 6503847.293178539], [51380.76794957458, 6503690.027931874], [51541.02567041703, 6503543.888216157], [51631.31446551895, 6503358.394228657], [51775.27272727273, 6503350.2727272725], [51918.648207274804, 6503603.027639102], [51928.7037037037, 6503705.925925926], [51779.88521269413, 6503822.954085078], [51740.0, 6503795.0], [51618.686932939134, 6503894.082690831], [51672.80550998014, 6503973.771482783], [51678.59109096353, 6504114.67384051], [51549.27588298994, 6504105.922961235], [51458.35794666032, 6504306.789733302], [51450.646078002566, 6504425.484943895], [51319.295535565194, 6504623.885547761], [51360.0, 6504935.0], [51272.39111386282, 6504863.707323088], [51228.97637795276, 6504965.0], [51060.0691467845, 6505016.5113095], [50952.99275451231, 6505242.729810063], [50981.80498691893, 6505310.828678446], [51189.42282118771, 6505425.477492412], [51115.0, 6505580.0], [51196.09572301426, 6505611.2522548735], [51185.0, 6505660.0], [51290.5237322315, 6505696.034174161], [51385.557486243844, 6505787.093252244], [51474.28571428572, 6505745.285714285], [51537.943127817925, 6505806.561182701], [51436.899565425585, 6505903.15060587], [51582.14147539468, 6506084.917698245], [51492.184231400664, 6506177.329538141], [51402.5, 6506342.5], [51313.092574467155, 6506273.817132524], [50947.45179063361, 6506317.548209366], [50946.69658377282, 6506369.88665807], [50883.0, 6506450.0], [50877.96042216359, 6506636.042216359], [50919.117647058825, 6506717.647058823], [50906.36108082729, 6506920.201197775], [50990.943693994035, 6507000.113776447], [50945.13233527139, 6507076.012567838], [51086.75067385445, 6507208.797843666], [50971.47185284887, 6507299.850993071], [50807.931160586966, 6507213.238003648], [50685.0, 6507270.0], [50693.28125, 6507327.96875], [50371.204025775194, 6507710.445946298], [50225.195530726254, 6507678.798882682], [50167.49185667752, 6507747.6710097715], [50053.89657749215, 6507767.862352414], [50075.0, 6507820.0], [50416.84454694559, 6507890.447162895], [50330.16871165644, 6507960.352760736], [50348.58121381756, 6508114.702543419], [50247.67801281647, 6508211.255112089], [50121.08512302715, 6508188.429763752], [50115.80292456018, 6508258.853230865], [50179.294478527605, 6508363.153374233], [49960.10928358417, 6508528.639475406], [50009.93595094739, 6508558.869659563], [50091.899217911996, 6508510.366838122], [50242.75480820826, 6508752.1238300735], [50165.0, 6508800.0], [50235.778028279994, 6508891.458761984], [50445.88269378049, 6508960.133614732], [50674.84375, 6509260.15625], [50654.23100128466, 6509389.562754849], [50696.889992623524, 6509476.95729982], [50823.230769230766, 6509604.505494505], [50720.0, 6509695.0], [50686.0, 6509672.2], [50597.07338273822, 6509718.475177047], [50605.0, 6509780.0], [50670.85365853659, 6509834.87804878], [50903.64761036594, 6509829.5904414635], [50910.0, 6509855.0], [50955.04569906708, 6509819.693911542], [51031.78677007343, 6509969.941187463], [51085.00424732855, 6509998.434519045], [50966.20034822515, 6510160.543599298], [51135.99019105261, 6510356.487209601], [51088.64652744199, 6510412.303820405], [51255.923159018144, 6510511.051227321], [51318.833491913116, 6510486.320124535], [51418.333333333336, 6510583.333333333], [51362.75650925253, 6510798.727020812], [51306.865317594355, 6510762.91021173], [51223.90240153042, 6510869.254261606], [51295.17976139604, 6511037.5197982695], [51467.979585543115, 6511049.178134977], [51646.40923252578, 6511146.830868037], [51724.378406014606, 6511368.234899663], [51833.79007131078, 6511449.338156884], [51756.74498837667, 6511542.789342669], [52108.58300363855, 6511819.5032101115], [52361.72944323823, 6512168.208225714], [52438.6360940529, 6512326.732432975], [52559.38601086326, 6512392.56746054], [52780.34039175894, 6512808.905459986], [52686.39126891603, 6512901.006892961], [52665.11426319937, 6512991.09141056], [52546.153846153844, 6513091.153846154], [52395.21052631579, 6512949.7894736845], [52334.0, 6513011.0], [51997.35642086416, 6512789.729698024], [51820.0, 6512705.0], [51651.41221374046, 6512849.122137405], [51570.0, 6512825.0], [51460.0, 6512725.0], [51331.849315068495, 6512833.698630137], [51355.0, 6512880.0], [51286.603053435116, 6512907.684478371], [51265.0, 6513010.0], [51313.33685056778, 6513066.238066526], [51300.12195121951, 6513237.560975609], [51325.0, 6513250.0], [51289.42422174248, 6513309.292963763], [51518.11032292591, 6513671.475718341], [51688.75, 6513838.75], [51621.69842443104, 6513867.847853549], [51678.11901047471, 6513979.642299978], [51760.0, 6514015.0], [51874.2740355574, 6513934.099021367], [52226.67583226822, 6513794.159614269], [52545.34307282495, 6513889.497716517], [52662.939828685296, 6514007.824395535], [52742.26667554254, 6514188.026893889], [52686.450151057405, 6514283.625377644], [52732.723177001026, 6514350.844481271], [52574.756561365335, 6514547.501670129], [52564.74775402475, 6514640.26706692], [52628.6953555588, 6514741.522429569], [52631.414290869725, 6514843.904727535], [52680.19607843137, 6514894.803921568], [52561.83997279205, 6514938.756337134], [52341.40695949402, 6515129.350954837], [52390.314708665566, 6515396.059731076], [52366.309066301095, 6515373.900676586], [52222.163131056426, 6515592.174604827], [52279.49610138633, 6515854.234188743], [52208.949985891646, 6515937.583591986], [52271.28773331535, 6516007.001920237], [52257.62295081967, 6516097.377049181], [52153.22580645161, 6516221.451612903], [52184.45452995824, 6516270.79093156], [52136.074980658384, 6516370.168894466], [52196.535269709544, 6516379.668049793], [52194.41080640782, 6516463.850122183], [52234.915397631135, 6516523.803346493], [52280.0, 6516485.0], [52446.74166739061, 6516534.1854168475], [52524.9794316358, 6516654.206935385], [52442.465963163704, 6516838.859274864], [52801.34013234588, 6517190.640702052], [52801.52535016164, 6517274.11742554], [52710.0, 6517375.0], [52560.0, 6517375.0], [52358.76126665071, 6517252.954055994], [52325.72174566148, 6517274.667655995], [51889.9399676796, 6517105.35258991], [51762.262793762355, 6517158.567428069], [51756.666666666664, 6517225.0], [51787.65442485734, 6517225.0], [51970.936356554164, 6517561.268612105], [52121.612895031256, 6517685.450078772], [52117.27763994303, 6517771.854735235], [52235.46675082647, 6517868.098879979], [52298.19155944499, 6517985.488862975], [52385.0, 6518050.0], [52338.81697460619, 6518111.621601763], [52226.0, 6518063.666666667], [52140.0, 6518135.0], [52082.32793627385, 6518083.460539845], [51956.78398208895, 6518254.150842086], [51894.0, 6518221.0], [51833.95127181748, 6518281.048728183], [51649.36920222634, 6518154.183673469], [51585.454545454544, 6518165.0], [51520.33933812236, 6518313.312306877], [50985.806557728116, 6518281.746616441], [50888.629629629635, 6518183.185185186], [50822.13687227247, 6518218.545676498], [50545.5198019802, 6517943.688118812], [50586.27832407011, 6518018.72167593], [50453.08695652174, 6518151.9130434785], [50457.97872340426, 6518391.70212766], [50402.08229426434, 6518532.917705736], [50315.0, 6518620.0], [50334.11617703964, 6518688.272060856], [50217.91781488086, 6518788.54109256], [50198.01154734411, 6518883.976905311], [50256.463316258625, 6518969.268341871], [50178.63636363637, 6519008.181818182], [50120.90981988724, 6519202.379801697], [50146.970684039086, 6519275.912052117], [50100.0, 6519371.153846154], [49867.625899280574, 6519394.875735775], [49554.91844505012, 6519202.284483447], [49267.830522798424, 6519273.3728920985], [49178.53443358616, 6519206.400825189], [49105.79408817635, 6519289.817134269], [49161.666666666664, 6519366.666666667], [49218.13432835821, 6519355.373134328], [49290.0, 6519475.0], [49163.3870967742, 6519601.612903226], [49169.0, 6519720.0], [49085.49914056971, 6519906.368324165], [49137.2110014915, 6520011.007060547], [49314.41064021226, 6520108.413343474], [49217.98885699797, 6520219.328352322], [49295.0, 6520320.0], [49210.952483747045, 6520308.443262979], [49001.1088231434, 6520456.545696737], [48886.834638759414, 6520418.673097166], [48774.73211991695, 6520614.476983794], [48795.65334348245, 6520666.481168085], [49086.5641321529, 6520789.429559889], [49246.44776119403, 6520809.865671642], [49236.11111111111, 6520882.222222222], [49281.180037552724, 6520981.57871915], [49008.738776889244, 6521262.338492708], [49323.47469103825, 6521355.252821986], [49427.298133174714, 6521328.070603685], [49523.792633077916, 6521371.207366922], [49549.99567837169, 6521345.004321628], [49867.24021254198, 6521331.081257205], [49945.0, 6521380.0], [49906.42857142857, 6521418.571428572], [50004.15156902134, 6521558.2071871115], [50038.29748326502, 6521550.816657177], [50337.041765275455, 6521738.337715655], [50379.55397980792, 6521669.793644591], [50608.86410788382, 6521825.513485477], [50502.645972187325, 6521949.41611125], [50464.55309806376, 6522052.414083454], [50401.31067961165, 6522064.058252427], [50421.666666666664, 6522213.333333333], [50334.0, 6522301.0], [50234.349932178884, 6522277.049351085], [50190.942528735635, 6522305.0], [50070.0, 6522285.0], [49784.636913767026, 6522443.8502269285], [49760.0, 6522405.0], [49727.857142857145, 6522437.142857143], [49960.13950337107, 6522584.18826728], [50073.77398221807, 6522797.992512869], [50272.78003366334, 6523043.474156795], [50390.0, 6523065.0], [50413.15789473684, 6523020.7894736845], [50525.75064683157, 6523048.778627524], [50647.34273654028, 6523155.147091746], [50643.27744850668, 6523403.6906908825], [50873.8562635401, 6523486.936747948], [50836.51368864194, 6523703.39033662], [50738.96551724138, 6523725.689655173], [50834.1465494466, 6523763.689687042], [51023.75243469469, 6523958.789368433], [51197.94718564449, 6523998.929580859], [51555.829946171594, 6523941.296825223], [51615.0, 6523990.0], [51582.77777777778, 6524086.666666667], [51654.05725579687, 6524189.159809502], [51891.873859423555, 6524261.547077405], [51934.175449172646, 6524376.103981217], [52007.42857142857, 6524359.857142857], [52030.0, 6524405.0], [52149.157519672444, 6524400.501222917], [52199.01050906806, 6524515.2466083355], [52146.36363636363, 6524561.363636363], [52082.58602546564, 6524497.586025465], [52030.55623621662, 6524631.843910806], [51984.59209731519, 6524616.438046035], [51829.0, 6524714.0], [51878.333333333336, 6524763.333333333], [51759.500836586725, 6524927.601784718], [51857.227332231836, 6525026.324825038], [51785.0, 6525150.0], [51817.0, 6525232.0], [51928.22878228782, 6525343.228782288], [52075.92405063291, 6525408.594936709], [52045.43551635789, 6525458.068548184], [52123.275862068964, 6525555.172413793], [52099.62606406056, 6525662.843080053], [52126.25, 6525688.75], [52166.821000236356, 6525659.842199574], [52179.92329802792, 6525586.044664259], [52263.75767167247, 6525739.152372439], [52215.0, 6525830.0], [52273.375, 6525893.625], [52150.0, 6525975.0], [52010.392520697875, 6525933.585558292], [51856.090668215504, 6525757.313200002], [51825.1661855201, 6525766.943642533], [51720.01206178888, 6525692.280883706], [51507.100213219615, 6525620.145700071], [51150.0, 6525975.0], [51071.55172413793, 6525963.793103448], [50955.0, 6526030.0], [51003.58638743455, 6526222.565445026], [50886.586432337375, 6526250.972841531], [50795.467577620664, 6526180.2039547395], [50515.26283976253, 6526215.52648546], [50380.0, 6526345.0], [50311.36363636363, 6526359.090909091], [50345.0, 6526460.0], [50460.0, 6526575.0], [50490.0, 6526655.0], [50536.666666666664, 6526641.666666667], [50623.0, 6526728.0], [50575.32934131737, 6526895.0], [50281.87042842215, 6526895.0], [49931.659192825115, 6527195.403587444], [49774.04454214586, 6527089.308173462], [49658.991075300306, 6527245.42327626], [49690.23261630815, 6527359.903284976], [49392.67912112331, 6527675.438660235], [49461.64545980335, 6527828.5193753615], [49503.169620733395, 6527817.796700383], [49519.3084423762, 6527992.178778321], [49572.952313664704, 6527999.09537267], [49479.040170589855, 6528121.52423547], [49480.06320350406, 6528281.829607495], [49270.16639271156, 6528510.676404625], [49240.0, 6528585.0], [49182.10872424376, 6528539.905743095], [49070.243902439026, 6528534.756097561], [48968.06451612903, 6528478.225806451], [48977.43317535545, 6528559.4018957345], [48770.0, 6528745.0], [48650.333333333336, 6528666.8], [48681.74067843808, 6528794.682177504], [48533.68672988184, 6528964.383323524], [48470.32223353237, 6528958.193917151], [48351.66038797709, 6528730.041284109], [48258.620689655174, 6528783.620689655], [48056.29629629629, 6528656.481481481], [48043.92857142857, 6528594.642857143], [48001.475669468135, 6528603.700962315], [47808.905981265896, 6528459.897006727], [47731.008075960475, 6528176.219247491], [47653.205128205125, 6528102.532051282], [47662.919655667145, 6527926.456241033], [47580.141739873376, 6527830.089726395], [47487.69230769231, 6527782.692307692], [47155.0, 6528049.352601156], [47155.0, 6527968.020304568], [47034.97354445988, 6527867.291049918], [46895.3125, 6527834.0625], [46739.68292979174, 6527684.653592538], [46596.37652230604, 6527638.623477694], [46504.28571428571, 6527730.714285715], [46222.29544427831, 6527619.083881386], [46207.79821573227, 6527455.83409275], [46103.25699157122, 6527372.858913619], [46033.51851851852, 6527418.703703703], [46002.857142857145, 6527386.428571428], [45956.63560732113, 6527417.242928453], [45756.76855808231, 6527224.6549168695], [45690.0, 6527385.0], [45653.26295585413, 6527359.664107486], [45617.84957510208, 6527447.794724644], [45715.0, 6527606.0], [45679.0350877193, 6527648.070175438], [45705.0, 6527700.0], [45595.15625, 6527869.6875], [45545.44334735372, 6527906.728486286], [45569.82456140351, 6527994.47368421], [45468.447276940904, 6528110.596755504], [45359.58322237017, 6528045.416777629], [45290.397224058164, 6528114.602775942], [45330.50906555091, 6528285.509065551], [45434.55760437129, 6528425.819067734], [45431.932005027884, 6528503.6164384475], [45532.50780437045, 6528812.4921956295], [45474.526873580624, 6528848.648750946], [45408.97959183673, 6528795.816326531], [45307.6012564847, 6528882.212888487], [45222.5, 6528783.333333333], [45081.28364178386, 6528905.10609834], [45046.92307692308, 6528872.692307692], [44644.04145154289, 6528955.661137276], [44608.746397228846, 6528903.113690384], [44493.58974358974, 6528935.0], [44391.053254437866, 6528834.186813187], [44355.67759442224, 6528567.317314579], [44211.76470588235, 6528446.176470588], [44099.213039436385, 6528520.981146136], [44134.40260805187, 6528658.246739935], [44085.0, 6528720.0], [44111.666666666664, 6528776.666666667], [44064.46341463414, 6528851.219512195], [44145.0, 6528918.333333333], [44128.032258064515, 6528979.935483871], [44210.81519430729, 6529148.417019257], [44167.73353101578, 6529338.016221881], [44112.36548205545, 6529371.745523804], [44039.21201703348, 6529806.770317413], [43994.86257928118, 6529816.078224101], [43928.43185127114, 6529742.279426588], [43868.23529411765, 6529783.823529412], [43823.502538071065, 6529748.248730964], [43626.17601772319, 6529787.73315218], [43498.27071342294, 6529705.159965696], [43451.7864960647, 6529598.362954923], [43394.0, 6529620.333333333], [43359.731695461975, 6529577.194511953], [43382.62958702248, 6529374.75038446], [43289.61675308139, 6529118.752391537], [43057.27024161179, 6528854.889967464], [42867.1004108111, 6529028.2861183835], [42855.0, 6528975.576923077], [42753.80065717415, 6528901.199342825], [42690.0, 6528965.0]]]}}]}