{"type": "FeatureCollection", "crs": {"type": "name", "properties": {"name": "EPSG:25833"}}, "features": [{"type": "Feature", "properties": {"station": "246.9.0", "name": "Sametielv", "series": ["1001.0"], "nodes": 2514707, "fine_vertices": 20256, "fine_area_m2": 251470750.0, "reduced_vertices": 1084, "reduced_area_m2": 251470749.99999955, "outline_tolerance_m": 20.0, "windows": [[487, 433], [1151, 1080], [2609, 2409], [5030, 5056]], "placed_on": "number", "distance_m": 34.56262226154864, "uncertainty_m": 34.56262226154864, "elvid": "246-49-519", "objectid": 11566262, "lake": false, "confluence_near": false, "reach_up_m": 1000.0, "reach_down_m": 134.56262226154854, "reach_fork": false, "seeded_by": "river", "lake_rule": null, "lake_number": null, "lake_name": null, "lake_distance_m": null, "node_offset_m": 5.825547184231738, "chain_nodes": 104, "lowered_nodes": 88, "lowered_max_m": 0.963409423828125, "direction_ok": true, "end_extended_m": 0.0, "end_closed": true, "downstream_checked": "whole", "a0": 251.47070000000002, "area_up": 251.44930000000002, "area_down": 251.4721, "swing": 8.509937738273232e-05, "largest_step": 0.017099999999999227, "largest_step_at_m": -10.0, "checked_up_m": 34.142135623731065, "checked_down_m": 24.142135623731065, "drains": true, "monotone": true, "causes": []}, "geometry": {"type": "Polygon", "coordinates": [[[1070435.0, 7788540.0], [1070466.0, 7788509.0], [1070375.0, 7788400.0], [1070572.216185045, 7788313.237708507], [1070598.2293638594, 7788215.588433343], [1070626.2901634404, 7788217.5948958555], [1070899.292466273, 7787860.467735975], [1070859.6657183499, 7787798.297771456], [1070901.2514559692, 7787753.224233781], [1070856.3876979244, 7787682.676337623], [1070967.9381571547, 7787611.146946422], [1070891.2873326468, 7787407.519388806], [1070998.082915971, 7787200.829159711], [1070908.1722387306, 7786979.260377166], [1070772.81551473, 7786918.116614676], [1070759.4256668733, 7786768.03922516], [1070585.9970076939, 7786541.018328925], [1070595.0, 7786350.0], [1070547.9411764706, 7786326.470588235], [1070518.0167014613, 7786357.025052192], [1070491.7236013287, 7786310.288533532], [1070360.1256982274, 7786387.468205275], [1070319.071146245, 7786492.907334211], [1070257.5, 7786442.5], [1070159.5304730448, 7786612.109721529], [1070099.911366959, 7786584.911366959], [1070043.588630083, 7786615.0], [1069989.2815635244, 7786452.767817093], [1069792.394827368, 7786492.47456349], [1069660.0, 7786405.0], [1069651.005108193, 7786287.361075231], [1069775.0, 7786135.258858537], [1069805.1531826495, 7785963.625477132], [1069846.3373083475, 7785972.614991482], [1069817.6231953881, 7785858.059922349], [1069767.5084455793, 7785905.630607847], [1069676.8038179171, 7785853.216229262], [1069582.0, 7785889.0], [1069517.4180690877, 7785647.015057573], [1069425.0, 7785570.0], [1069441.7300389926, 7785478.168003389], [1069347.7710715753, 7785364.463699365], [1069445.0742432256, 7785166.65244014], [1069383.5267671053, 7785084.478651819], [1069343.3333333333, 7785108.333333333], [1069296.5793176221, 7785040.33671218], [1069325.0, 7785020.0], [1069308.3072407045, 7784927.534246575], [1069273.6486486488, 7784932.027027027], [1069235.0, 7784800.0], [1069172.2222222222, 7784772.777777778], [1069142.857142857, 7784802.142857143], [1069021.111111111, 7784776.111111111], [1068948.7640449437, 7784833.988764045], [1068806.843833157, 7784691.745639376], [1068721.0869565217, 7784714.347826087], [1068645.0, 7784660.0], [1068605.0, 7784520.0], [1068499.0157677685, 7784524.69871286], [1068479.602705773, 7784449.350690903], [1068408.6574045543, 7784380.707099067], [1068305.7142857143, 7784415.0], [1068304.9122807018, 7784454.298245614], [1068247.0190895742, 7784446.923641703], [1068159.8799795394, 7784514.451320917], [1068058.6575305185, 7784403.946186759], [1068077.3096625104, 7784219.928854909], [1067948.5903180055, 7784143.510758815], [1068004.8366866645, 7784050.198346504], [1067935.0, 7783970.0], [1067965.0, 7783880.0], [1067921.4317770775, 7783792.872529971], [1067971.685154334, 7783784.892083137], [1068024.7622770618, 7783714.7315774355], [1067991.577640167, 7783475.728875925], [1067857.142857143, 7783512.142857143], [1067817.5, 7783472.5], [1067799.06374502, 7783521.55378486], [1067661.6865700223, 7783465.791451681], [1067642.8802344291, 7783379.0569428895], [1067532.0630427897, 7783231.754717807], [1067551.1085848147, 7783206.51095494], [1067493.673178601, 7783110.165530084], [1067408.1259356516, 7783080.203267313], [1067413.7142857143, 7782958.714285715], [1067308.611111111, 7782911.944444444], [1067285.5772005771, 7783019.711399712], [1067217.0, 7783054.0], [1067200.7647058824, 7783129.764705882], [1067258.9510522808, 7783162.202647367], [1067250.0, 7783385.0], [1067140.0, 7783395.0], [1067121.5294117648, 7783450.411764706], [1067035.019148887, 7783272.86119559], [1066881.7857142857, 7783237.142857143], [1066810.0, 7783275.0], [1066641.9915873304, 7783075.761648524], [1066578.416652276, 7783125.778943607], [1066200.925587706, 7782689.657347872], [1066199.9696509864, 7782573.421851289], [1066100.2466937373, 7782550.180480445], [1066025.0, 7782396.666666667], [1066119.9098198554, 7782377.999703022], [1066077.1845901378, 7782221.366370415], [1066189.5902269357, 7781989.31232909], [1066151.6666666667, 7781913.333333333], [1066212.3191069013, 7781863.732444456], [1066198.8334716982, 7781520.583854812], [1066284.3846153845, 7781286.923076923], [1066256.4148967122, 7781185.148446152], [1066295.2970212766, 7781133.265531915], [1066171.7433070396, 7781217.037769829], [1066071.4285714286, 7781137.857142857], [1065961.7342298261, 7781205.488830025], [1065910.0632911392, 7781379.746835443], [1065860.0, 7781405.0], [1065807.575125416, 7781352.575125416], [1065729.5787083753, 7781376.157921292], [1065729.4814584106, 7781235.930133661], [1065664.1909254356, 7781106.05366959], [1065655.0, 7780990.0], [1065593.9473684211, 7780915.263157895], [1065613.3769869942, 7780821.924674856], [1065560.0, 7780795.0], [1065474.0, 7780831.0], [1065409.6674824792, 7780749.366749326], [1065381.73439143, 7780825.61183088], [1065220.7692307692, 7780688.846153846], [1065180.0, 7780705.0], [1065108.4149926507, 7780608.799608035], [1065088.1992729844, 7780397.960927601], [1065165.4408241017, 7780297.299798886], [1065080.8172295378, 7780217.102322148], [1065158.725236609, 7779934.729346747], [1065093.5353535353, 7779898.535353536], [1065037.1165644173, 7779915.0], [1064973.2926829269, 7779855.365853659], [1064808.693267239, 7779958.291201683], [1064716.7505032867, 7779897.328102092], [1064663.8546590619, 7779646.286827406], [1064593.81916718, 7779606.330500251], [1064602.97678443, 7779462.144775923], [1064558.7206823027, 7779385.12793177], [1064504.2836081325, 7779394.121508136], [1064406.4687801672, 7779073.195364714], [1064305.0, 7778980.0], [1064337.3890311567, 7778885.229406743], [1064230.8333333333, 7778814.166666667], [1064268.75, 7778776.25], [1064185.1785714286, 7778719.821428572], [1064104.9942308702, 7778739.811716578], [1063975.0, 7778670.0], [1064000.0, 7778615.0], [1063875.009613817, 7778484.728097333], [1063820.0, 7778505.0], [1063797.3676556137, 7778392.710878418], [1063820.306371658, 7778051.573438848], [1063864.1842903844, 7777925.038656792], [1063802.732907427, 7777723.002281347], [1063680.2419354839, 7777555.241935484], [1063678.3333333333, 7777470.666666667], [1063584.375, 7777451.875], [1063555.0, 7777350.0], [1063447.43680732, 7777242.43680732], [1063159.2173155479, 7776765.866384316], [1063008.5355992697, 7776634.190996415], [1063034.2491467576, 7776599.146757679], [1062945.030564174, 7776489.606054923], [1062945.2580645161, 7776337.806451613], [1062992.0225658813, 7776311.625934104], [1062850.396089779, 7776098.571018966], [1062750.0, 7776185.0], [1062692.2818791945, 7776138.825503356], [1062656.4193687981, 7776184.518976646], [1062458.1022930501, 7776013.584482896], [1062403.6, 7776048.6], [1062335.0, 7775980.0], [1062319.0319253232, 7775830.951745126], [1062218.295864672, 7775754.729591977], [1062225.0, 7775700.0], [1062046.8898581313, 7775585.173843616], [1062020.0, 7775615.0], [1061935.9725685786, 7775542.771642323], [1061915.0, 7775470.0], [1062086.7896305937, 7775352.999239741], [1062155.0, 7775339.230769231], [1062177.1951219512, 7775216.585365853], [1062232.7852148432, 7775140.475975743], [1062188.1347397435, 7775067.516166649], [1062272.1641328756, 7774962.953104893], [1062370.0, 7774935.0], [1062535.0, 7774770.0], [1062492.275086505, 7774707.517301038], [1062700.0, 7774535.0], [1062752.0, 7774587.0], [1062860.0, 7774495.0], [1062934.331550802, 7774509.866310161], [1063008.6363636365, 7774422.7272727275], [1062929.2292746115, 7774359.876943005], [1062961.6030516678, 7774270.098931622], [1062915.0, 7774198.0], [1062876.8315968295, 7774010.813153512], [1062797.262930135, 7774047.737069865], [1062701.8865602233, 7773837.9408637], [1062579.0994338978, 7773745.0], [1062432.6907765563, 7773785.685299175], [1062358.5714285714, 7773767.448979592], [1062280.0, 7773815.0], [1062136.4572192514, 7773742.633689839], [1062107.1590909092, 7773752.159090909], [1062041.0867972162, 7773622.893768514], [1062015.5209011177, 7773631.380255226], [1061933.3333333333, 7773541.666666667], [1061954.4776119404, 7773502.462686568], [1061844.528429962, 7773431.741746891], [1061810.606217516, 7773342.806692529], [1061680.9320870645, 7773274.617622067], [1061637.0, 7773304.0], [1061578.428426238, 7773273.686257941], [1061499.5362403663, 7773361.13166391], [1061408.5178070762, 7773297.870548231], [1061270.0, 7773315.0], [1061267.2073767814, 7773266.287219125], [1061138.0511651596, 7773175.17128559], [1061085.0, 7773030.0], [1061195.2988710187, 7772993.205351581], [1061213.9285714286, 7772925.0], [1061152.99755036, 7772907.25320272], [1061185.0, 7772766.0], [1061129.6940626525, 7772770.206593952], [1061125.0, 7772686.666666667], [1061249.2944536402, 7772709.153664392], [1061357.857142857, 7772554.285714285], [1061267.804364404, 7772443.291640507], [1061307.5, 7772282.5], [1061335.0, 7772280.0], [1061125.927288981, 7772085.020738512], [1061076.7170872933, 7771929.452316637], [1061148.3333333333, 7771836.666666667], [1061125.0, 7771800.0], [1061174.1803278688, 7771790.491803279], [1061190.2714708785, 7771742.290227048], [1061003.016344451, 7771661.983655549], [1060957.9038680873, 7771694.592743302], [1060890.574468085, 7771612.876595745], [1060875.0, 7771440.0], [1060831.8744919258, 7771413.982160493], [1060821.4545454546, 7771192.636363637], [1060722.5278805438, 7771137.884148314], [1060688.7681741049, 7770991.76410023], [1060475.357142857, 7770936.071428572], [1060294.8445207658, 7770797.443980056], [1060106.788115974, 7770760.770220116], [1060010.8768967567, 7770666.052666159], [1060136.399936254, 7770420.549633459], [1060001.6080620864, 7770286.786610036], [1059933.1010772467, 7770046.72767499], [1059826.7236467237, 7769951.03988604], [1059830.0, 7769895.0], [1059701.3873713631, 7769843.029475289], [1059582.9276518947, 7769894.132917408], [1059449.3333333333, 7769705.666666667], [1059354.0, 7769741.0], [1059220.0, 7769725.0], [1059165.3488372094, 7769768.720930233], [1059100.0, 7769735.0], [1059061.7789513224, 7769771.073314626], [1059044.0, 7769645.0], [1058934.5161290322, 7769630.483870967], [1058897.60557053, 7769703.045822103], [1058721.68606424, 7769783.686926964], [1058631.3636363635, 7769680.909090909], [1058645.0, 7769640.0], [1058504.2503745172, 7769593.874888443], [1058513.1628714781, 7769515.673485141], [1058619.8054642996, 7769418.050233482], [1058466.2712786552, 7769369.180852436], [1058360.1422718158, 7769479.724540145], [1058302.766798419, 7769417.977602108], [1058240.0, 7769495.0], [1058148.2727272727, 7769494.909090909], [1058111.7666548823, 7769426.522936748], [1058138.1578947369, 7769314.2105263155], [1058062.8263979468, 7769230.237724576], [1057960.0, 7769255.0], [1057883.0, 7769202.0], [1057868.6258012168, 7769124.664462473], [1057958.9796046675, 7769058.546046675], [1057932.123121286, 7768939.013045944], [1057825.9202684339, 7768867.366979824], [1057741.0, 7768724.0], [1057836.200827763, 7768624.049397102], [1057722.2932690538, 7768401.984322674], [1057660.0, 7768445.0], [1057520.781887177, 7768430.221470225], [1057429.4749384897, 7768250.430097865], [1057076.5667915298, 7768467.419133748], [1056926.518600504, 7768329.344125959], [1056841.9317556412, 7768474.895432031], [1056740.0, 7768405.0], [1056676.3636363635, 7768405.0], [1056634.8461538462, 7768336.461538462], [1056668.4205754376, 7768235.807548544], [1056570.0, 7768205.0], [1056474.0, 7768262.6], [1056420.0, 7768245.0], [1056383.7718770644, 7768290.678937614], [1056283.9369200047, 7768218.028896981], [1056242.5187698528, 7768223.082587352], [1056223.5353346714, 7768085.429261085], [1056249.9977509282, 7768053.962283319], [1056234.1735972327, 7767996.471874378], [1055945.0, 7767860.0], [1056009.8175182482, 7767811.386861314], [1055950.0, 7767685.0], [1055820.0, 7767765.0], [1055664.5267670294, 7767765.0], [1055539.9264936915, 7767649.37092651], [1055290.9081927508, 7767731.987884724], [1055197.7701427958, 7767642.158427542], [1055026.6666666667, 7767665.0], [1055059.819104346, 7767591.6975512905], [1055013.6650538442, 7767548.435409811], [1054843.0, 7767574.0], [1054809.2683483998, 7767548.214656856], [1054941.2431963119, 7767473.294847255], [1054866.5957446808, 7767358.191489362], [1054958.585002324, 7767260.828877697], [1054819.9164592961, 7767192.321365091], [1054872.8303323607, 7767119.175717031], [1054831.5010351967, 7767090.745341615], [1054900.9070543963, 7766984.13738119], [1054772.114049967, 7766909.028978725], [1054582.017740315, 7766680.57353899], [1054485.8101472994, 7766633.772504091], [1054537.0998876647, 7766563.397711037], [1054518.060708263, 7766461.121416526], [1054452.9032258065, 7766522.096774193], [1054375.0, 7766501.801242236], [1054375.0, 7766439.912713268], [1054502.1017777275, 7766323.318891103], [1054418.3505154639, 7766192.319587629], [1054532.34822516, 7766106.432718426], [1054470.9534028203, 7765835.720416922], [1054313.9368852372, 7765900.630828651], [1054137.695083958, 7765734.403726606], [1053945.0, 7765640.0], [1053959.3902439023, 7765583.658536585], [1053884.2857142857, 7765521.071428572], [1054014.2086469794, 7765352.033020059], [1053995.0, 7765333.846153846], [1054125.0, 7765210.0], [1054105.7626417482, 7765144.57585049], [1054047.7082922987, 7765110.48650778], [1054213.6921400065, 7764938.470736854], [1054095.9444546625, 7764913.611366563], [1054136.2060421193, 7764821.234842458], [1054380.0793765143, 7764668.968448739], [1054381.7322577056, 7764534.533751441], [1054296.8404277195, 7764318.159572281], [1054355.0, 7764260.0], [1054348.0870712402, 7764135.620052771], [1054279.3920495694, 7764004.215360563], [1054304.002872665, 7763930.606947972], [1054191.4737181554, 7763798.028055466], [1054116.6666666667, 7763825.0], [1054123.0735663022, 7763715.470277522], [1054055.0, 7763680.0], [1054090.6219891463, 7763625.240609192], [1054076.495714057, 7763470.474623004], [1053985.3379416282, 7763368.371735791], [1053997.2222222222, 7763311.111111111], [1053935.0, 7763210.0], [1054031.3324538257, 7763126.437994723], [1053977.0861921166, 7763025.627778354], [1053780.0997627594, 7763133.679968368], [1053660.0, 7762995.0], [1053439.5468568215, 7763052.255603925], [1053413.888888889, 7762938.888888889], [1053305.0, 7762740.0], [1053316.8181818181, 7762633.636363637], [1053224.7362753975, 7762522.711538098], [1053289.0, 7762506.0], [1053305.0, 7762440.0], [1053157.4735779676, 7762271.47005503], [1053126.5909393195, 7762165.979718418], [1053077.2463996524, 7762178.561714507], [1052955.0, 7762000.0], [1053018.6946564885, 7761929.770992367], [1052940.0, 7761825.0], [1052889.8121568146, 7761834.996346589], [1052739.9350649351, 7761717.402597402], [1052744.622707821, 7761605.660409296], [1052698.1200788193, 7761594.926207454], [1052516.224489796, 7761398.1632653065], [1052596.4209816, 7761317.563039821], [1052584.2341226852, 7761243.996497375], [1052724.674019664, 7761180.330480819], [1052730.977264163, 7761040.320825366], [1052544.6741447, 7760803.4942671405], [1052580.0934921133, 7760769.41826715], [1052574.8269683346, 7760573.565248065], [1052404.64158011, 7760519.620484356], [1052410.0, 7760445.0], [1052365.4901960783, 7760470.803921568], [1052330.8333333333, 7760434.166666667], [1052367.0, 7760398.0], [1052274.7132302993, 7760332.979775893], [1052302.1935933148, 7760226.76183844], [1052232.3529411764, 7760146.176470588], [1052364.6957019796, 7759978.786944435], [1052321.0835738715, 7759933.677942106], [1052245.7142857143, 7759987.857142857], [1052141.2239406456, 7759914.529976651], [1052174.0, 7759873.0], [1052127.9280554857, 7759805.104502821], [1052016.0286225402, 7759745.0], [1051991.2048170269, 7759641.904615687], [1051895.7644496819, 7759556.611323515], [1051944.4371776574, 7759354.745247522], [1051891.9952423126, 7759328.37613879], [1051858.2652451817, 7759181.167547537], [1051916.5512465374, 7758942.243767313], [1051866.0961354745, 7758878.881816443], [1051739.4506628062, 7758842.858029347], [1051960.3894019488, 7758528.496783759], [1052080.0, 7758575.0], [1052180.0, 7758495.0], [1052236.7176870748, 7758529.030612245], [1052253.167816393, 7758362.96599191], [1052335.0, 7758354.0], [1052315.4347826086, 7758179.782608695], [1052358.2609301375, 7758119.674465614], [1052279.7572427345, 7757980.2228975445], [1052450.107913669, 7757804.892086331], [1052433.3223684211, 7757775.953947368], [1052540.8205107355, 7757768.3793799495], [1052735.2933437875, 7757667.863262022], [1052850.2386692353, 7757962.727207175], [1052900.2837522915, 7757964.7214911105], [1053108.263567216, 7758364.542214613], [1053005.0, 7758464.281452014], [1053044.684470141, 7758571.917425488], [1053162.3814659915, 7758582.190802696], [1053180.852659817, 7758801.673184579], [1053273.7630930394, 7758786.290849381], [1053142.7130521159, 7758934.424249862], [1053110.7379544177, 7759087.004491818], [1053285.0, 7759280.0], [1053328.3627240045, 7759448.827050829], [1053473.8266266708, 7759403.651608188], [1053574.4803015564, 7759440.756274319], [1053667.9237834485, 7759311.214280103], [1053774.1400998342, 7759343.976509314], [1053752.1643483806, 7759499.632629219], [1053833.6757094893, 7759646.470790212], [1054038.5770636222, 7759821.604624167], [1053986.8717200756, 7759933.966112486], [1053951.6479049406, 7760132.192620387], [1053990.3846153845, 7760205.384615385], [1054030.203571477, 7760167.42474], [1054130.3009104333, 7760156.475337561], [1054163.5759278168, 7760409.525309272], [1054267.7342141604, 7760432.291502549], [1054219.5833333333, 7760315.416666667], [1054303.75, 7760171.25], [1054392.9166666667, 7760292.083333333], [1054440.0, 7760245.0], [1054505.0, 7760310.0], [1054498.142857143, 7760417.142857143], [1054670.6901959889, 7760716.336967297], [1054630.7142857143, 7760785.714285715], [1054676.4285714286, 7760831.428571428], [1054653.5504518072, 7760958.020833333], [1054744.7643371883, 7761043.043887374], [1054756.6012084591, 7761153.534743203], [1054835.0, 7761188.851637765], [1054912.55252576, 7761353.900166441], [1054850.1962586327, 7761422.100126963], [1054978.3333333333, 7761543.333333333], [1054942.6922688258, 7761617.600516996], [1055013.9073634204, 7761722.019002375], [1055007.2504033265, 7761770.7125228755], [1055356.55514039, 7762128.526646502], [1055317.1662341917, 7762168.297026921], [1055365.7308858202, 7762225.165880768], [1055305.465116279, 7762355.5813953485], [1055354.0293767846, 7762346.158479132], [1055502.8466745839, 7762615.283132799], [1055655.0, 7762490.0], [1055641.6666666667, 7762443.333333333], [1055831.1328347765, 7762317.146560473], [1056060.0, 7762265.0], [1056156.3233526452, 7762290.38947321], [1056181.3859641904, 7762179.282350359], [1056332.9499201914, 7762332.050079809], [1056382.1810805828, 7762327.181080583], [1056532.3746437803, 7762452.883866259], [1056688.1567703213, 7762324.7419050075], [1056866.7980795112, 7762503.715813985], [1056947.9321293908, 7762449.721174836], [1057056.0, 7762519.0], [1057090.0, 7762485.0], [1057198.2922985565, 7762539.982413667], [1057264.3025301178, 7762740.128732838], [1057395.1461046655, 7762811.653454642], [1057455.2545908801, 7762754.960042935], [1057595.588026848, 7762995.68662192], [1057575.0, 7763030.0], [1057604.696969697, 7763044.848484849], [1057679.090897374, 7762988.060544696], [1057840.5775275193, 7763112.687632355], [1058071.9104865831, 7763469.2991584595], [1058314.1104876988, 7763683.952173106], [1058309.3982792168, 7763702.597154722], [1058413.994683422, 7763814.272595457], [1058375.0, 7763832.518591968], [1058375.0, 7763920.0], [1058424.1345893806, 7763957.549986478], [1058444.366874306, 7764114.559034109], [1058582.6409661393, 7764100.556597307], [1058583.0322429722, 7764259.888203671], [1058687.3100758123, 7764371.666142376], [1058708.7738737667, 7764449.767355528], [1058953.2519263856, 7764708.898393222], [1058942.8125, 7764786.5625], [1059087.9417923472, 7764824.41308081], [1059148.7403214497, 7765026.25967855], [1059083.101771727, 7765091.898228273], [1059198.8407043593, 7765244.253542166], [1059260.0, 7765195.0], [1059412.4540040276, 7765214.743457109], [1059488.1149239754, 7765349.447528518], [1059736.6666666667, 7765348.333333333], [1059764.705882353, 7765320.294117647], [1059961.4100692824, 7765366.235174405], [1060207.235196107, 7765328.705759211], [1060260.0, 7765395.0], [1060283.6363636365, 7765371.363636363], [1060382.4420803783, 7765398.405200945], [1060399.569892473, 7765355.215053763], [1060486.079073189, 7765367.15880031], [1060533.1070690954, 7765429.350771765], [1060629.2848087857, 7765377.576655657], [1060698.6638416552, 7765279.44130316], [1060860.0, 7765445.0], [1060968.9628869134, 7765427.26370552], [1060976.0844716264, 7765617.691139094], [1061143.9792437078, 7765734.780988965], [1061195.0, 7765810.0], [1061164.8396798612, 7765842.67368015], [1061425.3680334566, 7766150.915498695], [1061507.2425369727, 7766410.255600975], [1061881.4336202473, 7766656.280852762], [1062116.3096153047, 7766630.179659759], [1062095.0, 7766740.0], [1062166.4692312966, 7766776.004549961], [1062183.9513315987, 7766959.681992727], [1062271.951760212, 7767106.037168072], [1062187.7272727273, 7767302.7272727275], [1062400.4834372164, 7767527.54311235], [1062300.0, 7767552.5], [1062277.5652053482, 7767612.164190133], [1062410.5572068226, 7767759.986387841], [1062526.299193774, 7767635.656182621], [1062714.8707017524, 7767670.917897612], [1062946.4220509958, 7767837.9699863745], [1063020.968926084, 7767952.462897858], [1063110.0, 7767945.0], [1063204.1163661368, 7768075.555088631], [1063210.074080723, 7768197.391830433], [1063382.63477554, 7768102.592650423], [1063385.0, 7768066.0], [1063470.9103482517, 7768091.782411167], [1063569.7535114153, 7768036.806822178], [1063610.0, 7768115.0], [1063693.6182336183, 7768091.586894587], [1063729.4733385707, 7768152.239760223], [1063879.102843711, 7768050.592914349], [1063946.6666666667, 7768128.333333333], [1063980.4347826086, 7768085.434782608], [1064032.298169805, 7768115.748775346], [1064070.02911397, 7767993.824501749], [1064036.6666666667, 7767948.333333333], [1064220.7422412692, 7767712.793882248], [1064207.6236144293, 7767618.747880207], [1064382.0981825925, 7767576.298097402], [1064418.9393939395, 7767599.090909091], [1064462.5342184824, 7767504.928267654], [1064445.1470588236, 7767426.617647059], [1064485.729965273, 7767431.473654334], [1064559.868510518, 7767339.061437639], [1064717.8182967037, 7767168.057932234], [1064672.859327217, 7767052.50764526], [1064733.3333333333, 7766991.666666667], [1064837.3780487804, 7767061.173780488], [1064880.0, 7767015.0], [1065049.6142520306, 7767052.015088171], [1065235.0, 7767040.0], [1065256.582733813, 7766887.122302159], [1065345.0, 7766840.0], [1065321.8660857875, 7766629.84070479], [1065501.200928662, 7766525.778809625], [1065445.0, 7766450.0], [1065460.625, 7766369.375], [1065395.0, 7766260.0], [1065410.1785714286, 7766153.035714285], [1065361.6034547503, 7766124.560645889], [1065354.7741811424, 7765968.60366087], [1065390.3333333333, 7765945.333333333], [1065329.0, 7765884.0], [1065345.0, 7765850.0], [1065297.1971117875, 7765831.244965102], [1065242.6741479945, 7765693.8400728535], [1065269.9565520787, 7765659.379528427], [1065325.9154671975, 7765669.127210415], [1065364.3150783903, 7765586.952532331], [1065254.096264408, 7765554.229808337], [1065361.1393814117, 7765452.4612564575], [1065266.1538461538, 7765415.769230769], [1065267.783109405, 7765340.246778174], [1065343.1765834934, 7765322.744721689], [1065389.6731296277, 7765189.184224608], [1065539.6400602553, 7765145.336178018], [1065570.1144973813, 7765035.174482237], [1065595.0, 7765034.285714285], [1065596.977077364, 7764891.473598035], [1065666.5263157894, 7764878.69924812], [1065767.5858343006, 7765043.546492634], [1065812.208127985, 7765044.799728948], [1065852.6347170782, 7765148.633951826], [1065880.6979137943, 7765113.681718389], [1066002.0759632476, 7765375.102274356], [1066270.9902290842, 7765644.8428810835], [1066347.6315789474, 7765851.578947368], [1066447.3148318978, 7765833.213685754], [1066453.1508317718, 7765895.739667292], [1066558.3411704693, 7765862.993506962], [1066575.0420557882, 7765836.828901383], [1066476.5, 7765738.5], [1066514.833295945, 7765594.031388135], [1066544.131437343, 7765574.214397257], [1066705.0, 7765671.675392671], [1066871.3902055249, 7765838.317925815], [1066892.3875694796, 7765947.38756948], [1066994.3156261868, 7766039.204152361], [1066965.0, 7766070.0], [1067200.7972131534, 7766257.068282826], [1067251.8124715933, 7766148.320389913], [1067340.0, 7766225.0], [1067390.0, 7766175.0], [1067459.938723615, 7766194.982515718], [1067578.8263262296, 7766097.854404263], [1067706.7204572621, 7766155.161371786], [1067796.2550643967, 7766070.921061406], [1067913.47932312, 7766017.355164419], [1068005.0, 7766063.333333333], [1068006.6902533923, 7766012.244381328], [1068095.6979413156, 7765975.218804228], [1068251.8421052631, 7766083.421052632], [1068321.0, 7766013.975], [1068315.0, 7765920.0], [1068456.5485515036, 7765909.39977775], [1068591.2956265977, 7765809.554842722], [1068643.888888889, 7765733.333333333], [1068570.7026667222, 7765582.378413626], [1068702.8550474644, 7765538.564617678], [1068730.0, 7765475.0], [1068795.7179767466, 7765549.925966412], [1068944.37751609, 7765625.712355341], [1069156.6023080046, 7765510.185971903], [1069168.531211382, 7765362.673991683], [1069249.7548835303, 7765328.549131237], [1069307.0454621105, 7765392.915644045], [1069480.188421283, 7765213.428448183], [1069570.752648535, 7765238.118184987], [1069789.4610145607, 7765098.23984108], [1070011.388888889, 7765156.388888889], [1070071.25, 7765261.25], [1070165.0, 7765280.0], [1070175.0, 7765380.0], [1070261.0869565217, 7765451.739130435], [1070205.0, 7765520.0], [1070253.75, 7765568.75], [1070233.2758620689, 7765724.827586207], [1070149.0059452008, 7765853.875532806], [1070226.2437810944, 7765891.094527363], [1070306.0736215392, 7766026.135590219], [1070505.0, 7766220.0], [1070535.1115144475, 7766325.824016263], [1070641.3612259342, 7766433.35244419], [1070694.985891976, 7766747.823084078], [1070914.665463711, 7766842.064501346], [1070914.918967337, 7766916.277687958], [1070985.267827523, 7767027.961989576], [1070921.158468654, 7767065.9532904085], [1070945.4545454546, 7767129.545454546], [1070775.6029060546, 7767294.247485023], [1070843.3334943245, 7767434.0182826705], [1070946.4855901008, 7767493.061677924], [1071114.2274562747, 7767655.51314049], [1071078.3333333333, 7767698.333333333], [1071142.5433972054, 7767882.596655442], [1071386.944726323, 7767885.5592767205], [1071472.2222222222, 7767932.777777778], [1071507.4592936365, 7767901.3918823255], [1071525.0, 7767800.0], [1071615.7450331126, 7767690.48013245], [1071690.0, 7767705.0], [1071799.9163179917, 7767860.921099821], [1071865.0, 7767870.0], [1071773.24941975, 7768007.596887129], [1071801.6736506517, 7768124.029208883], [1071950.0, 7768295.0], [1072174.8734873487, 7768298.487348735], [1072282.2222222222, 7768227.222222222], [1072404.5546947196, 7768332.934705309], [1072700.5334251525, 7768483.327111622], [1072871.3719607368, 7768227.310056883], [1073117.224379879, 7768317.336891172], [1073042.2028414144, 7768447.202841414], [1073114.868436552, 7768582.949280397], [1073100.9063592008, 7768895.939564849], [1073263.6199582226, 7768916.410019168], [1073225.0, 7769092.721140052], [1073333.5924049115, 7769145.612789738], [1073443.4077079108, 7769262.728194727], [1073506.0619944776, 7769197.4546215255], [1073545.0, 7769230.0], [1073363.334843019, 7769349.876039276], [1073309.785349741, 7769588.79481219], [1073323.6666666667, 7769630.666666667], [1073219.9185809828, 7769755.654259959], [1073221.4378873564, 7769895.0], [1073544.4600991483, 7770139.558495998], [1073501.313131313, 7770201.060606061], [1073577.6846180668, 7770308.415718078], [1073562.0215490854, 7770409.765196165], [1073670.0, 7770505.0], [1073719.4241385874, 7770468.861602894], [1073802.6787214705, 7770657.948282662], [1073904.5454545454, 7770739.545454546], [1073957.1501380336, 7770687.803142918], [1074020.9077820785, 7770727.272079666], [1074015.0, 7770852.773147105], [1073923.1902792142, 7770998.159255429], [1073989.0428448417, 7771072.9164744485], [1073901.7023576137, 7771211.204577913], [1073960.4052352188, 7771359.630030122], [1073926.2392678675, 7771454.266354984], [1074399.6664012228, 7771911.3254673155], [1074610.350908197, 7772354.916282886], [1074455.0, 7772514.866920152], [1074419.8983566067, 7772644.796713213], [1074532.8616856982, 7772710.192492296], [1074433.6122772475, 7772861.621683136], [1074483.9393939395, 7772922.878787879], [1074338.5265726012, 7773187.724431249], [1074412.3568809927, 7773267.816553864], [1074497.970891738, 7773516.979331531], [1074499.3368556742, 7773591.645685074], [1074662.5608260084, 7773970.165979729], [1074740.0, 7773925.0], [1074857.4540845181, 7773925.13014303], [1074964.535500653, 7774143.591274042], [1074955.0, 7774190.0], [1074995.535534793, 7774249.14200978], [1075023.172372661, 7774426.699222836], [1075099.9292804135, 7774399.3592265295], [1075273.0749984079, 7774560.546860568], [1075323.5762711863, 7774657.943502825], [1075295.613492468, 7774677.879581787], [1075325.0, 7774800.0], [1075389.7823802435, 7774874.222786584], [1075378.8215382334, 7775132.27300959], [1075303.3560695495, 7775188.431248681], [1075323.0400643037, 7775321.3400107175], [1075544.519729167, 7775426.895370296], [1075612.712570857, 7775344.574858286], [1075634.7598253274, 7775235.0], [1075767.868621651, 7775203.972737456], [1075865.9631670213, 7775280.525870264], [1076025.4156505691, 7775236.134108779], [1076237.846628917, 7775001.80360985], [1076206.1790393014, 7774948.2387190685], [1076267.8139638205, 7774876.081327442], [1076325.0, 7774970.0], [1076295.0, 7775020.0], [1076330.4331248098, 7775172.569592216], [1076287.652928543, 7775252.041214371], [1076393.9576696486, 7775431.985938006], [1076477.791314552, 7775500.353280039], [1076733.7926184032, 7775505.917990505], [1076830.5249028157, 7775583.434097206], [1076872.9166666667, 7775552.083333333], [1076927.3274974253, 7775602.8424304845], [1076945.0, 7775880.0], [1076991.846363725, 7775914.4092760105], [1077041.610162049, 7776128.063624527], [1076839.0232291634, 7776234.540651036], [1076956.9814744513, 7776396.860373216], [1076998.745348552, 7776538.763954344], [1077110.6762133273, 7776702.045521191], [1077235.0, 7776730.0], [1077217.1717825965, 7776850.977189524], [1077111.111111111, 7776866.111111111], [1077047.839980758, 7776985.908177942], [1077089.3968345788, 7777103.523392875], [1077045.0, 7777150.0], [1077076.198495192, 7777326.333387407], [1077291.924815068, 7777272.940104107], [1077197.3302040044, 7777488.6562835425], [1077375.3924050634, 7777509.607594937], [1077426.5853658537, 7777458.414634147], [1077530.347931718, 7777535.009078704], [1077621.6088081812, 7777503.413188494], [1077675.0, 7777610.0], [1077635.0, 7777650.0], [1077656.2908156067, 7777713.87244682], [1077483.0871268471, 7777890.8838308705], [1077588.6187779114, 7778024.175010905], [1077558.2466995306, 7778067.844412547], [1077643.7704918033, 7778178.278688525], [1077765.0, 7778230.0], [1077728.1996785903, 7778323.416200502], [1077807.6162684662, 7778464.64344337], [1077766.6981132075, 7778508.490566038], [1077698.018763433, 7778448.103097304], [1077546.3401584693, 7778555.025963514], [1077403.9344492897, 7778472.265438177], [1077269.4887900224, 7778475.4958855305], [1077175.9261521616, 7778373.468189533], [1076936.2157083629, 7778327.045213986], [1077001.6775910961, 7778464.594883748], [1076918.4704887052, 7778504.907705382], [1076814.9594521315, 7778325.892860595], [1076635.1838290521, 7778399.96323419], [1076494.820767042, 7778246.544183225], [1076208.96193381, 7778578.284925274], [1076101.9194421445, 7778556.316867686], [1075990.0207373216, 7778664.996779919], [1075800.0, 7778695.0], [1075752.076727029, 7778636.9616364855], [1075600.0, 7778795.0], [1075537.761917587, 7778783.486399138], [1075521.9546662935, 7778717.030222471], [1075430.8, 7778777.8], [1075459.5991600947, 7778860.246908439], [1075338.3042828124, 7778952.981315138], [1075225.5454572118, 7778759.37623276], [1075250.0, 7778695.0], [1075098.804067017, 7778791.497820079], [1075137.864942224, 7778973.302766882], [1074946.5532593285, 7779078.96677884], [1074993.3076923077, 7779166.153846154], [1074904.1702483527, 7779305.531149873], [1074809.3148555742, 7779373.644319927], [1074846.8365041418, 7779567.876282333], [1074837.2727272727, 7779724.090909091], [1074885.4064403828, 7779734.049608355], [1074921.1904761905, 7779694.285714285], [1075143.8080468527, 7780044.785138727], [1075012.7123287672, 7780134.671232876], [1074853.7982330255, 7780119.0902941795], [1074793.5893435362, 7780036.607184005], [1074596.8049414102, 7779950.559082919], [1074470.0, 7779855.0], [1074351.4256060494, 7779898.447994662], [1074300.0, 7780005.0], [1074200.4523287003, 7779948.517434772], [1074158.0513447432, 7780024.720223541], [1074028.3015377473, 7780018.056475304], [1073980.2481414175, 7779931.522992108], [1073938.907200423, 7779985.889161088], [1073791.2857142857, 7780039.428571428], [1073740.0, 7779875.0], [1073638.5714285714, 7779919.285714285], [1073545.682292431, 7779905.436134847], [1073557.9505071298, 7779853.946959762], [1073468.9296658463, 7779830.807100406], [1073440.7597298205, 7779805.483379951], [1073527.7650229586, 7779768.792174087], [1073512.2755766853, 7779669.008628175], [1073300.0, 7779685.0], [1073270.0, 7779655.0], [1073176.804985031, 7779681.21109796], [1073147.2077922078, 7779660.389610389], [1073215.0, 7779570.0], [1073215.0, 7779412.857142857], [1073180.0, 7779395.0], [1073163.5476718403, 7779460.809312639], [1073084.8543926927, 7779457.884377469], [1073105.0, 7779520.0], [1072857.5364484328, 7779636.56548657], [1072746.2686268766, 7779616.467900116], [1072642.917542504, 7779861.981527525], [1072545.0, 7779880.0], [1072575.8064516129, 7779911.129032258], [1072483.1549879133, 7779970.584213406], [1072507.3294791968, 7780060.881140529], [1072282.4848291092, 7780214.962828751], [1072237.6147159894, 7780168.210026278], [1072244.0, 7780105.0], [1072136.2326513967, 7780094.943601627], [1072073.0901605333, 7780225.0], [1071990.0, 7780225.0], [1071948.6040609137, 7780268.832487309], [1072050.9929753516, 7780324.321137745], [1072080.0034730707, 7780405.151884762], [1071958.669270483, 7780520.18303161], [1071950.875841857, 7780625.875841857], [1071874.8159063554, 7780732.268154914], [1071675.0, 7780716.666666667], [1071711.9481993122, 7780863.209495521], [1071654.3049596658, 7780938.007327961], [1071626.3175533614, 7781157.113661003], [1071575.0, 7781160.0], [1071591.0, 7781194.0], [1071560.0, 7781225.0], [1071535.0, 7781185.0], [1071489.705882353, 7781187.5], [1071528.154263184, 7781277.373090193], [1071455.0, 7781360.0], [1071488.2675954776, 7781382.7441724185], [1071525.779090727, 7781530.032044862], [1071622.6017458893, 7781561.434905393], [1071655.0, 7781660.0], [1071615.0, 7781710.0], [1071644.7478991596, 7781739.831932773], [1071693.158392874, 7781948.673729869], [1071754.0, 7781945.0], [1071738.3448737995, 7782069.597945052], [1071790.0, 7782135.0], [1071954.781144781, 7782183.799102132], [1072000.0, 7782145.0], [1072068.6361196113, 7782161.651366296], [1072066.4285714286, 7782318.571428572], [1072111.6659612786, 7782396.308268381], [1072179.4918696522, 7782388.460930073], [1072255.0, 7782470.0], [1072225.0, 7782500.0], [1072267.7108433736, 7782534.879518072], [1072142.1263599931, 7782601.648565764], [1072058.5585367638, 7782721.939996858], [1072192.629603179, 7782732.126644223], [1072225.2532607934, 7782848.979901385], [1072021.4285714286, 7782836.428571428], [1071957.091453785, 7782888.769166912], [1071993.8161778017, 7783071.830779102], [1071918.6018588615, 7783216.515441748], [1071988.7687555163, 7783207.7159949], [1072025.0, 7783330.0], [1072065.0, 7783350.0], [1071971.7521367522, 7783516.923076923], [1071999.4338628468, 7783532.494047851], [1071961.6037787793, 7783595.471705039], [1072037.3376623376, 7783696.45021645], [1071986.0, 7783705.0], [1071962.3230769231, 7783808.307692308], [1071986.8181818181, 7783869.545454546], [1071896.9193361113, 7783935.729060617], [1072033.0448429429, 7784044.968612317], [1072049.795973608, 7784326.477443277], [1072115.0170427233, 7784310.105317342], [1072196.4212203792, 7784566.800388418], [1072268.174273859, 7784603.174273859], [1072284.8700495844, 7784567.97023858], [1072388.0420750887, 7784585.4974406455], [1072383.5846114554, 7784720.061224564], [1072486.2120573823, 7784769.848451254], [1072557.8934761942, 7784755.585416184], [1072450.0, 7785205.0], [1072380.1292205385, 7785161.916093917], [1072266.3, 7785214.133333334], [1072267.8572316784, 7785281.772056492], [1072364.0074906368, 7785341.404494382], [1072348.572593801, 7785363.246329527], [1072255.0, 7785380.0], [1072315.4409375726, 7785561.515432815], [1072385.0, 7785600.0], [1072369.7046368832, 7785643.952995977], [1072431.7345369319, 7785675.955249569], [1072302.2315849694, 7785873.6895877775], [1072276.8829863938, 7786162.0042620795], [1072220.970069911, 7786224.367617152], [1072249.7163160816, 7786323.363994891], [1072497.8282978067, 7786507.878776645], [1072396.964460889, 7786642.471771187], [1072476.1160414647, 7786683.084122604], [1072531.0959230792, 7787084.48855464], [1072457.415875755, 7787172.456140351], [1072485.1090246541, 7787200.610841732], [1072452.5378458186, 7787312.613537455], [1072569.280576825, 7787384.0407691], [1072631.425552056, 7787377.431226244], [1072748.4757999636, 7787520.321313892], [1072839.9007633587, 7787804.106870229], [1073070.0094710886, 7787963.054788806], [1073075.0320150398, 7788058.013670785], [1072866.7414585056, 7788138.753268846], [1072852.7767016478, 7788315.729037418], [1072709.258309681, 7788378.746286974], [1072782.4707984831, 7788550.83073991], [1072701.568627451, 7788682.2549019605], [1072809.4142762325, 7788765.304172557], [1072769.5013780827, 7788893.088481106], [1072571.8999197218, 7789071.961020427], [1072436.893668892, 7789011.6299305735], [1072406.5, 7789076.5], [1072231.5207063227, 7789150.198265465], [1072160.8139534884, 7789233.372093023], [1072014.5972448813, 7789260.042037025], [1071904.9378881988, 7789372.236024844], [1071935.0, 7789550.0], [1071782.0119938634, 7789895.057412858], [1071942.3498276283, 7790011.788257212], [1071921.4385858898, 7790048.650186354], [1071982.124669667, 7790121.962007474], [1071983.8, 7790254.0], [1072033.1433119837, 7790296.330602696], [1071997.4500117619, 7790356.013879087], [1072069.794014754, 7790451.342361797], [1072205.4283867686, 7790423.26859422], [1072319.9241540257, 7790517.106184364], [1072186.1406644115, 7790656.611672315], [1072161.8388397875, 7790865.029063588], [1072247.0696265458, 7790919.122463227], [1072205.0, 7791040.0], [1072361.1722401157, 7791038.137662306], [1072379.463662381, 7791063.595731615], [1072472.4046076315, 7791082.81137509], [1072500.292979396, 7791161.569006868], [1072421.066095054, 7791264.686995154], [1072481.898365883, 7791310.992427262], [1072465.7692307692, 7791393.076923077], [1072515.0, 7791430.0], [1072480.6392108782, 7791533.082367365], [1072385.9595959596, 7791515.033670033], [1072289.4215626135, 7791609.162566486], [1072149.5081705684, 7791619.049870362], [1071922.7272727273, 7791755.0], [1071837.911907255, 7791711.965424231], [1071994.4282238444, 7791506.97080292], [1071960.5792899346, 7791383.317300666], [1071929.7051419094, 7791436.416420748], [1071846.4454436775, 7791402.476025535], [1071774.7518390124, 7791442.018686057], [1071626.5742563512, 7791364.317636153], [1071610.0, 7791255.0], [1071497.0786516855, 7791277.584269663], [1071463.3333333333, 7791225.0], [1071284.2660550459, 7791257.889908257], [1071265.0, 7791313.333333333], [1071158.0666445347, 7791280.674744792], [1071093.821966426, 7791369.8591252705], [1071007.4953375694, 7791264.415535705], [1070990.4149701663, 7791166.946770204], [1070912.857142857, 7791135.0], [1070902.4976590471, 7791059.237675572], [1070768.5888540638, 7790916.529386745], [1070764.416745294, 7790759.671919228], [1070733.0, 7790742.0], [1070784.730647901, 7790683.93593788], [1070700.576012625, 7790581.217780116], [1070657.5, 7790458.75], [1070665.0, 7790363.333333333], [1070763.214861458, 7790360.2366400575], [1070914.7115925709, 7790229.680519682], [1071056.6584881223, 7790176.829133674], [1071007.5, 7789982.5], [1071058.2641390464, 7789910.874249527], [1071026.55628865, 7789624.3681099955], [1070974.5335254346, 7789419.112749304], [1070812.0139886343, 7789510.686629614], [1070782.2222222222, 7789409.444444444], [1070606.887082365, 7789318.490509779], [1070611.2118761328, 7789174.580802924], [1070644.0, 7789127.0], [1070626.022561083, 7789082.947757206], [1070524.486986043, 7789109.645416824], [1070458.3333333333, 7788986.666666667], [1070504.003215434, 7788885.627009646], [1070455.0, 7788855.0], [1070479.2536449896, 7788581.994908586], [1070435.0, 7788540.0]]]}}]}