{"type": "FeatureCollection", "crs": {"type": "name", "properties": {"name": "EPSG:25833"}}, "features": [{"type": "Feature", "properties": {"station": "247.3.0", "name": "Karpelva", "series": ["1001.0"], "nodes": 1281691, "fine_vertices": 11944, "fine_area_m2": 128169650.0, "reduced_vertices": 556, "reduced_area_m2": 128169649.99999934, "outline_tolerance_m": 20.0, "windows": [[480, 454], [1115, 1116], [2314, 2378], [4614, 4777]], "placed_on": "number", "distance_m": 9.835356478729247, "uncertainty_m": 30.0, "elvid": "247-34-1", "objectid": 11293212, "lake": false, "confluence_near": false, "reach_up_m": 1000.0, "reach_down_m": 130.0, "reach_fork": false, "seeded_by": "river", "lake_rule": null, "lake_number": null, "lake_name": null, "lake_distance_m": null, "node_offset_m": 3.7948177595717842, "chain_nodes": 103, "lowered_nodes": 29, "lowered_max_m": 0.48448753356933594, "direction_ok": true, "end_extended_m": 0.0, "end_closed": true, "downstream_checked": "whole", "a0": 128.16910000000001, "area_up": 128.1668, "area_down": 128.1708, "swing": 1.794504291611245e-05, "largest_step": 0.0020000000000095497, "largest_step_at_m": -14.142135623731065, "checked_up_m": 24.142135623731065, "checked_down_m": 30.0, "drains": true, "monotone": true, "causes": []}, "geometry": {"type": "Polygon", "coordinates": [[[1090145.0, 7800380.0], [1090114.0476190476, 7800349.047619048], [1090111.111111111, 7800252.777777778], [1090034.2105263157, 7800268.157894737], [1089927.848525151, 7800104.661093431], [1089942.142857143, 7799997.142857143], [1089903.0, 7799958.0], [1089936.2860000664, 7799773.451014922], [1089996.3051399156, 7799804.671469103], [1090110.8904109588, 7799633.150684931], [1090105.208385016, 7799570.317539073], [1090195.0, 7799477.333333333], [1090190.5255072878, 7799367.400328665], [1090171.5526298373, 7799342.0855423175], [1090181.0776784366, 7799157.4957388835], [1090090.31229018, 7799086.48518977], [1090138.3167010664, 7799045.758927875], [1089985.559055959, 7799018.74893208], [1089915.0, 7798900.0], [1089958.6246418338, 7798821.762177651], [1089941.0443132764, 7798760.3036736855], [1090057.7777777778, 7798647.222222222], [1090105.0, 7798690.0], [1090071.6563822248, 7798770.375335817], [1090141.754009676, 7798847.503684898], [1090310.143075084, 7798742.402814067], [1090308.3650190113, 7798676.0899873255], [1090402.5714285714, 7798638.333333333], [1090442.377486042, 7798666.693883185], [1090880.9715689572, 7798231.957936539], [1091006.25, 7798218.75], [1091096.0, 7798289.0], [1091145.0, 7798280.0], [1091120.766715347, 7798243.650073021], [1091251.5661411926, 7798008.074023304], [1091217.5466825585, 7797981.29519269], [1091222.7212092674, 7797851.353643079], [1091276.6149495048, 7797755.426550659], [1091380.9262227362, 7797800.91031795], [1091556.4361744407, 7797815.850036076], [1091565.0, 7797910.0], [1091654.7889996686, 7798003.444531462], [1091913.5749414158, 7798024.800182594], [1091916.9721998675, 7797877.313624202], [1091866.1281509995, 7797783.170867999], [1091794.9668383696, 7797756.060672983], [1091803.0533333332, 7797675.973333334], [1091847.340615343, 7797667.48009186], [1092025.0, 7797509.389874513], [1092011.857887051, 7797440.252066425], [1092093.1358070162, 7797398.135807016], [1092140.0, 7797445.0], [1092195.0408163266, 7797400.897959184], [1092176.4285714286, 7797371.428571428], [1092250.1759407967, 7797263.180790427], [1092186.4418415178, 7797213.302369792], [1092225.0, 7797150.0], [1092030.581483829, 7797057.903157063], [1091920.0, 7797175.0], [1091807.6666666667, 7797081.333333333], [1091813.6117159775, 7797008.619042015], [1091555.0, 7796830.0], [1091539.4444444445, 7796764.444444444], [1091580.5999615807, 7796615.038039121], [1091715.0, 7796470.0], [1091694.3717514125, 7796364.612429379], [1091513.3458630212, 7796223.889738399], [1091396.3157894737, 7796321.315789473], [1091192.6390680745, 7796274.469819214], [1091134.0697144144, 7796323.266603827], [1090986.0, 7796289.0], [1090960.0, 7796315.0], [1090871.1221582578, 7796128.223202294], [1091046.9279565823, 7796056.353897022], [1090965.0, 7795930.0], [1091067.8125, 7795872.8125], [1091102.7272727273, 7795907.7272727275], [1091540.0, 7795575.0], [1091663.9923954373, 7795554.334600761], [1091764.6153846155, 7795605.0], [1091815.1583113456, 7795523.649956024], [1091763.4370193006, 7795447.238344297], [1091754.0729113044, 7795323.246131699], [1091849.651804551, 7795144.5835746], [1092070.5638199034, 7794954.858691716], [1092268.0434744305, 7794931.957903125], [1092493.787235919, 7795158.678172195], [1092521.2136468638, 7795277.677249304], [1092430.0, 7795355.0], [1092314.7826086956, 7795240.217391305], [1092195.0, 7795360.0], [1092195.0, 7795496.873139396], [1092352.801077882, 7795715.189016458], [1092338.937319528, 7795929.1278746165], [1092580.0074441277, 7796153.40249586], [1092523.1516619925, 7796230.742753382], [1092592.9874448313, 7796324.930231831], [1092710.0, 7796385.0], [1092731.1970550022, 7796345.6340407105], [1092841.9047619049, 7796401.825396826], [1092857.1069145794, 7796291.987605174], [1092937.8629886585, 7796258.953885679], [1093250.0859872254, 7796574.890345092], [1093407.125825825, 7796510.716276182], [1093484.7774812642, 7796715.595211582], [1093590.6970276686, 7796792.43656551], [1093635.3206112182, 7796628.438635305], [1093565.0, 7796460.0], [1093592.0967741935, 7796413.870967742], [1093550.5258467023, 7796274.474153298], [1093667.6470588236, 7796157.352941177], [1093775.4373964795, 7796199.489977105], [1093926.5480427046, 7796081.049822064], [1094030.0, 7796085.0], [1094143.8016790913, 7796189.986242391], [1094559.055668519, 7795798.475663686], [1094471.6666666667, 7795676.666666667], [1094507.0626747094, 7795652.331911137], [1094538.2258064516, 7795493.870967742], [1094435.0, 7795390.0], [1094411.6153846155, 7795284.769230769], [1094281.9165249765, 7795210.37841366], [1094335.0, 7795140.0], [1094335.0, 7795005.36], [1094265.5555555555, 7795005.0], [1094243.3053315668, 7794867.004484672], [1094065.0, 7794680.0], [1094043.6201275205, 7794532.967984593], [1094371.7864749033, 7794225.421870481], [1094520.0, 7794185.0], [1094590.2997584185, 7794114.700241582], [1094849.8702546852, 7793952.597308986], [1094866.2121212122, 7793861.515151516], [1094825.0, 7793820.0], [1094975.0, 7793670.0], [1094928.612565445, 7793577.643979058], [1094835.0, 7793498.333333333], [1094835.0, 7793446.0], [1094947.1951219512, 7793349.5121951215], [1094966.5328027015, 7793239.065364206], [1095135.0873159796, 7793181.102284038], [1095213.6108075185, 7793280.974894696], [1095327.6532056166, 7793298.369616487], [1095429.7611640038, 7793432.610392446], [1095630.0, 7793425.0], [1095664.7368421052, 7793390.263157895], [1095760.0, 7793485.0], [1095819.4977843426, 7793435.251107829], [1096028.9392326328, 7793531.830772538], [1096162.4484128552, 7793471.267023986], [1096256.6829065906, 7793554.482234008], [1096544.909669976, 7793313.981933995], [1096709.150544245, 7793304.369456677], [1096926.830732293, 7793503.343337335], [1097070.0, 7793365.0], [1097260.0, 7793365.0], [1097290.0, 7793325.0], [1097330.0, 7793365.0], [1097480.9992008982, 7793349.630026135], [1097503.1747700956, 7793249.87152523], [1097565.0, 7793150.0], [1097527.972972973, 7793020.540540541], [1097555.0, 7792980.0], [1097515.0728987993, 7792900.132933104], [1097947.797418848, 7792517.356963831], [1098144.5569877636, 7792530.652953778], [1098095.0, 7792400.0], [1098112.0430498826, 7792332.341677474], [1097932.5, 7792097.5], [1098187.5562092876, 7792311.005463333], [1098260.0, 7792285.0], [1098445.3278688525, 7792291.147540984], [1098382.575135182, 7792206.563795006], [1098399.0033969863, 7792125.779905922], [1098456.4893617022, 7792102.127659574], [1098435.0, 7791990.0], [1098536.875, 7791888.125], [1098376.3364852455, 7791794.082002266], [1098435.128650904, 7791629.35674548], [1098118.9727204829, 7791499.668727395], [1097925.0, 7791300.0], [1097934.2619738695, 7791133.127027491], [1098017.8544914306, 7790992.737400025], [1098277.7000401702, 7790801.214512913], [1098342.7434965232, 7790596.76951043], [1098526.357565092, 7790475.003609945], [1098636.3865765855, 7790459.252921922], [1098661.7612132498, 7790300.4241798], [1098838.148148148, 7790303.148148148], [1098972.1902757098, 7790214.854186989], [1099093.3333333333, 7790282.777777778], [1099239.5344686229, 7790144.117873126], [1099235.0, 7790050.0], [1099400.0, 7789885.0], [1099558.3333333333, 7789923.333333333], [1099837.5, 7790202.5], [1099960.0, 7790245.0], [1100124.5161290322, 7790091.451612903], [1100136.2051137937, 7790010.648307208], [1100378.5373997558, 7789635.218270138], [1100388.307717389, 7789562.312231472], [1100564.3230147501, 7789441.575097345], [1100717.384847873, 7789462.810097007], [1100874.134181425, 7789362.183562294], [1100965.8001527262, 7789388.255961516], [1101028.5294117648, 7789578.235294118], [1100923.9399079997, 7789645.366303913], [1100862.75, 7789917.75], [1100854.406462984, 7790057.028290657], [1101168.2958481135, 7790054.025799068], [1101227.2229528008, 7790172.531811594], [1101297.426925749, 7790218.766589759], [1101260.2475070362, 7790355.446855962], [1101251.2583166612, 7790611.017540595], [1101374.0555816172, 7790624.36587322], [1101471.700898626, 7790834.637874589], [1101459.3435145146, 7790855.417690406], [1101537.0161792159, 7791102.016179216], [1101699.6666666667, 7791264.666666667], [1101625.0, 7791340.0], [1101625.0, 7791410.0], [1101800.2261679578, 7791512.237056915], [1101944.0810419682, 7791350.465508924], [1101976.5890692675, 7791364.432976641], [1102140.0, 7791155.0], [1102130.0, 7791185.0], [1102211.9008264462, 7791266.900826447], [1102281.971830986, 7791234.718309859], [1102489.1352605384, 7791424.209029782], [1102588.859863563, 7791419.162170473], [1102692.2413793104, 7791502.54789272], [1102836.25, 7791345.0], [1103017.0103459915, 7791387.941444302], [1103198.7045629267, 7791204.752559869], [1103178.4838709678, 7791084.774193549], [1103215.5542480454, 7790972.006051279], [1103175.7386315218, 7790699.421051936], [1103356.4775085326, 7790188.522491467], [1103395.0, 7790150.0], [1103350.6055116346, 7789888.459792624], [1103381.7162531733, 7789636.50745024], [1103610.9038143943, 7789684.096185606], [1103660.0, 7789635.0], [1104010.0, 7789985.0], [1104080.0, 7789945.0], [1104584.5641704255, 7790426.1905318545], [1104803.4069998122, 7790759.223590764], [1104895.0, 7790770.0], [1105189.3165467626, 7791064.316546762], [1105230.7803599152, 7791204.240672571], [1105385.0, 7791410.0], [1105361.2654831978, 7791485.377119694], [1105552.850157277, 7791609.452715126], [1105781.3807011037, 7791602.649992595], [1106145.385297391, 7791865.914469425], [1106220.1410476908, 7792071.4126486005], [1106408.6941606237, 7792374.950317414], [1106110.4225352113, 7792702.746478873], [1106004.520295203, 7792749.520295203], [1105716.9705882352, 7792461.970588235], [1105737.7272727273, 7792637.2727272725], [1105927.2676554935, 7792934.124642825], [1105885.2734603453, 7793053.298895594], [1106122.4277067923, 7793314.287155346], [1105899.7098245104, 7793572.957354584], [1105912.000731529, 7793632.86759327], [1106193.772979282, 7793928.711701197], [1106135.0, 7794030.0], [1106163.0222441475, 7794060.964212037], [1106066.8945561363, 7794308.107210401], [1105594.06953548, 7794780.491355562], [1105698.37641716, 7794922.694503406], [1105738.0837335647, 7795093.193777393], [1105687.7631578948, 7795177.061403509], [1105795.4147810724, 7795353.07285381], [1105900.5686429215, 7795328.09837359], [1105969.375, 7795385.625], [1105877.905502732, 7795477.094497268], [1105972.5669124527, 7795768.899489521], [1105927.5, 7795862.5], [1105999.4975186104, 7795934.49751861], [1105916.8294298549, 7796153.41712088], [1105676.5508881041, 7796378.067516997], [1105558.9523809524, 7796341.571428572], [1105530.0, 7796405.0], [1105505.0, 7796390.0], [1105343.0541848668, 7796536.548589925], [1105415.1084400695, 7796602.1888890965], [1105156.8445634944, 7796939.015406745], [1105204.0774146996, 7796998.674363468], [1105403.4996687984, 7797115.863098542], [1105491.4, 7797226.4], [1105465.0, 7797283.333333333], [1105390.4634809834, 7797258.492275317], [1105323.9325842697, 7797327.751568425], [1105281.5789473683, 7797278.157894737], [1105221.2639319028, 7797339.484496412], [1105153.8666666667, 7797296.933333334], [1105139.4248206795, 7797350.260522398], [1105085.0, 7797360.0], [1105111.6745251953, 7797453.655533008], [1105166.8766263586, 7797509.55150773], [1105149.4955811047, 7797531.606447506], [1105155.014409222, 7797618.948126801], [1105081.7202344856, 7797601.478476731], [1104810.0, 7797825.0], [1104823.7588197563, 7797691.452854394], [1104805.0, 7797710.0], [1104747.0751515192, 7797587.537813921], [1104665.9925152455, 7797552.310115925], [1104513.8112365212, 7797404.2809085185], [1104283.0083962814, 7797320.968702038], [1104333.2356116099, 7797548.733363855], [1104419.427710012, 7797643.76553197], [1104366.993629724, 7797726.995004162], [1104452.540095308, 7797775.847803605], [1104415.0, 7797826.666666667], [1104408.285571591, 7797978.755209589], [1104440.9250157853, 7798007.504564924], [1104399.537286667, 7798073.850597144], [1104425.0, 7798170.0], [1104385.0, 7798210.0], [1104414.3252074008, 7798440.483132897], [1104507.9641390294, 7798760.537990557], [1104458.1558471723, 7798765.0], [1104418.9442655407, 7798935.850582804], [1104356.591718171, 7798936.828866548], [1104240.0858252454, 7799071.728293522], [1104356.2305896224, 7799217.863519564], [1104294.1867343206, 7799366.701903355], [1104175.0156213942, 7799179.855496235], [1104102.3050986398, 7799183.94839286], [1104038.332155477, 7798823.3180212015], [1103897.2220273863, 7798605.979259759], [1103821.33552015, 7798407.535145267], [1103724.310903185, 7798484.025401711], [1103573.8143631436, 7798456.280487805], [1103523.75, 7798341.25], [1103474.5483870967, 7798378.838709678], [1103294.455974243, 7798362.54162584], [1103303.1445000116, 7798249.203069495], [1103016.0655737706, 7798053.243559719], [1102930.0, 7798055.0], [1102825.064674249, 7797875.505941842], [1102635.0, 7797680.0], [1102457.0854707775, 7797731.766135486], [1102397.8205128205, 7797638.974358974], [1102445.0, 7797580.0], [1102411.9595247714, 7797546.959524771], [1102227.0058872732, 7797776.889021944], [1102304.1098236917, 7798017.506516523], [1102273.8529027358, 7798101.3772504], [1102090.2343428642, 7798284.702035265], [1101916.003405416, 7798252.440405223], [1101926.0844895323, 7798387.744883768], [1102141.8705171198, 7798607.345528058], [1102061.238760952, 7798675.952368033], [1102045.0, 7798810.0], [1102136.2506857614, 7798913.790726875], [1102080.866461459, 7799091.330918305], [1102207.0989677208, 7799232.344748484], [1102188.3333333333, 7799306.666666667], [1102301.827532768, 7799558.787501774], [1102355.0, 7799570.0], [1102324.149074677, 7799763.460429648], [1102382.1920498346, 7799863.888268169], [1102309.857142857, 7799942.285714285], [1102440.658242471, 7800151.028589263], [1102585.3218704658, 7800057.671681671], [1102610.0, 7800075.0], [1102677.5848798526, 7799989.776570958], [1102762.0099665942, 7800003.893862386], [1102852.2822091866, 7800184.575480834], [1102664.0, 7800350.142857143], [1102600.0, 7800305.0], [1102436.2306116312, 7800453.304735606], [1102310.8523824622, 7800365.731669102], [1102123.7351328395, 7800434.359121351], [1102025.0, 7800335.0], [1101891.5481788714, 7800301.3175964], [1101753.2277677762, 7800341.402658671], [1101655.55014261, 7800310.416017242], [1101650.9410646388, 7800397.3479087455], [1101425.0715707946, 7800525.172696079], [1101256.2196775218, 7800454.374680046], [1101212.375, 7800484.625], [1101226.9077002406, 7800522.291386338], [1101168.8834951457, 7800602.454923717], [1101287.1677681166, 7800773.960288691], [1101383.4011337983, 7800818.520525929], [1101447.259644557, 7800956.576515681], [1101541.2182510304, 7801039.427283063], [1101625.0, 7801230.0], [1101580.7927915312, 7801314.0240282295], [1101668.8961136527, 7801413.096002165], [1101545.0, 7801423.18452009], [1101580.1226763038, 7801569.275876287], [1101605.0, 7801570.0], [1101483.4615384615, 7801647.692307692], [1101503.313810916, 7801677.470716374], [1101421.2241567846, 7801876.224156785], [1101418.2845052392, 7802106.237938897], [1101313.0178668478, 7802181.403091005], [1101244.4154120535, 7802323.981226977], [1101134.0, 7802291.0], [1101100.0, 7802325.0], [1100838.0974152908, 7802255.901902535], [1100813.3386327503, 7802166.3354531005], [1100726.3024678805, 7802126.208558148], [1100755.0, 7802070.0], [1100719.5454545454, 7802058.181818182], [1100670.2048380803, 7801940.647678502], [1100589.904322193, 7801910.988057593], [1100516.7173517, 7801949.148952393], [1100311.9083969465, 7801999.045801527], [1100272.1492101827, 7801918.731541814], [1100159.311879339, 7801864.23861934], [1099976.9040942232, 7801706.974200785], [1099943.6842105263, 7801728.157894737], [1099833.587647593, 7801634.2824704815], [1099730.8148254752, 7801652.394298862], [1099586.5083661303, 7801523.836863383], [1099465.0, 7801600.0], [1099483.7165775402, 7801656.14973262], [1099403.2758620689, 7801801.724137931], [1099278.9991364067, 7801782.181003406], [1099117.8035902851, 7801606.2143611405], [1099101.3333333333, 7801540.333333333], [1099030.0, 7801555.0], [1098916.252333301, 7801503.51421402], [1098795.967813656, 7801240.880310609], [1098915.0, 7801160.0], [1098813.9044213265, 7801060.367360208], [1098783.6494229683, 7801066.230731983], [1098706.500248821, 7800991.122526065], [1098520.0, 7801015.0], [1098410.0, 7801075.0], [1098362.0, 7801043.0], [1098275.345989328, 7801082.193333449], [1098117.3871490406, 7800891.515548571], [1098198.741814376, 7800761.649686133], [1097978.6301369863, 7800553.767123288], [1097921.2114699893, 7800568.395170894], [1097748.3, 7800523.5], [1097736.0759060294, 7800566.590473491], [1097781.4607573515, 7800742.921514703], [1097684.6566876164, 7800791.716561918], [1097660.2293528516, 7800867.087158128], [1097585.0, 7800900.0], [1097602.4683544303, 7800953.670886076], [1097565.1569904175, 7801026.753314391], [1097494.7373288802, 7800994.080627224], [1097375.9090909092, 7801029.090909091], [1097434.7858319604, 7801102.141680395], [1097415.0, 7801190.0], [1097466.4087034133, 7801251.033720652], [1097299.1183861666, 7801423.32253602], [1097315.0, 7801530.0], [1097273.9473684211, 7801614.2105263155], [1097152.1484805462, 7801664.348504387], [1097093.5294117648, 7801648.529411765], [1096889.614517927, 7801794.612673515], [1096824.1273615975, 7801728.812181509], [1096760.7009345794, 7801729.579439253], [1096733.0051447593, 7801680.342479573], [1096610.7268822247, 7801756.793508011], [1096610.0, 7801815.0], [1096549.0588235294, 7801774.529411765], [1096503.293186721, 7801988.745385922], [1096421.358495279, 7802163.00741932], [1096326.3829787234, 7802126.808510638], [1096227.1896401853, 7802170.541765954], [1096100.7500601653, 7802128.622483087], [1096005.7602574858, 7801943.040194072], [1096045.0, 7801856.0], [1095967.7272727273, 7801806.363636363], [1095709.564968345, 7801882.379056227], [1095657.7524706498, 7801991.010027718], [1095516.5549266094, 7802083.897792154], [1095460.0, 7801925.0], [1095426.6, 7801941.2], [1095415.0, 7801860.0], [1095322.8670141357, 7801728.176166785], [1095191.3850530623, 7801738.023827407], [1095083.4588939974, 7801648.220590137], [1095002.8367473618, 7801644.112352576], [1094857.8924136015, 7801743.864916875], [1094889.3546225424, 7801787.055475362], [1094860.0, 7801925.0], [1094836.25, 7801901.25], [1094643.8996303668, 7802070.594256468], [1094560.0, 7802005.0], [1094533.4379065062, 7802322.317745322], [1094446.0, 7802379.0], [1094417.2340425532, 7802352.44680851], [1094350.0, 7802435.0], [1094266.0, 7802419.0], [1094044.7500148206, 7802726.432038937], [1094032.0750925099, 7802934.557324232], [1093871.7621378186, 7803127.137279819], [1093757.142857143, 7803176.904761905], [1093722.8351955307, 7803111.298882682], [1093561.2129099343, 7803316.372368882], [1093477.7574047954, 7803309.104372355], [1093421.3566549532, 7803208.819682991], [1093405.0, 7803283.333333333], [1093310.9025534133, 7803210.146430433], [1093185.1376146788, 7803210.137614679], [1093137.6923076923, 7803246.538461538], [1093077.911028521, 7803083.457640693], [1092870.3769332615, 7802909.427952476], [1092635.2768878718, 7802859.608695652], [1092386.4815400739, 7803060.901122193], [1092261.3953769817, 7803102.079753117], [1092176.4046719559, 7803178.785848686], [1091946.881681066, 7803281.425870951], [1092009.8368408014, 7803374.959124795], [1091899.0, 7803505.0], [1091910.6097560977, 7803475.609756097], [1091444.8908646903, 7803044.315376037], [1091243.3783047046, 7802965.0], [1091135.4545454546, 7802965.0], [1091137.420092981, 7803036.060617057], [1091024.0615897682, 7803109.061589768], [1090914.146769285, 7803101.7064614305], [1090971.3446290155, 7802956.227608829], [1090907.2222222222, 7802792.222222222], [1090773.8973727743, 7802658.897372775], [1090799.101127283, 7802526.538114127], [1090894.76, 7802489.04], [1090864.0238110262, 7802349.582518313], [1090905.981429334, 7802306.6555991145], [1090885.0, 7802200.0], [1090931.7772962688, 7802153.222703731], [1090857.9591836734, 7801985.6887755105], [1090890.107383589, 7801951.147376398], [1090734.9204038228, 7801760.7796109645], [1090572.2669173486, 7801675.228264292], [1090552.331515962, 7801440.949316708], [1090599.1927836111, 7801378.581070276], [1090670.8224260272, 7801132.341114383], [1090607.3052714397, 7801015.892997639], [1090627.3972044403, 7800867.703910513], [1090705.2549889134, 7800805.0], [1090721.956521739, 7800706.956521739], [1090679.3239951278, 7800627.3447015835], [1090422.167295721, 7800867.16729572], [1090323.5483870967, 7800768.548387097], [1090161.522802207, 7800793.93967278], [1090123.7087747613, 7800731.785928103], [1090182.9165015018, 7800731.547571857], [1090255.7288285247, 7800648.4776342], [1090173.6199288256, 7800596.246300805], [1090074.2857142857, 7800581.19047619], [1090106.4404067032, 7800527.599322162], [1090074.2920353983, 7800424.513274336], [1090145.0, 7800380.0]]]}}]}