{"type": "FeatureCollection", "crs": {"type": "name", "properties": {"name": "EPSG:25833"}}, "features": [{"type": "Feature", "properties": {"station": "26.29.0", "name": "Refsvatn", "series": ["1001.1"], "nodes": 627876, "fine_vertices": 8140, "fine_area_m2": 62788350.0, "reduced_vertices": 453, "reduced_area_m2": 62788350.00000006, "outline_tolerance_m": 20.0, "windows": [[443, 512], [1241, 1124], [2463, 2321]], "placed_on": "name", "distance_m": 10.82529772761353, "uncertainty_m": 30.0, "elvid": "026-35-107", "objectid": 12074698, "lake": true, "confluence_near": false, "reach_up_m": 1000.0, "reach_down_m": 130.0, "reach_fork": false, "seeded_by": "lake", "lake_rule": "lake_line", "lake_number": 21638, "lake_name": "Refsvatnet", "lake_distance_m": 2.1804484143404363, "node_offset_m": null, "chain_nodes": null, "lowered_nodes": null, "lowered_max_m": null, "direction_ok": null, "end_extended_m": null, "end_closed": null, "downstream_checked": null, "a0": null, "area_up": null, "area_down": null, "swing": null, "largest_step": null, "largest_step_at_m": null, "checked_up_m": null, "checked_down_m": null, "drains": null, "monotone": null, "causes": []}, "geometry": {"type": "Polygon", "coordinates": [[[2350.0, 6507105.0], [2229.2307692307686, 6507051.153846154], [2053.6188642351217, 6507118.9031029595], [2029.8661542990685, 6507104.548918123], [2195.0, 6506930.0], [2105.115699182129, 6506889.271893078], [1976.6232066962566, 6506751.718059349], [1998.4989690342218, 6506652.8999497285], [1914.75943522136, 6506430.246232235], [1531.649933280568, 6506333.278078118], [1489.0543735224592, 6506344.243498818], [1413.8532110091746, 6506284.0825688075], [1321.2312248308972, 6506284.870438714], [1284.6352045570266, 6506326.9850017], [1092.85298522223, 6506386.2667062245], [1030.0, 6506365.0], [991.2768544791243, 6506402.778678557], [690.0, 6506095.0], [717.1339666607719, 6505983.5240823105], [683.5191347753744, 6505934.825291181], [660.0, 6505775.0], [521.4096860304098, 6505805.906155553], [392.29434133334235, 6505955.147651836], [495.0, 6506110.0], [393.6313517243834, 6506238.270206202], [94.86039703706683, 6505990.144058785], [179.85854858548464, 6505902.432951313], [90.88092398560639, 6505770.214246505], [-37.18670076726448, 6505697.131287297], [-192.28269376696153, 6505668.457561241], [-222.4228109680389, 6505697.10420725], [-430.8784274653435, 6505693.546971932], [-594.5967741935483, 6505525.0], [-632.1126254300025, 6505567.5777442185], [-839.1374158193667, 6505561.279800405], [-964.7838726743412, 6505515.659500568], [-943.4391210364847, 6505367.2395598935], [-1174.7734131646948, 6505141.138917635], [-1190.0, 6505155.0], [-1391.31167063281, 6504927.706922643], [-1340.0704059778882, 6504870.571661785], [-1426.6326565616546, 6504716.508340138], [-1542.658590578062, 6504594.313766399], [-1671.872699255201, 6504662.427874326], [-1744.4010637499796, 6504525.64063825], [-1818.1730769230771, 6504569.903846154], [-1899.7652428474025, 6504534.203400877], [-1923.7057675969227, 6504682.546928342], [-2012.2214413626343, 6504735.376971443], [-2119.4247045153757, 6504670.769365824], [-2281.7486608401464, 6504675.176910065], [-2299.2584979922403, 6504793.805991382], [-2374.063978406916, 6504775.438387044], [-2440.0, 6504815.0], [-2522.7106493595643, 6504667.017534906], [-2838.5717234923923, 6504369.47666112], [-2818.128834355828, 6504236.257668711], [-2864.230769230769, 6504203.076923077], [-2876.641203036418, 6504118.86326511], [-2924.0368252327507, 6504092.591544535], [-3047.1206148994875, 6503909.901458415], [-3133.9099181073702, 6503870.2802547775], [-3104.5652173913045, 6503831.739130435], [-3011.955153422502, 6503894.615666112], [-2929.8755090732425, 6503772.056087224], [-3033.1195948406616, 6503719.697411126], [-3095.9667220383694, 6503572.483598326], [-3125.755566839016, 6503396.122400626], [-3085.8611595511816, 6503327.289678161], [-3243.6217594348836, 6503230.582787071], [-3214.098360655738, 6503194.344262295], [-3295.4853273137696, 6503130.485327314], [-3334.1666666666665, 6503169.166666667], [-3379.1706541429758, 6503107.030626453], [-3702.711118087659, 6502880.2747060675], [-3777.5, 6502953.333333333], [-3848.567802397508, 6502921.640972138], [-3888.265306122449, 6503074.897959184], [-4014.7977734936712, 6503058.992686293], [-4114.750032267779, 6503127.076108936], [-4195.0, 6502998.0], [-4165.783408599282, 6502766.522558276], [-4323.855033932073, 6502675.8619472], [-4351.666666666667, 6502573.333333333], [-4311.703810022106, 6502517.934042262], [-4365.0, 6502430.0], [-4275.588235294117, 6502318.235294118], [-4311.9910365768355, 6502226.74296118], [-4402.117810068568, 6502115.693146694], [-4380.0, 6502055.0], [-4347.35294117647, 6502081.176470588], [-4280.737704918032, 6502047.868852459], [-4398.301458282398, 6501833.1728898715], [-4346.734693877551, 6501741.734693877], [-4356.300578034682, 6501696.156069364], [-4481.346257547564, 6501725.99308852], [-4490.513329709192, 6501592.134910196], [-4394.953445982086, 6501448.037649321], [-4496.229508196721, 6501404.180327869], [-4571.8, 6501414.8], [-4597.770431612808, 6501372.301899556], [-4807.240048481627, 6501372.246850111], [-4843.971070033327, 6501279.631723257], [-4998.499999999999, 6501292.166666667], [-5125.0, 6501350.0], [-5105.0, 6501310.0], [-5182.64705882353, 6501217.647058823], [-5173.30937394773, 6501165.768642992], [-5234.148030499644, 6501135.232916565], [-5242.692307692308, 6501197.115384615], [-5320.0, 6501225.0], [-5430.546348824861, 6501135.124919655], [-5626.527093935286, 6501111.863599916], [-5681.211286009432, 6501169.367049359], [-5685.063437139562, 6501222.450980392], [-5737.518264625506, 6501261.444282258], [-5838.1254797664005, 6501215.355075638], [-5828.108282669223, 6501110.375104886], [-5929.379950282305, 6501000.556633843], [-5835.0, 6500920.0], [-5922.544153612109, 6500769.593529413], [-5851.020220898193, 6500706.526488774], [-5838.136822995702, 6500588.471541389], [-5892.6769059351345, 6500561.679262133], [-5939.285714285715, 6500484.285714285], [-5656.125217373823, 6500185.303686727], [-5695.0, 6500120.0], [-5595.063740989188, 6500035.982417891], [-5350.3075028094345, 6500133.888341623], [-5171.991831699664, 6500331.111199479], [-5035.076335638674, 6500239.964902795], [-4858.0, 6500089.0], [-4832.727272727273, 6500139.545454546], [-4641.893906676646, 6500030.244108534], [-4539.997675981943, 6500074.068897496], [-4468.290808340116, 6499967.549621188], [-4511.941176470588, 6499918.431372549], [-4395.046816569839, 6499800.389127786], [-4401.1648151737045, 6499543.416935233], [-4355.0, 6499520.0], [-4456.824661439772, 6499418.79828938], [-4442.032967032967, 6499375.26844584], [-4505.714490833732, 6499280.183311643], [-4461.638206320799, 6499170.325428932], [-4610.0, 6498985.0], [-4690.0, 6499005.0], [-4761.218789294055, 6498873.612358541], [-4749.4996485527245, 6498701.191284264], [-4720.0, 6498695.0], [-4640.0, 6498775.0], [-4575.0, 6498710.0], [-4605.0, 6498680.0], [-4534.565217391304, 6498597.826086956], [-4523.35531926017, 6498493.924339049], [-4599.997085563352, 6498417.831229251], [-4537.726559166395, 6498320.243392977], [-4411.666666666667, 6498305.0], [-4225.0, 6498452.008928572], [-4225.0, 6498514.444444444], [-4166.4442800169, 6498511.873192623], [-4002.28520745562, 6498657.89459611], [-3947.415229233596, 6498504.86876439], [-3836.9827687392735, 6498459.608046491], [-3721.2277580071172, 6498508.007117438], [-3711.6888064321465, 6498406.42393801], [-3646.4872982702486, 6498336.566349996], [-3549.6182557676566, 6498429.52753958], [-3431.196231915171, 6498377.1618951745], [-3443.3080382237213, 6498167.858347386], [-3483.8888888888887, 6498096.666666667], [-3446.546990506113, 6498016.181341775], [-3377.801799033108, 6497990.603598067], [-3429.494190678993, 6497896.1087538395], [-3650.201764583227, 6497781.231341287], [-3624.5454545454545, 6497605.0], [-3530.3147734974473, 6497626.54383767], [-3443.501085564772, 6497601.814006569], [-3356.720208896159, 6497751.653451092], [-3307.1875, 6497754.479166667], [-3250.0, 6497815.0], [-3172.2280049305195, 6497736.441650249], [-2936.990713070528, 6497707.154550538], [-2864.9049954001034, 6497743.994359335], [-2920.315942941209, 6497906.446905811], [-2763.1072455206386, 6498032.603171687], [-2627.7551699661753, 6497999.151522286], [-2620.813928951468, 6498135.0], [-2564.0114110212285, 6498135.0], [-2523.356119202615, 6498297.465821196], [-2696.0074488337905, 6498462.239576286], [-2544.124528301887, 6498554.905660378], [-2485.6, 6498535.0], [-2458.3333333333335, 6498576.666666667], [-2409.8192771084337, 6498570.602409638], [-2432.121556812923, 6498657.514091621], [-2485.2127858384547, 6498680.814096612], [-2346.2050749213936, 6498941.205074921], [-2375.0, 6498970.0], [-2326.5504920096037, 6499002.048368692], [-2241.166415160624, 6498901.738943117], [-2172.359402196747, 6498976.52811956], [-2014.183951987617, 6499030.908873121], [-2042.6779868782128, 6499133.466199557], [-2115.0, 6499170.0], [-2082.560455047458, 6499281.714084383], [-1937.4287410226666, 6499422.760599434], [-1793.1268979957804, 6499456.115500821], [-1695.3531640743986, 6499614.23973919], [-1637.824018723667, 6499572.597703076], [-1547.8571428571422, 6499597.142857143], [-1455.7477898530324, 6499487.509994932], [-1419.2618806408955, 6499400.198736206], [-1467.45013815725, 6499310.6886846535], [-1361.1764705882351, 6499216.176470588], [-1254.1714889728937, 6499308.684003081], [-1178.6710833835832, 6499261.945938399], [-1133.0505975254373, 6499126.0965491], [-972.0794930883885, 6499197.432647216], [-943.1873458117434, 6499022.977508697], [-828.197358197358, 6498986.243201243], [-801.3989004674604, 6499011.685629147], [-615.0, 6498860.0], [-478.0673734311267, 6498835.319742596], [-556.2728547963952, 6498698.238093042], [-680.5183559387342, 6498675.067747896], [-657.1672299340971, 6498531.520856478], [-605.0, 6498490.0], [-622.2774869109953, 6498389.790575916], [-565.0, 6498340.0], [-590.0, 6498285.0], [-549.2857142857138, 6498244.285714285], [-515.0, 6498140.0], [-547.0, 6498122.0], [-425.6632390745499, 6498025.367609254], [-240.14608888555358, 6497952.298149254], [-93.83669173207272, 6497832.512958004], [-65.48997772828534, 6497843.229398664], [-23.638965292760076, 6497744.447352383], [47.021017544790084, 6497802.659660818], [171.5360021413917, 6497847.139755525], [173.60097446909367, 6497675.6940701], [246.2714586805605, 6497625.97215985], [163.98938441573137, 6497444.734762773], [226.428426895116, 6497440.583456013], [329.338427409416, 6497266.060685235], [456.92307692307713, 6497317.307692308], [483.9007092198581, 6497290.957446809], [539.6007604562737, 6497308.55513308], [650.0, 6497265.0], [723.0769230769229, 6497321.923076923], [805.8306129945113, 6497242.523344904], [802.3823958857329, 6497153.528660457], [844.7368421052633, 6497111.842105263], [938.7321408269217, 6497214.311592829], [915.0, 6497260.0], [1033.1016998002806, 6497324.37687584], [1220.5045871559632, 6497513.486238532], [1205.0, 6497540.0], [1322.1428571428569, 6497587.142857143], [1304.192825112108, 6497679.3721973095], [1413.8999999999996, 6497764.7], [1435.5807994832476, 6497755.435103041], [1545.1691838983606, 6497797.584754002], [1719.0905031642687, 6497930.228043988], [1635.0, 6498090.0], [1648.1825035312859, 6498180.656554868], [1595.4499891043797, 6498261.9666594025], [1717.319853472648, 6498306.966207792], [1737.6744186046508, 6498423.372093023], [1845.9455867088755, 6498407.014128789], [2012.7703026163226, 6498564.07936898], [1835.0, 6498690.0], [1853.8284301272488, 6498735.313720509], [2038.1712510804891, 6498867.943080244], [2317.325869159915, 6498951.904154738], [2411.6956331697675, 6498957.24442542], [2471.6995176099954, 6498858.299202501], [2499.7999999999993, 6498718.0], [2465.0, 6498660.0], [2519.570505290245, 6498619.837921769], [2611.5847850259415, 6498642.584288328], [2710.483577325329, 6498871.478895292], [2811.068811605148, 6498886.671900599], [2842.0, 6498801.0], [2900.0, 6498835.0], [2973.5521092729123, 6498736.930520969], [3076.3812629621443, 6498836.798467423], [3210.0, 6498855.0], [3359.8256484071935, 6498977.568357148], [3412.026536286967, 6499420.345647203], [3638.862438971717, 6499585.15913502], [3590.2168815943733, 6499654.021101993], [3628.394663912073, 6499701.74332989], [3605.043095571158, 6499871.109710957], [3634.2307692307695, 6499957.692307692], [3601.4150943396235, 6500006.415094339], [3641.6305048596278, 6500048.393345073], [3549.1322314049576, 6500087.9338842975], [3493.461538461539, 6500162.307692308], [3522.145904945284, 6500178.398922286], [3522.0575299260963, 6500434.038546543], [3392.0, 6500417.0], [3298.771929824561, 6500466.754385965], [3224.09090909091, 6500451.818181818], [3230.123456790123, 6500415.0], [3155.967940813811, 6500440.967940814], [3140.0, 6500425.0], [3057.652193047712, 6500514.412340512], [3185.4169075599602, 6500822.678193374], [3344.0871300529034, 6501110.406614555], [3279.3041020258424, 6501195.009660773], [3106.555478277889, 6501243.748745327], [3125.0, 6501330.0], [3176.0344827586214, 6501368.275862069], [3125.130896092078, 6501423.9176231], [3099.5278889591063, 6501534.904501088], [2970.90909090909, 6501545.0], [2950.1847231667907, 6501506.355760721], [2857.855684998307, 6501584.719628377], [2951.5946798381337, 6501660.215960486], [2925.0, 6501740.0], [2972.899159663866, 6501775.924369748], [2949.0974529346604, 6501910.941306755], [2873.2548476454285, 6501893.518005541], [2816.7284867342405, 6501994.8241471965], [2894.801980198019, 6502019.00990099], [2819.435001863989, 6502128.975476965], [2898.9278546188325, 6502235.771255416], [2825.0, 6502280.0], [2858.1914893617013, 6502314.042553191], [2801.0515363577506, 6502384.896094916], [2965.081300813008, 6502550.707317073], [3147.8963136702805, 6502639.8287758], [3243.890588309958, 6502601.10941169], [3398.1010386047838, 6502722.745800693], [3465.0, 6502700.0], [3423.101916556274, 6502631.765978391], [3453.005874244409, 6502539.530529224], [3585.0, 6502480.0], [3578.390822803376, 6502373.229852287], [3660.0, 6502345.0], [3937.047169665864, 6502447.26169994], [4128.196721311475, 6502419.426229509], [4197.691096389843, 6502341.683990878], [4308.125, 6502407.5], [4355.032624673129, 6502351.220559958], [4532.513545153011, 6502463.756772577], [4576.96294924046, 6502411.765098184], [4752.857142857143, 6502493.571428572], [4847.280096184604, 6502421.655497969], [4984.434735117422, 6502553.263244129], [5074.315008383539, 6502493.55701247], [5173.92604778565, 6502624.049450497], [5105.46124365226, 6502709.724245292], [5092.628472357503, 6502843.456578486], [5045.357142857143, 6502860.357142857], [4996.425530930459, 6502981.170591773], [5085.0, 6503035.714285715], [5081.6479578501385, 6503122.439244494], [5200.555051192818, 6503243.76163817], [5185.0, 6503400.0], [5003.415533180378, 6503525.63716063], [4951.8160022470565, 6503504.462813234], [4851.210217334485, 6503624.522608014], [4865.0, 6503740.0], [4820.0, 6503785.0], [4658.470738162299, 6503819.6617365945], [4605.801490407484, 6503980.216426193], [4645.760869565218, 6504022.717391305], [4830.0, 6504035.0], [4889.756097560976, 6504106.707317073], [4835.31506849315, 6504230.315068494], [4934.111823280302, 6504412.664530159], [4934.091895572692, 6504551.127890009], [4859.865226278282, 6504672.456079154], [4906.25989793181, 6504740.491916616], [4875.0, 6504820.0], [4949.42602810801, 6504928.982586125], [5062.412399880497, 6504842.878391259], [5130.0, 6504895.0], [5172.758620689656, 6504830.862068965], [5215.0, 6504840.0], [5127.0, 6505052.0], [5171.26104039922, 6505075.7079201285], [5302.270742358078, 6504978.84279476], [5304.8299897993875, 6505017.436246174], [5447.528554915645, 6505104.00714548], [5512.582705170245, 6505039.383175793], [5589.244000732981, 6505096.907100975], [5510.495495495496, 6505254.024024024], [5504.856646394439, 6505375.0], [5462.4233026384845, 6505375.0], [5401.273627362736, 6505469.324932493], [5485.526315789473, 6505538.421052632], [5465.0, 6505600.0], [5565.3125, 6505659.6875], [5610.0, 6505615.0], [5583.4896958116915, 6505732.273143279], [5594.316273572409, 6505824.5861616125], [5545.0, 6505880.0], [5590.401718039413, 6505961.339060131], [5539.350877192983, 6506023.192982456], [5635.0, 6506070.0], [5590.135135135135, 6506204.594594595], [5619.089813395853, 6506396.183068645], [5555.186220524973, 6506503.687503188], [5619.437233932094, 6506528.188921192], [5720.339081444266, 6506698.581669397], [5529.007371735324, 6506668.47597345], [5468.862345799884, 6506707.085373017], [5387.287847475716, 6506618.835944018], [5315.0, 6506595.714285715], [5285.0, 6506700.952380952], [5223.7209573804885, 6506691.750992666], [5066.381835095457, 6506871.109639576], [4946.515151515152, 6506762.7272727275], [4992.37567405632, 6506693.936488915], [4948.536585365853, 6506657.926829268], [4909.285745296045, 6506715.253714107], [4764.158336235367, 6506765.664091315], [4697.142857142857, 6506712.142857143], [4600.0, 6506755.0], [4589.527559055117, 6506734.05511811], [4637.153773023139, 6506667.48677396], [4454.661016949152, 6506419.491525424], [4466.691694162271, 6506370.173676964], [4330.0, 6506305.0], [4294.899507012788, 6506510.4393086275], [4228.072170044488, 6506486.927829956], [4176.509528585757, 6506538.490471414], [4116.3415154372815, 6506506.502656559], [4066.925464878781, 6506672.328180581], [4094.5161290322576, 6506718.548387097], [3986.8702845951357, 6506744.736599329], [3866.0418071476743, 6506620.178691841], [3679.277551684845, 6506623.672724313], [3670.0, 6506665.0], [3573.9007419276004, 6506607.9255564455], [3316.926879031016, 6506623.039401869], [3162.5451921457225, 6506873.706367893], [3073.3493139511374, 6506853.75429426], [2958.0672645739905, 6506994.600896861], [3015.0, 6507080.0], [2918.097826086956, 6507244.619565218], [2817.5961538461543, 6507224.519230769], [2798.410052803418, 6507308.987061148], [2740.0, 6507355.0], [2691.9646569646575, 6507278.108108108], [2558.483899426674, 6507372.46973693], [2553.5714285714294, 6507324.285714285], [2638.4883720930247, 6507205.116279069], [2502.942224052984, 6507070.481032783], [2396.2801827785115, 6507025.8136400925], [2350.0, 6507105.0]]]}}]}