{"type": "FeatureCollection", "crs": {"type": "name", "properties": {"name": "EPSG:25833"}}, "features": [{"type": "Feature", "properties": {"station": "27.15.0", "name": "Austrumdal (Austrumdalsvatnet)", "series": ["1001.1"], "nodes": 608024, "fine_vertices": 8110, "fine_area_m2": 60802650.0, "reduced_vertices": 437, "reduced_area_m2": 60802650.00000027, "outline_tolerance_m": 20.0, "windows": [[693, 981], [1377, 1603], [2490, 2802]], "placed_on": "number", "distance_m": 16.98894642520001, "uncertainty_m": 30.0, "elvid": "027-32-315", "objectid": 11786828, "lake": true, "confluence_near": false, "reach_up_m": 1000.0, "reach_down_m": 130.0, "reach_fork": false, "seeded_by": "lake", "lake_rule": "lake_line", "lake_number": 1527, "lake_name": "Austrumdalsvatnet", "lake_distance_m": 2.6892234451871633, "node_offset_m": null, "chain_nodes": null, "lowered_nodes": null, "lowered_max_m": null, "direction_ok": null, "end_extended_m": null, "end_closed": null, "downstream_checked": null, "a0": null, "area_up": null, "area_down": null, "swing": null, "largest_step": null, "largest_step_at_m": null, "checked_up_m": null, "checked_down_m": null, "drains": null, "monotone": null, "causes": []}, "geometry": {"type": "Polygon", "coordinates": [[[5100.0, 6545395.0], [4864.096046265757, 6545330.756381395], [4783.748635077531, 6545257.738364921], [4540.502923621447, 6545260.477674681], [4519.473864573738, 6545152.1936131], [4304.223169324636, 6545155.3165215505], [4293.5999999999985, 6545084.28], [4230.0, 6545105.0], [4116.63191843676, 6545031.3430139385], [3906.5714133872207, 6545042.389423957], [3840.0, 6545005.0], [3778.484848484848, 6545034.090909091], [3605.2287467107453, 6544896.081773192], [3476.666666666666, 6544905.0], [3318.978796887557, 6544963.855665566], [3220.466423801263, 6544973.550005263], [3130.0, 6544905.0], [3052.0, 6544961.4], [2980.0, 6544875.0], [2857.169811320755, 6544890.471698113], [2840.645161290322, 6544864.0322580645], [2476.952025076356, 6544809.883679704], [2392.408082022752, 6544748.344987143], [2087.0107670535544, 6544660.340141224], [1981.4000982368525, 6544830.691598942], [1925.0, 6544800.0], [1926.7845714881569, 6544677.907673495], [1680.0, 6544695.0], [1638.946659949217, 6544848.53525153], [1508.7832386996179, 6544787.671765044], [1456.067942012358, 6544606.3727868125], [1337.9928042055453, 6544578.779560336], [1328.181818181818, 6544622.2727272725], [1294.3292682926822, 6544625.548780488], [1257.9584432717693, 6544477.041556728], [1285.697092286271, 6544389.298158431], [1038.9182447861967, 6544232.555028373], [935.0, 6544226.0], [920.6172650901626, 6544337.195663157], [863.2894645293691, 6544340.973678717], [695.0, 6544240.0], [694.2857142857138, 6544205.0], [589.3626373626375, 6544228.692307692], [570.0, 6544275.0], [523.809523809523, 6544260.714285715], [456.9041576329, 6544300.85750542], [232.6449919937877, 6544208.224959969], [249.58333333333303, 6544292.916666667], [190.0, 6544355.0], [160.0, 6544325.0], [48.76001968780747, 6544383.061805653], [31.39522616378781, 6544215.878280364], [-40.0, 6544195.0], [-90.49644243442981, 6544233.180810755], [-365.2538631346579, 6544259.746136866], [-400.0, 6544225.0], [-504.54545454545405, 6544219.545454546], [-571.510749698823, 6544286.510749699], [-781.8948035487965, 6544223.358681876], [-850.0, 6544155.0], [-1050.6826733419166, 6544115.7380722705], [-1068.6951931756785, 6543946.44153053], [-1002.8563785135093, 6543953.205215723], [-825.0, 6543740.0], [-861.3213080841506, 6543715.619943889], [-1069.1134751773043, 6543696.997635934], [-1101.9255157025354, 6543614.547735498], [-1204.4110125959614, 6543628.490569353], [-1372.4192935814654, 6543534.897455374], [-1436.8722431304386, 6543407.981821125], [-1495.0, 6543360.0], [-1441.314837153197, 6543348.763570567], [-1482.1428571428569, 6543247.142857143], [-1435.190063423609, 6543243.701339583], [-1334.6698760852569, 6542990.705757657], [-1105.4229694942733, 6542912.393264824], [-856.9043995806705, 6542808.982618106], [-651.8296533130797, 6542619.657944689], [-574.341730259749, 6542617.04495172], [-529.7632976481218, 6542549.740592181], [-182.90732136822135, 6542343.508034164], [-286.61461434414196, 6542175.4190538535], [-401.43264336657285, 6542235.108471748], [-490.2889259466383, 6542042.585557286], [-621.4136980931844, 6542072.627666906], [-657.2912620133957, 6541994.095760747], [-635.0, 6541898.936170213], [-735.6915159628325, 6541822.384944898], [-743.3075566145453, 6541662.619248173], [-952.1017396752222, 6541685.227577329], [-1090.0, 6541605.0], [-1277.3872579065655, 6541704.477099317], [-1353.66040361865, 6541708.799582464], [-1308.5424163354965, 6541762.992731042], [-1400.4696408077061, 6541820.866367324], [-1442.4162248674602, 6541748.875662698], [-1485.1916376306617, 6541771.794425087], [-1625.9590472861837, 6541694.733926889], [-1739.0873216495102, 6541752.654937359], [-1804.0314534638628, 6541855.418872078], [-1859.001952331164, 6541824.5999507345], [-1878.0, 6541857.0], [-1973.4437166190764, 6541739.906964579], [-2130.0, 6541705.0], [-2153.333333333333, 6541751.666666667], [-2312.23041589851, 6541777.772865044], [-2373.8461538461543, 6541828.076923077], [-2482.102765779967, 6541755.148454182], [-2471.5767983095748, 6541451.044542797], [-2562.0, 6541364.333333333], [-2611.1457861592025, 6541423.69446365], [-2728.939263241955, 6541361.660076528], [-3014.751932953077, 6541511.048103915], [-3065.7142857142853, 6541481.19047619], [-3043.815153723037, 6541449.132703743], [-3159.4235939555274, 6541288.587601747], [-3220.389411584066, 6541341.29523491], [-3330.0, 6541245.0], [-3417.5466001575214, 6541290.576266737], [-3526.727756565273, 6541110.437884573], [-3561.811245261213, 6541100.869660383], [-3561.129825715757, 6540905.227550873], [-3663.732127817374, 6540894.348121724], [-3682.8281570794684, 6540765.989913057], [-3876.675314817575, 6540891.183189998], [-3920.0000000000005, 6540831.666666667], [-4017.746478873239, 6540847.957746479], [-4027.5, 6540820.0], [-3945.4644606139254, 6540774.843837243], [-3975.0, 6540730.0], [-3935.0, 6540650.0], [-4001.818181818182, 6540583.181818182], [-4136.019984108658, 6540617.253778349], [-4133.845929317406, 6540678.845929317], [-4259.814529154481, 6540905.564437255], [-4408.285092268492, 6540933.100991889], [-4540.0, 6540855.0], [-4625.92765553269, 6540883.642551844], [-4635.209030100334, 6540816.31270903], [-4732.744061971702, 6540755.7200739635], [-4891.685012112959, 6540800.682462546], [-4984.736842105263, 6540721.842105263], [-5017.238153711209, 6540844.130007566], [-5167.932195841994, 6540973.750970513], [-5230.0, 6540855.0], [-5312.153583571349, 6540859.994961048], [-5325.888029654247, 6540765.56624273], [-5380.0, 6540755.0], [-5428.888888888889, 6540820.185185186], [-5483.849710272991, 6540777.025924388], [-5532.1763839191735, 6540839.683224584], [-5663.500759305878, 6540826.063647355], [-5652.0, 6540753.0], [-5720.982142857143, 6540684.017857143], [-5626.875, 6540568.125], [-5586.0, 6540609.0], [-5426.465347335981, 6540510.711655545], [-5497.910987970902, 6540371.320129802], [-5605.78480966544, 6540350.0753780445], [-5579.54813001774, 6540199.227356116], [-5647.8, 6540157.2], [-5625.0, 6540117.5], [-5733.561684705277, 6540025.222568001], [-5758.289837391132, 6540055.083200342], [-5864.103854988313, 6540015.915050149], [-5828.248689134956, 6539832.720952372], [-5949.851661962095, 6539791.968719397], [-6029.339019189765, 6539881.396588486], [-6130.0, 6539805.0], [-6195.586481113321, 6539850.987710103], [-6296.571428571428, 6539812.714285715], [-6491.146592914041, 6539850.923760774], [-6515.0, 6539780.0], [-6475.0, 6539750.0], [-6514.927748595642, 6539604.037711502], [-6585.457746478873, 6539581.2323943665], [-6501.103317064722, 6539452.475925943], [-6561.0, 6539394.0], [-6507.571653306792, 6539357.119204497], [-6512.975180771046, 6539206.45656635], [-6475.0, 6539080.0], [-6418.157894736842, 6539060.52631579], [-6440.238095238095, 6538994.285714285], [-6545.0, 6538974.0], [-6526.572799372994, 6538814.681840407], [-6723.695745872208, 6538841.994545554], [-6764.324716247674, 6538746.453995886], [-6694.129786790835, 6538614.038821616], [-6825.037171978152, 6538526.177194628], [-6848.766665618466, 6538568.3629610995], [-6924.1843574094155, 6538517.789571607], [-7086.235161841307, 6538545.899374984], [-7184.231887260625, 6538612.128737428], [-7215.0, 6538540.0], [-7140.714285714285, 6538502.857142857], [-7152.298864395642, 6538451.884996659], [-7028.907911715761, 6538325.861867574], [-7105.907386078409, 6538223.2493215725], [-7167.856491085329, 6538259.611515398], [-7244.537644305474, 6538066.783583873], [-7228.911826224499, 6537990.723670138], [-7466.99634399258, 6538095.283327325], [-7539.939026648501, 6537999.222159207], [-7519.858791114172, 6537864.171689341], [-7449.9722434915775, 6537775.799196019], [-7534.2307692307695, 6537690.769230769], [-7511.785583446032, 6537657.843685198], [-7569.567062818336, 6537464.567062818], [-7545.0, 6537440.0], [-7629.258897346224, 6537437.15644929], [-7764.0, 6537329.0], [-7670.738786279683, 6537346.764040709], [-7551.719275191922, 6537193.280724808], [-7547.161517404274, 6537041.038275843], [-7393.880378025293, 6536932.982911146], [-7252.5, 6536882.5], [-7225.0, 6536910.0], [-7110.259027392556, 6536844.232638613], [-6863.841507432415, 6537056.003772661], [-6775.0, 6537015.0], [-6753.103448275862, 6537050.517241379], [-6740.0, 6536985.0], [-6586.007671883703, 6537091.1170730535], [-6482.527350268867, 6536990.757463379], [-6326.666666666667, 6537031.666666667], [-6247.927927927928, 6537096.711711711], [-6085.0, 6536990.0], [-6108.333333333333, 6536953.333333333], [-6060.639460050222, 6536921.799108099], [-6165.0, 6536800.0], [-6125.191657271702, 6536732.502818489], [-6201.907630522088, 6536663.815261045], [-6163.966267682264, 6536588.966267683], [-6190.64344668235, 6536484.866680861], [-6088.684210526316, 6536375.263157895], [-6096.199928902432, 6536231.884840801], [-6051.802430118269, 6536154.796354823], [-6078.448275862069, 6536114.827586207], [-6050.0, 6536085.0], [-5990.0, 6536145.0], [-5947.142857142857, 6536116.428571428], [-5879.43897996357, 6536181.3715846995], [-5777.222600654083, 6536163.333400115], [-5837.270215971874, 6536266.291733855], [-5834.459715654287, 6536359.7181678135], [-5639.111111111111, 6536425.933333334], [-5573.181818181818, 6536346.818181818], [-5490.0, 6536335.0], [-5465.238095238095, 6536281.666666667], [-5326.195659388067, 6536351.7252936885], [-5315.1319021733925, 6536434.550578694], [-5176.896410626545, 6536549.538610211], [-5098.96417385928, 6536560.52098986], [-5055.0, 6536697.142857143], [-4952.722232538398, 6536702.431625859], [-4780.165745856353, 6536783.121546961], [-4767.809523809524, 6536761.095238095], [-4613.1046311469345, 6536824.713240922], [-4601.73345944833, 6536787.061812831], [-4383.401845162008, 6536800.917862897], [-4273.158877700713, 6536676.893408232], [-4230.0, 6536715.0], [-4170.0, 6536655.0], [-4081.6533368794994, 6536664.506259617], [-4057.9414609214227, 6536756.302604215], [-3570.0, 6536605.0], [-3476.679843700088, 6536725.060491503], [-3553.2649972368636, 6536815.31937949], [-3449.999999999999, 6536905.0], [-3376.800314986128, 6536758.600629972], [-3095.9487383270416, 6536736.849791377], [-3072.39283076416, 6536670.395696847], [-2944.01286220825, 6536674.425114381], [-2880.3839015041485, 6536579.081038495], [-2641.4543301006925, 6536512.696650922], [-2447.9196143505505, 6536546.982940738], [-2385.0, 6536680.0], [-2473.7788430758974, 6536797.776292044], [-2409.969820956064, 6536862.715198681], [-2353.270904967445, 6536848.68424903], [-2307.5837467494457, 6536928.708126625], [-2196.276658890485, 6536898.723341109], [-2156.06295285953, 6536938.937047141], [-2169.8440629001097, 6537067.091943061], [-2027.338072669826, 6537055.0], [-1983.112931433191, 6537116.242579715], [-2110.0, 6537195.0], [-2080.0, 6537335.0], [-1902.0, 6537313.0], [-1666.2774104796326, 6537462.145511663], [-1682.1376601432466, 6537511.155111974], [-1596.9018083010242, 6537613.220987219], [-1452.0222632343539, 6537550.3866019985], [-1290.3221545385331, 6537686.957639748], [-1215.697674418605, 6537670.697674419], [-1270.8659621163551, 6537771.282775987], [-1206.7879877919822, 6537865.905470281], [-1051.132075471698, 6537924.886792453], [-1007.5257939133717, 6537888.012484009], [-825.8850794811297, 6538041.619147975], [-724.1176470588234, 6537917.156862745], [-697.9032157637766, 6537939.166472981], [-689.8128973660305, 6538103.603088101], [-567.6923076923076, 6537996.538461538], [-429.53560297740114, 6538217.265488199], [-243.8520776512114, 6538184.449703192], [-124.28397480861986, 6538264.94607809], [187.30769230769238, 6538017.692307692], [212.33256637769864, 6537901.96065147], [320.7476635514022, 6537837.834890965], [326.1452711669972, 6537886.474194757], [448.02305870098826, 6537892.579734386], [530.2898015204319, 6538025.138760643], [625.0, 6538040.0], [609.1463414634145, 6538122.682926829], [764.4633316810196, 6538362.608228392], [753.3235679566624, 6538449.501880395], [792.2727272727279, 6538487.2727272725], [765.5882352941171, 6538525.294117647], [834.5428475033732, 6538563.572537112], [789.6431132794332, 6538638.99895724], [955.0380798868082, 6538647.856896209], [1041.1751528288914, 6538697.092126062], [1170.7886435331238, 6538732.192429022], [1157.3377065567493, 6538787.526132225], [1224.8594741613797, 6538838.145965548], [1273.0337078651683, 6538985.0], [1313.333333333334, 6538985.0], [1287.8974162634222, 6539039.522183136], [1183.2306390726808, 6539008.665198943], [1140.8578185129609, 6539058.732607429], [1382.7444752193423, 6539187.441405525], [1412.6456310679605, 6539333.567961165], [1515.8037779491133, 6539310.803777949], [1642.4079951465355, 6539394.977219156], [1625.0, 6539510.0], [1734.4784053156145, 6539611.823920266], [1808.2916223440952, 6539597.303287407], [1964.2867758867797, 6539749.378119638], [2010.0, 6539845.0], [2049.7985644072924, 6539827.943472397], [2265.531992335258, 6539895.828128028], [2229.4669117647063, 6539998.25367647], [2372.0692243103076, 6540182.457504902], [2516.277619557086, 6540091.277619557], [2481.25, 6540056.25], [2520.892857142857, 6540025.892857143], [2590.0, 6540095.0], [2676.092919493325, 6540080.535196116], [2701.0073243700426, 6540150.453136269], [2790.0, 6540205.0], [2890.4543325658396, 6540178.707672359], [2939.300502722639, 6540488.093028907], [3189.5185452395017, 6540522.860709639], [3185.0, 6540650.0], [3105.896860986548, 6540674.170403588], [3100.8593313381753, 6540724.965446342], [3451.4889943324106, 6540883.106629762], [3545.8871638480723, 6541051.463820349], [3654.567604667125, 6541063.919011667], [3680.0, 6541105.0], [3795.2397920330586, 6541094.6832948085], [3839.1901155611577, 6541157.9861520585], [4057.4289999758676, 6541155.350401061], [4119.304308694518, 6541204.949118013], [4360.0, 6541255.0], [4413.996576486523, 6541325.203753302], [4495.938717827401, 6541258.031406001], [4607.567298471573, 6541287.825503313], [4835.39033457249, 6541152.918215614], [4936.352060063045, 6541191.598755252], [5298.32282054485, 6541108.285972519], [5393.249512970791, 6541119.716761738], [5516.759507324754, 6541000.7528497055], [5715.508460196328, 6540929.959790656], [5846.470018916898, 6540948.252386608], [5921.787757152459, 6540860.718296165], [6118.876687651797, 6541026.572850028], [6115.4226757180295, 6541275.67815401], [6163.030734995982, 6541410.633888222], [6133.375, 6541520.25], [6236.279069767441, 6541549.651162791], [6221.091070440614, 6541620.916098679], [6166.178635871527, 6541650.564417178], [6153.005406060358, 6541766.670902385], [5962.234940523198, 6541751.250549577], [5795.0, 6541880.0], [5842.107806691449, 6541874.646840149], [6040.0, 6542005.0], [6104.0, 6541969.0], [6234.28427982792, 6542071.94487299], [6310.598788628355, 6542215.899260034], [6209.885318128807, 6542387.178955553], [6255.0, 6542510.0], [6211.866997297395, 6542553.133002702], [6330.372044535923, 6542661.323417147], [6330.0, 6542785.0], [6405.444962000491, 6542788.0889924], [6399.240016558711, 6542967.044075032], [6534.0, 6543079.0], [6615.475557728092, 6543049.493171163], [6729.545454545454, 6543174.545454546], [6908.6500000000015, 6543175.45], [6982.051328477417, 6543245.9895497635], [7414.075853426848, 6543342.667717832], [7522.199879548531, 6543467.217602387], [7245.623710140089, 6543707.808134888], [7007.22618469183, 6543718.170591956], [6785.857142857143, 6543784.0], [6835.0, 6543850.0], [6771.637107621233, 6543929.203615474], [6657.942852159018, 6543922.754098461], [6577.116883024675, 6543977.430567836], [6173.16302094321, 6544029.05445455], [6082.914680648237, 6544150.402764537], [6110.999341298468, 6544164.814229224], [6258.397223671487, 6544109.609644779], [6442.10920993513, 6544287.928052371], [6595.0, 6544370.0], [6500.625, 6544439.375], [6460.602006688963, 6544518.444816054], [6292.530683694762, 6544654.398670308], [6350.515897529007, 6544703.02199391], [6519.027914454842, 6544617.433445545], [6582.928818521501, 6544721.142100389], [6482.49428591948, 6544846.155667083], [6305.0, 6544950.0], [6322.264150943396, 6545003.301886792], [6239.030303030302, 6545065.7272727275], [6215.0, 6545290.0], [6159.216031503238, 6545345.783968497], [5765.828458884333, 6545284.152216085], [5700.400754121378, 6545370.262857252], [5735.0, 6545424.335260116], [5656.363636363636, 6545466.818181818], [5457.415728954242, 6545462.162029471], [5172.965944347212, 6545347.622717761], [5100.0, 6545395.0]]]}}]}