{"type": "FeatureCollection", "crs": {"type": "name", "properties": {"name": "EPSG:25833"}}, "features": [{"type": "Feature", "properties": {"station": "3.22.0", "name": "H\u00f8gfoss", "series": ["1001.1"], "nodes": 3304084, "fine_vertices": 23190, "fine_area_m2": 330409050.0, "reduced_vertices": 1244, "reduced_area_m2": 330409049.9999998, "outline_tolerance_m": 20.0, "windows": [[437, 473], [1205, 939], [2416, 2138], [4815, 4537], [9614, 8401]], "placed_on": "number", "distance_m": 40.323021951899186, "uncertainty_m": 40.323021951899186, "elvid": "003-19-1", "objectid": 10848183, "lake": false, "confluence_near": false, "reach_up_m": 1000.0, "reach_down_m": 140.32302195189914, "reach_fork": false, "seeded_by": "river", "lake_rule": null, "lake_number": null, "lake_name": null, "lake_distance_m": null, "node_offset_m": 4.4471711866596015, "chain_nodes": 144, "lowered_nodes": 110, "lowered_max_m": 1.6274147033691406, "direction_ok": true, "end_extended_m": 487.6955262170047, "end_closed": false, "downstream_checked": "whole", "a0": 330.40840000000003, "area_up": 330.40500000000003, "area_down": 330.4244, "swing": 4.842491897894457e-05, "largest_step": 330.4132, "largest_step_at_m": 38.28427124746213, "checked_up_m": 34.142135623731065, "checked_down_m": 38.28427124746213, "drains": false, "monotone": false, "causes": ["chain_not_draining", "chain_end_open"]}, "geometry": {"type": "Polygon", "coordinates": [[[269990.0, 6643385.0], [269962.85714285716, 6643427.857142857], [269855.3771248314, 6643363.98062029], [269915.0, 6643150.0], [269910.48734201014, 6642795.460876141], [269960.98567103455, 6642481.803807399], [269807.0461683164, 6642423.998474203], [269785.87591240875, 6642534.452554745], [269657.05242148094, 6642647.146920143], [269568.1377498536, 6642655.465562536], [269507.418546914, 6642719.8301808005], [269525.0675675676, 6642851.013513514], [269469.0321823569, 6642877.585736498], [269450.68917668826, 6642797.585568918], [269315.0, 6642660.0], [269328.5294117647, 6642581.764705882], [269061.5490344122, 6642544.349596088], [269010.7894736842, 6642420.315789473], [268999.569687738, 6642287.715156131], [269035.0, 6642270.0], [269010.5, 6642211.5], [268970.0, 6642225.0], [268867.3984337597, 6642121.9954821], [268878.0699143396, 6642058.732362364], [268957.20547114755, 6641926.458223351], [268990.5379347316, 6641793.956369574], [269115.0, 6641750.0], [269095.34492350486, 6641690.684840055], [268975.0, 6641588.0], [268975.0, 6641513.58974359], [268936.0, 6641467.0], [269057.2603600585, 6641251.249380718], [269032.11412514956, 6641175.925525497], [269008.0823172481, 6640966.183387968], [269033.7687425751, 6640823.105970086], [269111.3273704404, 6640690.149596933], [269155.0, 6640510.0], [269045.71821514197, 6640488.310438478], [268898.55263157893, 6640298.02631579], [268890.2457142857, 6640199.508571428], [268946.19233709894, 6640094.42150515], [268860.15625, 6640102.34375], [268889.09529942047, 6640029.723116549], [268869.1614049961, 6639867.373316959], [268945.0, 6639846.666666667], [268945.0, 6639889.294117647], [269034.90473411005, 6639883.794702674], [269237.40861543926, 6639732.945640204], [269220.61055122473, 6639641.624346527], [269297.47933884297, 6639586.94214876], [269360.0, 6639625.0], [269401.11378581537, 6639567.2463611], [269330.07906388363, 6639387.811511702], [269378.88817967096, 6639255.769163809], [269499.50158872636, 6639228.5139742], [269629.6505456465, 6639002.694995564], [269610.9756682243, 6638825.0], [269585.6496340792, 6638825.0], [269528.29226975463, 6638914.272661911], [269460.0, 6638835.0], [269392.5460081692, 6638838.349756008], [269358.2082945014, 6638785.878378378], [269423.1708616305, 6638710.521800509], [269324.5333333333, 6638420.7], [269370.0184830001, 6638352.4722755], [269319.46066554217, 6638271.871860145], [269098.86596729374, 6638085.490089262], [268940.88429103984, 6638142.546766937], [268866.85352015175, 6638096.031857794], [268782.8887463887, 6638138.571778943], [268730.0, 6638065.0], [268710.0, 6638085.0], [268503.7155752485, 6638003.778854435], [268314.22261968337, 6638114.348538681], [268058.0992526593, 6638150.092705267], [267997.94985663705, 6637791.535034298], [268073.1433164894, 6637722.189469099], [267953.78702756076, 6637529.844483944], [268066.65877509693, 6637410.7174563045], [267999.8657209751, 6637351.476380664], [267985.0, 6637216.666666667], [267858.77712015255, 6637182.166111245], [267840.0, 6637235.0], [267769.9749555131, 6637202.1403150335], [267775.0, 6637133.333333333], [267709.1093117409, 6637100.910931174], [267680.0, 6637165.0], [267625.45454545453, 6637137.7272727275], [267642.79058172327, 6637023.143270717], [267575.0, 6636940.0], [267576.90476190473, 6636728.78309729], [267613.1931605407, 6636705.599385716], [267620.9801696131, 6636325.221121549], [267734.4584972109, 6636229.45849721], [267775.6272240706, 6636259.372775929], [267898.65500594093, 6636136.715832754], [267958.13003769465, 6635909.378598353], [267875.0, 6635850.0], [267956.40894181177, 6635692.294310597], [268031.11465684604, 6635639.7637154], [268037.4202540127, 6635311.769178392], [268148.06900962425, 6635206.267371905], [268195.0, 6634990.0], [268278.3333333333, 6634906.666666667], [268208.2669671926, 6634795.06511395], [268240.0, 6634735.0], [268286.5568429017, 6634777.929508043], [268578.6694881764, 6634622.5331803905], [268543.5181545806, 6634358.013220891], [268611.54209472134, 6634272.476340141], [268644.1129032258, 6634288.360215054], [268640.35004942043, 6634159.453451831], [268734.5094107004, 6634083.258855192], [268824.7770096796, 6634174.416090593], [268875.6946865762, 6634156.623588267], [268870.56603773584, 6634255.377358491], [268975.0690444569, 6634288.326676835], [269020.5590053563, 6634138.699103969], [269129.9109288242, 6634076.438003465], [269294.50054782536, 6634118.593695657], [269378.93805309734, 6633923.318584071], [269476.5184345138, 6633905.268439807], [269654.5395611702, 6633748.61868351], [269622.9396651707, 6633572.24365247], [269698.2100361938, 6633539.699948295], [269678.94012578414, 6633490.134637604], [269881.0, 6633284.0], [269890.1619139681, 6633132.039632672], [269855.0, 6633080.0], [269945.0, 6633030.0], [269967.1075141739, 6632904.621021014], [270051.5881458967, 6632858.047112462], [270179.9026302477, 6632973.495885291], [270190.0, 6633035.0], [270291.17244068923, 6633004.780182105], [270233.4384088435, 6632828.7926885765], [270114.1250249063, 6632700.3265417395], [270187.26765799255, 6632595.65055762], [270176.9984076433, 6632491.998407643], [270247.4274135876, 6632325.0], [270298.8, 6632325.0], [270477.5292305617, 6632066.4076771075], [270452.14285714284, 6631907.142857143], [270394.25531914894, 6631930.673758865], [270334.18604651163, 6631850.5813953485], [270375.025220681, 6631810.050441362], [270336.72550572857, 6631762.157697617], [270447.5, 6631495.0], [270385.0, 6631420.0], [270436.5614190028, 6631327.6119535025], [270451.71031272254, 6631058.586858156], [270296.0758822322, 6630914.900806636], [270305.8692628651, 6630783.859527121], [270201.9186870159, 6630763.410233512], [270192.0305070175, 6630720.380273556], [270026.0606060606, 6630670.757575758], [269920.9090909091, 6630691.363636363], [269910.0, 6630735.0], [269823.0514556989, 6630653.831968339], [269807.06433166546, 6630491.784131522], [269840.71428571426, 6630422.857142857], [269817.62626262626, 6630316.060606061], [269864.53310837207, 6630263.343791816], [269942.7272727273, 6630322.2727272725], [269978.1083076119, 6630138.990477792], [270054.28571428574, 6630135.0], [270060.16099050746, 6630089.835871923], [270180.8108108108, 6630023.996138996], [270343.43047029397, 6630008.564195394], [270380.0, 6630035.0], [270436.6171331272, 6629978.3828668725], [270499.98552987823, 6630130.794355101], [270587.900941362, 6630141.16905523], [270641.1059907834, 6630180.576036867], [270768.9477493462, 6630006.85965936], [270775.0, 6629919.688195991], [270940.46980333695, 6629768.102997027], [270925.0, 6629730.0], [270985.0, 6629670.0], [270944.28619402985, 6629588.205597015], [271034.0, 6629527.0], [270921.5676903082, 6629224.110789369], [270846.4960956881, 6629282.683090255], [270817.2784810127, 6629171.582278481], [270864.89535830833, 6629098.8611709885], [270900.0, 6628965.0], [270917.14285714284, 6628982.142857143], [271101.1361974262, 6628887.016581754], [271085.0, 6628840.0], [271149.95026019716, 6628785.373691228], [271144.3468819613, 6628584.838439211], [271201.55252349033, 6628525.137422472], [271174.46325455175, 6628370.432299391], [271213.8175752735, 6628224.9141144855], [271077.51147638867, 6628020.117586514], [271211.5647842865, 6627858.673206344], [271333.6963350785, 6627931.282722513], [271385.0, 6627900.0], [271370.8333333333, 6627829.166666667], [271416.78571428574, 6627784.642857143], [271411.4166610198, 6627653.885636366], [271562.1545821394, 6627611.161071149], [271529.7505412068, 6627402.6234152755], [271370.44661032263, 6627256.393143082], [271479.2105263158, 6627103.684210527], [271511.7070516094, 6626950.664413802], [271563.4298881572, 6626997.518752642], [271570.76090262027, 6626948.290683116], [271461.5179096687, 6626871.810686972], [271522.97839820664, 6626839.851232933], [271510.03765024117, 6626705.404021193], [271552.1897810219, 6626607.481751825], [271470.0, 6626605.0], [271446.53846153844, 6626675.384615385], [271395.0, 6626700.0], [271427.5238315936, 6626635.3617277], [271170.9364504412, 6626424.5162441], [271086.75191300845, 6626299.318029266], [271105.7560264573, 6626129.927947507], [270993.64705882355, 6626206.411764706], [270855.06329113926, 6626170.063291139], [270737.5668017964, 6626188.181786999], [270636.573963576, 6626291.218025217], [270605.4409769335, 6626261.770691995], [270451.7659480863, 6626421.035812811], [270241.90831516497, 6626274.194322613], [270104.4890441422, 6626387.825970157], [270016.8913857678, 6626325.074906367], [269817.78813246713, 6626446.508678194], [269721.1722876709, 6626434.219887985], [269666.17647058825, 6626474.117647059], [269637.9345938618, 6626757.050144517], [269419.12296052295, 6626974.244943126], [269351.290295383, 6627140.030063451], [269365.0, 6627230.0], [269302.6923076923, 6627313.076923077], [269241.6683686701, 6627310.852457853], [269152.9570717896, 6627656.9849570375], [269089.11035542726, 6627594.448775402], [268869.41860063246, 6627675.288150824], [268915.0, 6627500.0], [268885.0, 6627450.0], [268924.2, 6627430.4], [268837.3398754487, 6627346.301642207], [268775.24617018306, 6627365.5742950095], [268634.09494941187, 6627203.467768663], [268428.41714566876, 6627387.288423508], [268373.1736587279, 6627414.173421231], [268099.26227747527, 6627630.600785348], [268001.56704327755, 6627606.564522894], [267802.91285130277, 6627647.1448219735], [267662.2013363857, 6627745.31983098], [267227.9872858945, 6627760.247685601], [267124.83132528776, 6627730.989663034], [266734.3387897134, 6627720.529674708], [266530.2225057412, 6627649.572058337], [266545.8652317307, 6627486.404994632], [266430.1079136691, 6627411.942446043], [266445.0, 6627363.333333333], [266341.5980326654, 6627174.573589727], [266122.3307100544, 6627164.223096648], [266050.3503819803, 6627135.329348141], [266015.0, 6626990.0], [266132.0105812492, 6626926.620370976], [266196.5389752377, 6626776.307127238], [266192.3067893176, 6626639.6375591485], [266420.3919171261, 6626465.58620843], [266377.474959418, 6626291.985837325], [266479.5758402448, 6626196.770683937], [266518.7380291189, 6626034.728325692], [266432.3416598466, 6625983.708516573], [266321.3922865301, 6625740.434130702], [266416.2941763034, 6625612.510503928], [266390.8313339311, 6625418.497139317], [266315.0, 6625310.0], [266289.8338882499, 6625070.990391867], [266467.36909109994, 6624898.760056199], [266570.0, 6624895.0], [266646.3106837643, 6624785.094299535], [266504.03322204837, 6624715.903353702], [266555.8224013534, 6624617.540951426], [266515.0, 6624504.0], [266681.33208846167, 6624412.184687169], [266638.4220067989, 6624357.866559163], [266761.5330461206, 6624235.698874049], [266760.1598733629, 6624150.378844652], [266865.0, 6624050.0], [266751.47661769873, 6623901.152330758], [266601.30765125103, 6623754.97420668], [266568.9024390244, 6623754.87804878], [266260.23463990237, 6623456.95307202], [266220.0, 6623465.0], [266141.5087365266, 6623316.807495062], [266183.55721393035, 6623278.55721393], [266125.0, 6623220.0], [266151.51490168215, 6623183.691212611], [266116.3080444735, 6623109.345977764], [266302.99716039206, 6622943.381973069], [266348.8437247558, 6622940.881251377], [266400.0146627566, 6622727.536656892], [266305.0, 6622670.0], [266294.73184360977, 6622545.565619577], [266438.8501524824, 6622428.419435982], [266768.6987224532, 6622305.831419342], [266869.78307010327, 6622204.706583227], [266946.00614439324, 6622195.798771122], [267120.64096951555, 6622073.183980513], [267437.38095238095, 6621987.619047619], [267310.40443896357, 6621877.32165249], [267383.8913900982, 6621781.010882466], [267417.25685917964, 6621565.602420756], [267559.1308393056, 6621474.7810003515], [267512.2904776209, 6621423.460498649], [267519.5520325414, 6621295.645906403], [267449.0859248607, 6621233.169153335], [267475.0, 6621130.0], [267430.0, 6621005.0], [267360.71231089794, 6620986.691457002], [267337.7218934911, 6620886.390532545], [267365.6049980524, 6620753.1405872], [267498.8732394366, 6620669.507042253], [267517.9663394109, 6620593.134642356], [267424.8112679074, 6620517.986682855], [267256.9565799972, 6620497.655358568], [267200.0, 6620420.357142857], [267198.8599822762, 6620244.283242605], [267155.0, 6620190.0], [267280.81021187286, 6620127.49272499], [267325.25491538976, 6619917.269222153], [267295.0, 6619750.0], [267190.50380225014, 6619592.668201063], [267204.5414533048, 6619458.7067861715], [267138.50778097985, 6619406.061259777], [267133.30188679247, 6619251.940700809], [267206.75011429604, 6619197.638784347], [267159.95292893745, 6619153.7146967035], [267131.6002256487, 6618986.039864611], [267260.9011786148, 6618886.1834197175], [267116.6872751346, 6618719.826090025], [267201.9226003241, 6618589.754551521], [267175.3658536585, 6618526.707317073], [267237.06838599255, 6618460.669730339], [267185.0, 6618350.0], [267197.51954365295, 6618222.767021304], [267132.37538268446, 6618156.809604648], [267137.149598867, 6617911.447924689], [267055.3103874181, 6617841.87812897], [267005.21126760566, 6617720.774647887], [266854.56204255036, 6617682.525943286], [266737.4514962403, 6617549.269063493], [266805.0, 6617406.666666667], [266785.76152304607, 6617364.128256513], [266825.0, 6617340.0], [266761.5889550056, 6617012.493086957], [266843.0301184595, 6616982.444638598], [266883.43430084223, 6616912.060045887], [266815.0, 6616750.0], [266880.45454545453, 6616729.090909091], [266938.74847514776, 6616612.503049704], [266858.87354033435, 6616576.126459666], [266749.24891530105, 6616285.55669435], [266800.21500615776, 6616226.989913791], [266825.0, 6616070.0], [266765.0, 6616010.0], [266791.5400983106, 6615995.0711947], [266765.21892751445, 6615881.420064174], [266800.5798509509, 6615452.578521369], [266851.848719829, 6615381.437715507], [266802.7718876893, 6615307.26583026], [266874.5477794941, 6615270.396851248], [266892.36842105264, 6615177.894736842], [266955.16949152545, 6615138.644067797], [266915.0, 6615090.0], [267173.09523809527, 6614872.380952381], [267153.11320754717, 6614841.886792453], [267232.63819528156, 6614762.361804718], [267265.01898047724, 6614792.963665944], [267290.1309094916, 6614705.882399308], [267269.35068278055, 6614582.662329305], [267350.0, 6614545.0], [267461.26839369617, 6614562.615423549], [267623.0403802044, 6614691.25004684], [267757.23155469925, 6614611.5756441755], [267707.55890392966, 6614396.37676986], [267732.53509795625, 6614350.803941408], [267642.6404494382, 6614204.943820225], [267695.0, 6614190.0], [267612.7429973293, 6614012.711326475], [267717.7570951192, 6613788.812806268], [267630.54664020933, 6613748.69776014], [267646.8142206377, 6613650.9130520895], [267755.0, 6613550.0], [267569.9091175918, 6613257.825411557], [267474.3731437285, 6613232.203012021], [267424.5045202957, 6613100.224427501], [267320.4609218437, 6612997.545090181], [267271.6666666667, 6613000.0], [267288.35336190154, 6612949.939914295], [267196.50372244476, 6612988.844841771], [267087.4446011783, 6612896.201956316], [267123.7037037037, 6612755.0], [266991.31640017766, 6612700.635632012], [266895.8172904477, 6612561.536749651], [266745.0, 6612470.0], [266763.2209225001, 6612441.914772801], [266616.4473053349, 6612237.959053038], [266835.2925716215, 6612032.048001351], [266822.8347785284, 6611905.94531246], [266865.0, 6611850.0], [266791.25766871165, 6611776.257668711], [266850.4054054054, 6611703.243243244], [266795.0, 6611670.0], [266804.6153846154, 6611605.0], [266912.4479379518, 6611618.113774266], [266941.7146042161, 6611599.102091077], [267073.0, 6611590.4], [267075.0, 6611540.0], [267173.3451763847, 6611468.229629441], [267099.64524437446, 6611110.4397511305], [267045.0, 6611080.0], [267036.9490754349, 6610989.554508595], [266946.2337793928, 6610945.90295868], [266929.28465266805, 6610890.273641806], [266825.0, 6610840.0], [266851.6666666667, 6610786.666666667], [266923.464752907, 6610808.991642442], [266985.3393754239, 6610768.195003619], [266972.9203539823, 6610671.10619469], [266920.3737579293, 6610728.691443132], [266835.1728744616, 6610616.242024247], [266833.6277302944, 6610560.4510921175], [266734.4237338221, 6610654.590159231], [266660.0, 6610625.0], [266502.46465430973, 6610405.673573059], [266437.83295668353, 6610404.103880184], [266334.6022533054, 6610288.084174293], [266236.95018240134, 6610241.200114991], [266160.1324993151, 6610152.301251028], [266210.27691913553, 6610000.26746718], [266139.52134176885, 6609756.489839639], [266157.7136482075, 6609690.096457343], [266072.2481992431, 6609680.439506776], [265840.2677817694, 6609547.537920382], [265752.0693635347, 6609526.4770001415], [265668.60348292027, 6609350.40522438], [265666.8769230769, 6609255.938461538], [265626.5789473684, 6609235.7894736845], [265658.35267195385, 6609157.10134424], [265753.7941668226, 6609128.740839286], [265841.05263157893, 6609181.315789473], [265916.3976170099, 6609073.908379647], [265835.0, 6609071.58836689], [265835.0, 6609008.5217629345], [265775.4078303426, 6608952.33278956], [265855.0, 6608850.0], [265814.1304347826, 6608807.391304348], [265895.0, 6608740.0], [265861.4979426469, 6608633.685428122], [265751.71083852503, 6608470.021383055], [265795.0, 6608440.0], [265775.0, 6608380.0], [265826.4932126697, 6608328.50678733], [265815.0, 6608252.992125984], [265978.87096774194, 6608054.838709678], [265965.0, 6607970.0], [265861.8572576214, 6607917.050319722], [265851.44925239676, 6607639.571240959], [265876.1534400789, 6607446.423952985], [265925.83147501753, 6607340.787846018], [265835.65629191115, 6607227.568861989], [265870.39215686277, 6607145.0], [266010.51641243236, 6607089.028288498], [265881.2164142302, 6606886.66872199], [265947.12477325764, 6606792.625075581], [265879.21230491425, 6606557.431445892], [266062.76924966683, 6606494.060542794], [266111.14395878615, 6606509.582243732], [266080.0, 6606625.0], [266124.9288771279, 6606613.4734303625], [266241.16519917484, 6606758.037141751], [266263.0171101617, 6606721.524113016], [266318.0458221024, 6606756.522911051], [266328.0936628519, 6606859.12913937], [266417.0623892786, 6606906.828429484], [266375.0, 6606950.0], [266447.64206756966, 6607011.53977892], [266500.5451852116, 6606983.193091439], [266648.23529411765, 6607294.852941177], [266725.0, 6607240.0], [266689.55531453365, 6607127.527114968], [266790.3339912815, 6607083.656435286], [266749.8014632275, 6606877.281229041], [266835.0, 6606830.0], [266835.0, 6606770.861734478], [266969.96414465125, 6606801.093223907], [267044.86806337343, 6606760.1319366265], [267113.9060721489, 6606894.519785869], [267217.0792986986, 6606859.063398203], [267286.5164886411, 6607087.322340906], [267330.24296942516, 6607058.171353716], [267311.68867993046, 6606929.3069517175], [267393.25, 6606878.25], [267426.4686468647, 6606909.708470847], [267465.32258064515, 6606857.903225807], [267523.537981125, 6606918.546516019], [267699.7093106983, 6606758.409405827], [267796.0, 6606735.0], [267806.0, 6606785.0], [267849.42804428044, 6606777.527675277], [267811.6666666667, 6606713.333333333], [267892.2395833333, 6606661.197916667], [267990.19604772236, 6606703.126461615], [268074.1063730103, 6606893.350947774], [268140.0, 6606865.0], [268156.4285714286, 6606907.857142857], [268213.54000411235, 6606908.871757084], [268303.0, 6607004.0], [268385.4913294798, 6606968.294797688], [268463.8075954743, 6607034.1767587345], [268485.3892622057, 6607200.545304112], [268591.1421062458, 6607263.535187324], [268604.0596814431, 6607499.581654193], [268633.46153846156, 6607565.384615385], [268586.4704412841, 6607628.475446071], [268632.66424083966, 6607762.779167396], [268588.0463576159, 6607845.430463576], [268603.82352941175, 6607910.588235294], [268565.0, 6607920.0], [268602.5, 6607957.5], [268565.0, 6608000.0], [268601.3461538461, 6608036.346153846], [268490.0, 6608185.0], [268463.93627644196, 6608110.755222704], [268403.2364100534, 6608158.236410053], [268584.1352543809, 6608409.203421489], [268530.097826087, 6608495.097826087], [268559.54545454547, 6608524.545454546], [268485.0, 6608560.0], [268510.71428571426, 6608604.285714285], [268472.1866748674, 6608676.774048232], [268678.63636363635, 6608884.545454546], [268625.5050891501, 6608899.8544658385], [268644.67173763475, 6608920.328262365], [268532.83233465446, 6609007.596408512], [268595.09706574824, 6609085.782303378], [268642.5, 6609065.0], [268728.56419550895, 6609146.824643958], [268721.5481674343, 6609207.486756688], [268852.7069084091, 6609306.106760429], [268833.5714285714, 6609394.285714285], [268867.9139072848, 6609444.238410596], [268805.0, 6609490.0], [268823.54304635763, 6609564.370860927], [268760.7530647986, 6609617.451838879], [268903.6658621991, 6609715.634215989], [268748.7097863964, 6609797.806553131], [268823.8884871279, 6609993.280927838], [268920.0221492945, 6609961.708504223], [268955.0, 6610050.0], [268868.1912235827, 6610100.121211275], [269043.5714285714, 6610350.4149406785], [269015.0, 6610510.0], [269063.7743685278, 6610583.1615527915], [269029.7427866197, 6610622.206619131], [268937.12535855884, 6610578.512687473], [269034.67646375846, 6610789.404104057], [269192.0319101712, 6610834.616929741], [269240.0, 6610955.0], [269311.78368121444, 6610890.578747628], [269385.0, 6610960.0], [269481.8373403412, 6610942.295666309], [269751.73784410884, 6610800.835896809], [269715.0, 6610670.0], [269834.19426695444, 6610632.307455461], [269871.8320610687, 6610663.778625954], [269956.5118016878, 6610606.3581599975], [270131.59844153584, 6610770.335272949], [270115.0, 6610950.0], [270162.2727272727, 6610997.2727272725], [270131.5008419115, 6611101.750452403], [270251.52129817446, 6611138.042596349], [270265.6740960019, 6611193.301630584], [270377.8988203417, 6611243.705349767], [270450.0, 6611205.0], [270535.4486385356, 6611273.358910829], [270644.96563573886, 6611225.051546392], [270649.18029310775, 6611200.710157324], [270963.94978712645, 6610965.943278957], [271046.9843333899, 6611075.793733356], [271126.6666666667, 6611121.666666667], [271253.1486388223, 6610970.663726365], [271517.5, 6610792.5], [271485.0, 6610760.0], [271551.11584972986, 6610627.1923427135], [271618.1388016452, 6610592.69837855], [271604.77832512313, 6610568.980295567], [271716.9476046136, 6610477.749281581], [271939.6666666667, 6610554.666666667], [271860.930009776, 6610721.643508944], [271926.02040232316, 6610753.787146903], [271985.0, 6610840.0], [271952.74326319946, 6610872.107744944], [271994.54545454547, 6610974.090909091], [271937.09509851196, 6611098.516785323], [271851.9745599763, 6611075.618744762], [271845.578669792, 6611161.341439594], [271887.182001172, 6611202.302664323], [271856.80543267156, 6611419.674589624], [271798.629989015, 6611385.806504028], [271698.207508631, 6611518.196916328], [271826.41863555316, 6611873.806211851], [271874.3773681378, 6611860.712105955], [271921.7344150245, 6611921.485915871], [271945.2631578947, 6612038.157894737], [272043.0107480014, 6611967.680161663], [272102.81695827725, 6611980.0], [272127.5103326025, 6611928.434015954], [272074.6292867993, 6611807.199513909], [272322.2317616776, 6611798.900282803], [272632.93165449833, 6611567.931654498], [272781.4657790333, 6611716.4657790335], [272933.1787704322, 6611944.604872552], [272878.1723568141, 6612025.230729998], [273016.68857803434, 6612035.972550158], [273041.02187474305, 6612165.98458825], [272965.0, 6612200.0], [273010.0746467664, 6612286.586100026], [273081.25450975023, 6612245.6520026615], [273254.0, 6612301.0], [273325.60232910945, 6612229.39767089], [273559.53081293125, 6612590.192569877], [273559.3900758098, 6612629.510682288], [273629.36450890393, 6612675.758152436], [273705.9949297478, 6612878.901477853], [273631.84678819444, 6612990.900824653], [273773.6065878241, 6613135.9529074], [273890.89308451576, 6613074.72280077], [273880.25996533793, 6613158.743500867], [273965.0, 6613127.142857143], [273984.9150450214, 6613056.205315427], [274118.7323943662, 6613015.422535211], [274131.4285714286, 6613045.0], [274245.0, 6613010.0], [274227.85714285716, 6613062.857142857], [274350.4452331012, 6613105.864259689], [274426.20162274817, 6613204.729666893], [274508.0, 6613175.0], [274570.0, 6613225.0], [274579.6153846154, 6613166.153846154], [274620.72192513366, 6613176.417112299], [274672.26154237514, 6613088.968747707], [274805.18212660484, 6613055.085616705], [274877.4567474048, 6613103.852364475], [274907.20228061476, 6613050.059494299], [274995.0, 6613070.0], [274961.6666666667, 6613156.666666667], [275052.59774689516, 6613316.1980441995], [275113.9130434783, 6613282.391304348], [275134.8047534886, 6613312.84789364], [275314.14880415075, 6613338.717696169], [275296.27118644066, 6613371.27118644], [275370.2246478103, 6613490.437740504], [275456.8494387502, 6613465.573262768], [275688.3109785709, 6613247.439824356], [275684.2426724747, 6613016.709806307], [275848.53764371166, 6612803.549306572], [276003.18704686634, 6612785.86990495], [276074.377915634, 6612667.4776306], [276047.55391204194, 6612858.907594935], [276112.1303431352, 6612998.23651429], [276177.580413066, 6612877.760134927], [276229.0508490613, 6612980.308404012], [276419.24510815664, 6612865.254424066], [276540.0, 6613015.0], [276594.67288157926, 6612978.863997731], [276712.5062849093, 6613093.574801822], [276647.95454545453, 6613206.590909091], [276590.0, 6613195.0], [276505.0, 6613244.705882353], [276543.20846905536, 6613354.104234528], [276693.5122408667, 6613525.991839422], [276738.6692350028, 6613495.887176665], [276955.6532066508, 6613495.095011877], [276956.5414762321, 6613546.314901488], [276761.0, 6613734.0], [276804.67540574283, 6613808.002496879], [276741.6666666667, 6613886.133333334], [276795.0, 6613940.0], [276729.97810658324, 6614149.1120599], [276607.60330332123, 6614212.500447201], [276620.0, 6614245.0], [276692.5551686599, 6614233.790053124], [276702.2083863071, 6614592.052298854], [276644.8131489307, 6614678.27743882], [276715.1515151515, 6614759.848484849], [276755.9975892633, 6614722.871533923], [277054.04259412724, 6614845.74186993], [277017.0, 6615021.0], [276965.0, 6615060.0], [277013.9595186016, 6615173.5281838225], [276985.0, 6615207.466666667], [277007.02883205976, 6615301.640413252], [276875.0, 6615340.0], [276928.75, 6615392.5], [276908.3333333333, 6615433.333333333], [276844.3564469652, 6615418.716095687], [276755.0, 6615490.0], [276779.8409893993, 6615501.766784452], [276765.0, 6615693.333333333], [276828.38014450297, 6615691.544301533], [276852.3532689969, 6615849.536513434], [276900.0, 6615965.0], [276870.0, 6615935.0], [276791.1538461539, 6615986.153846154], [276876.71428571426, 6616071.714285715], [276912.8086783503, 6616238.4952723775], [276983.5943309738, 6616272.8764667595], [276896.69229056744, 6616446.021995147], [276800.0, 6616465.0], [276627.71986970684, 6616677.801302931], [276661.76616249495, 6616721.616918753], [276593.8146250491, 6616835.052824831], [276700.5903343865, 6617160.575010108], [276648.2743362832, 6617378.407079646], [276552.77777777775, 6617497.777777778], [276547.1710526316, 6617587.828947368], [276586.6240409207, 6617571.700767264], [276713.13034132816, 6617703.836699281], [276653.9124841556, 6617804.456242078], [276712.2979980821, 6617833.648999041], [276788.9520527203, 6618020.097825566], [276792.77777777775, 6618227.777777778], [276747.688172043, 6618294.946236559], [276802.2469070927, 6618369.964497252], [276719.92000093294, 6618442.358048303], [276695.1475487863, 6618654.140885293], [276607.8912930841, 6618664.004217598], [276536.56931098294, 6618725.311216352], [276520.08108108107, 6618849.243243244], [276575.0, 6618910.0], [276554.8998930364, 6619076.6621900955], [276855.84373478376, 6619244.886722825], [277073.5264261761, 6619114.4041438475], [277188.46153846156, 6618926.538461538], [277320.0, 6618925.0], [277355.0, 6618995.0], [277435.69139693497, 6618955.064596771], [277469.2908144983, 6619132.012891876], [277526.79990178277, 6619151.799901783], [277526.70929657295, 6619239.2340458045], [277814.23901684594, 6619271.9472216], [277779.0200956562, 6619516.891571134], [277642.3219628006, 6619834.671242156], [277693.5250107099, 6619878.675013769], [277571.84551639634, 6620040.319220972], [277546.5331186189, 6620180.285685465], [277451.05132652563, 6620336.875824498], [277534.92957746476, 6620429.929577465], [277485.96774193546, 6620472.580645162], [277571.33858616266, 6620626.7369749015], [277636.9125336318, 6620603.553115484], [277716.6666666667, 6620682.777777778], [277920.38214922976, 6620652.964001485], [277940.0, 6620685.0], [278110.256, 6620606.056], [278197.98891097616, 6620748.811123989], [278229.0281011549, 6620957.469423248], [278326.63384064456, 6621044.230080573], [278460.94433475146, 6621082.584606109], [278604.5050991308, 6620884.866353716], [278596.6666666667, 6620828.333333333], [278673.2696180587, 6620862.038631946], [278876.7768084827, 6620629.590242291], [278989.85095744324, 6620641.6207331475], [279092.46707019245, 6620483.136648141], [279166.27659574465, 6620515.0], [279213.3333333333, 6620475.833333333], [279185.3971962617, 6620371.48364486], [279455.0991904857, 6620272.549595243], [279506.1538461539, 6620298.076923077], [279473.0254579301, 6620359.223787086], [279634.98007294873, 6620469.379236102], [279598.761614867, 6620516.517141942], [279637.79951071966, 6620590.8121374715], [279774.0, 6620541.0], [279955.58639935375, 6620538.840052875], [279969.7078112543, 6620494.528102957], [280209.14241960185, 6620593.284839204], [280230.0, 6620635.0], [280329.5795272955, 6620651.912844321], [280462.3291437549, 6620785.938727415], [280450.16700925893, 6620858.5913443975], [280700.0, 6621065.0], [280805.1724137931, 6620925.689655173], [280923.6194029851, 6620908.768656717], [281235.46376250754, 6621053.421490408], [281225.0, 6621190.0], [281347.23449903453, 6621281.537223772], [281370.0, 6621245.0], [281537.07262569835, 6621255.458100558], [281624.4437234308, 6621128.040945439], [281805.8014184397, 6621289.1985815605], [281897.1769045343, 6621195.575204812], [282274.6693681988, 6621169.669368199], [282335.01235584845, 6621230.012355848], [282478.0025012034, 6621147.45184081], [282501.7524401065, 6621079.316770187], [282465.0, 6621000.0], [282512.32991001563, 6620936.986806192], [282689.8096881958, 6620957.851752724], [282745.0, 6621037.162162162], [282768.9141605839, 6621180.887007299], [282844.65540631226, 6621288.339857172], [282865.08306709264, 6621480.083067093], [282987.77401894453, 6621518.064952639], [282951.3634088668, 6621651.192378837], [282874.0191916271, 6621715.182833817], [282933.23935119767, 6621893.52967644], [282895.0420667566, 6622005.075824748], [282835.7082729827, 6621999.148457945], [282795.0, 6622050.0], [282875.67328595615, 6622288.906277994], [282811.1698395045, 6622343.178668079], [282964.0511266039, 6622484.538847605], [283059.9714389117, 6622511.958329732], [283107.9570349579, 6622558.826905271], [283295.1646030044, 6622368.986875836], [283328.99403510964, 6622219.391359047], [283360.0, 6622195.0], [283418.6792965302, 6622264.503632783], [283505.625, 6622278.125], [283560.0, 6622225.0], [283620.74074074073, 6622247.962962963], [283706.7361111111, 6622127.569444444], [283695.0, 6622000.0], [283785.3676855458, 6621956.441269526], [283813.0192065938, 6621847.758914318], [283886.79802955664, 6621857.807881773], [283900.0, 6621805.0], [283962.26690031594, 6621850.028419325], [283932.05847770657, 6621954.141214192], [284163.92887840356, 6622101.394833085], [284210.0, 6622085.0], [284212.72839506174, 6622336.419753087], [284175.0, 6622360.0], [284316.1813211845, 6622453.469248291], [284386.1210450874, 6622404.38874029], [284463.7301271906, 6622489.263072421], [284586.3402061856, 6622470.927835052], [284609.72457146936, 6622437.533615563], [284545.8035714286, 6622295.0], [284648.72034829453, 6622288.919350644], [284795.71474626847, 6621995.797327093], [285033.80663424224, 6621858.2099513635], [285088.11734331975, 6621980.995084795], [285180.543346665, 6622060.267410035], [285285.0, 6621985.999460173], [285285.0, 6621948.793526239], [285327.3029045643, 6621957.572614108], [285530.0, 6621865.0], [285563.7375539436, 6621967.156573651], [285636.9839142091, 6621940.0], [285574.7368421053, 6622038.157894737], [285513.1034482759, 6621997.068965517], [285475.0, 6622020.0], [285497.22222222225, 6622044.444444444], [285443.08566521504, 6622384.102926688], [285344.6590500683, 6622488.741221239], [285355.0, 6622660.0], [285286.2987012987, 6622766.623376624], [285385.0, 6622890.0], [285313.85924425203, 6623014.487101889], [285369.249186804, 6623252.689994849], [285232.52588354883, 6623441.417967854], [285182.9042283785, 6623628.232675927], [285107.45620313566, 6623686.980743013], [285009.44444444444, 6623634.444444444], [285025.0, 6623560.0], [284979.3029389601, 6623525.72720422], [284924.07673298713, 6623681.884700808], [284769.21080918, 6623739.442326907], [284737.5, 6623693.5], [284643.0618421647, 6623699.854768035], [284583.59100086533, 6623772.8684741855], [284542.5, 6623737.5], [284417.75, 6623812.75], [284444.15161645354, 6623999.543755985], [284400.8524835911, 6624036.768657759], [284487.3893399583, 6624160.21325745], [284398.4548699643, 6624221.557878633], [284353.42268322053, 6624188.889969896], [284242.65884968755, 6624332.242666784], [284056.5996994104, 6624409.716815199], [284028.9108389306, 6624395.215988411], [283903.69969557784, 6624467.951471373], [283876.1794860182, 6624543.183135285], [283752.63206081174, 6624557.056811939], [283727.0733788396, 6624593.0972696245], [283827.1946820894, 6624710.707400193], [283793.2279330485, 6624749.457312319], [283912.6960346452, 6625043.848017323], [283969.0, 6625072.0], [283944.14601190796, 6625146.112190866], [283854.1723628455, 6625187.919517057], [283766.6666666667, 6625061.666666667], [283690.0, 6625075.0], [283637.59442340914, 6625026.729615606], [283594.4422730653, 6625077.18049039], [283605.0, 6625135.0], [283814.75325588806, 6625266.736279654], [283713.3006440401, 6625315.540656105], [283765.0, 6625350.0], [283694.62188713223, 6625412.558322549], [283748.4342630367, 6625434.478087679], [283785.93667979003, 6625594.68339895], [283917.0137747728, 6625628.207416504], [283950.0550444187, 6625816.4384080535], [284058.2095916253, 6625825.932218459], [284098.3455709661, 6625937.479983307], [283921.1218705446, 6626034.743641432], [283950.30008631677, 6626065.855279414], [283887.4970665652, 6626144.096977769], [283904.2238267148, 6626166.444043322], [283835.0, 6626189.173402868], [283862.3719825273, 6626355.673053328], [283997.0408163265, 6626483.265306123], [283982.3581450361, 6626603.473458522], [283787.6708610954, 6626602.521060256], [283760.0, 6626495.0], [283680.51892607246, 6626501.834762114], [283621.05263157893, 6626581.842105263], [283572.0443292661, 6626546.267037174], [283523.25688073394, 6626564.311926605], [283556.8743821752, 6626467.76513214], [283469.79939100845, 6626443.816048719], [283329.674751906, 6626485.621830147], [283335.0, 6626544.0], [283186.10083335795, 6626586.958456759], [283152.9619915318, 6626824.589928993], [283200.04762371915, 6626939.529354643], [283183.25688073394, 6627004.311926605], [283234.81178857083, 6627004.373203371], [283234.17365418153, 6627208.754308479], [283290.5223880597, 6627195.820895523], [283313.621734123, 6627334.743170345], [283399.471384245, 6627454.006803593], [283455.0, 6627673.066666666], [283413.3333333333, 6627703.888888889], [283365.0, 6627671.666666667], [283269.2226842086, 6627733.955303263], [283317.8606160268, 6627889.239038891], [283289.37224669603, 6627901.321585903], [283255.26269893174, 6628046.052539786], [283332.14285714284, 6628061.428571428], [283346.00208768266, 6628124.56506611], [283245.0, 6628196.666666667], [283291.2983184495, 6628390.787288373], [283324.1866028708, 6628421.578947368], [283287.79876877, 6628484.195372028], [283169.70288955496, 6628489.74340333], [283158.20248199493, 6628693.709408618], [283219.41178013955, 6629086.657053193], [283143.14814814815, 6629144.444444444], [283171.36363636365, 6629229.090909091], [283105.5603153937, 6629313.528798831], [283013.74851720047, 6629205.818505338], [282956.2206091778, 6629247.755093331], [282788.1282209406, 6629189.0172655415], [282737.2793170908, 6629276.15368459], [282657.71948972525, 6629184.598986022], [282640.0, 6629115.0], [282590.625, 6629164.375], [282477.7858245153, 6629041.7977761105], [282470.0, 6628925.0], [282344.99310702767, 6629111.331004128], [282302.97816314595, 6628985.031979496], [282163.25688073394, 6629034.311926605], [282173.5345218311, 6628940.462305484], [282087.28883231827, 6628820.893706699], [282095.0, 6628770.0], [282027.0560747663, 6628741.6822429905], [281976.0447761194, 6628666.865671642], [282005.0, 6628620.0], [281983.3333333333, 6628611.666666667], [281890.15605629695, 6628724.122001021], [281760.55946914107, 6628761.194728775], [281547.82669592096, 6629072.4270969555], [281594.28571428574, 6629105.0], [281585.9533315255, 6629204.13940803], [281789.4543911361, 6629355.516107484], [281788.81571322604, 6629461.866530921], [281857.7658405756, 6629507.496544148], [281785.79793060466, 6629594.316166579], [281838.65901774797, 6629790.97001609], [281698.0366801269, 6629874.747540777], [281765.80756183894, 6629928.921291968], [281795.0, 6630120.0], [281665.2831240027, 6630264.297226654], [281705.0, 6630520.0], [281649.7259970113, 6630553.164401793], [281703.13441663916, 6630984.644307481], [281756.4258457469, 6631165.895953592], [281638.81565865426, 6631323.43639025], [281473.14918650076, 6631320.523909734], [281293.0311593478, 6631486.458687606], [281266.25, 6631461.25], [281173.2244740522, 6631711.5196782425], [280973.2754481358, 6631798.814819887], [281020.71428571426, 6631914.285714285], [281007.66910383553, 6631984.403566884], [281035.73029479623, 6632008.4956112355], [281007.4114441417, 6632307.942779291], [281033.46153846156, 6632403.538461538], [280978.56255290116, 6632467.500136779], [281013.46490907477, 6632535.637910215], [280873.6666666667, 6632734.0], [280934.2227251187, 6632802.067197343], [280867.46810176433, 6632929.882077845], [280743.06898066786, 6632860.489894552], [280605.79508771567, 6632955.699400596], [280620.1765870337, 6633075.1562020285], [280565.0, 6633120.0], [280587.4343053903, 6633167.302916171], [280498.19848292094, 6633139.660438791], [280326.4120016019, 6632917.49501236], [280147.7941735622, 6632972.5956276925], [280075.0587022618, 6632877.936731858], [280132.77777777775, 6632782.222222222], [280055.0, 6632680.0], [280099.44444444444, 6632634.444444444], [279970.0, 6632505.0], [279849.1346153846, 6632555.769230769], [279789.3803889618, 6632606.939047199], [279730.3852523943, 6632555.616403831], [279585.93023255817, 6632647.441860465], [279605.0, 6632550.0], [279577.8125, 6632524.0625], [279481.4021164021, 6632634.896466131], [279485.0, 6632723.333333333], [279399.1881111266, 6632723.66886831], [279380.34471242887, 6632797.146867417], [279131.6500994036, 6632983.46918489], [279110.0, 6632955.0], [279034.8755889592, 6633077.019930202], [278948.3223031105, 6633032.845797485], [278896.99450198765, 6633133.620602553], [278797.25114031474, 6633134.906516651], [278751.86411149823, 6633194.355400696], [278655.0, 6633060.0], [278675.0, 6633020.0], [278626.078422715, 6632983.308817036], [278672.730052457, 6632870.245421499], [278575.08337569877, 6632834.425436324], [278542.43654822337, 6633098.553299492], [278460.0, 6633075.0], [278388.6774007446, 6633157.52069133], [278295.87680040987, 6633381.350720164], [278230.0, 6633355.0], [278160.3000468823, 6633494.413970933], [278083.2078158961, 6633460.1907625], [278112.4358974359, 6633393.846153846], [278080.0, 6633345.0], [278006.1904761905, 6633333.571428572], [277998.0009209867, 6633189.464473275], [277779.2184983304, 6632906.879315264], [277787.0330969267, 6632852.033096926], [277726.8245862884, 6632791.824586288], [277642.5428531823, 6632801.234345247], [277563.7330024052, 6632956.631642598], [277410.0, 6632815.0], [277370.0, 6632835.0], [277351.16591928253, 6632773.475336323], [277300.0, 6632755.0], [277272.5864274294, 6632940.048473466], [277284.833266939, 6633150.965643829], [277022.3317535545, 6633060.393364929], [276953.8106477522, 6633153.109594961], [276837.3046342157, 6633208.444148809], [276659.8731472475, 6633530.341682817], [276624.109947644, 6633466.2129144855], [276549.2782761576, 6633525.0876502255], [276465.2322278564, 6633444.688569634], [276332.3642677665, 6633660.8078194205], [276371.5444857626, 6633688.547149915], [276230.77697189036, 6633948.109257103], [276270.1164064321, 6634130.282503035], [276210.3548479777, 6634145.0], [276092.02986854507, 6634342.235884516], [276123.10906795046, 6634396.330992029], [276215.0, 6634446.191780822], [276267.0799409566, 6634562.6803109115], [276148.7513181959, 6634720.437044272], [276125.0, 6634880.0], [276075.1110739302, 6634989.382314628], [276173.77559505263, 6635140.536717427], [276133.5229632115, 6635624.270973133], [276146.5943176614, 6635632.186463811], [276121.36363636365, 6635800.909090909], [276183.30029654957, 6635902.679918856], [276053.23491868674, 6635988.452983901], [275893.3134569322, 6636019.005805961], [275813.5209545984, 6636108.662980209], [275882.39548322285, 6636222.1901084315], [275656.65990652994, 6636443.4978298675], [275612.65229292517, 6636586.543101638], [275630.46495708235, 6636671.606494154], [275543.5060240964, 6636832.457831325], [275550.01239391346, 6636938.552143401], [275618.919924635, 6636995.152143193], [275605.0, 6637080.0], [275711.213592233, 6637178.349514563], [275710.2978501243, 6637329.42357199], [275633.3308117959, 6637613.309034945], [275655.3239305069, 6637939.862709805], [275795.0, 6638047.056068345], [275795.0, 6638094.901960785], [275873.1147315766, 6638183.529922476], [275755.16605758434, 6638341.874168759], [275828.47119645495, 6638586.664697194], [275919.7656228289, 6638703.086827588], [275800.42600487213, 6638924.539945867], [275732.501783261, 6638857.096429129], [275634.4933268624, 6638715.995146809], [275501.3344085886, 6638798.728153627], [275495.0, 6638884.285714285], [275541.9913043478, 6638918.1217391305], [275464.11252940935, 6639019.276996123], [275376.5463254551, 6639300.647665593], [275255.0, 6639280.0], [275268.10461080814, 6639325.523054041], [275161.14074477943, 6639421.443029553], [275155.1043478261, 6639559.269565217], [275092.6666666667, 6639613.0], [275105.0, 6639650.0], [275024.3631552712, 6639685.278619569], [274979.98193352396, 6639814.945800572], [274865.1355379705, 6640006.261236645], [274827.626635489, 6640018.110478883], [274821.4598638402, 6640353.540136159], [274742.5268487396, 6640402.754964731], [274720.14705882355, 6640485.87254902], [274637.5, 6640557.5], [274585.0, 6640521.428571428], [274601.4285714286, 6640416.683673469], [274459.75, 6640285.125], [274359.80061244, 6640488.218137994], [274241.1257151693, 6640526.125715169], [274199.32046272943, 6640515.62647324], [274218.2234936531, 6640742.870557456], [274140.0, 6640725.0], [274114.5292756718, 6640797.991635522], [273979.86594689597, 6640759.200126233], [273992.5965665236, 6640684.806866953], [273920.45454545453, 6640617.2727272725], [273899.2268041237, 6640447.62886598], [274075.4986989113, 6640045.168560292], [274082.4156893151, 6639624.275176893], [274125.0, 6639590.0], [274073.26945737837, 6639456.87573648], [273965.202562339, 6639408.460544966], [273989.12264976575, 6639262.0418747915], [273816.46997276664, 6639069.38363374], [273782.2011596868, 6639143.140908914], [273654.0, 6639281.0], [273614.57903078303, 6639262.448955663], [273527.0140526447, 6639409.896953663], [273449.2917975178, 6639393.120488261], [273419.691021907, 6639449.280106369], [273354.8509616009, 6639401.523353687], [273204.62805142853, 6639721.086376503], [273119.0320307115, 6639775.616659972], [272994.1600942873, 6639719.7079681745], [273008.25121285627, 6639479.950727714], [272950.0, 6639445.0], [272932.0, 6639477.0], [272877.35294117645, 6639422.352941177], [272942.42990353284, 6639240.900016744], [272847.6926104432, 6639171.692482447], [272817.3338830935, 6639292.438628974], [272743.70431873965, 6639378.769577683], [272685.6921787932, 6639303.828620504], [272622.05623901583, 6639411.520210897], [272533.8534140591, 6639339.058033413], [272618.47826086957, 6639173.478260869], [272558.4138098457, 6639122.870616961], [272481.8579444019, 6639233.233868911], [272436.91009358584, 6639206.961533574], [272468.1673445249, 6638929.784811815], [272405.0, 6638860.0], [272420.90114827757, 6638771.1482775835], [272493.426570656, 6638733.211473478], [272436.1965985017, 6638640.153877303], [272447.7273597765, 6638545.273856864], [272513.3333333333, 6638506.111111111], [272507.71190211346, 6638443.38487208], [272374.0, 6638349.0], [272305.4, 6638414.4], [272300.4236182268, 6638508.728057883], [272244.6800405797, 6638618.591036924], [272279.7722342733, 6638648.937093276], [272232.3385518591, 6638719.138943248], [272255.0, 6638890.0], [272154.84150340286, 6639108.6130609745], [272193.56694077427, 6639232.214727894], [272092.0808063035, 6639538.718775286], [271963.244561116, 6639678.8846316915], [271968.1660259547, 6639876.394039738], [271856.37523719406, 6639952.278409395], [271794.13493742846, 6640139.753609247], [271704.950263872, 6640315.447144832], [271648.33511836047, 6640362.119769628], [271633.3444236021, 6640577.822239296], [271544.77665594657, 6640620.389945645], [271498.2535534422, 6640517.249372118], [271430.5767235622, 6640610.080000409], [271400.46869530476, 6640873.718118893], [271330.04728130926, 6640835.398108748], [271285.31850417814, 6640928.27604532], [271122.6347643246, 6641057.151562202], [271081.9968236815, 6641395.759582217], [271036.3067334584, 6641528.519681339], [270965.0, 6641515.714285715], [270971.3036377897, 6641587.9482826935], [270911.76470588235, 6641633.823529412], [270870.0, 6641605.0], [270784.5296305567, 6641912.090746117], [270726.5121867498, 6641915.438428215], [270606.3947368421, 6642021.868421053], [270594.0, 6642183.0], [270545.0, 6642220.0], [270573.5211267606, 6642393.485915493], [270525.0, 6642470.0], [270516.7059891107, 6642646.039668136], [270463.03324429796, 6642653.281228944], [270480.2688172043, 6642994.731182796], [270435.0, 6643040.0], [270451.008583691, 6643122.360515022], [270376.79743223963, 6643181.426533524], [270428.3414213329, 6643343.112952644], [270340.60209424084, 6643394.2931937175], [270405.0, 6643526.666666667], [270370.11991745216, 6643571.881588488], [270126.4829402015, 6643544.622243587], [270089.6258573795, 6643434.902597531], [269990.0, 6643385.0]]]}}]}