{"type": "FeatureCollection", "crs": {"type": "name", "properties": {"name": "EPSG:25833"}}, "features": [{"type": "Feature", "properties": {"station": "307.7.0", "name": "Landbru", "series": ["1001.1"], "nodes": 783862, "fine_vertices": 7232, "fine_area_m2": 78386250.0, "reduced_vertices": 304, "reduced_area_m2": 78386249.99999918, "outline_tolerance_m": 20.0, "windows": [[456, 488], [1006, 1160], [2205, 2758]], "placed_on": "number", "distance_m": 0.8982674988729891, "uncertainty_m": 30.0, "elvid": "307-4-57", "objectid": 12371457, "lake": false, "confluence_near": false, "reach_up_m": 1000.0, "reach_down_m": 130.0, "reach_fork": false, "seeded_by": "river", "lake_rule": null, "lake_number": null, "lake_name": null, "lake_distance_m": null, "node_offset_m": 5.7822017234206555, "chain_nodes": 102, "lowered_nodes": 39, "lowered_max_m": 6.270263671875, "direction_ok": true, "end_extended_m": 0.0, "end_closed": true, "downstream_checked": "whole", "a0": 78.3862, "area_up": 78.38430000000001, "area_down": 78.4084, "swing": 0.00028321311659447706, "largest_step": 0.02030000000000598, "largest_step_at_m": 14.142135623731065, "checked_up_m": 24.142135623731065, "checked_down_m": 28.28427124746213, "drains": true, "monotone": true, "causes": []}, "geometry": {"type": "Polygon", "coordinates": [[[446680.0, 7203135.0], [446630.7387276848, 7203168.587164289], [446328.64520842605, 7202877.165123134], [446252.88379911403, 7202954.057393263], [446137.42226092535, 7202955.373347446], [446126.3561497873, 7203058.7245049225], [445953.04495183734, 7203046.867641812], [445897.80991735536, 7203131.487603306], [445942.1527679974, 7203182.491054157], [445809.19576418906, 7203362.76865318], [445699.5251204672, 7203358.26041894], [445432.56134161755, 7203466.986625948], [445475.0, 7203495.0], [445461.6388999635, 7203575.771762907], [445300.55423934234, 7203558.786394379], [445155.17096670804, 7203767.899414986], [444919.97270883044, 7204004.516573832], [444850.0, 7204005.0], [444779.5824634656, 7204109.467640919], [444670.0, 7204015.0], [444552.74831383984, 7203991.739035657], [444290.2219827125, 7203828.273277406], [444180.46728493704, 7203807.05344088], [444090.7116823727, 7203900.150152057], [443621.53708796843, 7203763.223827072], [443311.3851608774, 7203733.318879206], [443220.3333333333, 7203690.166666667], [443144.28571428574, 7203737.857142857], [443020.8421874046, 7203668.065298718], [442953.7419354839, 7203715.838709678], [442646.4333005987, 7203743.371400513], [442590.0, 7203695.0], [442486.6666666667, 7203711.666666667], [442363.3333333333, 7203648.333333333], [442162.5, 7203447.5], [441997.79901303933, 7203393.582345818], [441898.1738257706, 7203235.156685501], [442035.0, 7203210.0], [441976.7607077732, 7203051.048759859], [441777.53871685715, 7202952.435471904], [441815.0, 7202890.0], [441708.45123605203, 7202855.629430984], [441720.6890459364, 7202785.618374558], [441629.0111940298, 7202678.02238806], [441647.5829471092, 7202597.6428702455], [441505.0, 7202420.0], [441531.0869565217, 7202387.826086956], [441418.4246575342, 7202246.575342466], [441560.0968450301, 7202133.769349082], [441498.3333333333, 7202063.333333333], [441616.866744286, 7201888.622950365], [441635.0, 7201730.384615385], [441842.76228906825, 7201552.083639031], [441853.3333333333, 7201495.0], [441593.1994795372, 7201382.096964412], [441502.74541531823, 7201271.046386192], [441571.88165917195, 7201179.608128192], [441908.5260665209, 7201133.51416308], [441960.0, 7201205.0], [442122.9044834308, 7201219.8927875245], [442232.9561270802, 7201181.142208775], [442225.8811535139, 7201107.288169937], [442492.6296641002, 7201033.876385481], [442497.3333333333, 7200985.666666667], [442600.96626982774, 7200959.613029699], [442567.35294117645, 7200862.352941177], [442640.0410094637, 7200780.164037855], [442612.7065270336, 7200670.826108134], [442684.6584499392, 7200602.398461469], [442678.61394749087, 7200444.965449225], [442757.47131958255, 7200343.885297596], [442887.22222222225, 7200314.444444444], [442855.0, 7200250.0], [442942.8321678322, 7200135.454545454], [442775.0, 7199990.0], [443084.80292387214, 7199935.654685353], [443159.87915407855, 7199983.429003021], [443257.6725025747, 7199924.485066941], [443636.6666666667, 7199855.666666667], [443706.1728395062, 7199800.0617283955], [443848.485637771, 7199811.626435306], [444066.6666666667, 7199768.333333333], [444150.0, 7199685.0], [444241.6, 7199692.066666666], [444322.4221453287, 7199615.0], [444444.209649718, 7199619.5975929275], [444730.0, 7199395.0], [444866.98757763975, 7199357.639751553], [444912.1649885739, 7199279.0564343305], [445068.3770617846, 7199206.8786868695], [444881.065139534, 7198990.690784706], [444953.46581168956, 7198931.534188311], [445256.7803287624, 7198965.766995247], [445263.66518969816, 7198861.3292716695], [445338.0854911837, 7198786.3496201895], [445445.2934265698, 7198791.042923869], [445782.3144723284, 7198695.16197129], [445737.5, 7198647.5], [445795.4207920792, 7198615.321782178], [445739.54545454547, 7198554.545454546], [445796.29833919264, 7198464.013819857], [445716.4705882353, 7198365.0], [445591.41414141416, 7198356.414141414], [445515.0, 7198280.0], [445565.64336410403, 7198134.307199998], [445742.8005398949, 7198070.350673969], [445869.9205207263, 7198164.940859343], [445959.24242424243, 7198155.151515151], [446052.07833935483, 7197943.706657565], [446004.94917707244, 7197873.82148026], [446117.4074074074, 7197895.0], [446187.0435765795, 7197853.073795547], [446213.7058680302, 7197871.7518870225], [446320.96924248105, 7197751.209879469], [446247.0198538798, 7197671.629618834], [446344.0, 7197615.0], [446420.4643335966, 7197672.622040809], [446468.75, 7197643.75], [446445.9397738916, 7197588.201639373], [446527.13088920614, 7197519.182851601], [446474.358137288, 7197485.147751453], [446570.6528641225, 7197292.588629815], [446665.71428571426, 7197353.571428572], [446739.23076923075, 7197335.0], [446880.64927279385, 7197387.109371089], [446895.0002879852, 7197438.588150665], [447254.92988748755, 7197437.040962098], [447384.74358974356, 7197374.615384615], [447349.1891891892, 7197321.283783784], [447568.6943518663, 7197281.515425775], [447612.2698412698, 7197236.285714285], [447640.9140308863, 7197062.530003469], [447761.5654205608, 7197046.565420561], [447810.0, 7197095.0], [447910.1908965993, 7197029.176630515], [448036.6851881081, 7197048.707819579], [448351.9993986771, 7196751.930246542], [448381.29939587385, 7196663.398169901], [448663.91585774603, 7196304.221999738], [448763.83760633087, 7196171.360101703], [449155.4383882457, 7196346.320907636], [449483.92023458355, 7196381.4653767925], [449565.0182417773, 7196453.826665284], [449692.0689655172, 7196437.068965517], [449744.5977011494, 7196519.597701149], [449800.7127943759, 7196486.110889819], [449941.17137616954, 7196613.4500038605], [450110.78191265947, 7196702.115119557], [450151.47239263804, 7196655.981595092], [450222.7070283714, 7196696.326839229], [450221.8733909119, 7196585.535254546], [450290.0, 7196605.0], [450326.1756373938, 7196552.280453258], [450442.5, 7196635.0], [450740.8388157895, 7196743.881578947], [450779.54545454547, 7196692.2727272725], [450907.2706935123, 7196767.729306487], [451005.02697877254, 7196669.973021228], [451164.00126802555, 7196786.638323313], [451466.5731201885, 7196819.4511940535], [451570.92708661937, 7196797.669249808], [451632.62248854426, 7196863.688755728], [451747.09495572146, 7196805.773357218], [452311.6575531651, 7197063.702638289], [452427.32411290705, 7196972.522589462], [452465.2631578947, 7196851.842105263], [452566.45911477867, 7196923.154538634], [452656.150907846, 7196901.628126343], [452916.26115807163, 7197026.365806556], [452965.863520298, 7196994.47802806], [453098.16684774467, 7197126.47341392], [453369.82218581595, 7197134.404425022], [453504.375, 7197221.875], [453550.0, 7197295.0], [453723.8666359365, 7197301.218455467], [453816.77419354836, 7197336.935483871], [453828.4047261077, 7197275.076329786], [453881.8916164, 7197268.19070135], [453840.7372788027, 7197177.432668913], [453740.25273697864, 7197158.648098441], [453817.5659534767, 7197080.1879612915], [453934.9000015103, 7197053.414847252], [453885.3461725987, 7196989.8147245245], [453949.54545454547, 7196924.545454546], [453885.0, 7196860.0], [453871.4516129032, 7196738.70967742], [454241.96292970615, 7196800.078290147], [454393.89288830716, 7196719.325370855], [454536.5113838631, 7196712.680006341], [454766.77053442894, 7196819.427451553], [454900.0, 7196935.0], [455267.59648365964, 7196934.860795037], [455501.7508417508, 7197063.98989899], [455995.72307205235, 7197176.220887144], [456361.12503799866, 7197112.638429914], [456865.45880582894, 7197172.293156461], [457122.38028790377, 7197261.723697156], [457250.0, 7197235.0], [457288.86653264763, 7197273.866532648], [457298.8949190899, 7197362.842667194], [456822.10271595186, 7197875.242447001], [456380.21089044865, 7197895.931879063], [456309.37965917244, 7197874.899928273], [455991.6666666667, 7198213.333333333], [456031.0878665305, 7198290.549220104], [455834.3595351388, 7198296.678728901], [455199.78343839914, 7198115.050195585], [454777.16968463396, 7198537.830315366], [455042.4902954591, 7199038.103730022], [455262.03009697545, 7199103.589872476], [455443.1716772332, 7199352.487265446], [455417.85714285716, 7199492.857142857], [455605.0, 7199680.0], [455451.4864864865, 7199833.513513514], [455481.43277848914, 7199879.556978233], [455385.17865156045, 7200013.685929164], [455496.9896640827, 7200105.348837209], [455445.0, 7200200.0], [455462.49674593325, 7200274.785260319], [455277.6348547718, 7200265.0], [455171.79159082816, 7200376.421848857], [455061.00213889475, 7200362.636050359], [455076.50442477874, 7200318.495575221], [454969.30442655523, 7200286.707832042], [454786.6666666667, 7200383.888888889], [454811.0491042175, 7200515.214662422], [454678.5714285714, 7200496.428571428], [454633.03921568627, 7200541.960784313], [454658.8461538461, 7200673.076923077], [454581.1657167673, 7200831.189029222], [454519.0425531915, 7200811.276595744], [454420.50736446254, 7200954.587276716], [454232.0235760943, 7201007.209116118], [454106.1317302666, 7200954.048614741], [454060.0, 7200895.0], [453990.31811936694, 7200938.499217931], [453969.4117647059, 7201045.0], [453833.7837837838, 7201045.0], [453751.25, 7201183.75], [453821.50793650793, 7201258.253968254], [453563.6329788944, 7201517.738133371], [453505.2572145546, 7201494.096612296], [453486.6819772438, 7201641.44603498], [453321.4705882353, 7201605.294117647], [453282.49788672867, 7201663.753169907], [453362.5894108371, 7201747.4741758825], [453309.43864229764, 7201990.008703221], [453236.77264772065, 7202035.105981054], [453312.5, 7202097.5], [453280.1945392492, 7202112.184300342], [453373.57781980874, 7202368.1151092965], [453401.1027280233, 7202555.96591185], [453399.4718842685, 7202907.732582773], [453554.35917832225, 7203158.297065737], [453783.4828747865, 7203719.02104792], [453874.8831139181, 7204153.79119954], [453881.6666666667, 7204433.333333333], [453722.87020312867, 7204452.606573815], [453622.41104798316, 7204398.860333524], [453480.7298295575, 7204551.757233479], [453210.7426216236, 7204618.269493538], [453158.3872658703, 7204662.728498159], [453068.8888888889, 7204645.222222222], [453021.86974695214, 7204698.634659881], [452865.0, 7204650.0], [452885.0, 7204468.890144483], [452808.9411764706, 7204282.963800905], [452703.1055900621, 7204425.434782608], [452500.0, 7204575.0], [452236.2974061879, 7204669.70657999], [452128.5937534335, 7204582.158847641], [451859.06941723474, 7204524.337469897], [451665.4314720812, 7204395.0], [451526.53582381585, 7204353.687806681], [451153.08177733805, 7204022.149885632], [450777.1938500312, 7204062.310748907], [450713.79350860964, 7204116.977055539], [450268.85817529605, 7204216.152111413], [450184.6153846154, 7204301.153846154], [450002.1714533562, 7204369.541888082], [449891.57768461923, 7204498.40262746], [449614.2767166375, 7204494.8557607345], [449504.802728061, 7204613.621491366], [449383.6442630267, 7204541.882983383], [449363.3444225096, 7204420.344553692], [449250.48345333, 7204319.239800256], [449016.0981449229, 7204260.005658011], [448908.4934802219, 7204070.327321495], [448698.36323495884, 7203987.926747585], [448667.20166350843, 7203881.403410915], [448715.7632074874, 7203734.971796331], [448759.5487364621, 7203682.743682311], [448738.2560467022, 7203586.578158149], [448465.2631578947, 7203559.736842105], [448404.1275743707, 7203620.872425629], [448278.0054644809, 7203651.4754098365], [448240.9302044329, 7203555.114922214], [447847.70531657606, 7203279.1520143235], [447757.7070063694, 7203280.838641189], [447612.2111041717, 7203187.201122302], [447374.15666655183, 7203273.76404929], [447252.5759730513, 7203215.797836022], [447163.3333333333, 7203338.333333333], [447078.75482147984, 7203343.303752485], [446680.0, 7203135.0]]]}}]}