{"type": "FeatureCollection", "crs": {"type": "name", "properties": {"name": "EPSG:25833"}}, "features": [{"type": "Feature", "properties": {"station": "307.5.0", "name": "Murusj\u00f8", "series": ["1001.1"], "nodes": 3522441, "fine_vertices": 20036, "fine_area_m2": 352244250.0, "reduced_vertices": 861, "reduced_area_m2": 352244250.0000001, "outline_tolerance_m": 20.0, "windows": [[802, 1153], [1600, 1871], [2811, 2995], [5807, 5394]], "placed_on": "number", "distance_m": 384.73361079306903, "uncertainty_m": 384.73361079306903, "elvid": "307-4-2168", "objectid": 12374894, "lake": true, "confluence_near": false, "reach_up_m": 1000.0, "reach_down_m": 484.73361079306915, "reach_fork": false, "seeded_by": "lake", "lake_rule": "lake_line", "lake_number": 1127, "lake_name": "Murusj\u00f8en", "lake_distance_m": 6.042128871292075, "node_offset_m": null, "chain_nodes": null, "lowered_nodes": null, "lowered_max_m": null, "direction_ok": null, "end_extended_m": null, "end_closed": null, "downstream_checked": null, "a0": null, "area_up": null, "area_down": null, "swing": null, "largest_step": null, "largest_step_at_m": null, "checked_up_m": null, "checked_down_m": null, "drains": null, "monotone": null, "causes": []}, "geometry": {"type": "Polygon", "coordinates": [[[429210.0, 7163605.0], [429102.598622417, 7163577.510958047], [428921.5, 7163395.5], [428793.2239807547, 7163354.63481042], [428461.1137653026, 7163465.543105132], [428383.20911464514, 7163381.790885354], [428363.1362867274, 7163401.863713273], [428327.4192688282, 7163347.580731172], [428376.72028133913, 7163173.674152426], [428216.70454545453, 7163031.363636363], [427875.8317451475, 7163101.746027092], [427690.0, 7163115.0], [427617.0257371689, 7162987.307046225], [427785.2816777132, 7162902.866540345], [427838.6174136991, 7162834.709844942], [427672.97861130704, 7162614.416718361], [427576.077170418, 7162633.392282958], [427549.0, 7162596.0], [427595.0, 7162550.0], [427563.93333824415, 7162479.073076834], [427522.0802919708, 7162494.160583941], [427486.68217054266, 7162400.0], [427438.75770316477, 7162400.0], [427271.0071082391, 7162181.198966075], [427277.44239631336, 7162142.258064516], [427202.8500117829, 7162100.957117179], [427110.10444192775, 7161979.557694728], [427078.1538404333, 7161983.500266481], [426930.2154264655, 7161753.850616565], [426811.01664777537, 7161610.813904366], [426836.53710214596, 7161539.776182901], [426712.6276733882, 7161407.451163637], [426615.52895406884, 7161420.458495092], [426499.1372017934, 7161589.239202366], [426521.4285714286, 7161665.0], [426418.5714285714, 7161685.0], [426425.0, 7161626.666666667], [426376.7748878671, 7161640.062531148], [426078.5836816319, 7161267.784344899], [426095.0, 7161250.0], [425987.4735220633, 7161118.41326899], [425906.9548124878, 7161134.547326199], [425850.34396060783, 7161085.125661051], [425745.7971159601, 7161095.486495531], [425648.5462460284, 7161008.744747048], [425639.64285714284, 7160896.071428572], [425594.6020532008, 7160862.686753919], [425572.2165570626, 7160725.0], [425510.0, 7160725.0], [425480.0, 7160675.0], [425410.33564962127, 7160690.5532107735], [425344.396733122, 7160504.547549842], [425146.08452201297, 7160299.416473332], [425258.1265201074, 7160212.230878241], [425323.8439742568, 7160107.826293975], [425404.8292951542, 7160088.800660793], [425478.3333333333, 7160006.666666667], [425455.0, 7159970.0], [425657.1522963132, 7159909.056406189], [425693.4956852484, 7159848.8037777655], [425941.0683960077, 7159700.806555132], [425858.477181892, 7159574.901938279], [425899.0, 7159494.0], [425828.3333333333, 7159423.333333333], [425855.0, 7159390.0], [425791.57458563533, 7159283.535911602], [425916.61638387, 7159196.666102484], [425970.16526298306, 7159119.594228954], [425956.67345431773, 7158970.518821793], [425735.0, 7158630.0], [425785.0, 7158580.0], [425735.0, 7158498.0], [425748.7108928979, 7158425.281571135], [425940.94591023197, 7158401.079493107], [425965.0, 7158330.0], [425885.4262470857, 7158236.979134744], [425776.18811663764, 7158245.300867969], [425737.5197455274, 7158201.533330512], [425764.88776348205, 7158144.098001642], [425647.22738871735, 7157945.31206513], [425784.28571428574, 7157910.714285715], [425765.4855831208, 7157880.392306368], [425815.0, 7157793.333333333], [425698.22202385135, 7157671.080212117], [425774.7365516335, 7157562.400404067], [425976.0286180993, 7157541.911139207], [425992.3055414336, 7157374.16200644], [426153.85834887676, 7157359.552268343], [426217.06023972953, 7157264.721966101], [426146.3017751479, 7157162.603550296], [426413.2298617114, 7156872.36145509], [426770.953976765, 7156761.671134942], [426797.3503738853, 7156822.45178047], [427090.0, 7156745.0], [427128.6381524116, 7156655.895689337], [427047.7906495656, 7156680.647496897], [427036.96055094793, 7156603.289649628], [427149.9734684033, 7156555.019295706], [427195.8097722285, 7156586.106117513], [427256.07109168835, 7156482.53356243], [427251.1538461539, 7156379.230769231], [427149.8578529149, 7156197.854951198], [427168.8830870526, 7156088.773359244], [427028.2944000937, 7155998.864392711], [427060.1518318911, 7155855.0], [427172.98373906635, 7155863.485241701], [427337.62232133804, 7155777.377678662], [427203.04576331767, 7155687.101517256], [427100.86750060174, 7155454.350830115], [427158.85789619066, 7155461.685583708], [427125.0, 7155300.0], [427195.66117749957, 7155257.6032935], [427112.4890599042, 7155082.667794963], [427179.4097344391, 7155011.833964332], [427379.23076923075, 7154970.384615385], [427551.5016546677, 7155013.2909761835], [427638.7037037037, 7154915.555555556], [427538.85714285716, 7154761.928571428], [427571.5457540189, 7154633.125970822], [427715.3300772018, 7154647.7272727275], [427780.81395348837, 7154702.0930232555], [427849.7027941619, 7154566.418777301], [427906.313078634, 7154561.257112188], [427975.8333333333, 7154659.166666667], [428075.0, 7154600.336134454], [428075.0, 7154546.0], [428123.14814814815, 7154551.851851852], [428173.2959503536, 7154478.755055416], [428138.8781551885, 7154467.711124961], [428071.758882906, 7154325.570762524], [428291.1733554832, 7154231.425379278], [428367.06161137443, 7154244.90521327], [428380.0, 7154195.0], [428433.0549143655, 7154233.8426282145], [428512.03811855934, 7154194.421829352], [428715.30971148534, 7154242.283904395], [428960.0, 7154185.0], [428968.5714285714, 7154202.142857143], [429045.55555555556, 7154099.444444444], [429203.43937418517, 7154184.68970013], [429400.0, 7154145.0], [429422.7272727273, 7154172.2727272725], [429788.55348133715, 7154086.137632203], [429889.9550384091, 7153995.269920637], [430166.40188132075, 7153958.838969764], [430471.85865518654, 7153664.874067094], [430690.70695940155, 7153591.64376566], [430738.4579439252, 7153606.074766356], [430835.71428571426, 7153542.142857143], [430892.49283667625, 7153578.791786055], [431062.088620898, 7153580.978740603], [431044.45169712795, 7153491.775456919], [431172.09664770623, 7153472.376895916], [431175.6619621264, 7153368.64273721], [431490.0, 7153195.0], [431560.0, 7153295.0], [431701.7833665137, 7153225.743797627], [431767.12383731105, 7153251.909576254], [431766.98816666, 7153333.438566169], [431855.0, 7153420.0], [431812.60617760615, 7153427.065637066], [431757.22222222225, 7153532.222222222], [431918.3839755763, 7153651.579184193], [432041.55492863327, 7153570.646190331], [432263.5007092465, 7153486.50041553], [432431.65538556786, 7153530.229439353], [432619.44271239283, 7153332.634450506], [432557.8493150685, 7153301.442922374], [432572.14285714284, 7153268.571428572], [432525.0, 7153210.0], [432528.07204342156, 7153117.497359195], [432485.8552631579, 7153087.697368421], [432560.90610498266, 7152992.847006436], [432689.20516425406, 7153012.8848160785], [432722.2812473273, 7152969.352422873], [433085.23408812727, 7152928.728580171], [433335.5962750619, 7152951.741191818], [433403.9764445598, 7152823.990620424], [433529.75059382425, 7152707.790973872], [433535.64988778037, 7152566.881981293], [433599.56846375554, 7152503.486587505], [433866.4705882353, 7152520.294117647], [433958.4429748572, 7152613.561889996], [434030.22378767363, 7152526.940011994], [434021.3680617131, 7152390.749753503], [434245.6280857569, 7152412.6947652465], [434324.7341197134, 7152299.734119713], [434301.0714285714, 7152276.071428572], [434345.4984051037, 7152245.362838916], [434340.926256013, 7152152.407820016], [434306.18644067796, 7152108.983050847], [434567.6317840787, 7152020.553444412], [434578.67417227256, 7151934.507225516], [434655.0766899257, 7151921.867469014], [434758.16974811297, 7151715.28449665], [434900.44694533764, 7151565.446945338], [434878.2272104722, 7151553.079337268], [434927.56097560975, 7151437.520325203], [435150.42816984135, 7151442.541805939], [435386.295501899, 7151182.088385621], [435560.0, 7151265.0], [435701.70206051343, 7151163.55979495], [436011.1433138676, 7151376.022919974], [436006.8457476571, 7151444.562961652], [436145.9470270666, 7151644.610524182], [436131.35997006926, 7151680.132788613], [436445.78682494845, 7151906.433399344], [436486.28498727735, 7151872.837150128], [436553.3333333333, 7151971.666666667], [436513.1336030337, 7151957.048582922], [436455.0, 7152001.028159108], [436566.7072622256, 7152135.026458436], [436836.2741295931, 7152120.821501851], [436989.7747747748, 7151962.162162162], [436958.76576750993, 7151802.279676381], [436965.9205348416, 7151671.487017821], [437261.1870603352, 7151537.49805247], [437353.1260945709, 7151574.255691769], [437590.0, 7151535.0], [437651.6045152466, 7151485.415877973], [437705.6798623064, 7151502.659208261], [437764.4030061421, 7151423.494842482], [437706.6666666667, 7151287.5], [437755.0, 7151240.0], [437680.997700936, 7151053.452537776], [437698.98667691165, 7150808.127431312], [437635.78134566976, 7150785.228586978], [437610.6866197183, 7150727.103196099], [437741.3912897503, 7150598.271691688], [437733.3990088776, 7150503.770784559], [437683.5814185814, 7150454.3556443555], [437787.16059025354, 7150285.332629147], [437755.0, 7150250.0], [437916.80936391524, 7150056.815851883], [438066.23390152253, 7150141.138178304], [438352.9785219949, 7150166.291404606], [438353.60778443114, 7150104.835329342], [438472.5238517653, 7150173.1956671225], [438552.5863403573, 7150065.3483326165], [438645.1081081081, 7150055.907335907], [438736.9134404911, 7149893.733970859], [438669.28571428574, 7149779.3877551025], [438735.0, 7149770.0], [438782.22222222225, 7149722.777777778], [439015.71428571426, 7149785.0], [439107.5676996625, 7149721.335025158], [439143.8888888889, 7149613.333333333], [439115.61371841154, 7149571.732851986], [439200.71529004537, 7149428.135363314], [439385.77395577397, 7149330.823095823], [439428.3333333333, 7149343.333333333], [439482.33826920745, 7149216.01043816], [439695.74053815217, 7149251.373339709], [439864.3478237509, 7149161.423130773], [439941.98511102947, 7149283.879808127], [440000.0, 7149265.0], [440024.90866147546, 7149201.483017404], [440238.06459840306, 7149365.641725001], [440293.9024390244, 7149338.016688062], [440395.0, 7149370.0], [440371.0, 7149396.0], [440446.6891891892, 7149468.310810811], [440480.43209876545, 7149425.432098766], [440513.5563439857, 7149527.972570474], [440951.17765376065, 7149874.661786583], [441050.0, 7150025.0], [441080.0, 7149995.0], [441134.69456573424, 7150019.8611662425], [441360.86989525106, 7149836.836627067], [441467.9525985767, 7149923.0720973145], [441532.92521988874, 7149907.321158815], [441671.60161894496, 7149768.672068162], [441781.91027608037, 7149763.017728131], [442029.85689948895, 7149545.095400341], [442220.802626013, 7149726.404856036], [442545.2569968097, 7149955.216418366], [442640.03179069184, 7149892.2963769315], [442850.15909290675, 7150051.486771557], [442893.3333333333, 7150011.666666667], [443083.41441027995, 7149991.204681046], [443250.0, 7150035.0], [443317.90644268587, 7149999.259767007], [443551.2571496378, 7150212.485700725], [443657.5030641988, 7150126.722388736], [443643.89849726914, 7150098.475663799], [443724.3459915612, 7149850.654008439], [443707.66262883425, 7149831.348950848], [443759.1272782962, 7149766.106363735], [443993.05334114213, 7149925.238485545], [444231.3163135447, 7149738.7374980515], [444394.17858881725, 7149771.0358115425], [444423.1033004122, 7149742.548482585], [444348.8095238095, 7149600.952380952], [444364.8902821317, 7149525.0], [444468.869058344, 7149476.781009482], [444677.9903249148, 7149501.459705921], [445409.64285714284, 7148821.339285715], [445382.39005871885, 7148732.980129131], [445417.22222222225, 7148697.777777778], [445331.61867454957, 7148500.73765917], [445443.6881922826, 7148399.6684282925], [445363.9043787656, 7148305.781415416], [445288.6801200335, 7148133.618004507], [445377.1217673002, 7148021.256870214], [445155.2352390951, 7147825.851287133], [445182.77777777775, 7147787.777777778], [445155.47752024577, 7147733.973750349], [445213.8888888889, 7147651.111111111], [445185.0, 7147590.0], [445256.9090170479, 7147503.484971587], [445031.83714328014, 7147248.628688271], [444961.5097690941, 7147225.373001777], [445015.0, 7147180.0], [444959.1738775302, 7147123.301081887], [444772.43902439025, 7147135.840108401], [444574.57592912606, 7147023.249539298], [444563.5714285714, 7146931.428571428], [444472.31025803165, 7146736.060969481], [444356.598262413, 7146617.140273879], [444345.20241841127, 7146315.131208562], [444267.21338034986, 7146094.724762579], [444311.1111111111, 7146046.111111111], [444360.0, 7146095.0], [444417.2727272727, 7146033.181818182], [444478.5240541803, 7146038.909388136], [444534.05238151166, 7145985.811783883], [444637.329366248, 7146102.635079327], [444734.7526433328, 7146030.247356667], [444883.0060597048, 7145992.3619837165], [445015.2173913043, 7145876.337792642], [445229.6324208482, 7145882.922374459], [445260.0, 7145785.0], [445321.6549295775, 7145814.8239436615], [445347.2325979834, 7145724.746067972], [445481.83714704827, 7145715.360877565], [445583.34970817587, 7145555.0], [445699.143571229, 7145490.30665981], [445814.197080292, 7145610.802919708], [445887.33005007694, 7145562.228014079], [445925.31506849313, 7145476.671232876], [445948.0, 7145517.0], [446044.03249376774, 7145379.937677298], [446290.0, 7145415.0], [446385.0, 7145335.0], [446432.97968167823, 7145335.0], [446631.36379143683, 7145133.636208563], [446707.0160481744, 7145169.715150845], [446800.0, 7145085.0], [446831.93548387097, 7145108.225806451], [447060.0, 7145105.0], [447145.3143813051, 7144817.403271504], [447281.67883211677, 7144619.452554745], [447326.92307692306, 7144649.615384615], [447440.0, 7144595.0], [447723.24182284134, 7144641.316523944], [447750.01398794766, 7144607.011190359], [447856.96599894436, 7144680.673126496], [447953.9269461116, 7144581.923149444], [448117.5, 7144487.5], [448095.0, 7144430.0], [448140.0360832036, 7144386.129899533], [448039.80128345947, 7144242.553346723], [448032.7922077922, 7144086.623376624], [447853.18973847793, 7143902.6578920325], [447928.16573570884, 7143807.867312498], [448124.86440677964, 7143712.915254237], [448444.97106481524, 7143763.531647979], [448526.0, 7143705.0], [448791.3695740239, 7143659.764545682], [448901.9249474016, 7143765.028460495], [448999.94288708735, 7143765.262393525], [449122.71004165814, 7143884.658309591], [449113.32236842107, 7143934.046052632], [449270.35017588746, 7143885.350175887], [449325.5813953488, 7143940.5813953485], [449363.16635459044, 7143732.036755739], [449468.5507246377, 7143690.652173913], [449445.0, 7143640.0], [449565.9451715096, 7143588.552529209], [449706.4919941776, 7143619.865876482], [449803.4703196347, 7143550.890410959], [449921.9998872648, 7143555.462918926], [450126.0715172846, 7143351.468662385], [450055.0, 7143280.0], [450167.6417756979, 7143091.909870761], [450122.7275429434, 7143026.564934913], [450140.3333333333, 7142959.333333333], [450238.25268817204, 7142933.252688172], [450329.25972720387, 7143021.3458389435], [450214.720036007, 7142716.573345335], [450075.0, 7142670.0], [450057.22222222225, 7142562.222222222], [449910.85365853657, 7142415.853658536], [449767.2606412752, 7142182.273067899], [449785.0, 7142080.0], [449650.88824411796, 7141846.823237927], [449666.44231254957, 7141693.949731089], [449633.46153846156, 7141436.923076923], [449680.11440033553, 7141378.606999581], [449681.6991022663, 7141218.175152238], [449640.0, 7141105.0], [449817.0944811171, 7141048.152851494], [449778.16262354, 7140963.16262354], [449870.12368921156, 7140857.280648653], [449838.5782747604, 7140786.42172524], [449864.71428571426, 7140670.857142857], [449821.56022881984, 7140622.626138093], [449832.3803240293, 7140354.591109969], [449540.5195719731, 7140097.257704024], [449494.5132743363, 7140109.513274336], [449324.40214898717, 7140025.0532630235], [449345.0, 7139970.0], [449267.0, 7139869.714285715], [449282.6748094689, 7139800.562779288], [449178.4149479396, 7139635.0], [449034.9645810632, 7139471.629431638], [449034.898257562, 7139418.504307163], [448920.5755395683, 7139369.964028777], [448861.47717355983, 7139208.840106245], [448605.6142623257, 7138881.155398467], [448748.09338007064, 7138716.082434475], [449001.81155672594, 7138503.489169866], [448995.0, 7138460.0], [449227.237418065, 7138291.4709291505], [449435.0, 7138073.755238893], [449443.9390766393, 7138002.063824473], [449661.95353444474, 7137781.492785488], [449626.17647058825, 7137711.764705882], [449689.8600021553, 7137597.3743715845], [449827.56566869654, 7137557.434331303], [450252.44805044605, 7137122.296184149], [450311.5, 7137133.5], [450427.3836208669, 7137017.616379133], [450589.20642717637, 7136975.284108647], [450712.1440592393, 7137015.769662291], [450785.16526180203, 7136871.470886158], [450870.62514315604, 7136813.141364647], [450973.66810655146, 7136672.066234701], [450958.3333333333, 7136596.666666667], [451073.6008145818, 7136540.382409571], [451169.75951534446, 7136366.298058912], [451374.51365704724, 7136407.860515628], [451653.8579335636, 7136133.067772909], [451859.25, 7136109.583333333], [451907.4922600619, 7136007.507739938], [452225.09514604835, 7135635.07538932], [452234.918699187, 7135545.772357724], [452410.0, 7135345.0], [452534.0, 7135469.0], [452567.1508379888, 7135441.536312849], [452740.0, 7135565.0], [452902.9411764706, 7135557.94117647], [453087.6182456694, 7135626.0479233945], [453229.756097561, 7135738.048780488], [453333.09345860913, 7135749.638764325], [453390.0, 7135715.0], [453470.63136456214, 7135759.725050917], [453564.47231822036, 7135719.229802451], [453714.1398048562, 7135786.992459018], [453826.6205121166, 7135762.621346073], [454405.2066255674, 7135310.206625568], [454626.61595870316, 7135053.44569457], [454671.7219099109, 7134922.762638241], [455029.66712945874, 7134963.315098635], [455080.0, 7134935.0], [455116.9361221029, 7134966.4641040135], [455231.6666666667, 7134955.0], [455500.4357191067, 7134789.26677637], [455519.1304347826, 7134682.304347826], [455593.56609459047, 7134652.290355289], [455894.4310768917, 7134644.52514882], [455920.5180893452, 7134593.99649853], [456122.875, 7134535.0], [456204.6153846154, 7134411.923076923], [456270.0, 7134425.0], [456433.3333333333, 7134588.333333333], [456525.8332486308, 7134549.183259981], [456700.72637529974, 7134565.7263752995], [456876.05680757435, 7134664.869315909], [457015.45748876035, 7134630.45748876], [457175.0, 7134790.0], [457166.4705882353, 7134869.31372549], [457275.9360488303, 7134919.264238169], [457360.71428571426, 7135034.285714285], [457269.28571428574, 7135095.714285715], [457300.61643835617, 7135144.164383561], [457266.06053192925, 7135238.09052428], [457387.9775627693, 7135318.103459684], [457413.3333333333, 7135499.444444444], [457490.0, 7135525.0], [457517.82608695654, 7135471.956521739], [457588.19620253163, 7135570.474683545], [457658.3870967742, 7135505.645161291], [457700.0, 7135575.0], [457817.6887707974, 7135598.537754159], [457836.3093009411, 7135523.453495294], [457958.4304295877, 7135424.928395872], [458164.4323342641, 7135483.56898726], [458199.14285714284, 7135531.714285715], [458215.0, 7135733.333333333], [458188.2727272727, 7135748.181818182], [458216.9872303842, 7135877.844883098], [458083.21428571426, 7135978.214285715], [458096.6361083135, 7136049.072189327], [457818.4711091456, 7136293.108261156], [457841.6666666667, 7136333.333333333], [457643.45170136006, 7136639.922526192], [457286.61882267846, 7137072.988800065], [457216.5916719903, 7137078.279740338], [456984.6278367504, 7137356.650530754], [456993.68561201746, 7137438.170508157], [456677.5602409639, 7137715.0], [456615.08921918925, 7137708.4587480035], [456495.9128918607, 7138047.817240843], [456430.69987521577, 7138111.9591873335], [456426.2422314296, 7138182.469336817], [456382.5581395349, 7138233.372093023], [456330.86092715233, 7138198.907284768], [456263.56180740095, 7138248.178558345], [456123.4134356489, 7138229.272123497], [455916.4735751853, 7138341.769336998], [455796.9271758437, 7138458.25044405], [455745.0, 7138436.666666667], [455710.5, 7138535.5], [455763.7637276435, 7138627.54628177], [455723.3333333333, 7138685.0], [455671.5701117462, 7138680.746948864], [455557.2617353085, 7138782.704137659], [455534.20600520977, 7138898.67594583], [455637.5, 7138977.5], [455597.85714285716, 7139017.142857143], [455614.6314496315, 7139066.756756756], [455525.0, 7139190.0], [455570.43644115335, 7139182.129660795], [455663.7161941852, 7139295.310413148], [455457.7100084607, 7139534.090918261], [455377.7140259252, 7139521.645573721], [455120.31068727333, 7139798.678800823], [454933.8442211055, 7139836.968174204], [454825.0, 7139970.0], [454775.0, 7139980.0], [454757.4937612502, 7140071.236786383], [454646.7272727273, 7140093.338557994], [454570.60654759954, 7140217.486991334], [454456.4839572192, 7140286.3859180035], [454334.0761260613, 7140479.764474505], [454232.36974453676, 7140553.161335795], [454251.6666666667, 7140603.333333333], [454171.6765182188, 7140741.78747145], [454246.0762048511, 7140772.63179579], [454205.0, 7140906.315789473], [454157.5, 7140937.5], [454167.482904169, 7141042.601513865], [454096.6666666667, 7141055.0], [454098.03215825156, 7141113.367076126], [454035.2704703223, 7141156.700142037], [454225.0, 7141440.0], [454151.73308856855, 7141463.3257222], [454042.387596642, 7141591.271747907], [454055.0, 7141645.555555556], [453977.82026768645, 7141666.37667304], [453904.49845872703, 7141749.2644061325], [453938.3333333333, 7141798.888888889], [453875.0, 7141820.0], [453903.41838221735, 7141934.8214459205], [453995.0, 7141960.0], [453904.89177915046, 7142048.96181819], [453914.62322695035, 7142114.810874704], [453814.69398867723, 7142168.853435204], [453767.0, 7142273.01039501], [453805.0, 7142320.0], [453618.14897669083, 7142554.7804829], [453668.04602929094, 7142643.161378744], [453636.4285714286, 7142698.571428572], [453663.21902032726, 7142723.543747824], [453542.5, 7142897.5], [453544.3138123996, 7142947.03723198], [453671.4307361251, 7142919.083488108], [453900.0, 7143095.0], [453990.5957725402, 7143000.454545454], [454127.7043632481, 7143100.628970086], [454164.6855116259, 7143054.219081395], [454300.0, 7143015.0], [454339.73526199267, 7143121.6605583085], [454394.55448520643, 7143139.864641065], [454419.129756927, 7143102.935121536], [454541.1316513816, 7143196.241546056], [454386.3659520476, 7143371.3659520475], [454428.31542419875, 7143390.026863702], [454414.3712515278, 7143410.943122708], [454520.5279254508, 7143570.963867269], [454383.1462660485, 7143828.30284151], [454617.5471698113, 7144006.924528302], [455114.2111289215, 7144009.211128921], [455240.9002044165, 7144037.349461457], [455291.3870967742, 7144104.129032258], [455225.0, 7144190.0], [455285.0, 7144260.0], [455271.16438356164, 7144342.602739726], [455315.0, 7144370.0], [455297.30012751214, 7144445.653471603], [455387.8301886792, 7144429.245283019], [455442.0642492519, 7144547.764478085], [455400.08735868445, 7144561.048304214], [455445.0, 7144670.0], [455407.0225662297, 7144770.898451966], [455377.77606619644, 7144788.628545142], [455334.9208975887, 7144973.918092624], [455399.79525113263, 7145077.576264072], [455267.99308212416, 7145222.11721739], [455368.30024813896, 7145334.962779156], [455492.7091028715, 7145281.134686481], [455629.31873479317, 7145282.080291971], [455726.6666666667, 7145365.0], [455820.0, 7145305.0], [455949.95055664325, 7145442.570831069], [455992.2354850478, 7145449.874446387], [455979.08228749584, 7145521.356568315], [456168.18207692675, 7145551.140077485], [456155.4928849994, 7145635.835463252], [456367.8899517755, 7145812.418795495], [456441.92307692306, 7145753.846153846], [456469.57905662025, 7145843.17097962], [456632.93015924987, 7145975.98713242], [456566.8330796798, 7146030.941480627], [456486.66585088795, 7146039.167074556], [456420.8291911432, 7146153.634583522], [456424.161476557, 7146329.161476557], [456459.2065690542, 7146364.206569054], [456363.40247901407, 7146503.7830122], [456647.5397109549, 7146825.875201226], [456451.9735099338, 7147055.112582781], [456476.5096153846, 7147083.153846154], [456373.84394436225, 7147197.792299605], [456319.2119841852, 7147377.887497337], [456505.0, 7147640.0], [456477.72200928273, 7147680.131042117], [456878.4371446078, 7148109.937713236], [457004.7404259251, 7148132.266112723], [456910.6642066421, 7148225.221402214], [456840.0, 7148215.0], [456779.85090399964, 7148364.873589184], [456845.5980807282, 7148543.7361017], [457125.17229272646, 7148889.864022528], [457573.42919582204, 7149280.14280038], [457645.0, 7149290.0], [457618.3333333333, 7149323.333333333], [457798.28186015197, 7149503.281860152], [457934.73559676827, 7149435.152011915], [458225.0, 7149550.0], [458204.09090909094, 7149603.636363637], [457355.0140295584, 7150467.691135636], [457240.2018478304, 7150796.09185762], [457265.0, 7151130.0], [456330.0, 7152065.0], [456063.65965960454, 7151908.618007041], [455977.5, 7151910.714285715], [455830.0, 7151835.0], [455551.17647058825, 7152113.823529412], [455438.3116883117, 7152292.922077922], [455232.964223382, 7152305.7009932], [454833.8866256187, 7152731.031372129], [454855.0, 7152890.0], [454820.0, 7152925.0], [454610.115624705, 7152657.852748169], [454273.62889639544, 7152692.168450317], [454035.625, 7152460.625], [453861.77697934135, 7152605.797063131], [453883.3333333333, 7152805.0], [453821.6, 7152783.4], [453705.0, 7152900.0], [453705.0, 7153390.0], [453880.7749796214, 7153565.774979621], [453704.7486683737, 7153779.462625461], [453594.4186046512, 7153790.5813953485], [453370.0, 7153585.0], [453320.0, 7153585.0], [453039.606138987, 7153373.167403469], [452880.0, 7153315.0], [452443.3849014653, 7153778.210776336], [452075.0564797457, 7153923.940292541], [452074.9986174478, 7154063.330568229], [452159.00009332085, 7154245.99990668], [452030.99990667915, 7154424.00009332], [451776.6404525797, 7154678.35954742], [452096.76439955254, 7154763.533893658], [451717.7741518578, 7155297.225848142], [451322.3469387755, 7155692.653061224], [451190.72794379306, 7155919.853820125], [451233.1818181818, 7156031.818181818], [450787.60111627885, 7156058.996149374], [450408.3161865935, 7156381.764947056], [450371.59681490913, 7156341.742393977], [450190.8, 7156308.6], [450044.61499362375, 7156348.741858865], [449864.2641111307, 7156187.721997539], [449796.0296356549, 7156295.94511291], [449795.0, 7156533.333333333], [449516.8382352941, 7156481.838235294], [449476.0, 7156441.0], [449435.99789823976, 7156470.890183028], [449254.8024626102, 7156390.0957775], [447533.52009164286, 7158090.845953188], [447287.2791891765, 7158168.542049975], [446920.0674536256, 7157824.477234402], [446652.90312895965, 7158014.336244364], [446634.0, 7157991.0], [446292.9856918269, 7158395.787959155], [445816.78451146773, 7158888.420205211], [445935.0, 7159010.0], [445758.0201471651, 7158969.6062595025], [445421.4695386858, 7159112.514315772], [445160.41640067066, 7159100.691003733], [445005.9078553076, 7158989.5945900455], [444813.01574971876, 7158991.345690256], [444638.66904868244, 7159149.752121483], [444648.9155411397, 7159188.928408854], [444489.6495649733, 7159365.148584223], [444313.3577118654, 7159466.658485697], [444100.29411764705, 7159447.352941177], [443916.4201339657, 7159359.729848455], [443607.69911504426, 7159376.061946902], [443484.1806808027, 7159443.657080186], [443370.0, 7159405.0], [443142.85714285716, 7159527.527472528], [442980.0, 7159515.0], [442800.5203305128, 7159355.31639455], [442641.6666666667, 7159373.333333333], [442402.08570075757, 7159589.348958333], [442128.51423336397, 7159582.155582417], [441982.22222222225, 7159507.222222222], [441689.4407325293, 7159790.97782804], [441739.2568345926, 7159973.813199926], [441913.74272776244, 7160121.6580663705], [441602.757954207, 7160465.816074311], [441391.8428750464, 7160582.038570263], [441171.4392219658, 7160646.423959373], [440711.44945047976, 7160186.942578843], [440594.3082543702, 7160211.525711057], [440397.69741821545, 7160122.697418216], [439915.0, 7159640.0], [439988.5084137873, 7159573.663138777], [439947.5331166727, 7159442.0089724455], [439800.5, 7159174.5], [439660.0, 7159015.0], [439628.9393939394, 7159050.909090909], [439802.8503350005, 7159268.629800887], [439666.96230466274, 7159451.589526653], [439672.02265324356, 7159507.264128378], [439612.2415094036, 7159549.613161518], [439446.4969494003, 7159497.060008346], [439242.22124176525, 7159549.34843083], [438994.36847279716, 7159660.325341325], [438926.57245263696, 7159641.215053763], [438934.375, 7159684.375], [438893.75, 7159668.75], [438821.90125276346, 7159739.450994842], [438713.3333333333, 7159741.666666667], [438643.89045115537, 7159657.418388556], [438526.7913879044, 7159692.010263402], [438498.013553579, 7159664.195256247], [438236.1625422345, 7159844.20868394], [438033.14389654435, 7159793.347243314], [437867.28769713803, 7159847.712302862], [437750.0, 7159965.0], [437724.54545454547, 7159941.363636363], [437624.4640690306, 7160014.20318188], [437509.20901207556, 7159926.167031364], [437514.28571428574, 7159865.0], [437439.9547920434, 7159886.962025316], [437490.55555555556, 7159964.444444444], [437389.52386895026, 7160109.295288845], [437536.86937458726, 7160298.130625413], [437455.0, 7160380.0], [437487.35294117645, 7160412.352941177], [437392.1842105263, 7160502.394736842], [437340.0, 7160475.0], [437021.66889332735, 7160595.275411272], [436971.706819278, 7160565.455776545], [436732.5146780891, 7160690.776595135], [436619.76744186046, 7160664.76744186], [436486.3236968679, 7160693.224933411], [436360.48421537725, 7160789.353536039], [435584.2556321787, 7160936.723830658], [435590.4803578053, 7161138.024578221], [435328.2506203474, 7161305.062034739], [435372.5, 7161355.833333333], [435352.5, 7161402.5], [435401.95276790246, 7161478.918232606], [435365.0, 7161530.0], [435433.6956521739, 7161646.521739131], [435423.8823529412, 7161695.588235294], [435328.8691623972, 7161718.580098223], [435040.0, 7161985.0], [435010.0, 7161965.0], [434982.9268292683, 7162019.146341464], [434770.0, 7162035.0], [434507.2891566265, 7161772.289156627], [434427.7272727273, 7161617.2727272725], [434459.3450692434, 7161322.100044776], [434418.75, 7161143.75], [434483.4355838788, 7160937.284361006], [434440.0, 7160885.0], [434379.3939393939, 7160921.363636363], [434330.0, 7160885.0], [434168.94098625705, 7161039.502829426], [434183.4516129032, 7161111.311827957], [434104.9021854071, 7161119.7065562215], [434096.36363636365, 7161094.090909091], [434067.9400919228, 7161156.988004468], [433726.24052194855, 7161197.702581715], [433662.86779661017, 7161162.13220339], [433620.0, 7161205.0], [433580.0, 7161165.0], [433449.5004796871, 7161230.2497601565], [433366.2622439755, 7161175.540687579], [433345.8908341916, 7161218.491246138], [433270.0, 7161235.0], [433252.6666666667, 7161200.333333333], [433204.16554486135, 7161267.004760013], [433142.43660464085, 7161279.604093405], [433054.3809221268, 7161369.858690013], [432937.1808381986, 7161308.694102108], [432819.96231051855, 7161159.113939301], [432671.11406601674, 7161151.727343437], [432648.79194630875, 7161092.583892617], [432506.25, 7161180.0], [432350.69620253163, 7161044.721518988], [432285.3719786544, 7161070.851208538], [432297.817679558, 7161118.674033149], [432183.03417016123, 7161165.714045703], [431969.7396984007, 7161446.340196597], [431696.28307833086, 7161675.209278243], [431512.65777210373, 7161679.621212204], [431415.0, 7161850.0], [431443.5714285714, 7161910.476190476], [431368.1053277013, 7161960.707180815], [431415.4054054054, 7162024.459459459], [431275.8976821854, 7162264.669907353], [431155.0, 7162270.0], [431192.14285714284, 7162302.857142857], [431013.1976744186, 7162518.430232558], [430902.03370301024, 7162597.833069279], [430814.9438202247, 7162548.595505618], [430676.1796023092, 7162581.0333547145], [430580.4578969965, 7162638.714914164], [430516.0, 7162585.0], [430470.59139784944, 7162612.688172043], [430477.4821894724, 7162658.324900563], [430601.91180717264, 7162740.009246914], [430612.3476969169, 7162855.222857612], [430581.0743018016, 7162989.0603734255], [430490.73557560844, 7163043.528848783], [430547.01201929315, 7163185.937949161], [430320.0, 7163295.0], [430256.2679991403, 7163282.454330539], [430257.9166666667, 7163319.416666667], [430052.0833333333, 7163340.583333333], [429906.33543407405, 7163385.508383378], [429788.171698343, 7163450.540952043], [429400.0, 7163518.333333333], [429210.0, 7163605.0]]]}}]}