{"type": "FeatureCollection", "crs": {"type": "name", "properties": {"name": "EPSG:25833"}}, "features": [{"type": "Feature", "properties": {"station": "308.1.0", "name": "Lenglingen", "series": ["1001.1"], "nodes": 4521613, "fine_vertices": 20224, "fine_area_m2": 452161450.0, "reduced_vertices": 915, "reduced_area_m2": 452161449.99999964, "outline_tolerance_m": 20.0, "windows": [[1463, 1375], [2137, 2173], [3336, 3738], [5458, 6473]], "placed_on": "number", "distance_m": 9.026673501307986, "uncertainty_m": 30.0, "elvid": "308-2-1582", "objectid": 11357998, "lake": true, "confluence_near": false, "reach_up_m": 533.7833188772006, "reach_down_m": 130.0, "reach_fork": false, "seeded_by": "lake", "lake_rule": "lake_line", "lake_number": 1139, "lake_name": "Lenglingen", "lake_distance_m": 0.2995400981900797, "node_offset_m": null, "chain_nodes": null, "lowered_nodes": null, "lowered_max_m": null, "direction_ok": null, "end_extended_m": null, "end_closed": null, "downstream_checked": null, "a0": null, "area_up": null, "area_down": null, "swing": null, "largest_step": null, "largest_step_at_m": null, "checked_up_m": null, "checked_down_m": null, "drains": null, "monotone": null, "causes": []}, "geometry": {"type": "Polygon", "coordinates": [[[418800.0, 7141145.0], [418706.289646918, 7141171.792339916], [418509.7738990975, 7141016.374927187], [418422.8814348712, 7140845.957192868], [418303.02958216646, 7140744.495840129], [418152.83794877294, 7140730.583665417], [418093.39494703844, 7140639.145455116], [417997.89671845274, 7140703.863744452], [417925.0, 7140576.666666667], [417939.5381076309, 7140499.563119414], [417862.85067022906, 7140293.022711162], [418054.29019093426, 7140223.774231162], [418124.43640858226, 7140268.493879158], [418342.9595868706, 7140207.506161731], [418346.115287434, 7140044.64725095], [418396.11397401564, 7139953.620710705], [418419.40895535063, 7139951.51700476], [418421.1377127028, 7139793.862287297], [418483.25967516843, 7139731.740324832], [418380.96862313664, 7139588.6273608515], [418115.89866355096, 7139613.684476474], [418084.3333333333, 7139752.666666667], [417987.96200923104, 7139771.891261366], [417888.3567446353, 7139611.47719959], [417891.0084995495, 7139156.59603561], [417855.0812567714, 7139096.499556781], [417971.0, 7138552.0], [417948.3378999902, 7138491.145904687], [417999.12322936294, 7138426.783197265], [417985.0, 7138340.0], [417802.27430555556, 7138194.461805556], [417754.2755375107, 7138225.006476129], [417618.660529433, 7138119.2079422], [417537.6510067114, 7138152.651006712], [417500.0, 7138115.0], [417418.26579411025, 7138138.352630254], [417430.79398797435, 7138358.361177473], [417318.04875048687, 7138441.496648148], [417248.3714457559, 7138388.006548981], [417057.6662370474, 7138404.495420118], [416936.24131580663, 7138518.53738871], [416787.65686132445, 7138550.703521228], [416696.13730673486, 7138734.957631952], [416631.4881225075, 7138652.386558471], [416572.7272727273, 7138644.090909091], [416527.1794620286, 7138583.087456867], [416440.0, 7138625.0], [416360.0292285744, 7138512.338459932], [416170.6217077738, 7138528.039638961], [416154.85297477234, 7138459.405861427], [415999.51359411946, 7138442.767429078], [415840.0, 7138515.0], [415814.62296983757, 7138447.059164734], [415815.0, 7138320.0], [415763.5608999224, 7138268.560899923], [415662.1153846154, 7138332.371794872], [415440.38831368217, 7138293.673437805], [415259.9692815439, 7138419.313136712], [415147.7406376677, 7138288.849574945], [415060.0, 7138345.0], [414977.6699919958, 7138306.597914999], [414780.7313477779, 7138295.731347778], [414785.7267696198, 7138195.0], [414850.5774064433, 7138152.940227945], [414805.0, 7138090.0], [414838.4554057727, 7137951.747840983], [414745.0, 7137712.227626459], [414916.3333333333, 7137565.0], [414984.5715932989, 7137572.464215821], [415069.5458684893, 7137362.7885273], [415060.9988307445, 7137245.2700802125], [414941.4079125319, 7137215.322363995], [414857.2932104947, 7137087.710795113], [414890.06160986726, 7137044.305225637], [414853.8542498947, 7136847.203102983], [414949.87761929916, 7136719.857369255], [414889.9259046302, 7136619.883267876], [414915.0, 7136490.0], [414749.5077720207, 7136347.616580311], [414773.3345974616, 7136260.747532876], [414568.1618516946, 7136182.30636325], [414555.0, 7136150.0], [414640.4612355874, 7136057.804285956], [414810.03968305734, 7136010.286295768], [414868.0, 7135927.0], [414922.4770642202, 7135946.834862385], [414983.769470405, 7135902.258566978], [415042.5, 7135932.5], [415180.18518518517, 7135870.37037037], [415144.7457212714, 7135799.4914425425], [415178.89088007394, 7135729.252955186], [415094.23728813557, 7135608.152542373], [415050.0, 7135625.0], [415038.71794871794, 7135579.871794872], [415075.85870334785, 7135528.819662183], [415066.6666666667, 7135425.0], [415188.361060385, 7135461.127824961], [415203.19314429525, 7135361.9795452235], [415259.20682831225, 7135291.905326687], [415235.34384286404, 7135237.189111809], [415368.2892161911, 7135106.022784278], [415303.3767671808, 7134837.664768734], [415261.3205821339, 7134804.9210246615], [415236.91263791523, 7134679.327454781], [415155.0, 7134560.0], [415170.15577739413, 7134478.240129492], [415051.0376617224, 7134286.981169139], [415094.15422885574, 7134265.422885573], [415081.71789151314, 7133990.597412498], [414964.3542635659, 7134013.362015503], [414874.68253968254, 7133938.888888889], [414767.6965309804, 7134017.0667411], [414557.2839864334, 7133831.489931766], [414475.59076109476, 7133876.863587031], [414342.7755177518, 7133863.897110528], [414253.5984667832, 7133741.250596155], [414307.9289513606, 7133617.759527583], [414122.44801889634, 7133315.64745728], [414009.3391207802, 7133227.668663695], [414033.3333333333, 7133175.0], [413912.05690582865, 7133152.475803179], [414004.4629106299, 7132994.300803419], [414098.0044223454, 7133034.7219998585], [414139.1095890411, 7132982.05479452], [414095.0, 7132960.0], [414157.9447852761, 7132906.380368099], [414315.38270489953, 7132866.345676225], [414440.0, 7132875.0], [414444.7755102041, 7132901.857142857], [414630.83900001406, 7132832.225830774], [414687.5229357798, 7132851.880733945], [414708.0, 7132795.0], [414856.9775102778, 7132855.845135455], [414922.4137931034, 7132802.586206896], [414984.7159456119, 7132810.285537701], [415026.48918239865, 7132898.274206591], [415106.7338963514, 7132886.410316373], [415329.6300167224, 7133144.5965719065], [415430.380440024, 7133173.525109571], [415674.977959446, 7133019.977959446], [415707.14373464376, 7133052.143734644], [415787.5378787879, 7133050.315656566], [415830.0, 7133135.0], [415956.53445942583, 7133163.3820001185], [416033.41738446936, 7133303.643143947], [416120.058200828, 7133292.62968628], [416157.46861924685, 7133237.447698745], [416110.9064023085, 7133159.844003848], [416135.0, 7133100.388475365], [416230.55082090176, 7133056.1284584515], [416293.85, 7133108.85], [416395.0, 7133067.142857143], [416395.0, 7133036.666666667], [416461.498716303, 7133053.948294939], [416508.8095238095, 7132983.80952381], [416586.1904761905, 7133021.19047619], [416775.0, 7133000.0], [416762.2483994878, 7132972.279129322], [416870.7971014493, 7132863.768115942], [416821.213592233, 7132823.786407767], [417028.80539182137, 7132746.832464695], [417144.28571428574, 7132663.571428572], [417141.5785600392, 7132591.452839445], [417345.3861528278, 7132433.073237868], [417484.1931714101, 7132281.780310748], [417560.0564691834, 7132285.926172023], [417415.4905310139, 7132041.387036821], [417343.45801598777, 7132045.360906333], [417206.4285714286, 7131858.571428572], [417220.6721509904, 7131824.475320543], [417031.2764787191, 7131719.498830901], [416847.75084317033, 7131558.678330523], [416908.76436407276, 7131365.972833267], [416996.0, 7131401.0], [417133.62787370896, 7131370.246587777], [417105.173192097, 7131290.295869833], [417187.09209356015, 7131225.69631348], [417250.7301980198, 7131309.146039604], [417347.73408463417, 7131321.982514527], [417416.5976834431, 7131087.709280232], [417425.0, 7130955.0], [417385.0, 7130930.0], [417418.49067902146, 7130864.761605211], [417333.468679022, 7130802.107976917], [417397.66670872003, 7130762.107666105], [417362.5886173611, 7130713.191463021], [417298.51431435725, 7130698.877405455], [417375.0, 7130550.0], [417326.4285714286, 7130495.0], [417323.9876915348, 7130404.848028134], [417247.542268873, 7130421.884496721], [417148.7281614766, 7130336.1458144095], [417087.22222222225, 7130217.777777778], [417131.5714285714, 7130106.571428572], [417069.8033174786, 7129965.9661565935], [416865.0, 7129760.0], [416864.6153846154, 7129695.0], [416800.0, 7129695.0], [416542.11067075963, 7129495.88117383], [416701.0636831319, 7129387.007550432], [416817.8125, 7129485.0], [416912.56551964255, 7129504.471377715], [417040.2164911109, 7129620.3394397115], [417221.195136791, 7129528.132251035], [417327.0500620604, 7129598.078196111], [417376.4786341002, 7129546.500555721], [417567.6874228667, 7129570.036887542], [417748.24930393725, 7129393.30390417], [417799.87271229055, 7129401.956629787], [418044.1485819716, 7129134.255465903], [418130.8447969576, 7129153.422023141], [418270.1583710407, 7128918.031674208], [418275.0, 7128767.5], [418417.76336714276, 7128457.248504713], [418543.87459363765, 7128281.680111905], [418680.62347733125, 7128188.651250221], [418875.7537810322, 7128140.889511453], [418931.69801022863, 7128100.844953695], [418943.26757608494, 7127852.878994471], [418977.0168067227, 7127802.773109243], [418882.62430939224, 7127672.983425414], [418965.0, 7127560.0], [418900.5991425892, 7127484.078456661], [419172.35283473117, 7127218.408679643], [419286.8505573784, 7127255.103323891], [419430.0, 7127215.0], [419561.6289717059, 7127351.859261972], [419682.5216554823, 7127376.112482211], [419861.2349578432, 7127519.78344572], [420176.9444649264, 7127380.03966791], [420282.1273065077, 7127373.041197875], [420436.6296979426, 7127263.206525721], [420606.16858237545, 7127201.475095785], [420664.5229521676, 7127240.296435963], [420847.037037037, 7127282.037037037], [420978.44444444444, 7127413.444444444], [421036.0, 7127381.0], [421170.0, 7127515.0], [421210.71523178805, 7127503.476821192], [421325.6318896966, 7127620.7472441215], [421386.5050918965, 7127591.505091896], [421460.35286284954, 7127665.35286285], [421564.0510948905, 7127659.416058394], [421598.4514519562, 7127777.558606612], [421411.6551724138, 7127860.931034483], [421456.9996071656, 7127912.26367621], [421240.1011560694, 7128025.101156069], [421240.31619778555, 7128123.997318463], [421612.3404783909, 7128498.87587521], [421704.1212121212, 7128441.545454546], [421832.91689008044, 7128544.0563002685], [421950.0, 7128485.0], [422004.5192982274, 7128584.737663545], [422047.171314741, 7128523.525896414], [422155.65598051477, 7128506.22440919], [422160.0, 7128575.0], [422220.0, 7128575.0], [422488.2761700891, 7128843.276170089], [422607.7829441521, 7128769.440754177], [422777.2073640861, 7128817.234108731], [422910.83904769045, 7128749.313496127], [423124.8621227817, 7128508.92271271], [423288.09402886615, 7128410.624235184], [423320.5234898615, 7128337.17440201], [423396.4118302335, 7128328.411368768], [423661.67871089483, 7128094.97588595], [423923.72710662347, 7127962.326865459], [423993.38445642695, 7127894.8463078365], [424144.3797856049, 7127852.320061256], [424279.04761904763, 7127733.571428572], [424555.2745119905, 7127617.369448162], [424719.1354525166, 7127468.795717261], [424714.3020755841, 7127353.659388136], [425104.9356033616, 7127135.8437638525], [425179.3719806763, 7127132.874396135], [425285.52278377634, 7127079.08693877], [425499.5570715813, 7127020.012727828], [425561.5783205591, 7126926.69453777], [426012.71745604044, 7126641.038599548], [426080.0, 7126685.0], [426188.2890855457, 7126647.802359882], [426304.03081464564, 7126728.821570252], [426504.8381729613, 7126674.48943652], [426633.91346334165, 7126606.04007842], [426683.57400365436, 7126530.776209253], [426867.2204345632, 7126450.139707482], [426947.5, 7126382.5], [427008.7798484892, 7126433.048506496], [427025.25352112675, 7126485.6760563385], [427151.33791461965, 7126465.225583437], [427316.4136075234, 7126385.676025295], [427307.77777777775, 7126358.703703703], [427410.0, 7126275.0], [427500.16983354586, 7126275.0], [427446.90614152787, 7126176.903106797], [427474.527832928, 7126134.940636224], [427871.2921564353, 7126001.113439889], [427996.11784646177, 7126259.335595423], [428066.7926581903, 7126206.904714787], [428219.100579469, 7126325.115989746], [428346.6547728799, 7126284.677843411], [428505.0, 7126360.0], [428562.2688655672, 7126327.873563218], [428871.66385327576, 7126327.938322294], [428971.9928803059, 7126412.928579416], [429155.77193375124, 7126433.414028573], [429298.7606826536, 7126312.7421634635], [429234.0, 7126228.6], [429285.45454545453, 7126197.7272727275], [429370.0, 7126235.0], [429414.649122807, 7126190.350877193], [429546.83027003845, 7126165.5338668], [429562.9447852761, 7126115.552147239], [429760.0, 7126045.0], [429871.14285714284, 7126156.142857143], [430096.0, 7125961.0], [430165.91679506935, 7126030.916795069], [430214.08284023666, 7126002.278106509], [430172.85714285716, 7125949.285714285], [430260.2046809454, 7125884.008160762], [430351.8181818182, 7125945.0], [430385.0, 7125890.0], [430355.0, 7125860.0], [430393.77802880545, 7125842.992092629], [430536.0504201681, 7125885.0], [430572.1212121212, 7125957.121212121], [430666.85903608456, 7125905.519333537], [430769.78890876565, 7125963.279069767], [430695.23627596727, 7126005.533864296], [430853.4274282137, 7126121.762487719], [431110.89221470716, 7126098.553029213], [431122.27722772275, 7126016.287128713], [431277.17391304346, 7125897.826086956], [431252.74255295686, 7125781.822370816], [431402.65253360907, 7125605.274043433], [431414.54373963946, 7125531.333767767], [431552.2036950055, 7125403.054642242], [431535.0, 7125350.0], [431706.0112711334, 7125302.069505323], [431750.0, 7125345.0], [431833.4070040912, 7125242.329315766], [431798.79317133536, 7125060.876341128], [431755.91476470913, 7125023.86354264], [431891.0, 7124937.0], [431936.3917525773, 7124988.608247423], [431980.0, 7124945.0], [432032.85714285716, 7124962.142857143], [432104.6341463415, 7124890.365853659], [432180.79890079965, 7124965.71938588], [432352.49047430715, 7124847.820970224], [432436.01553874806, 7124928.800147762], [432561.10306549264, 7124844.319864317], [432771.26888782496, 7124993.730818349], [433002.7015909766, 7125049.843190419], [433207.4525278747, 7124885.305002095], [433406.61290401465, 7124645.768214445], [433445.81246742676, 7124671.518144153], [433703.32411089557, 7124428.789426034], [433896.40033157123, 7124351.7686094055], [434215.6925443497, 7124355.712533975], [434262.1722120661, 7124327.172212066], [434332.60557688994, 7124378.809107283], [434451.5084934424, 7124305.875574699], [434501.0515827929, 7124324.700117114], [434690.0, 7124185.0], [434741.5487852793, 7124209.368516677], [435130.0558409609, 7123823.998487791], [435158.5141962022, 7123673.250727974], [435296.86595567677, 7123595.033248081], [435346.0850364711, 7123615.994012213], [435485.9757307973, 7123542.412032207], [435505.4099235797, 7123362.41360332], [435774.36123348016, 7123131.123348017], [435793.1792797302, 7123155.415290887], [436142.6728732423, 7122842.382440257], [436235.27777777775, 7122884.413580247], [436268.07692307694, 7122825.384615385], [436571.63861824624, 7122701.519043401], [436622.69860279444, 7122736.868263473], [436667.25093105686, 7122681.753809623], [436765.31902004976, 7122697.452216787], [436769.93160643283, 7122741.4223191505], [436833.51851851854, 7122721.481481481], [436796.74702260876, 7122667.843464682], [436825.70314559666, 7122570.5366906095], [437290.0, 7122475.0], [437334.28571428574, 7122430.714285715], [437372.16560509556, 7122467.738853503], [437530.0, 7122355.0], [437655.7143777999, 7122329.85712444], [437647.8037220024, 7122241.658883399], [437899.9631500107, 7122107.294521863], [437926.0400715287, 7121997.667438154], [438104.74661377136, 7121775.472238556], [438237.92828262784, 7121657.286109907], [438344.3566580358, 7121609.818703698], [438329.26829268294, 7121539.390243903], [438370.0, 7121465.0], [438415.4794520548, 7121510.479452055], [438624.6151278446, 7121419.488782288], [438675.75846752105, 7121295.759106138], [439093.1275632094, 7120872.942115287], [439228.07692307694, 7120886.923076923], [439290.5773372248, 7120940.654519622], [439318.91078838176, 7120903.9107883815], [439248.63737486093, 7120790.745272525], [439419.35584928334, 7120582.944811604], [439407.36481761123, 7120567.956022014], [439544.01303814724, 7120311.727183242], [439814.86453281867, 7120043.824069606], [439805.6683714983, 7119963.9962803675], [439902.7919081073, 7119912.208091892], [439926.04628842184, 7119851.046288421], [439865.0, 7119790.0], [439904.6036454533, 7119695.729449659], [439976.78957508295, 7119633.558814085], [439935.0, 7119570.0], [439971.79843826254, 7119523.201561738], [439922.0195934618, 7119435.923609609], [440016.72745595686, 7119312.941669494], [440115.0, 7119344.847376467], [440115.0, 7119404.444444444], [440232.6085425086, 7119414.076172618], [440301.34500773996, 7119528.245420537], [440513.92996007553, 7119379.158166783], [440698.0187301169, 7119397.662686906], [440891.15620033536, 7119360.388688411], [441107.04946946603, 7119190.385935649], [441424.1176470588, 7119100.294117647], [441598.21002400306, 7119157.944987712], [441787.5, 7119312.5], [441870.0, 7119285.0], [442100.0, 7119495.0], [442204.28571428574, 7119390.714285715], [442258.4625918563, 7119440.12426128], [442411.8853785403, 7119357.000585848], [442456.0237694106, 7119265.434411375], [442652.5, 7119380.0], [442795.2631578947, 7119379.736842105], [442823.63636363635, 7119351.363636363], [442890.0, 7119395.0], [442938.27787482424, 7119362.814750117], [443023.41781317885, 7119419.359160029], [443119.8306730691, 7119370.339224173], [443323.9391660707, 7119372.033052531], [443476.63206516247, 7119189.91453535], [443645.2421023208, 7119144.33326279], [443775.6477768365, 7119038.207111717], [443894.0, 7119055.0], [443904.0849018567, 7118972.838526382], [444027.0021954257, 7118828.22820831], [444605.0561797753, 7118589.06741573], [444667.59445861715, 7118664.11335034], [444745.70318514435, 7118637.926493178], [444825.6446252058, 7118707.715346348], [444805.0, 7118818.888888889], [444895.0, 7118880.0], [444884.1089108911, 7118913.762376238], [444969.19999761856, 7118844.36909288], [445125.0, 7118790.0], [445170.94517641806, 7118834.1608977225], [445285.3846153846, 7118810.384615385], [445474.77612256905, 7118900.065329067], [445692.357167937, 7119202.1587913735], [445559.0356391386, 7119281.497171891], [445491.0896130346, 7119381.99592668], [445733.2111166282, 7119667.119724275], [445725.0, 7119710.0], [445961.45802832855, 7119909.531788807], [445981.55070700945, 7119910.210387745], [446115.0, 7120020.0], [446094.42032936116, 7120057.78001454], [446020.4955736552, 7120073.365560025], [446114.9306963748, 7120469.033730251], [446235.24054982816, 7120578.476887263], [446222.4736842105, 7120652.631578947], [445972.9070611693, 7120902.087578486], [446072.4837095345, 7121040.650054736], [446164.1666163716, 7121279.166616372], [446190.0, 7121305.0], [446200.0, 7121425.0], [446259.3333333333, 7121379.666666667], [446418.9626382048, 7121467.69613469], [446610.02532074356, 7121365.310793073], [446725.0, 7121465.402298851], [446725.0, 7121550.303030303], [446890.0, 7121645.0], [446889.90559817874, 7121581.320526655], [447020.2743253774, 7121505.407310752], [447070.0, 7121515.0], [447120.3881626685, 7121338.560897903], [447218.80816289684, 7121263.001098809], [447275.0, 7121320.0], [447257.5298072635, 7121376.903013411], [447341.428283845, 7121430.455460493], [447351.55, 7121398.25], [447490.54958268785, 7121409.26841095], [447575.81521080126, 7121499.867573884], [447505.0, 7121630.0], [447522.66271313373, 7121674.156782835], [447477.38333114237, 7121711.916655712], [447515.0, 7121820.0], [447483.30618892505, 7121917.4484256245], [447503.1244707875, 7121950.156646909], [447544.41199872823, 7121910.793658159], [447711.72974230966, 7122051.553436556], [447705.0, 7122150.0], [447797.71191823867, 7122260.339159927], [447747.80673157936, 7122450.553447562], [447765.6630925508, 7122570.66027088], [447722.5, 7122708.5], [447839.92672959995, 7122687.820123787], [447893.0162428959, 7122840.921703236], [447828.18046272494, 7123070.348586118], [447692.14285714284, 7123294.285714285], [447714.1525423729, 7123363.898305085], [447637.7102803738, 7123414.859813084], [447677.5, 7123477.5], [447589.16936441977, 7123495.653318873], [447320.12195884273, 7123973.976541904], [447470.13513513515, 7124001.081081081], [447536.8070593579, 7124080.647819061], [447569.8657949071, 7124184.865794907], [447527.3966942149, 7124338.895567243], [447579.09531502426, 7124322.915993538], [447575.90701811656, 7124294.695059108], [447705.4509230118, 7124270.919072224], [447862.3514840276, 7124413.128096442], [447845.0, 7124450.0], [447919.67757780245, 7124451.570353492], [448156.76286457805, 7124192.072103028], [448124.9039411559, 7124154.283317328], [448214.4776119403, 7124041.31840796], [448471.54059142765, 7124233.459408572], [448490.0, 7124215.0], [448556.98625913536, 7124292.789244441], [448756.63101659925, 7124123.630486006], [448950.0, 7124265.0], [448994.44444444444, 7124220.555555556], [449040.0, 7124265.0], [449090.0, 7124215.0], [449221.7867084203, 7124326.2369519835], [449227.24497487437, 7124391.114321608], [449155.0, 7124540.0], [449232.65882352943, 7124629.894117647], [449284.8138946146, 7124586.442977488], [449407.02479338844, 7124636.487603306], [449509.65332506975, 7124535.789593281], [449613.2167750173, 7124534.302528359], [449632.1202003339, 7124460.759599332], [449670.4342263277, 7124485.522262728], [449759.7376084443, 7124380.90631577], [449935.0728565047, 7124490.00995263], [449971.3157894737, 7124453.157894737], [450053.9192886457, 7124548.78248974], [450025.0, 7124650.0], [450074.60289122956, 7124717.622184356], [449976.9398907104, 7124776.420765027], [449950.0, 7124855.0], [449900.0, 7124855.0], [449779.6167634571, 7125003.954665114], [449748.0368477078, 7125094.188252645], [449665.0, 7125110.0], [449671.21172353456, 7125217.882764654], [449727.6666666667, 7125245.333333333], [449719.0081799591, 7125274.826175869], [449898.79148984974, 7125512.069503384], [450008.9329179039, 7125475.355694032], [450043.32060498616, 7125543.5668244315], [450315.0, 7125640.0], [450285.0, 7125670.0], [450353.7765910891, 7125782.373664975], [450445.0, 7125850.0], [450405.0, 7125945.0], [450516.2277364661, 7125950.212877645], [450545.0, 7126010.0], [450510.71428571426, 7126045.714285715], [450605.0, 7126140.0], [450624.2857142857, 7126245.0], [450766.7013469811, 7126172.96008377], [450864.5245849205, 7126244.234540198], [450884.7320597232, 7126425.115681402], [450996.8856111899, 7126552.938112147], [451107.76470588235, 7126400.294117647], [451180.88028169016, 7126428.415492957], [451326.374853114, 7126571.6568742655], [451317.54543670773, 7126616.944118539], [451500.09404388716, 7126785.438871473], [451598.8407888408, 7126753.840788841], [451650.0, 7126805.0], [451694.28571428574, 7126779.285714285], [452358.07722671214, 7127416.034487355], [452438.5714285714, 7127352.142857143], [452506.1093010927, 7127365.785170545], [452602.3188405797, 7127315.0], [452977.11264404864, 7127652.889282014], [452894.12034778966, 7127891.93014952], [452995.90909090906, 7127948.939393939], [452899.5598109923, 7128036.47973141], [453103.0124663219, 7128196.177902965], [453130.0, 7128185.0], [453120.41728494916, 7128275.53031868], [453039.79122110194, 7128333.189903928], [452850.42311389785, 7128305.315784902], [452665.5224362685, 7128439.013466282], [452731.49107973283, 7128567.726388771], [452578.2790169132, 7128728.032589852], [452604.9326974935, 7128765.795323426], [452531.0589812333, 7128854.745308311], [452595.1036186069, 7128960.510038097], [452405.77423373004, 7129229.398348029], [452350.0, 7129235.0], [452229.8336414048, 7129131.321626618], [451915.32075249794, 7129381.552511201], [451968.4637211148, 7129481.094904049], [451926.25622953154, 7129551.249110067], [451830.0, 7129565.0], [451725.0, 7129677.619047619], [451729.1674332614, 7129753.884801414], [451639.60286521784, 7129810.038007991], [451610.6756756757, 7129882.972972973], [451507.32824427483, 7129930.34351145], [451502.9224988182, 7130005.36922256], [451408.3333333333, 7130126.666666667], [451465.7449209932, 7130195.553047404], [451509.83027360286, 7130429.027616005], [451370.97500333906, 7130444.604770858], [451314.86175927264, 7130505.1843209695], [451382.7776455364, 7130584.874980281], [451268.80283353967, 7130731.552009627], [451292.43842364533, 7130776.157635468], [451082.7776794914, 7131001.786254541], [451032.2994068036, 7131138.284392937], [451119.54106280196, 7131364.541062802], [451131.8126520681, 7131507.761557178], [451245.3060554974, 7131584.570957053], [451325.0, 7131830.0], [451369.90952427645, 7131852.454762138], [451400.6173364325, 7132006.431710149], [451450.3487055883, 7132046.966702814], [451385.39701813465, 7132328.890406297], [451430.78747670725, 7132392.400705156], [451405.0, 7132561.111111111], [451495.0, 7132620.0], [451438.54069986206, 7132888.312638489], [451465.0, 7132935.555555556], [451247.2117663035, 7132892.419626698], [451012.2865374705, 7132990.252792362], [450807.1681118938, 7133137.528446954], [450649.38773336774, 7133152.75520232], [450628.39297127834, 7133081.569086113], [450445.3846153846, 7132960.384615385], [450213.1605805554, 7133111.500762145], [450112.5, 7133060.0], [449973.1718309859, 7132909.163380282], [449680.0015720637, 7133012.503787669], [449379.1163441229, 7133151.463784433], [449292.26133909286, 7133112.6047516195], [449201.64686491125, 7133124.297180707], [448838.8305915954, 7132877.070720458], [448542.17922606925, 7133152.393075356], [448490.0, 7133125.0], [448440.0, 7133175.0], [448158.9331720167, 7133260.780114882], [447746.38439270196, 7132871.855083561], [447401.42131979694, 7132744.441624366], [447213.84329974616, 7132957.447264853], [447030.5216852392, 7133010.031663326], [446370.55362223956, 7132684.861205959], [446142.7404553376, 7132483.310599476], [446145.0, 7132220.0], [446169.5503616629, 7132168.174087792], [446104.05704014364, 7132086.1121479655], [446203.3882369094, 7131930.500764931], [446106.5662650602, 7131798.433734939], [446105.6439394775, 7131665.398979527], [446133.8888888889, 7131643.333333333], [446106.35021097044, 7131627.848101266], [446125.0, 7131460.0], [446012.4459311492, 7131403.766569487], [445918.3333333333, 7131523.333333333], [445955.0, 7131560.0], [445922.5630252101, 7131608.655462185], [445795.0595432627, 7131533.83688495], [445457.61506497464, 7131785.917228597], [445392.6383773026, 7131762.937753474], [444937.68815131875, 7132236.075001265], [444869.5810892573, 7132215.039941184], [444649.865564993, 7132562.9792782795], [444477.758984904, 7133027.1301276665], [444054.15095890395, 7133426.85742894], [444067.1927105918, 7133540.279235046], [443947.58273395285, 7133641.618311139], [443912.4845451869, 7133777.484545187], [444033.21187655814, 7133986.610141027], [443916.70764341863, 7134053.609299214], [443732.93320860487, 7134357.933208605], [443765.5225067073, 7134390.522506707], [443666.45673376217, 7134542.056443245], [443351.714730502, 7134226.736250766], [443239.3865030675, 7134211.871165644], [442718.5828128305, 7133718.262413059], [442499.7691424575, 7133692.197181468], [442378.1308187142, 7133786.52115865], [442327.21764929435, 7133730.4571841415], [441938.0, 7134013.0], [441835.99101312255, 7133860.183272424], [441742.3333333333, 7133812.0], [441787.2911694511, 7133778.281622912], [441644.6967824688, 7133700.041810893], [441322.67771001696, 7133954.755758765], [441332.32611119736, 7133994.607850597], [440981.3737538782, 7134193.73004847], [440872.4862563748, 7134158.98433186], [440752.0330412254, 7134264.621986867], [440695.58011049725, 7134242.071823205], [440495.3656199502, 7134333.618967575], [440364.1176470588, 7134419.117647059], [440268.9371980676, 7134397.850241546], [440210.0, 7134445.0], [440151.17647058825, 7134433.235294118], [439998.73717211216, 7134501.110018179], [439839.59651072783, 7134644.596510728], [439783.4375, 7134588.4375], [439536.81242916506, 7134767.860176006], [439477.15025906736, 7134737.849740933], [439416.6666666667, 7134798.333333333], [439390.55085716315, 7134781.714181831], [439151.92207807384, 7135010.643073525], [438964.0, 7135117.8], [438901.76486365736, 7135069.735133516], [438817.5391930095, 7135087.368285787], [438825.0, 7135220.0], [438650.38973341574, 7135354.685819554], [438566.24199968076, 7135356.113080846], [438445.0, 7135469.028697572], [438239.0909090909, 7135541.363636363], [438209.649122807, 7135645.0], [438120.6666666667, 7135645.0], [438064.26801269787, 7135745.576231421], [437909.50239670946, 7135861.85379881], [437761.4728523907, 7135840.074480286], [437512.38018683164, 7136082.364110297], [437513.03933270805, 7136199.742306253], [437464.01932820154, 7136287.657904896], [437479.86222500814, 7136374.452063508], [437342.8212148605, 7136476.924024689], [437284.6812916435, 7136593.801826569], [437132.0, 7136635.0], [437110.0, 7136685.0], [437060.45253863133, 7136675.386313465], [437040.223139905, 7136781.099203991], [436891.4492753623, 7136874.541062802], [436673.80438257573, 7136709.012207404], [436395.860634547, 7136790.175361654], [436282.39390218764, 7136894.718641294], [436292.95336966607, 7136973.860108999], [436181.0671287953, 7137058.469787031], [436055.4656059897, 7137059.53439401], [435875.68876872543, 7137231.5535203675], [435869.24242424243, 7137310.606060606], [435767.7272727273, 7137391.818181818], [435701.55357296043, 7137575.83898087], [435624.88673303265, 7137659.886733033], [435655.0, 7137690.0], [435566.7628705148, 7137837.0358814355], [435430.91961566673, 7137919.685542727], [435401.32624129485, 7138115.28470899], [435339.19075154467, 7138140.647313424], [435265.0, 7138360.0], [435315.0, 7138410.0], [435249.9866190901, 7138505.0223015165], [435303.4482758621, 7138558.1034482755], [435174.387929196, 7138612.407762849], [435145.0, 7138680.0], [435198.3333333333, 7138733.333333333], [435175.0458085407, 7138847.4760180125], [435230.71428571426, 7138924.285714285], [435191.63754046947, 7139024.9661203], [435270.09841214813, 7139106.5184203945], [435245.0, 7139231.373239436], [435046.2511477311, 7139463.127869328], [435088.3454535764, 7139551.762312539], [434764.21793894685, 7139876.91345421], [434805.32258064515, 7139907.741935484], [434651.1573638291, 7140027.775667941], [434637.3244926616, 7140366.9796379255], [434553.3333333333, 7140511.666666667], [434492.5, 7140497.5], [434584.07168159686, 7140628.194839622], [434362.3457540109, 7140827.133650961], [434539.936635025, 7141036.399340764], [434492.7696793003, 7141070.801749271], [434370.17674910836, 7141079.468618787], [434330.0, 7141175.0], [434237.66460987885, 7140995.703136547], [433866.378803079, 7141039.104922914], [433611.2043574319, 7141017.379235975], [433562.55094869994, 7141025.850316233], [433420.0, 7141005.0], [433268.9002089864, 7140925.744514107], [433096.08437093475, 7141040.887381528], [432980.0, 7141055.0], [432922.14285714284, 7140997.142857143], [432941.4022990824, 7140957.420258143], [432742.28590810526, 7140801.932652586], [432733.47045811545, 7140727.0980682755], [432558.1818181818, 7140743.181818182], [432520.843373494, 7140705.843373494], [432411.1648724443, 7140822.317280026], [432340.3323303478, 7140853.108675327], [432114.04999516514, 7140782.958289014], [432105.0, 7140700.0], [432173.9682241994, 7140674.456783839], [431940.14255378104, 7140347.160313483], [432344.47061336954, 7139983.918539722], [432473.48276937474, 7139748.535786684], [432413.3870967742, 7139688.064516129], [432431.92068454146, 7139605.4572812775], [432361.35413911665, 7139577.158159217], [432233.44795929315, 7139628.973951253], [432008.97348489775, 7139769.938675498], [431871.0938886288, 7139686.448423529], [431801.8438110156, 7139716.405802267], [431605.0, 7139460.0], [431631.3005181347, 7139427.398963731], [431336.7072969489, 7139103.976983645], [431123.8048780488, 7139028.804878049], [431020.0, 7138925.0], [430910.27262781607, 7138974.973251756], [430780.8236211748, 7138816.537457521], [430893.25396825396, 7138637.619047619], [430830.83258853434, 7138575.82423131], [430600.6351151589, 7138638.063704384], [430458.67011323315, 7138587.893494151], [430239.47076350637, 7138667.601603058], [430179.2280613528, 7138740.9844103595], [429983.36694614234, 7138591.905406552], [429347.3792669478, 7139022.061704197], [428958.04195644805, 7139212.355526613], [428884.5914396887, 7139134.688715953], [428706.2816641598, 7139221.76762513], [428580.1041932733, 7139342.239580034], [428436.2309556515, 7139405.0], [428306.96336036955, 7139288.036639631], [428267.7566881977, 7139290.516324758], [427925.25525260495, 7138802.090971113], [427823.2903529049, 7138888.373897379], [427690.57917751855, 7138866.958439373], [427623.8981149636, 7138746.986376026], [427420.0995263001, 7138685.1427576365], [427388.8557378987, 7138648.313747668], [427263.2773109244, 7138708.361344538], [427181.99464524764, 7138637.003569835], [427140.0, 7138665.0], [427060.0, 7138596.428571428], [426930.0, 7138575.0], [426696.7958360515, 7138645.077148088], [426439.0476365235, 7138806.097660386], [426143.1065909135, 7138886.473114735], [426125.0, 7138920.0], [426187.62350227253, 7138998.537939175], [425915.1631445034, 7139070.798793731], [425740.0, 7139035.0], [425690.0, 7139085.0], [425571.0765473642, 7139107.476528007], [425482.22222222225, 7139185.0], [425418.2783654404, 7139173.514482724], [425106.0491592619, 7139274.697544682], [424916.31340156496, 7139154.630424778], [424828.5071990217, 7139055.282637218], [424867.31357327534, 7138920.689278282], [424605.3438934943, 7138988.608824024], [424444.4911641313, 7138848.352073735], [424311.5636279131, 7138860.347053722], [423866.7736530106, 7139085.201986747], [423904.5691930439, 7139169.019791647], [423836.01851851854, 7139248.240740741], [423702.23566398333, 7139143.571547794], [423509.8242811502, 7139303.514376997], [423320.25240546995, 7139531.978886912], [423355.0, 7139570.0], [423198.125, 7139653.125], [423060.4033476875, 7139515.403347688], [422723.1051110081, 7139630.5853851745], [422721.19286869455, 7139703.3179296665], [422235.56817493186, 7140138.746843907], [422149.5523187267, 7140240.956658826], [422106.60878783016, 7140177.551798502], [421950.57481117285, 7140339.132305147], [421620.0, 7140565.0], [421559.30391547544, 7140540.438160348], [421439.4452038616, 7140587.34687089], [421355.9036282905, 7140725.393057172], [421251.4630902959, 7140703.828394214], [421157.3886832869, 7140785.0171131175], [421055.8026579165, 7140654.4554577805], [420608.6575219559, 7140869.89067579], [420559.8572701191, 7140998.861370574], [420430.0, 7141115.0], [420340.0, 7141095.0], [420232.78784555127, 7141202.789531411], [420245.0, 7141260.0], [420066.6166747897, 7141323.541996381], [419915.775862069, 7141408.227969348], [419864.0, 7141385.0], [419855.5470319635, 7141427.264840183], [419723.19188652834, 7141458.562506742], [419539.0392727975, 7141285.230559009], [419448.7566571074, 7141219.903109894], [419353.07692307694, 7141331.153846154], [419387.7855705206, 7141429.597930755], [419087.2570710023, 7141558.589755373], [418973.8136957032, 7141408.735318906], [418924.2420154596, 7141415.856915467], [418800.0, 7141145.0]]]}}]}