{"type": "FeatureCollection", "crs": {"type": "name", "properties": {"name": "EPSG:25833"}}, "features": [{"type": "Feature", "properties": {"station": "311.6.0", "name": "Nybergsund", "series": ["1001.0"], "nodes": 8, "fine_vertices": 32, "fine_area_m2": 750.0, "reduced_vertices": 4, "reduced_area_m2": 750.0, "outline_tolerance_m": 20.0, "windows": [[511, 455]], "placed_on": "number", "distance_m": 73.20304724886097, "uncertainty_m": 73.20304724886097, "elvid": "311-1-1", "objectid": 11334956, "lake": false, "confluence_near": false, "reach_up_m": 1000.0, "reach_down_m": 173.2030472488609, "reach_fork": false, "seeded_by": "river", "lake_rule": null, "lake_number": null, "lake_name": null, "lake_distance_m": null, "node_offset_m": 12.634050140308144, "chain_nodes": 163, "lowered_nodes": 161, "lowered_max_m": 0.2403564453125, "direction_ok": true, "end_extended_m": 497.6955262170047, "end_closed": false, "downstream_checked": "whole", "a0": 0.0008, "area_up": 0.0011, "area_down": 0.0008, "swing": 0.0, "largest_step": 0.3245, "largest_step_at_m": -10.0, "checked_up_m": 72.4264068711932, "checked_down_m": 66.56854249492426, "drains": false, "monotone": false, "causes": ["chain_not_draining", "chain_end_open"]}, "geometry": {"type": "Polygon", "coordinates": [[[356380.0, 6794615.0], [356305.0, 6794540.0], [356310.0, 6794535.0], [356385.0, 6794610.0], [356380.0, 6794615.0]]]}}]}