{"type": "FeatureCollection", "crs": {"type": "name", "properties": {"name": "EPSG:25833"}}, "features": [{"type": "Feature", "properties": {"station": "313.10.0", "name": "Magnor", "series": ["1001.0"], "nodes": 3567475, "fine_vertices": 22036, "fine_area_m2": 356747950.0, "reduced_vertices": 1126, "reduced_area_m2": 356747949.9999998, "outline_tolerance_m": 20.0, "windows": [[489, 481], [1151, 1017], [2535, 2248], [5576, 4630]], "placed_on": "number", "distance_m": 19.285768148665582, "uncertainty_m": 30.0, "elvid": "313-1-388", "objectid": 11386814, "lake": false, "confluence_near": false, "reach_up_m": 1000.0, "reach_down_m": 130.0, "reach_fork": false, "seeded_by": "river", "lake_rule": null, "lake_number": null, "lake_name": null, "lake_distance_m": null, "node_offset_m": 4.757631037706348, "chain_nodes": 100, "lowered_nodes": 91, "lowered_max_m": 0.7317276000976562, "direction_ok": true, "end_extended_m": 0.0, "end_closed": true, "downstream_checked": "whole", "a0": 356.7475, "area_up": 356.73740000000004, "area_down": 356.76070000000004, "swing": 3.7000960062902446e-05, "largest_step": 0.011599999999987176, "largest_step_at_m": 10.0, "checked_up_m": 24.142135623731065, "checked_down_m": 24.142135623731065, "drains": true, "monotone": true, "causes": []}, "geometry": {"type": "Polygon", "coordinates": [[[331025.0, 6675210.0], [330994.45273333084, 6675178.460150294], [331044.46048270894, 6674900.103525757], [330935.0, 6674820.0], [331043.4056008328, 6674647.355739973], [331053.0542532423, 6674465.976262946], [331164.3333333333, 6674316.0], [331124.9505504584, 6674320.206520152], [331014.3794001113, 6674199.930741342], [331021.2385321101, 6674006.076632488], [330986.6666666667, 6674005.0], [331002.7272727273, 6673947.7272727275], [330886.45018470945, 6673818.642297413], [330911.6013237756, 6673605.636335066], [330719.9240500939, 6673375.958495356], [330759.37541682104, 6673301.9126478275], [330765.0, 6673140.0], [330664.7523808783, 6673067.916460458], [330712.0280815369, 6672830.746399044], [330445.1117370628, 6672711.5777596915], [330401.0466928661, 6672454.070039299], [330405.06596357404, 6672347.554969645], [330186.5646883121, 6672179.2700200835], [330245.0, 6672110.0], [330134.9330343505, 6671889.49966629], [330190.8094007065, 6671853.4842269905], [330145.0, 6671760.0], [330215.0, 6671690.0], [330153.46153846156, 6671597.692307692], [330251.15705086914, 6671469.502723405], [330369.6153846154, 6671499.807692308], [330458.6098410636, 6671405.501360847], [330491.92737430165, 6671292.290502793], [330554.4615473308, 6671258.207079442], [330509.6834205218, 6671192.15787051], [330556.875, 6671097.1875], [330593.1117299748, 6671126.7623417815], [330759.10513497336, 6671128.241573768], [330757.5009072702, 6671074.530174214], [331004.74788687716, 6670921.310191434], [331090.0, 6670795.0], [331142.63182441046, 6670810.8453610465], [331294.6538237497, 6670666.6838645255], [331393.29781555635, 6670496.200745032], [331374.3171806167, 6670360.682819383], [331347.12979890313, 6670387.870201097], [331226.2162162162, 6670360.945945946], [331243.6971530214, 6670205.029702067], [331198.5549132948, 6670122.630057803], [331122.89357648534, 6670177.378093224], [330985.8823529412, 6670115.588235294], [330992.40223856835, 6670186.349752997], [330887.94669244246, 6670232.535688377], [330724.1237113402, 6670035.0], [330598.73762770236, 6670049.5854295455], [330620.27777777775, 6670235.833333333], [330403.4934068049, 6670423.908955905], [330341.1282024446, 6670412.068998492], [330238.2474889249, 6670343.29165494], [329932.8037916997, 6670642.774905682], [329972.2, 6670767.2], [329868.212087718, 6670894.914209559], [329650.43732054345, 6670832.31770424], [329645.972570358, 6670961.795459617], [329530.4853101197, 6670956.096844396], [329285.0, 6671130.0], [329269.2257916129, 6671201.351730166], [329147.26989378384, 6671197.730106216], [329139.0537202891, 6671327.526036655], [329025.26063690655, 6671361.993110301], [328966.6666666667, 6671501.666666667], [328875.1513279802, 6671501.522544781], [328855.346151083, 6671464.156374583], [328762.9980630714, 6671465.335647348], [328713.39519475895, 6671542.416698262], [328720.0, 6671595.0], [328521.41388361185, 6671694.854035924], [328413.23483246675, 6671634.152939054], [328236.0, 6671729.0], [328187.31658405537, 6671699.844678194], [328155.4286207449, 6671601.888850532], [328089.1208791209, 6671653.461538462], [328094.3210500341, 6671738.85126084], [327909.07456148026, 6671909.418081837], [327805.07229439705, 6672078.76039604], [327788.1001517451, 6672180.927162367], [327674.8986307447, 6672230.043982938], [327507.90654780203, 6672169.976944359], [327350.30249086494, 6672278.051299757], [327303.7715481088, 6672402.603219361], [327189.61121319793, 6672441.418741973], [327208.3552580919, 6672076.893699005], [327170.52329860674, 6671989.211280065], [327237.68507811887, 6671754.523145662], [327147.8921701436, 6671613.569493363], [327175.0, 6671580.0], [326992.09148598625, 6671429.636876432], [327011.4835164835, 6671365.384615385], [327105.0, 6671280.0], [327020.8376053454, 6671208.744425222], [327062.9310344828, 6671133.1034482755], [326951.56950171787, 6671011.319310757], [327027.5690618657, 6670888.223504393], [327005.0, 6670790.0], [326950.0, 6670815.0], [326949.6190971547, 6670768.910755722], [326699.15124488267, 6670604.532371098], [326482.6377988477, 6670845.562763689], [326481.6839378238, 6670676.7616580315], [326383.2682650251, 6670738.268265025], [326292.4370690551, 6670660.266162593], [326144.91734362824, 6670690.56378948], [325830.52756840293, 6670954.507235999], [325848.03677636303, 6670863.490476112], [325722.63841553597, 6670804.742781815], [325713.92074271035, 6670684.398635989], [325617.9514737464, 6670580.050340474], [325457.10959474946, 6670334.863006563], [325471.6666666667, 6670316.666666667], [325392.0726890415, 6670275.485019148], [325404.9109950881, 6670164.572776423], [325337.6305417837, 6669918.906321985], [325118.9278378824, 6669968.558319454], [325084.54545454547, 6669909.545454546], [325000.0, 6669935.0], [324957.51824817515, 6669886.897810219], [324867.9655172414, 6669955.379310345], [324895.0, 6670020.0], [324863.02083844156, 6670042.195146994], [324837.99195942597, 6669914.521564272], [324706.23554603854, 6669794.614561028], [324659.3205741627, 6669802.703349282], [324593.09693597583, 6669726.260049852], [324731.86311179696, 6669687.700007074], [324695.0, 6669540.0], [324657.1621621622, 6669511.621621622], [324690.2367269036, 6669416.038007199], [324900.2216280764, 6669202.611299606], [324883.08144080656, 6669110.567072076], [325049.7517808916, 6668884.053488093], [325037.79477337666, 6668847.722580644], [325122.881099669, 6668794.621898555], [325182.9930716538, 6668702.809699684], [325154.27790722426, 6668553.605569254], [325231.3944976122, 6668451.785939329], [325106.55462184874, 6668335.0], [325035.3846153846, 6668335.0], [325035.0, 6668270.0], [325137.80986994115, 6668088.286828625], [325067.2, 6668071.0], [324999.9990444202, 6667857.917649553], [325165.1267571664, 6667630.0011217445], [325129.26877470355, 6667629.683794467], [325106.8739484923, 6667301.873948492], [325075.80360091804, 6667270.803600918], [325199.52556934487, 6667006.1730339285], [325323.0196486707, 6666839.783611919], [325398.75, 6666860.0], [325450.0, 6666805.0], [325568.5351421297, 6666848.208915348], [325617.38600691623, 6666717.613993084], [325799.97870876594, 6666717.220111345], [325795.0, 6666803.333333333], [325852.5625733281, 6666776.45737192], [325845.0, 6666716.0], [325884.6084476808, 6666714.492200156], [325922.95920161234, 6666605.9847681], [326005.0, 6666580.0], [326015.2284890745, 6666407.415207237], [325875.0, 6666300.0], [325901.20432924305, 6666281.5331586925], [325895.16826123226, 6666178.862056256], [325739.6266543827, 6666118.771666853], [325693.65141070646, 6666196.809039535], [325584.94817491, 6666099.219717892], [325538.75290591194, 6665912.1198521005], [325485.0, 6665794.933451641], [325604.89361702127, 6665750.106382979], [325598.48248709086, 6665704.144087643], [325784.8504459419, 6665573.510441593], [325910.8940646131, 6665560.867768595], [326154.15556129185, 6665344.795831584], [326163.1603850839, 6665083.035783845], [326236.51147364965, 6664935.368532013], [326306.63592127245, 6664924.469823517], [326308.5714285714, 6664796.428571428], [326362.05731323507, 6664833.315388438], [326364.496971598, 6664784.237020144], [326634.1857670085, 6664576.868584503], [326585.0, 6664470.0], [326609.7716442542, 6664430.168942058], [326514.7308016459, 6664302.161519012], [326587.05559721275, 6664197.270622732], [326657.2018348624, 6664174.311926605], [326718.70846165024, 6663964.922244421], [326758.35545113217, 6663937.742155314], [326802.0516717325, 6663846.474164134], [326971.40384731983, 6664152.678347673], [327079.3990898081, 6664056.213679151], [327125.0, 6664075.900864398], [327125.0, 6664020.0], [327230.2150537634, 6663975.860215054], [327240.0, 6664015.0], [327284.92741246795, 6663967.058070025], [327314.9525055147, 6664014.067054088], [327434.0212764666, 6663971.279014086], [327565.0, 6664260.0], [327535.0, 6664276.666666667], [327576.80497131933, 6664670.841300191], [327605.8813974293, 6664697.544140496], [327663.6903594109, 6664972.4470934635], [327783.4761001979, 6664982.247737278], [327921.2149668945, 6664933.785033106], [328024.12765275524, 6664973.249843642], [328065.0, 6664925.256410256], [328077.77379733877, 6664838.3213920165], [328275.26676063106, 6664636.9941001935], [328325.0, 6664644.0], [328317.26856561546, 6664574.152012789], [328433.7555097833, 6664448.043304092], [328330.3826056071, 6664314.617394393], [328445.0, 6664200.0], [328445.0, 6664119.910533305], [328579.1967286972, 6663982.847611275], [328630.87940432696, 6664027.177051649], [328778.6484940907, 6663809.931376287], [328756.0, 6663743.0], [328782.03575173975, 6663708.834790702], [328995.1299759008, 6663822.237565895], [329138.2599507554, 6663766.481557714], [329141.6666666667, 6663691.666666667], [329220.0, 6663655.0], [329311.7435380258, 6663693.960424413], [329438.5536290762, 6663550.724403278], [329655.1660599335, 6663599.787339012], [329735.0266690614, 6663666.060748696], [329720.0, 6663745.0], [329814.4068877551, 6663674.194834184], [329940.8219178082, 6663794.178082191], [329961.00700533774, 6663707.779153232], [330062.45535536594, 6663619.554351087], [330064.5481275497, 6663426.941040946], [330233.84086288547, 6663226.522588656], [330221.36363636365, 6663189.090909091], [330280.0, 6663145.0], [330340.0, 6663205.0], [330406.6666666667, 6663182.777777778], [330422.909632572, 6663198.247269116], [330554.28571428574, 6663117.857142857], [330550.0, 6663085.0], [330594.0520004749, 6663140.80315802], [330645.0, 6663110.0], [330645.0, 6663046.666666667], [330705.0, 6663020.0], [330732.0107096413, 6662914.274802384], [330803.6956521739, 6662873.043478261], [330772.40157480317, 6662825.196850394], [330791.91756272403, 6662786.164874552], [330743.82352941175, 6662718.235294118], [330749.4786829886, 6662595.981426762], [330723.4982412864, 6662544.0005024895], [330503.9137762096, 6662621.962869429], [330378.7380406977, 6662516.007449973], [330313.11785881984, 6662509.276099546], [330401.2949047592, 6662460.213641893], [330557.03902631113, 6662287.093741802], [330540.88777433743, 6662188.868403452], [330409.4666666667, 6662097.666666667], [330395.0, 6662000.0], [330283.06651069893, 6661855.806359818], [330341.8065591453, 6661781.471551111], [330266.6666666667, 6661591.666666667], [330299.84120171674, 6661447.261802576], [330271.0, 6661404.0], [330318.6950904393, 6661356.304909561], [330161.92307692306, 6661215.384615385], [330189.10777453013, 6661066.66632454], [330255.0, 6661020.0], [330196.7371597417, 6660894.319352562], [330259.1628681029, 6660815.025759542], [330115.23281706276, 6660662.326580099], [330176.830149638, 6660525.947986323], [330135.0, 6660400.0], [330183.0, 6660328.0], [330155.0, 6660270.0], [330263.5366016039, 6660167.4243891295], [330350.15848963667, 6660027.459495701], [330325.55555555556, 6659835.0], [330391.91996706114, 6659818.901013469], [330556.6250464219, 6659580.738525647], [330573.94774411654, 6659602.611487822], [330655.7897290456, 6659444.102639227], [330762.61157714634, 6659440.405182214], [330830.2145828916, 6659299.104504582], [330970.8108108108, 6659300.675675675], [331089.1001863988, 6659220.435282119], [331034.38696250657, 6659026.6972098285], [330979.9748431651, 6658940.836069439], [330979.4213398359, 6658824.203037507], [330921.4701824481, 6658822.054912522], [331145.5210156066, 6658545.3890084345], [331226.65920994425, 6658540.871574158], [331295.80150707345, 6658419.3511797935], [331430.098215282, 6658310.6379558025], [331429.5673166675, 6658221.373657146], [331503.0011227764, 6658144.875698593], [331562.3118816443, 6658148.582166479], [331628.8095238095, 6658056.19047619], [331505.0, 6657970.0], [331468.2277684393, 6657869.712095743], [331137.109052167, 6657652.109052167], [331262.5427074861, 6657416.94618304], [331227.4889698564, 6657319.9764254205], [331156.5968890679, 6657245.0], [331125.4022988506, 6657245.0], [330992.5, 6657027.5], [331032.2668833158, 6656956.270891169], [330949.76744186046, 6656891.976744186], [330870.82036165876, 6656904.866063403], [330836.79382090864, 6656719.824510931], [330730.0, 6656755.0], [330756.3674874607, 6656673.807471068], [331075.6982027689, 6656322.493581317], [331052.7839380439, 6656240.656921585], [331295.7662835249, 6656103.448275862], [331271.26633861294, 6655993.198523758], [331415.4490989144, 6655777.836824186], [331351.6666666667, 6655730.0], [331395.306645215, 6655648.175040222], [331321.6090712743, 6655579.956803456], [331587.25094110006, 6655276.290086497], [331671.31072770903, 6655142.96980364], [331581.49215350125, 6654896.95634973], [331665.0, 6654675.0], [331631.8048499409, 6654594.587610632], [331655.2853238886, 6654370.272326929], [331595.1327584009, 6654312.859807129], [331408.2608695652, 6654425.869565218], [331369.8308133353, 6654423.507048842], [331345.55555555556, 6654515.0], [331310.6666666667, 6654515.0], [331265.0, 6654440.0], [331351.1763527649, 6654315.082419621], [331293.5064935065, 6654274.7402597405], [331260.0, 6654335.0], [331176.8979717014, 6654273.28377519], [331245.2737615299, 6654126.84277181], [331214.37875751505, 6654082.404809619], [331306.1180031277, 6653978.465853403], [331248.66119649704, 6653856.549871094], [331333.85496183205, 6653790.687022901], [331165.0, 6653630.0], [331201.16861121566, 6653540.030109146], [331172.14285714284, 6653495.714285715], [331225.89285714284, 6653444.464285715], [331215.0, 6653390.0], [331266.1157210914, 6653353.02513599], [331275.4660725566, 6653229.465490896], [331559.02313676773, 6653078.384774727], [331755.7244350158, 6652894.031831681], [331672.7163982277, 6652593.333786467], [331563.1818181818, 6652538.181818182], [331616.4909862142, 6652496.6320254505], [331619.7826086957, 6652373.478260869], [331679.3965782061, 6652234.120967436], [331663.90624425944, 6652193.5594035825], [331755.1174825175, 6652105.4097902095], [331714.4783694669, 6652017.725848378], [331826.8181818182, 6651760.606060606], [331916.15488810634, 6651784.466593078], [331973.1722962276, 6651686.887636163], [331959.3351522356, 6651584.833788059], [332019.47288863844, 6651608.770509306], [332063.9912041994, 6651411.008795801], [332111.3333333333, 6651363.666666667], [332086.6666666667, 6651088.333333333], [332146.07989406056, 6651137.254046459], [332244.44444444444, 6651145.0], [332257.4711511832, 6651025.7016032245], [332396.3692682795, 6650977.970278703], [332410.0, 6650925.0], [332486.0, 6651001.0], [332612.7194860814, 6650986.498929336], [332633.8020833333, 6650955.833333333], [332736.19728970673, 6650968.205272855], [332840.75436131505, 6650906.711572015], [332922.9503959458, 6650960.17177585], [332971.37383809127, 6651045.905302323], [333036.36363636365, 6650967.7272727275], [332990.5936323296, 6650895.050624054], [333065.0, 6650840.0], [333053.0, 6650758.0], [333141.6, 6650696.6], [333166.6666666667, 6650721.666666667], [333260.8112324493, 6650679.149765991], [333338.0, 6650727.0], [333438.0736009306, 6650708.018196626], [333558.13829940005, 6650594.077044051], [333514.6579758358, 6650514.73891264], [333668.17627454293, 6650450.243678605], [333736.95652173914, 6650502.971014493], [333854.70033434615, 6650406.491746135], [333933.09523809527, 6650268.095238095], [333789.08994350233, 6649994.749929875], [333827.4418604651, 6649956.627906977], [333873.04143126175, 6649988.107344633], [334068.5714539732, 6649864.20029086], [334198.03544390487, 6649612.345907064], [334277.40346732497, 6649623.779604625], [334344.32805666386, 6649520.215024024], [334274.02864005987, 6649434.619541459], [334192.2588832487, 6649201.776649746], [334129.1475982533, 6649154.558078603], [334010.0, 6649185.0], [333918.242384159, 6648972.383171113], [333903.5804893699, 6648847.372826771], [333855.0, 6648830.0], [333903.02470250864, 6648771.853591347], [333853.8888888889, 6648656.666666667], [333935.6976744186, 6648479.302325581], [333951.9845988404, 6648359.594606174], [334036.94140564976, 6648329.766513076], [334065.9875348508, 6648355.083777505], [334086.48255813954, 6648241.308139535], [334028.20544353756, 6648234.215714176], [333970.3420934828, 6648108.209655759], [333966.600363654, 6647766.14457847], [334067.43278394005, 6647555.035233753], [334071.88796473056, 6647409.056017634], [334120.0, 6647385.0], [334175.3333333333, 6647479.666666667], [334234.54545454547, 6647420.454545454], [334393.62905791285, 6647529.96325847], [334526.0376732247, 6647550.943020148], [334596.12679040927, 6647510.693997679], [334577.68274038675, 6647381.627356911], [334629.6691233081, 6647347.308005068], [334700.0, 6647355.0], [334728.03547066846, 6647287.455661665], [334825.1716888577, 6647226.786965663], [334974.2303211603, 6647242.186200615], [335101.7036864955, 6647144.771661893], [335165.0, 6646990.0], [335046.68223851325, 6646775.000163339], [335100.4025283476, 6646635.402528347], [335075.8573305509, 6646592.252979632], [335096.0746403135, 6646322.149280627], [335065.0, 6646260.0], [335415.2320511288, 6645942.1799552], [335528.8437445305, 6645690.029945737], [335571.46211646835, 6645665.472761428], [335656.25, 6645828.75], [335730.0, 6645755.0], [335773.46128961374, 6645798.4612896135], [335966.1615818102, 6645643.030901374], [336027.06874364475, 6645637.52201306], [336076.1853437449, 6645784.261778949], [336222.9066969902, 6645895.0], [336213.5469152164, 6645833.295730156], [336250.17390415823, 6645804.565221987], [336236.372052359, 6645758.9812725745], [336306.0, 6645669.0], [336460.55932405096, 6645705.750098408], [336475.55365028133, 6645682.587362428], [336575.0, 6645754.0], [336575.0, 6645694.258705316], [336640.9714348016, 6645663.380941997], [336602.91489361704, 6645531.659574468], [336675.0, 6645474.285714285], [336661.77526547713, 6645396.826554937], [336704.9685186885, 6645332.47025335], [336665.0, 6645250.0], [336687.03293223557, 6645015.275490817], [336739.5253883591, 6644951.041301087], [336704.22051366704, 6644848.990158005], [336677.6688377123, 6644505.401353099], [336805.81732811383, 6644462.284059122], [336907.15231788077, 6644323.675496689], [336917.27241146634, 6644261.702964835], [336979.1739933774, 6644222.282508278], [337023.005759854, 6644062.594053255], [336950.1469221009, 6643800.659192102], [336994.1127551137, 6643747.703388253], [336889.7689695747, 6643637.400125202], [336934.64695861086, 6643436.091820661], [336889.43671281205, 6643294.436712812], [336902.9365899225, 6643159.544150777], [336745.0, 6642940.0], [336805.0, 6642890.0], [336811.76521661354, 6642703.923661485], [336680.87526472047, 6642558.846472501], [336718.3878943491, 6642377.405195005], [336815.0, 6642290.0], [336736.4369025769, 6642260.269419233], [336301.0262529833, 6641795.0], [336240.0, 6641795.0], [336142.6610644258, 6641892.3389355745], [336045.7041194652, 6641804.486379104], [336181.6013156597, 6641392.0364534855], [336929.98505397857, 6640648.558416631], [336988.4295915065, 6640816.421985765], [337096.6666666667, 6640851.666666667], [337250.0, 6641005.0], [337342.7586206897, 6640943.9655172415], [337366.6666666667, 6641021.666666667], [337674.2738744678, 6641329.273874468], [337985.6261393265, 6641231.564657514], [338128.4346074242, 6640819.705099076], [338192.85688453604, 6640742.672101184], [338430.48021681444, 6640950.530234025], [338410.9259259259, 6641135.925925926], [338285.0, 6641280.0], [338325.2150095619, 6641533.481177899], [338135.21793550346, 6641743.099988645], [338147.35928426293, 6641843.773269327], [338085.9929723951, 6642093.013671357], [338265.0, 6642246.666666667], [338279.99988354306, 6642364.9985636985], [338043.345323741, 6642601.726618705], [338061.0853392848, 6642690.426696423], [338000.753920386, 6642842.7864897465], [338029.1379310345, 6643034.482758621], [337956.6386032092, 6643108.5412117755], [338059.7907824119, 6643268.1347664], [337896.2580290089, 6643423.774087027], [337916.3333333333, 6643484.0], [337845.0, 6643570.0], [337884.4871794872, 6643629.230769231], [337850.0, 6643675.0], [337808.6440677966, 6643675.0], [337801.875, 6643638.125], [337661.626351128, 6643748.14618913], [337796.4201750751, 6644106.745882784], [337795.0, 6644260.0], [337735.0, 6644320.0], [337755.0, 6644350.0], [337588.8776291761, 6644437.807910057], [337615.6451612903, 6644531.935483871], [337504.25908076635, 6644624.285619974], [337520.3290647446, 6644779.327792627], [337428.958160418, 6644809.60342195], [337391.0, 6644930.0], [337455.2329450915, 6644940.948419301], [337495.0, 6645010.0], [337452.35537190083, 6645049.614325069], [337555.0, 6645170.0], [337525.0, 6645200.0], [337589.57741290075, 6645249.271131851], [337588.0213976401, 6645444.741537035], [337485.0, 6645700.0], [337445.625, 6645709.375], [337485.7027387065, 6645896.865304534], [337407.299286253, 6645941.098110825], [337464.7260347767, 6646058.68880827], [337583.75, 6646128.75], [337647.13134076394, 6646003.572066596], [337734.61430161004, 6645941.92849195], [337791.97642690624, 6645796.976426906], [337955.0, 6645960.0], [337924.5697121027, 6646223.049055878], [337872.13762459566, 6646279.285401053], [337965.0, 6646410.0], [337925.0, 6646460.0], [337977.83890247217, 6646527.775061125], [337965.0, 6646640.0], [338009.622282952, 6646694.89503874], [338092.37994164653, 6646668.442088311], [338199.2355525607, 6646828.405151041], [338188.59766491543, 6647004.507068298], [338280.6400436298, 6646997.217263618], [338406.03242200887, 6647101.480124121], [338469.0372783221, 6647047.21655235], [338587.7209457639, 6647110.318293651], [338640.0, 6647115.0], [338719.8587426464, 6647158.963880314], [338910.76968482684, 6647159.640462157], [339118.1310891783, 6647063.683634328], [339227.9872977636, 6647192.926232663], [339440.15183032386, 6647260.506734409], [339585.0, 6647420.0], [339585.0, 6647487.2549019605], [339624.23076923075, 6647506.153846154], [339523.1616894098, 6647679.5424468545], [339406.79446665605, 6647773.1572647225], [339355.7464303288, 6647975.1823662855], [339406.40625, 6648165.15625], [339489.7662337662, 6648105.0], [339544.7044540935, 6648179.778154034], [339553.496835443, 6648312.484177215], [339602.2560727829, 6648357.736042102], [339546.94097616343, 6648416.118047673], [339601.0101321431, 6648513.278587929], [339556.37761149585, 6648558.477902741], [339724.34712211427, 6648761.958633658], [339662.37373446306, 6648906.9353715945], [339685.0, 6648932.5], [339640.9562375346, 6648964.832019861], [339611.4257236372, 6649160.87073958], [339550.0, 6649125.0], [339508.6646097411, 6649224.599690626], [339362.59702064446, 6649375.810241424], [339382.863416896, 6649621.9926368045], [339316.3815653919, 6649690.733017834], [339286.17647058825, 6649798.823529412], [339335.55834497785, 6649880.974942567], [339422.63157894736, 6649923.421052632], [339460.0, 6649885.0], [339482.19630848477, 6649966.386464444], [339552.5433526012, 6649955.0], [339623.4871175429, 6650031.621985591], [339860.0, 6650115.0], [339931.6004250224, 6650057.047914271], [340336.2090087506, 6650099.526126094], [340416.0755722078, 6650035.432374319], [340481.87493005494, 6649899.201966445], [340637.0, 6649918.0], [340621.3496466721, 6649968.587826162], [340719.83682008367, 6650022.418410042], [340695.9135909811, 6650049.265385847], [340886.20691845083, 6650292.87845343], [340975.04611969047, 6650220.407782462], [341082.4911340868, 6650051.029080195], [341095.0, 6649916.0], [341201.9646246654, 6649798.4745573765], [341273.5692574152, 6649871.589701435], [341320.0, 6649845.0], [341342.0, 6649887.666666667], [341457.90267678787, 6649887.380023971], [341498.38678527396, 6649858.376770499], [341448.99371259206, 6649744.224168276], [341555.0, 6649510.0], [341548.4727622478, 6649382.718863832], [341587.7702702703, 6649323.581081081], [341737.07005098084, 6649338.58084563], [341775.0, 6649225.894736842], [341842.85714285716, 6649186.428571428], [341897.3295701259, 6649229.576639166], [341972.14932635485, 6649200.235558292], [341958.1885588017, 6649338.925269215], [341843.53658536583, 6649532.195121951], [341890.0, 6649565.0], [341980.42435424356, 6649487.41697417], [341998.9260446654, 6649387.917697382], [342114.01104958856, 6649297.575398282], [342183.0167315187, 6649192.235674239], [342141.9790144251, 6649155.0829436295], [342242.06209539506, 6648934.16473368], [342361.1111111111, 6648917.222222222], [342596.64148750727, 6648967.932973306], [342560.1246730329, 6649190.352008427], [342709.94280715764, 6649357.414210737], [342694.7082832964, 6649399.854818723], [342840.23121387284, 6649575.462427746], [342935.45454545453, 6649608.636363637], [342904.4736842105, 6649677.236842105], [342950.0, 6649685.0], [343097.9343305342, 6649825.557302157], [343025.5744125326, 6650101.075718015], [343044.7938308594, 6650200.132884893], [342957.9903450891, 6650256.081470863], [342970.0, 6650315.0], [342914.4555955033, 6650296.4851985015], [342822.97930406884, 6650360.601113605], [342784.22048066877, 6650319.82445141], [342715.15008245944, 6650481.309169367], [342615.3755361367, 6650543.2144221235], [342497.2482107071, 6650684.365015746], [342522.36936936935, 6650712.630630631], [342450.8430232558, 6650816.424418605], [342620.5043771424, 6650933.756340368], [342750.47985201445, 6651196.6691757655], [342752.56048812676, 6651327.205095011], [342607.5, 6651462.5], [342652.6, 6651507.6], [342601.6666666667, 6651623.333333333], [342403.21008670836, 6651811.830544047], [342480.202081949, 6651827.155669162], [342568.99036705337, 6651875.0], [342714.54095453565, 6652066.089741373], [342841.5028901734, 6652168.87283237], [342940.0, 6652095.0], [343142.7259192871, 6652239.102001288], [343115.0, 6652340.0], [343174.4834901102, 6652490.613258161], [343022.3213911217, 6652591.785739252], [343042.29973318125, 6652653.0516121145], [342993.3333333333, 6652687.222222222], [342940.80057013896, 6652651.038721939], [342799.9496608686, 6652752.59985095], [342773.6041313918, 6652852.104977989], [342800.29004329006, 6652877.506493507], [342775.9059115692, 6652947.566267085], [342847.60169253027, 6653057.195357738], [342820.66731603595, 6653190.225685525], [342769.7864838688, 6653288.704048382], [342811.26841450995, 6653603.975513299], [342935.0, 6653810.0], [342823.0603948897, 6653922.694541231], [342978.70331700053, 6654077.682880451], [342992.77644436824, 6654452.2355563175], [343047.9926410466, 6654539.113421329], [343060.42342342343, 6654763.72972973], [343122.9365038729, 6654928.310362428], [343088.5759504285, 6655030.727851286], [343107.50094891334, 6655201.06196483], [343265.78316011373, 6655351.357228273], [343272.0780956435, 6655516.737309016], [343406.4703459638, 6655666.803953871], [343378.60647265543, 6655718.98040747], [343486.2839055007, 6655847.567811001], [343565.2903900943, 6655811.52310235], [343599.6153846154, 6655853.846153846], [343565.0, 6655950.0], [343608.51412859105, 6656129.484795615], [343543.15718839184, 6656179.627962416], [343541.6, 6656348.2], [343604.88780487806, 6656405.019512195], [343548.81956927816, 6656493.570771493], [343475.0, 6656520.0], [343455.0, 6656600.0], [343532.825846164, 6656680.061802211], [343454.36437804764, 6656779.701582067], [343531.08950504725, 6656866.753039029], [343470.54967658856, 6657238.613128242], [343435.0, 6657258.699530336], [343415.0, 6657340.0], [343453.7804878049, 6657378.780487805], [343423.51491602923, 6657539.143545414], [343501.8720379147, 6657633.127962085], [343492.32903719076, 6657748.556846485], [343425.02502489404, 6657798.679130226], [343291.24180500465, 6657819.190024974], [343305.0, 6657890.0], [343118.413242846, 6657962.301235021], [343075.86879741243, 6658019.948225345], [342925.0, 6658120.0], [343009.87891167507, 6658277.863413464], [342987.53731343284, 6658354.47761194], [342926.83764586505, 6658330.784373415], [342875.0, 6658490.0], [342910.8222222222, 6658542.355555556], [342837.2529595016, 6658639.28847352], [342869.2726416364, 6658715.544341273], [342772.3287671233, 6658813.219178082], [342725.29411764705, 6658781.862745098], [342610.0432205483, 6658845.883757306], [342768.2654427425, 6659105.156682469], [342745.19083969464, 6659224.465648855], [343167.33766906377, 6658864.527374527], [343246.6525390777, 6658896.306477953], [343379.16870124044, 6658847.321108332], [343499.8744265698, 6658755.0], [343655.3252613469, 6658988.750863138], [343600.5342699021, 6659046.032354193], [343780.0, 6659155.0], [343822.8329975356, 6659126.8967134645], [343932.45498737047, 6659252.539462422], [343980.0, 6659255.0], [344005.3772670419, 6659360.2325371625], [343907.51743628393, 6659489.915852749], [343965.70921985817, 6659733.546099291], [343882.4778452516, 6659803.097526472], [343952.95205827523, 6659959.020483704], [344040.0, 6659925.0], [344066.0, 6660051.0], [344125.5460750853, 6660110.546075085], [344157.38095238095, 6660281.904761905], [344225.260755066, 6660309.737773457], [344224.9463803024, 6660370.335543725], [344368.37851129274, 6660329.929376284], [344413.90935510065, 6660392.181289799], [344375.0, 6660440.0], [344405.0, 6660470.0], [344388.010474392, 6660629.5933112865], [344275.66411306034, 6660643.337056519], [344246.6666666667, 6660746.666666667], [344173.62397820165, 6660780.122615804], [344190.5680179999, 6660874.7132346975], [344140.96586653206, 6661002.545970744], [344007.6591714252, 6661130.956485706], [344130.0, 6661225.0], [344237.53830288746, 6661200.938420743], [344310.7535662601, 6661275.8900144715], [344255.0, 6661410.0], [344295.9163648849, 6661441.913193314], [344122.814622891, 6661590.363888349], [344113.3042101215, 6661672.838152246], [344079.0625, 6661643.5625], [343999.357567265, 6661691.385459641], [343935.33039945835, 6661798.991198375], [344041.3661262051, 6661874.53549518], [344030.7352476662, 6661967.232620435], [343846.099137931, 6662162.853002378], [343899.1304347826, 6662205.434782608], [343989.92483423266, 6662175.79138815], [344150.6689350385, 6662329.596894677], [344189.6560973791, 6662296.5764732445], [344261.0676453618, 6662384.306976238], [344119.86433288216, 6662658.976227343], [344305.0, 6662810.0], [344241.9245463845, 6662855.633874263], [344230.0, 6663175.0], [344270.0, 6663215.0], [344319.59128065396, 6663185.136239782], [344398.21428571426, 6663259.642857143], [344426.5644285751, 6663365.456492652], [344335.65989847714, 6663563.654822335], [344263.79560177296, 6663816.240879646], [344226.3037831114, 6663823.739243378], [344184.39024390245, 6663934.681050656], [344225.0, 6663935.641025641], [344218.5870082218, 6664008.268668886], [344259.5273745571, 6664036.258511176], [344258.06273596536, 6664189.361863107], [344350.0, 6664265.0], [344451.3100373815, 6664220.3633828135], [344534.9255583127, 6664354.888337469], [344521.73444882274, 6664468.8483895], [344713.79149648984, 6664469.135728497], [344746.74471869715, 6664448.780764673], [344768.228462217, 6664262.684504557], [344959.6682649824, 6664255.865392783], [344981.1274716029, 6663982.711400925], [344903.872993293, 6663962.794587217], [344829.11011004244, 6663883.774742642], [344857.5976909442, 6663836.310864795], [344950.0, 6663955.0], [345005.7211538461, 6663905.144230769], [344988.56813767174, 6663806.547188531], [345113.308031421, 6663771.900548842], [345128.19949266943, 6663887.545108749], [345225.0, 6663980.0], [345195.0, 6664010.0], [345271.7451523546, 6664086.745152354], [345462.8702322608, 6664017.870232261], [345500.0, 6664055.0], [345612.1652767248, 6664058.93479909], [345680.0, 6664105.0], [345746.0, 6664005.0], [345790.0, 6664005.0], [345835.8400274838, 6663756.669359367], [346016.0945133945, 6663558.781887554], [346099.9141221374, 6663533.120229008], [346119.3087171632, 6663404.933133867], [346276.2124442772, 6663310.050074297], [346279.27085064346, 6663239.314591782], [346341.7412712623, 6663148.764547897], [346435.0, 6663172.71623308], [346471.35515723797, 6663275.198432745], [346522.86768384476, 6663243.644977252], [346591.57935929537, 6663460.953380968], [346545.0, 6663525.0], [346617.74947921553, 6663690.775054601], [346617.23851189367, 6663954.657017297], [346582.6287073097, 6664219.078469841], [346533.68131868134, 6664261.098901099], [346585.0, 6664370.0], [346541.49009537784, 6664456.7336757155], [346587.90463723737, 6664600.503096275], [346741.82734495436, 6664710.280445867], [346745.0, 6664910.0], [346685.6726987004, 6665051.612728696], [346766.61651703535, 6665113.536336931], [346694.64285714284, 6665277.5], [346705.0, 6665350.0], [346604.3417721519, 6665386.299194477], [346613.75066454016, 6665517.1683340585], [346570.71428571426, 6665651.428571428], [346635.0, 6665730.0], [346630.02369825484, 6665895.522481378], [346586.8357864444, 6665929.005665638], [346528.01505419286, 6666193.884359467], [346546.5488945366, 6666263.829951054], [346595.88017946685, 6666227.992874109], [346655.0, 6666270.0], [346641.4158625778, 6666312.085695863], [346720.3950992452, 6666369.113461509], [346810.72470361437, 6666186.091432585], [346871.90848214284, 6666236.908482143], [346843.3815547805, 6666334.547558123], [347001.0290890182, 6666458.764167522], [347027.83372394944, 6666451.389539916], [347095.0, 6666530.0], [347114.7971631441, 6666667.034947324], [347050.7738095238, 6666772.678571428], [346878.5460385528, 6666833.190374286], [346875.71428571426, 6666895.0], [346945.0, 6666930.0], [346915.0, 6667020.0], [346971.7155560688, 6667038.79431805], [346965.706983165, 6667232.353407834], [346905.0, 6667235.555555556], [346948.5142420441, 6667492.8020943375], [346949.4706682687, 6667684.629348679], [346815.59364934417, 6667845.978685423], [346790.9249666909, 6668013.081595788], [346707.8608926496, 6668069.112913623], [346608.75, 6668321.25], [346538.8287678314, 6668357.196330424], [346473.5714285714, 6668612.857142857], [346477.9871202213, 6668771.15133773], [346400.9866227203, 6668869.848922099], [346356.7411402157, 6669042.388289676], [346240.5739081076, 6668973.93563476], [346180.4126880314, 6669193.200784827], [346135.5593080264, 6669201.999461786], [346105.0, 6669450.0], [346046.4261000523, 6669527.379204668], [346029.7150647635, 6669726.910167366], [345752.0588235294, 6669937.05882353], [345781.6285537701, 6669972.407292955], [345573.12488535966, 6670205.573007794], [345493.64802743855, 6670141.894872443], [345387.5, 6670270.0], [345308.5714285714, 6670313.571428572], [345295.6693467926, 6670261.365983919], [345190.65009451605, 6670341.945774586], [344978.8208375212, 6670318.186415806], [344857.02127659577, 6670425.425531914], [344846.57751343056, 6670346.931056536], [344627.76039670216, 6670294.241086806], [344543.8461538461, 6670171.923076923], [344475.5639181336, 6670230.900397739], [344495.0, 6670304.0], [344379.0019522747, 6670327.120211962], [344315.9206357337, 6670282.087830471], [344144.09458683315, 6670332.618233541], [344090.0, 6670225.0], [343886.2609329446, 6670414.263848397], [343871.7272923819, 6670371.800597235], [343715.0, 6670366.153846154], [343739.1059602649, 6670274.105960265], [343693.8043478261, 6670215.673913044], [343757.66880556184, 6670126.263672213], [343567.029797598, 6669914.265834166], [343679.3214738794, 6669765.48131583], [343700.4189246943, 6669667.55524076], [343550.1098805719, 6669502.918095815], [343582.1212121212, 6669425.303030303], [343432.0588235294, 6669492.94117647], [343330.0, 6669595.0], [343201.88415400387, 6669580.354482324], [342985.2029650547, 6669411.058359807], [342914.0, 6669465.0], [342861.7793594306, 6669419.982206406], [342790.0, 6669455.0], [342665.3225390052, 6669330.322539005], [342608.05557989003, 6669333.003893512], [342466.5424429657, 6669232.726568034], [342010.1342048786, 6669725.204560161], [341870.0, 6669815.0], [341856.4418604651, 6669791.5813953485], [341905.0, 6669680.0], [341801.7517641278, 6669687.638262347], [341720.5175463764, 6669782.7814804185], [341735.43617247994, 6670063.474461888], [341670.8597726596, 6670064.780383912], [341611.7190260764, 6670015.558048861], [341386.73240196804, 6670197.837751983], [341234.3732184086, 6670133.751783483], [341076.3839613961, 6670308.402407972], [341015.00703945954, 6670299.991787298], [340955.0, 6670370.0], [340966.5652173913, 6670427.826086956], [340879.77222063683, 6670545.201469989], [340782.14748604724, 6670604.027078521], [340735.0, 6670770.0], [340809.54545454547, 6670844.545454546], [340781.6310160428, 6670986.631016043], [340950.46408690984, 6671217.976101913], [340920.458860336, 6671342.649162732], [341055.0, 6671440.0], [340980.47668458376, 6671502.314481112], [340913.56434882333, 6671478.48727734], [340825.4189944134, 6671574.217877095], [340645.73855572456, 6671648.789947884], [340637.81513349304, 6671708.710625195], [340465.0, 6671846.420323325], [340383.76001770265, 6671987.205652946], [340163.7909700028, 6672099.197226867], [340111.76470588235, 6672066.176470588], [340008.01481213875, 6672118.32117052], [339979.15778783755, 6672070.358805992], [340017.27851409407, 6671934.146436207], [339798.7673540131, 6671729.849911361], [339919.20795543597, 6671532.125422559], [339834.45229338977, 6671456.486845742], [339956.591408936, 6671260.591979672], [339880.0, 6671235.0], [339846.8181818182, 6671158.181818182], [339887.7272727273, 6671117.2727272725], [339846.4485882642, 6671063.413872306], [339636.64689223585, 6671254.246374425], [339603.8108620681, 6671344.159989774], [339347.8080694069, 6671481.751455341], [339160.378781179, 6671659.7623495655], [339047.93817587174, 6671582.565015562], [338950.84739515075, 6671711.352391874], [338890.0, 6671685.0], [338733.90603682946, 6671957.56630761], [338695.0153885612, 6671953.675301359], [338608.2569544766, 6672079.25222285], [338570.0, 6672025.0], [338400.41421408724, 6672201.026933994], [338202.5758225816, 6671962.2574277], [338254.8810535259, 6671910.654205607], [338235.0628901194, 6671792.068744736], [338175.41987246566, 6671708.510778674], [338291.1119568853, 6671544.535289591], [338267.2837254235, 6671468.322843109], [338380.4428913869, 6671303.7170127295], [338436.6666666667, 6671131.666666667], [338386.6666666667, 6671081.666666667], [338313.3333333333, 6671128.333333333], [338205.0, 6671020.0], [338225.0, 6670940.0], [338161.4285714286, 6670876.428571428], [338121.6842912717, 6670903.838419813], [338064.6052631579, 6670860.394736842], [337958.0, 6670865.666666667], [337898.3106840424, 6670737.279549719], [337929.28571428574, 6670703.571428572], [337866.04947467207, 6670654.99301094], [337841.0029315835, 6670544.846533487], [337711.7518253856, 6670699.8904435085], [337727.676056338, 6670758.0281690145], [337637.1807811465, 6670902.0184423365], [337643.91915549844, 6670955.432337801], [337456.0519652309, 6671137.543360902], [337451.34298998525, 6671250.163957703], [337307.82608695654, 6671256.739130435], [337249.64017714927, 6671306.963176796], [337114.9192336992, 6671283.309026404], [337138.7580325684, 6671194.447385237], [336928.20639972365, 6671059.727012558], [336830.42429576966, 6671096.150393234], [336634.0969246614, 6670959.253403649], [336340.0, 6671155.0], [336275.0, 6671090.0], [336250.0, 6671145.0], [336170.88414181874, 6671080.169856104], [336088.0352651839, 6671127.15575278], [336112.94598726457, 6671166.862166589], [336005.5037709822, 6671365.158375074], [335845.98010514054, 6671240.206031417], [335731.95405728, 6671352.087045389], [335657.4301170718, 6671321.075789859], [335555.0, 6671570.0], [335620.6507287139, 6671664.466888264], [335625.0, 6671820.0], [335508.48385023384, 6671841.656181292], [335423.9992205362, 6672010.921176927], [335486.0296631273, 6672221.159600064], [335459.28447961976, 6672313.087582023], [335365.0, 6672405.853658536], [335365.0, 6672480.0], [335474.9727921014, 6672605.936584503], [335481.0437882409, 6672751.5938097555], [335438.4439964722, 6672835.0], [335393.63636363635, 6672835.0], [335353.4499825373, 6672950.597697661], [335376.0111266226, 6673005.5927964905], [335207.46221647854, 6673103.245208692], [335182.5, 6673009.166666667], [335110.0, 6672985.0], [335045.39660966955, 6673055.842660106], [335047.3187262834, 6673152.007503232], [334945.0, 6673145.454545454], [334945.0, 6673220.0], [334867.4921935408, 6673301.826503738], [334748.068932091, 6673152.998543093], [334700.16281910945, 6673149.97035104], [334683.7378792618, 6673068.131060369], [334590.0, 6673115.0], [334556.8224299065, 6673055.093457944], [334536.5781796064, 6673091.083236256], [334385.2931055011, 6672922.072287742], [334198.28658005875, 6673027.640141726], [334067.4806685488, 6673133.915245139], [333984.25770308124, 6673084.243697479], [333912.3973305955, 6673143.4383983575], [333853.79790916253, 6673108.278745498], [333707.8474729242, 6673127.615824308], [333421.23210962175, 6673384.664451628], [333448.20269821334, 6673498.980733264], [333211.4736842105, 6673737.947368421], [333179.47998452693, 6673657.378177936], [333109.76007761835, 6673724.920025873], [333060.0, 6673695.0], [332982.5976755632, 6673757.216098722], [332917.0767584989, 6673739.301924944], [332817.35824703705, 6673935.068610956], [332824.23713131744, 6674143.01983081], [332741.2387409632, 6674249.881468535], [332651.48609948496, 6674270.394977818], [332448.71108170314, 6674437.16713607], [332500.4503816794, 6674588.167938931], [332232.2466216216, 6674842.347972973], [332179.3637000212, 6674795.597017492], [332035.2631578947, 6674989.47368421], [332075.3996152399, 6675031.7555096205], [332009.54048513836, 6675192.43252477], [332029.08384630235, 6675281.519612821], [331905.25178014947, 6675452.231514618], [331856.14558472554, 6675457.780429594], [331767.43398707133, 6675627.301961214], [331781.00034590723, 6675715.687260302], [331567.34167556843, 6675874.265985045], [331422.3537931725, 6675927.353793172], [331315.76271186443, 6675820.762711864], [331282.22222222225, 6675852.777777778], [331168.1280788177, 6675787.378606615], [331115.0, 6675809.476124247], [331115.0, 6675864.558120191], [330899.60648174665, 6675805.255343886], [330725.3333333333, 6675990.333333333], [330635.07352941175, 6675900.073529412], [330556.90058479534, 6675986.26705653], [330479.5348837209, 6675934.689922481], [330487.5, 6675832.5], [330515.5934418418, 6675823.135519386], [330542.07568260113, 6675663.835183843], [330505.27158924507, 6675608.730723416], [330649.81749081396, 6675556.418719648], [330831.1631416716, 6675344.379185351], [330958.9381933439, 6675297.488114105], [331025.0, 6675210.0]]]}}]}