{"type": "FeatureCollection", "crs": {"type": "name", "properties": {"name": "EPSG:25833"}}, "features": [{"type": "Feature", "properties": {"station": "35.16.0", "name": "Djupadalsvatn", "series": ["1001.1"], "nodes": 461986, "fine_vertices": 7354, "fine_area_m2": 46198750.0, "reduced_vertices": 400, "reduced_area_m2": 46198750.00000007, "outline_tolerance_m": 20.0, "windows": [[496, 441], [1021, 1056], [2057, 2255], [3792, 4654]], "placed_on": "number", "distance_m": 36.92025469444579, "uncertainty_m": 36.92025469444579, "elvid": "035-19-1", "objectid": 11958596, "lake": true, "confluence_near": false, "reach_up_m": 1000.0, "reach_down_m": 136.9202546944457, "reach_fork": false, "seeded_by": "lake", "lake_rule": "inside", "lake_number": 24703, "lake_name": "Djupadalsvatnet", "lake_distance_m": 0.0, "node_offset_m": null, "chain_nodes": null, "lowered_nodes": null, "lowered_max_m": null, "direction_ok": null, "end_extended_m": null, "end_closed": null, "downstream_checked": null, "a0": null, "area_up": null, "area_down": null, "swing": null, "largest_step": null, "largest_step_at_m": null, "checked_up_m": null, "checked_down_m": null, "drains": null, "monotone": null, "causes": []}, "geometry": {"type": "Polygon", "coordinates": [[[15125.0, 6604980.0], [15075.0, 6604954.0], [15027.307686910142, 6604836.167917953], [14946.234338666574, 6604877.707458439], [14906.818181818182, 6604942.7272727275], [14833.91304347826, 6604890.652173913], [14719.306815969743, 6604969.178663132], [14501.832639159442, 6604817.188218215], [14497.103448275862, 6604852.172413793], [14398.010801687764, 6604849.018902954], [14380.253558187691, 6604817.943726828], [14174.081304732063, 6604733.0023298785], [14095.0, 6604605.0], [14001.203970712351, 6604656.495119789], [13843.653656756698, 6604612.541595398], [13775.0, 6604660.0], [13758.814088321746, 6604763.447956713], [13447.44339707935, 6604944.376350919], [13281.613387420448, 6604973.438214438], [13147.515375153751, 6604929.993849939], [13020.643155718531, 6604969.97095085], [12928.87915274734, 6605043.854412746], [12885.245032499177, 6605013.262138014], [12635.114126541572, 6605096.690897191], [12495.418967894893, 6605001.649090302], [12332.108174554394, 6604934.428395821], [12152.459703142491, 6604791.69666716], [12189.720408860096, 6604593.9647428235], [12347.5, 6604377.5], [12222.19941790081, 6604390.094978898], [12219.372274841015, 6604474.152767845], [12071.00172305632, 6604565.713470445], [11956.394159151212, 6604482.635690026], [11700.0, 6604675.0], [11714.932163578602, 6604700.47251434], [11386.87092503229, 6604910.9703742], [11314.245301887284, 6604753.494252726], [11194.86924171051, 6604711.349337789], [11168.843301686646, 6604646.707000392], [11072.719346728407, 6604691.945523097], [11073.05073540007, 6604817.168747731], [10908.556512218267, 6604941.96964593], [10850.718206635496, 6604881.534495262], [10772.70132285637, 6604905.16682619], [10587.686896427756, 6604725.958235077], [10644.711669643832, 6604632.044488254], [10545.0, 6604530.0], [10533.820487564639, 6604464.040876632], [10433.75, 6604381.25], [10388.805331676884, 6604406.723605735], [10246.542155262137, 6604218.10897395], [10160.847966801786, 6604229.226786886], [9988.935788042703, 6604486.525758499], [9946.766239924134, 6604458.233760076], [9929.609261939218, 6604536.432706223], [9853.199994409513, 6604577.378105558], [9680.0, 6604445.0], [9608.530081343524, 6604464.3000805], [9453.451411553338, 6604237.755353053], [9181.174456014114, 6604113.0966547895], [9191.798438948132, 6604063.932750765], [9018.837565846372, 6603996.473779385], [9003.775025839299, 6603891.459633273], [8940.0, 6603855.0], [8961.419599047113, 6603932.191230319], [8811.764705882353, 6603984.411764706], [8745.0, 6603931.0], [8703.64510821415, 6603971.43589419], [8606.312437281009, 6603914.895042507], [8631.931818181818, 6603803.068181818], [8562.304574274633, 6603824.511294977], [8576.006203955021, 6603701.006203955], [8530.0, 6603655.0], [8479.146341463415, 6603681.219512195], [8445.0, 6603630.0], [8490.529092553512, 6603528.989448297], [8364.93324559648, 6603491.74845576], [8281.409895650135, 6603399.927306836], [8253.149852720286, 6603290.63424212], [8349.294728318177, 6603159.232357121], [8281.501357498251, 6603083.505786487], [8258.13491539088, 6602829.241221866], [8193.928800077256, 6602850.101433154], [8042.028272384637, 6602708.781914489], [8005.0, 6602600.0], [8060.486293729429, 6602482.283208493], [8166.177048471775, 6602369.382216838], [8285.0, 6602430.0], [8281.046363160985, 6602519.108891834], [8413.896103896104, 6602638.896103896], [8405.1559829909, 6602676.8829233395], [8510.0, 6602675.0], [8568.898505056091, 6602627.220298989], [8732.95678871003, 6602738.104101988], [8812.095499104038, 6602852.605143881], [8958.765984857195, 6602656.891277981], [8987.329502004322, 6602556.347791804], [9133.894308355702, 6602652.128899565], [9157.671232876712, 6602780.068493151], [9220.0, 6602805.0], [9291.666666666666, 6602756.666666667], [9345.98254773594, 6602818.381134328], [9265.219378427788, 6602900.219378428], [9412.631578947368, 6603047.631578947], [9469.611801242236, 6602976.848694109], [9579.718309859156, 6603021.47887324], [9691.538461538461, 6603005.0], [9780.0, 6603135.0], [9829.92718446602, 6603118.082524272], [9877.608630310338, 6603237.468647312], [9961.0, 6603177.0], [10129.752680528209, 6603313.675610718], [10284.333333333332, 6603250.666666667], [10368.529411764706, 6603254.705882353], [10408.846759897577, 6603192.873744337], [10331.904060600944, 6603083.541664803], [10350.152561136949, 6603062.665909911], [10252.303370786518, 6602896.779026217], [10330.0, 6602885.0], [10422.73631840796, 6602954.552238806], [10524.451474709243, 6602889.307929064], [10484.709556324975, 6602849.681371836], [10511.98202115439, 6602761.0208105985], [10309.449398842948, 6602414.995885304], [10575.0, 6602355.0], [10669.292821671886, 6602409.538970699], [10826.423485809031, 6602244.121557918], [10901.25, 6602262.5], [10940.124848671458, 6602214.229247902], [11234.045801526718, 6602090.419847328], [11284.444444444445, 6602139.444444444], [11386.498555161466, 6602049.771607164], [11494.01415571284, 6602005.657229525], [11495.17012660233, 6601924.474136323], [11565.959332494464, 6601896.179038135], [11645.0, 6601955.0], [11731.132502831257, 6601893.25594564], [11830.0, 6601935.0], [11882.857142857143, 6601847.857142857], [11952.360248447205, 6601869.099378882], [12030.0, 6601825.0], [12247.54830278314, 6601831.2245674515], [12332.169991699078, 6601903.881427386], [12414.237668161435, 6601915.605381166], [12645.0, 6601630.0], [12635.0, 6601580.0], [12772.29177738972, 6601428.930984739], [12813.333333333332, 6601435.0], [12755.15276080877, 6601331.106363374], [12834.173581305415, 6601347.238348062], [12862.419738406657, 6601294.708680143], [12811.666666666668, 6601262.5], [12875.619628778028, 6601214.535278416], [12828.721392051762, 6601114.490626671], [12983.588713995076, 6600982.552735839], [12931.666666666668, 6600926.666666667], [13032.561998373381, 6600788.589678306], [13099.35479781975, 6600810.743440233], [13138.235294117647, 6600876.176470588], [13217.669902912621, 6600857.330097088], [13302.249916720359, 6600772.75008328], [13380.74274778664, 6600565.045298143], [13476.09756097561, 6600618.902439024], [13560.0, 6600535.0], [13658.683274021352, 6600588.3096085405], [13630.78947368421, 6600676.842105263], [13691.602497398544, 6600720.598335068], [13760.0, 6600675.0], [13870.0, 6600785.0], [13951.903358066946, 6600615.945716514], [14078.333333333334, 6600643.333333333], [14142.333333333332, 6600557.333333333], [14321.110530285423, 6600590.624953157], [14332.273015009976, 6600521.206545981], [14624.936591385002, 6600603.490053653], [14785.454545454546, 6600679.545454546], [14986.148473549707, 6600649.403634035], [15000.0, 6600675.0], [15059.38964786469, 6600557.194305055], [15223.551515951305, 6600621.132757084], [15363.428008484403, 6600757.050530912], [15513.792275721975, 6600690.315520011], [15511.114723505998, 6600721.772245001], [15671.666666666668, 6600896.666666667], [15645.0, 6600930.0], [15696.217799447277, 6600959.836066237], [15807.710460818736, 6600956.483365283], [15886.322413982634, 6600838.677586017], [15988.810499827305, 6600787.061407711], [16115.0, 6600540.0], [16095.0, 6600520.0], [16166.42909914791, 6600504.323252722], [16191.267633221654, 6600415.047559905], [16292.666666666666, 6600320.333333333], [16432.82668926356, 6600471.70930039], [16559.624820695382, 6600392.296848914], [16714.285714285714, 6600517.857142857], [16841.635612050937, 6600395.255919087], [17022.903426145578, 6600336.296585665], [17035.0, 6600276.0], [17121.957743313105, 6600259.164980895], [17171.25, 6600347.5], [17243.1222785602, 6600303.837409285], [17433.425603532734, 6600398.676110498], [17440.525372363576, 6600486.245901446], [17563.42906047927, 6600480.352478762], [17574.092465753427, 6600545.839041096], [17667.08290685773, 6600599.053224156], [17770.0, 6600545.0], [17779.41176470588, 6600583.823529412], [17831.490356516657, 6600561.072472239], [17877.46198126987, 6600633.507603746], [17949.67832195334, 6600611.471304028], [18062.62358261455, 6600681.04866202], [18274.235932593358, 6600456.5536438], [18316.695232488666, 6600518.771231766], [18588.666805724388, 6600525.458727838], [18623.794834390694, 6600717.0471658185], [18717.4371081698, 6600707.476397485], [18913.531038721572, 6600603.23909035], [18970.0, 6600745.0], [19079.552619998474, 6600767.873623956], [19259.889359357327, 6600858.151590731], [19365.0, 6600778.333333333], [19410.0, 6600838.333333333], [19452.91338582677, 6600818.307086614], [19508.061452975962, 6600864.640370771], [19705.0, 6600803.333333333], [19701.28844250772, 6600749.575949957], [19780.094339622643, 6600766.415094339], [19883.398453263017, 6600853.88624252], [19892.080776947267, 6600941.242330842], [19982.379975500204, 6600960.1781135155], [20034.962457337882, 6600938.276450512], [19989.412786787216, 6600865.769204379], [20117.484204272896, 6600770.079599383], [20220.0, 6600835.0], [20247.142857142855, 6600792.142857143], [20361.0, 6600906.0], [20365.0, 6600960.0], [20412.271604938273, 6600973.0], [20424.444444444445, 6600915.0], [20508.903495637074, 6600982.112420848], [20496.686460929253, 6601047.30403808], [20527.448979591838, 6601066.530612245], [20450.180289771, 6601230.852666558], [20498.589472015577, 6601385.956709108], [20680.235149728513, 6601185.912721834], [20668.424657534248, 6601113.150684931], [20734.789396050895, 6601006.897299694], [20805.72277916652, 6601053.554441667], [20837.777777777777, 6600989.444444444], [20797.07008955322, 6600865.565230279], [20895.64004965465, 6600772.120813813], [20944.86674708684, 6600927.989143277], [20987.946395331157, 6600941.258334767], [21065.0, 6600830.0], [21029.0299553909, 6600674.972903101], [21138.075808788024, 6600523.075808788], [21115.0, 6600500.0], [21182.142857142855, 6600427.142857143], [21125.0, 6600370.0], [21130.681818181816, 6600306.136363637], [20990.661884476845, 6600323.684328068], [20882.000122905407, 6600205.306625128], [20781.728590352046, 6600226.5505631585], [20687.55412552282, 6600051.410547419], [20792.713332231826, 6599936.574731666], [20842.30045256258, 6599825.911365386], [20957.69860428034, 6599957.134476377], [21110.90909090909, 6599873.181818182], [21284.893545731007, 6599992.047655841], [21376.736284489103, 6599856.120525448], [21347.941176470587, 6599768.823529412], [21405.028544243578, 6599697.464319696], [21645.0, 6599772.857142857], [21645.0, 6599835.087396504], [21791.891891891893, 6599936.621621622], [21881.5, 6599915.0], [21972.148109905207, 6599975.128019508], [22032.289156626506, 6599874.236947791], [22162.648049143972, 6599853.699635338], [22315.027104971243, 6599912.407299175], [22322.05128205128, 6599997.051282051], [22422.8125, 6600036.875], [22348.4060842334, 6600103.7710104175], [22382.972103609587, 6600169.594420722], [22473.775510204083, 6600187.755102041], [22545.0, 6600300.0], [22495.0, 6600375.0], [22467.24151557808, 6600538.71930367], [22726.93548387097, 6600677.096774193], [22682.37811243812, 6600858.7899769], [22490.35985106072, 6600990.260223588], [22538.71545490018, 6601074.421911798], [22820.071954389576, 6601172.740632167], [22701.49178120427, 6601414.875808289], [22613.174757599056, 6601518.174757599], [22645.0, 6601550.0], [22585.0, 6601610.0], [22592.071476695044, 6601709.104795737], [22409.59247648903, 6601755.0], [22354.5995541003, 6601797.903791683], [22320.48297026667, 6601789.7158812415], [22186.165732410052, 6602002.802587983], [22067.71573694188, 6602102.715736941], [22015.930385450676, 6602050.930385451], [21905.29269032454, 6602145.591446769], [21828.644812363622, 6602298.728962473], [21745.2567426295, 6602282.051348526], [21629.307981606253, 6602594.1686241925], [21662.61396602935, 6602650.694335309], [21567.45833366533, 6602766.540294386], [21594.09090909091, 6602865.454545454], [21635.0, 6602890.0], [21588.525063525063, 6603003.501963502], [21450.0, 6603075.0], [21411.16935898755, 6602946.270192407], [21358.715415019764, 6602870.553359684], [21261.47181910118, 6602934.828002378], [21180.75029688006, 6602926.292237936], [21172.873753782318, 6603105.738327414], [21195.732217573222, 6603151.443514644], [21090.0, 6603215.0], [21060.089075151012, 6603157.478990675], [20847.445081670216, 6603126.320651743], [20735.394154866503, 6603173.059239895], [20652.263402362798, 6603325.834789266], [20551.428571428572, 6603374.523809524], [20469.9395354189, 6603311.081176561], [20371.73267326733, 6603459.900990099], [20191.277794401605, 6603377.219910312], [20167.617448511643, 6603457.108024698], [19802.887270070427, 6603420.878157546], [19658.3224213635, 6603540.350563307], [19655.0, 6603594.285714285], [19697.989105200693, 6603595.1630429635], [19718.985592670113, 6603730.742509662], [19671.652622241934, 6603989.409025391], [19755.0, 6604130.0], [19546.036924805307, 6604285.209600432], [19461.9090406905, 6604466.031234252], [19395.0, 6604500.0], [19447.37923885215, 6604590.247345841], [19400.58083410845, 6604704.884235401], [19426.858475894245, 6604809.68118196], [19393.29991645781, 6604832.7332219435], [19326.99959113916, 6604759.615330784], [19160.0, 6604725.0], [19098.06687439316, 6604760.639266654], [18850.264340837468, 6604650.386985332], [18772.23659193597, 6604769.758691763], [18673.45704003935, 6604699.454801926], [18766.944129424905, 6604567.298301328], [18658.076923076922, 6604425.384615385], [18600.0, 6604445.0], [18530.953777924842, 6604399.583899168], [18435.333333333336, 6604520.333333333], [18328.793414976913, 6604470.017064846], [18168.0927381422, 6604561.08078172], [18102.21052631579, 6604482.7894736845], [18015.0, 6604570.0], [18044.3020238763, 6604629.125108846], [17793.49009043214, 6604993.2012348], [17743.636363636364, 6604984.090909091], [17612.403778107677, 6605084.848009673], [17707.069623832613, 6605237.8245807], [17627.48169917179, 6605321.480897675], [17415.208996603185, 6605312.736421136], [17387.864537119196, 6605332.450458445], [17337.263760738148, 6605310.882914413], [17157.058823529413, 6605325.0], [17000.0, 6605155.0], [16969.668514474495, 6605185.331485526], [16729.36344969199, 6605058.921971252], [16672.380952380954, 6605092.619047619], [16530.507537028127, 6605048.664384517], [16487.058823529413, 6605097.94117647], [16350.0, 6605065.0], [16305.092783505155, 6604990.360824742], [16216.0, 6604975.0], [16246.609021535702, 6605061.957447545], [16005.0, 6605315.537692033], [16018.817708479877, 6605395.856880276], [15946.206896551725, 6605419.137931035], [15848.614607557221, 6605342.449387749], [15767.91685723222, 6605393.587512825], [15619.92086187808, 6605303.322563899], [15600.0, 6605335.0], [15528.125, 6605276.25], [15334.050580196656, 6605465.384551334], [15230.283911671924, 6605417.113564669], [15167.846268895893, 6605464.995192564], [15167.669758665459, 6605566.418244193], [15020.0, 6605602.5], [15085.0, 6605525.0], [15019.042553191488, 6605421.914893617], [15062.5, 6605335.0], [15006.994680851063, 6605234.734042553], [15083.956521739132, 6605136.782608695], [15125.0, 6604980.0]]]}}]}