{"type": "FeatureCollection", "crs": {"type": "name", "properties": {"name": "EPSG:25833"}}, "features": [{"type": "Feature", "properties": {"station": "35.9.0", "name": "Osali (Botnavatnet)", "series": ["1001.1"], "nodes": 237808, "fine_vertices": 4346, "fine_area_m2": 23781050.0, "reduced_vertices": 225, "reduced_area_m2": 23781049.999999683, "outline_tolerance_m": 20.0, "windows": [[463, 472], [1184, 1079], [2301, 2141]], "placed_on": "number", "distance_m": 29.702893540507546, "uncertainty_m": 30.0, "elvid": "035-48-648", "objectid": 11958204, "lake": true, "confluence_near": false, "reach_up_m": 1000.0, "reach_down_m": 130.0, "reach_fork": false, "seeded_by": "lake", "lake_rule": "lake_line", "lake_number": 24163, "lake_name": "Botnavatnet", "lake_distance_m": 1.3143884729086148, "node_offset_m": null, "chain_nodes": null, "lowered_nodes": null, "lowered_max_m": null, "direction_ok": null, "end_extended_m": null, "end_closed": null, "downstream_checked": null, "a0": null, "area_up": null, "area_down": null, "swing": null, "largest_step": null, "largest_step_at_m": null, "checked_up_m": null, "checked_down_m": null, "drains": null, "monotone": null, "causes": []}, "geometry": {"type": "Polygon", "coordinates": [[[27355.0, 6621280.0], [27399.446549586326, 6621192.836715423], [27319.813499238546, 6621106.127990425], [27145.0, 6621102.5], [27087.92, 6621187.64], [27020.0, 6621165.0], [26943.805403852984, 6621259.951605173], [26846.61263086795, 6621291.612630868], [26759.29048079417, 6621235.709519206], [26720.0, 6621275.0], [26706.147540983606, 6621212.622950819], [26609.670315702366, 6621145.738981287], [26513.053035819416, 6621208.216388312], [26444.307561839625, 6621189.315789191], [26305.473782395107, 6621280.423363227], [26154.0206185567, 6621342.835051547], [26106.15212298775, 6621266.135509587], [26135.786516853932, 6621248.988764045], [26032.87489164981, 6621155.664547819], [25977.483115345196, 6621196.350468563], [25950.0, 6621095.0], [25916.666666666668, 6621121.666666667], [25831.43372771956, 6621016.817170066], [26073.279608982717, 6620845.814671487], [26029.46165407256, 6620758.834801487], [26095.0, 6620730.0], [26072.777777777777, 6620662.222222222], [26115.0, 6620620.0], [26004.084164148622, 6620569.540577415], [26018.284500580634, 6620496.3352615805], [25837.590514844003, 6620337.654186385], [25790.597342022622, 6620379.927071819], [25643.636363636364, 6620283.181818182], [25571.529143058684, 6620330.566563133], [25374.461444308447, 6620152.692778458], [25382.217574043523, 6620113.912129782], [25276.888122227698, 6619988.111877772], [25286.85948394667, 6619887.68079168], [25419.2603102535, 6619797.869844873], [25386.421319796955, 6619747.208121828], [25432.210349419747, 6619714.061766758], [25345.0, 6619500.0], [25370.0, 6619445.0], [25331.25, 6619406.25], [25440.0, 6619315.0], [25494.4, 6619339.8], [25575.185185185186, 6619270.555555556], [25488.56910000031, 6619139.304111984], [25535.0, 6619020.0], [25507.537313432837, 6618965.074626866], [25549.0, 6618914.0], [25480.46038543897, 6618858.736616703], [25427.333333333332, 6618875.0], [25300.817904692332, 6618741.4956532875], [25241.880679146405, 6618723.70504579], [25238.066693727676, 6618573.543517555], [25362.257763190075, 6618450.626705044], [25541.5, 6618459.5], [25563.318704877875, 6618552.649054697], [25700.0, 6618525.0], [25761.982809478115, 6618433.185670502], [25445.779301362174, 6618155.499638415], [25299.556518770612, 6617959.404093864], [25199.692179700498, 6617772.612312812], [25260.0, 6617695.0], [25344.883720930233, 6617743.837209302], [25706.996542242312, 6617398.102929336], [25732.777777777777, 6617242.222222222], [25673.14285714286, 6617145.0], [25557.150130260434, 6617179.039323924], [25320.917197427352, 6616980.1559341345], [25460.60005221613, 6616712.611217584], [25307.854675836537, 6616421.560644281], [25330.0, 6616367.5], [25275.0, 6616330.0], [25313.002497416466, 6616223.033715122], [25208.324744968435, 6615960.6274018865], [25374.54180718287, 6615834.703228425], [25481.118889942303, 6615661.020794342], [25460.258457633154, 6615629.899599891], [25508.333333333332, 6615523.333333333], [25412.227156052973, 6615432.502686409], [25475.00837291251, 6615293.152193656], [25620.223612399528, 6615144.693161966], [25367.760779573266, 6614872.186021051], [25478.4496125254, 6614722.79598607], [25621.235336328467, 6614693.394951953], [25723.62162235637, 6614504.961037314], [25777.464791192713, 6614589.705088713], [25893.571428571428, 6614667.857142857], [25880.0, 6614695.0], [25820.0, 6614675.0], [25778.477818824667, 6614705.239430646], [25819.912280701756, 6614851.929824562], [25757.65134007655, 6614895.750855874], [26050.217391304348, 6615126.521739131], [25996.670635172923, 6615177.741442122], [26024.670211724948, 6615231.334857304], [26003.287482631757, 6615317.883998872], [26138.550974133654, 6615283.114355419], [26320.197218598307, 6615277.765025807], [26404.564271506715, 6615143.912854302], [26489.290579155117, 6615167.699085545], [26495.71183465928, 6615137.78667325], [26638.571428571428, 6615213.571428572], [26639.82316966626, 6615276.158483313], [26727.846153846152, 6615275.0], [26834.285714285714, 6615182.142857143], [26946.774193548386, 6615223.064516129], [26992.825113336487, 6615274.599743443], [26845.680243721796, 6615465.497219946], [26934.862636167323, 6615596.554607289], [27043.98224478855, 6615514.749745322], [27213.336674012575, 6615587.566693036], [27232.902180082467, 6615528.466689778], [27313.27067708709, 6615566.736894846], [27297.148449374785, 6615621.830838468], [27380.336091495956, 6615607.812899334], [27451.277372262775, 6615806.167883212], [27375.0, 6615870.0], [27385.0, 6615920.0], [27131.990223463687, 6616173.009776536], [27138.256880733945, 6616232.431192661], [27221.62707649984, 6616180.033329806], [27314.30021050145, 6616216.846410455], [27497.53965543717, 6616238.084174266], [27594.511091510692, 6616310.234665948], [27723.509933774832, 6616330.562913908], [27807.09306503773, 6616258.920229968], [27871.4, 6616315.12], [27883.176347566296, 6616383.422815884], [27971.601015166645, 6616440.361881867], [28038.283446964375, 6616366.289143684], [28124.042553191488, 6616428.191489362], [28192.147806004617, 6616373.267898384], [28257.76713801403, 6616508.798403864], [28286.794464832787, 6616653.08868061], [28425.0, 6616780.0], [28389.355454569166, 6616805.73156534], [28474.296418939655, 6616932.35406537], [28510.824549949313, 6617094.3678686945], [28616.729728827555, 6617095.189186483], [28585.0, 6617000.0], [28706.150585579264, 6616863.66114496], [28605.399999999998, 6616700.829090909], [28730.948806822435, 6616555.0], [28866.574697123364, 6616522.496314228], [28885.50384200593, 6616446.473105959], [28828.672240802676, 6616357.344481605], [28929.6, 6616240.2], [29107.859574541373, 6616182.004326137], [29248.663655030323, 6615998.105774661], [29214.65499174146, 6615976.285370419], [29228.197042081767, 6615752.159773005], [29354.94184188711, 6615672.484031994], [29412.001944770458, 6615813.052287867], [29574.404350617082, 6615780.593048557], [29714.085785785224, 6615677.144584156], [29931.387133085118, 6615825.697895922], [30020.0, 6615805.0], [30066.768292682926, 6615741.036585365], [30105.0, 6615770.0], [30049.456914429094, 6615843.997154678], [30208.218267068845, 6615888.617047016], [30474.702773552486, 6616206.079019689], [30549.83077489286, 6616174.492324678], [30565.0, 6616220.0], [30457.88888888889, 6616373.111111111], [30485.03717472119, 6616452.2769516725], [30533.648461818044, 6616457.80096157], [30602.00706924453, 6616621.989396133], [30520.342369381913, 6616662.406775872], [30452.104912662337, 6616942.321061793], [30507.170110921892, 6617032.463754775], [30410.555555555555, 6617094.444444444], [30383.52313935417, 6617241.941388208], [30465.16429353779, 6617300.821467689], [30475.520659648333, 6617368.3508786885], [30381.25, 6617416.25], [30466.378313840152, 6617584.001325219], [30428.185642960438, 6617706.8242633175], [30265.982129013984, 6617868.958474331], [30524.118474920142, 6618130.338265362], [30369.806654232285, 6618285.307421904], [30423.75, 6618307.5], [30246.465771372386, 6618482.387900183], [30255.0, 6618540.0], [30177.5, 6618617.5], [30215.0, 6618660.0], [30158.076923076922, 6618733.076923077], [30156.33304652395, 6618828.348004397], [30028.972602739726, 6619017.808219178], [29975.27807486631, 6619220.278074866], [30083.936170212764, 6619328.936170213], [29935.0, 6619515.714285715], [29925.0, 6619614.285714285], [29852.34275714308, 6619675.599875639], [29848.504048795876, 6619758.1985487435], [29723.076923076922, 6619756.538461538], [29708.71180555044, 6619842.729166698], [29491.021856248397, 6619789.054087148], [29447.5285600949, 6619960.293315905], [29391.883331997542, 6619959.352942748], [29336.041002468995, 6620238.677354234], [29257.154016183402, 6620277.449820535], [29110.932889970645, 6620176.706352426], [29026.333399131465, 6620318.263916304], [28982.647058823528, 6620332.352941177], [28975.0, 6620418.461538462], [28910.0, 6620465.0], [28805.262036540033, 6620360.26203654], [28598.12886383235, 6620580.536269387], [28550.09498522264, 6620547.822166015], [28395.534663458267, 6620661.574773499], [28275.162830908444, 6620888.531660023], [28163.690476190477, 6620868.69047619], [28034.30898666334, 6620978.766047613], [28096.018893130833, 6621088.962309162], [27989.62525289132, 6621230.8947287], [27752.435752612255, 6621463.5922055915], [27732.5, 6621522.5], [27623.8, 6621451.84], [27551.15781671304, 6621451.604324893], [27554.150467263804, 6621395.832200993], [27437.931034482757, 6621300.862068965], [27355.0, 6621280.0]]]}}]}