{"type": "FeatureCollection", "crs": {"type": "name", "properties": {"name": "EPSG:25833"}}, "features": [{"type": "Feature", "properties": {"station": "36.13.0", "name": "Grimsvatn", "series": ["1001.1"], "nodes": 335573, "fine_vertices": 4996, "fine_area_m2": 33557350.0, "reduced_vertices": 262, "reduced_area_m2": 33557350.00000011, "outline_tolerance_m": 20.0, "windows": [[478, 495], [1161, 1257], [2289, 2423]], "placed_on": "number", "distance_m": 4.282284817962605, "uncertainty_m": 30.0, "elvid": "036-43-1", "objectid": 12149335, "lake": true, "confluence_near": false, "reach_up_m": 1000.0, "reach_down_m": 130.0, "reach_fork": false, "seeded_by": "lake", "lake_rule": "inside", "lake_number": 23710, "lake_name": "Grimsvatnet", "lake_distance_m": 0.0, "node_offset_m": null, "chain_nodes": null, "lowered_nodes": null, "lowered_max_m": null, "direction_ok": null, "end_extended_m": null, "end_closed": null, "downstream_checked": null, "a0": null, "area_up": null, "area_down": null, "swing": null, "largest_step": null, "largest_step_at_m": null, "checked_up_m": null, "checked_down_m": null, "drains": null, "monotone": null, "causes": []}, "geometry": {"type": "Polygon", "coordinates": [[[25290.0, 6640535.0], [25265.0, 6640575.0], [25121.90733791157, 6640484.225586009], [25040.150377440175, 6640511.922468313], [24949.062618908687, 6640418.906071637], [25008.069380688554, 6640326.626337809], [24875.0, 6640230.0], [24860.714285714286, 6640130.0], [24804.33840598401, 6640112.704410627], [24715.445106920226, 6639976.881254988], [24761.51172683234, 6639930.9646948455], [24717.85714285714, 6639825.714285715], [24675.464107672124, 6639839.728230254], [24605.56256624618, 6639749.42870593], [24369.13871248538, 6639620.037977893], [24110.376569037657, 6639388.849372385], [24070.0, 6639405.0], [24018.849799622578, 6639263.9112147745], [23802.804253785765, 6639102.233441712], [23695.435131486924, 6639208.159280739], [23650.0, 6639165.0], [23541.904330443464, 6639389.838992678], [23441.199012411103, 6639395.38886889], [23221.45145664898, 6639507.622859406], [23252.641928480203, 6639603.487691946], [22862.036044200308, 6639865.00757256], [22633.068676196395, 6639678.068676196], [22534.819129543124, 6639684.311552922], [22384.85632183908, 6639849.856321839], [22251.483059876413, 6639715.0], [22205.180791128863, 6639731.787194086], [22049.13523515363, 6639608.747831336], [21982.650733160033, 6639650.216667088], [21778.0, 6639433.0], [21757.977528089887, 6639468.595505618], [21648.63319165925, 6639448.927005963], [21590.620033461702, 6639378.6048968155], [21610.226654578422, 6639193.966455122], [21583.85482045478, 6639158.458071818], [21695.34349683095, 6639106.093092239], [21394.69624321741, 6638761.093567369], [21269.0625, 6638724.0625], [21344.661085864627, 6638605.629801483], [21215.0, 6638464.0], [21225.0, 6638406.0], [21152.63157894737, 6638425.0], [21043.457554238063, 6638379.73125285], [20900.185015971365, 6638517.481370853], [20724.877381156984, 6638289.855484935], [20878.969054091638, 6638206.464202919], [20923.214262311958, 6638097.3213934675], [20845.798703485536, 6637929.368372406], [20987.0306454444, 6637776.82052622], [20925.0, 6637670.0], [21048.839449364605, 6637721.827082333], [21256.320222486916, 6637478.10314603], [21190.4358974359, 6637362.717948718], [21260.722068994968, 6637238.529230901], [21380.58394160584, 6637204.051094891], [21384.074910853087, 6637161.322785344], [21522.601545149464, 6637064.356321012], [21582.57894736842, 6636922.421052632], [21583.42105263158, 6636821.578947368], [21650.19158566065, 6636739.66157486], [21708.15423421523, 6636576.427684638], [21743.86304806814, 6636560.91126684], [21934.73801366671, 6636207.449162525], [21844.009942210963, 6636210.0160322515], [21732.175066312997, 6636095.610079575], [21693.0, 6636124.0], [21607.97507021293, 6636025.871759295], [21451.464298407212, 6636006.768621518], [21372.095737543823, 6636039.460552029], [21320.649635036498, 6636025.167883212], [21380.0, 6635885.0], [21462.303664921466, 6635998.926701571], [21505.0, 6635977.142857143], [21551.970070338295, 6635875.666897938], [21624.848906837487, 6635883.807965464], [21755.0, 6635770.0], [21731.0, 6635746.0], [21804.499632880197, 6635495.8535426995], [22261.508468774948, 6635429.604310883], [22307.333333333332, 6635325.333333333], [22414.352640545145, 6635343.70528109], [22496.39295889251, 6635413.7797133485], [22688.642477114718, 6635242.948094435], [22725.6527855937, 6635288.846370287], [22796.703180946944, 6635247.041030928], [22837.727272727272, 6635273.636363637], [22917.5264231313, 6635219.3786417525], [23020.0, 6635245.0], [23050.0, 6635205.0], [23098.938110749186, 6635238.615635179], [23120.0, 6635155.0], [23182.631578947367, 6635221.315789473], [23309.97905742557, 6635199.923212074], [23363.03370786517, 6635233.314606742], [23404.584576324974, 6635205.840368137], [23480.0, 6635255.0], [23603.874379050387, 6635187.708252914], [23614.936, 6635116.8], [23534.612078413105, 6635105.623202005], [23513.428571428572, 6635025.285714285], [23624.39752876082, 6635049.827347549], [23688.928571428572, 6635013.928571428], [23660.864197530864, 6634984.135802469], [23728.848925823444, 6634859.77624769], [23923.582599357003, 6634861.741747721], [23988.78486085263, 6634937.701568772], [24312.739756205367, 6634624.972469071], [24208.67366483178, 6634558.114365674], [24184.083655032435, 6634456.815178892], [24419.27245466229, 6634245.0], [24486.0, 6634245.0], [24742.141667421216, 6633967.414194836], [24851.255673994427, 6633982.924501843], [24764.065981148244, 6634165.8564219745], [24816.385255385736, 6634206.293264531], [24941.987869878816, 6634212.02830146], [24974.53350420689, 6634327.899967618], [25146.48275862069, 6634326.172413793], [25168.25969291342, 6634354.3466774495], [25301.13149970402, 6634305.323306825], [25364.68792502452, 6634227.028487341], [25401.400135258664, 6634061.067607415], [25503.105324492008, 6634045.0], [25496.919284504766, 6634099.77944225], [25665.782122655513, 6634277.153203274], [25607.41379310345, 6634338.275862069], [25633.684954697957, 6634415.886087542], [25718.478791895748, 6634354.112667275], [25819.378512655116, 6634361.997231878], [25890.0, 6634505.0], [25913.846153846156, 6634478.076923077], [26000.0, 6634515.0], [26029.225637561223, 6634480.108089849], [26118.847785028058, 6634563.767912825], [26154.089498391375, 6634632.328970955], [26243.939980231706, 6634608.271042357], [26339.686871404578, 6634807.849986526], [26453.847254130444, 6634858.539156521], [26661.495259266125, 6634514.419597271], [26626.666666666668, 6634485.0], [26897.703370069048, 6634636.858853692], [27000.48358558987, 6634535.409974253], [27120.316926991905, 6634684.78521594], [27204.36730406365, 6634685.889373043], [27238.58223062382, 6634771.2003780715], [27320.0, 6634785.0], [27404.444444444445, 6634846.777777778], [27477.201000980305, 6634750.431229924], [27643.333333333332, 6634885.0], [27634.488501411128, 6634938.0689915335], [27739.03944482074, 6634954.427137436], [27711.25069696081, 6635162.495212706], [27595.516039051603, 6635176.136680613], [27599.934813738815, 6635255.577223394], [27627.590489709015, 6635265.90489709], [27512.12176407336, 6635528.308724753], [27582.3890047197, 6635610.287172173], [27514.1804400909, 6635683.869426527], [27401.81906397679, 6635732.264999563], [27393.62512031237, 6635801.640700195], [27475.0, 6635840.0], [27258.800972815166, 6636102.903776828], [27241.32602203989, 6636237.464442285], [27180.668063670877, 6636218.647149251], [27164.80769230769, 6636462.115384615], [27110.0, 6636495.0], [27135.0, 6636550.0], [27102.48563853292, 6636566.257180734], [26910.60771902865, 6636441.159445279], [26800.45119944279, 6636573.196602091], [26875.0, 6636660.0], [26834.39086294416, 6636745.939086295], [26882.263919333625, 6636768.1047786055], [26950.0, 6636725.0], [26945.0, 6636760.0], [27091.174190481244, 6636839.02246962], [27101.375508504996, 6636933.415542772], [27175.0, 6637010.0], [27073.5, 6637156.25], [27134.44467372293, 6637284.221619786], [27230.491803278688, 6637305.819672131], [27240.0, 6637355.0], [27414.867587249824, 6637369.708488647], [27508.521806928387, 6637530.032541999], [27604.3135820324, 6637555.563623868], [27560.012936638217, 6637639.442510832], [27727.176046719345, 6637776.183545943], [27672.125561069002, 6637841.540413407], [27682.459023471725, 6637969.987159799], [27817.793696275072, 6638014.656160458], [27882.46677847462, 6638088.088131747], [27961.10068829772, 6638010.691805101], [28081.522574218132, 6638031.09346897], [28075.0, 6638110.0], [28261.511627906977, 6638260.23255814], [28232.93103448276, 6638303.1034482755], [28265.0, 6638400.0], [28155.78702653663, 6638463.294775837], [28191.265770820217, 6638511.384078797], [28178.907180545684, 6638690.415839515], [28042.47254677313, 6638811.691069535], [27985.557561773767, 6638822.40406371], [28170.694556540133, 6639013.314561631], [28266.509182422888, 6639054.924875338], [28405.394190871368, 6639069.605809129], [28442.14285714286, 6639032.857142857], [28576.060210439053, 6639059.560633337], [28636.6304546252, 6638868.71258266], [28748.277018957728, 6638863.014025079], [28847.513487476725, 6638939.665582851], [28755.0, 6639060.0], [28820.072082791445, 6639126.905835801], [28796.690140845072, 6639195.070422535], [28860.86951719832, 6639204.557826936], [28938.82692980417, 6639308.447098006], [28915.0, 6639433.333333333], [28881.058569308592, 6639416.852321872], [28739.84817115252, 6639519.644582471], [28605.0, 6639496.315668262], [28649.60851915496, 6639625.236464174], [28783.576473326335, 6639684.21901065], [28794.919224555735, 6639859.789983845], [28711.76957607089, 6640053.073539386], [28598.87067621285, 6640190.010222412], [28608.963193629766, 6640216.111176994], [28535.909090909092, 6640309.090909091], [28507.5, 6640282.5], [28479.253325565587, 6640335.589377609], [28360.0, 6640265.0], [28269.92879371997, 6640358.525585296], [28262.699056730475, 6640532.065940087], [28100.0, 6640605.0], [28055.0, 6640560.0], [27960.0, 6640625.0], [27873.208212621237, 6640572.489608263], [27882.569666381994, 6640512.294072255], [27792.640684962855, 6640419.135712195], [27730.0, 6640305.0], [27621.180327868853, 6640306.016393443], [27613.333333333332, 6640232.777777778], [27552.132038954256, 6640262.948142914], [27487.5, 6640227.5], [27320.0, 6640325.0], [27250.73473296171, 6640275.537209834], [27080.547001727762, 6640407.465292053], [26930.0, 6640315.0], [26754.64167517827, 6640535.025853264], [26553.00587704558, 6640652.65683952], [26483.333333333332, 6640728.333333333], [26444.38175270108, 6640690.678271309], [26185.699565578394, 6640847.248731904], [26068.333333333332, 6640796.666666667], [26116.618116502206, 6640693.3243599655], [25890.587280374195, 6640576.187210046], [25789.560133683244, 6640704.780066841], [25727.958546913305, 6640673.979273457], [25322.703487799336, 6640752.46115621], [25328.258854810156, 6640571.365113307], [25290.0, 6640535.0]]]}}]}