{"type": "FeatureCollection", "crs": {"type": "name", "properties": {"name": "EPSG:25833"}}, "features": [{"type": "Feature", "properties": {"station": "38.1.0", "name": "Holmen", "series": ["1001.1"], "nodes": 1174879, "fine_vertices": 11416, "fine_area_m2": 117488050.0, "reduced_vertices": 555, "reduced_area_m2": 117488050.0000002, "outline_tolerance_m": 20.0, "windows": [[438, 426], [1132, 1074], [2331, 2274], [4382, 4673]], "placed_on": "number", "distance_m": 11.464760477130481, "uncertainty_m": 30.0, "elvid": "038-42-197", "objectid": 10891495, "lake": false, "confluence_near": true, "reach_up_m": 415.8447029922051, "reach_down_m": 5.142044764922275, "reach_fork": false, "seeded_by": "river", "lake_rule": null, "lake_number": null, "lake_name": null, "lake_distance_m": null, "node_offset_m": 8.16656903003858, "chain_nodes": 45, "lowered_nodes": 8, "lowered_max_m": 4.153697967529297, "direction_ok": true, "end_extended_m": 14.142135623730951, "end_closed": true, "downstream_checked": "partly", "a0": 117.48790000000001, "area_up": 0.0002, "area_down": 117.48830000000001, "swing": 0.9999982976970394, "largest_step": 117.48590000000002, "largest_step_at_m": 0.0, "checked_up_m": 24.14213562373095, "checked_down_m": 14.142135623730951, "drains": true, "monotone": true, "causes": ["swing", "downstream_unread"]}, "geometry": {"type": "Polygon", "coordinates": [[[1510.0, 6642055.0], [1455.9285714285725, 6641997.357142857], [1349.3262758012788, 6642066.904973455], [1355.5413740931835, 6642104.59653955], [1306.2068965517246, 6642180.729442971], [1278.0147058823532, 6642154.705882353], [1088.5377870245466, 6642298.746260408], [1044.6513849092644, 6642392.87965616], [992.9126227646611, 6642337.772591433], [940.6062631008372, 6642339.207515774], [924.2857142857138, 6642415.0], [805.6496519721586, 6642416.86774942], [769.7103377613057, 6642372.215874189], [675.1521699981986, 6642402.423915001], [644.256584536959, 6642370.692438403], [582.4137931034475, 6642433.275862069], [536.7226890756301, 6642402.81512605], [417.68185339060074, 6642487.484845745], [356.5104423349894, 6642467.697756254], [285.5920907039399, 6642589.473672563], [165.0, 6642493.0], [92.48822458079303, 6642523.882538885], [56.80711992479155, 6642500.46192005], [-31.632113682815543, 6642543.506586185], [-118.81712626995613, 6642723.715529753], [-108.75, 6642803.75], [-137.0, 6642824.0], [-194.40212607488684, 6642763.428126481], [-162.08541369949126, 6642616.773480647], [-298.8375796178352, 6642444.709394905], [-370.0, 6642475.0], [-495.3891749834511, 6642349.610825016], [-596.1805008988322, 6642456.94632333], [-672.4415693552692, 6642123.459629313], [-762.3636592226849, 6642026.972494415], [-688.0140690644057, 6641919.230842118], [-947.4418604651164, 6641688.488372093], [-1058.1199235547083, 6641688.0124223605], [-1341.556284923803, 6641486.03396809], [-1452.695523700857, 6641560.130349134], [-1583.2475205164792, 6641494.34602646], [-1695.3926434236528, 6641620.400469569], [-1822.6454827457528, 6641501.851482271], [-1971.4941238329375, 6641495.340775057], [-2096.6320166320165, 6641531.195426196], [-2183.464450788373, 6641492.389780843], [-2400.2767063218944, 6641713.931638525], [-2568.5915492957756, 6641586.408450704], [-2614.545454545454, 6641605.0], [-2652.4381116868153, 6641553.483016696], [-2585.0, 6641450.0], [-2626.340493070149, 6641393.27699788], [-2528.587717337243, 6641243.591113976], [-2609.0, 6641132.0], [-2596.9736842105267, 6641095.921052632], [-2765.9569814072183, 6640901.183291736], [-2999.2355600078263, 6640895.156466845], [-3109.159227950495, 6640975.91309014], [-3299.8937386296475, 6640782.758763242], [-3417.3670886075943, 6640833.17721519], [-3582.2222222222226, 6640677.222222222], [-3627.7777777777774, 6640692.777777778], [-3704.93000274499, 6640648.338594565], [-3780.3355704697988, 6640748.765100671], [-3870.0, 6640665.0], [-4013.5824372403076, 6640636.283512552], [-4061.836571970618, 6640468.110799874], [-4145.137526433184, 6640434.286224598], [-4164.704766199669, 6640473.231966842], [-4367.340192796872, 6640323.768700456], [-4401.923076923076, 6640343.076923077], [-4330.202570226946, 6640238.005557247], [-4404.078653684503, 6640155.539876546], [-4549.117647058822, 6639780.0], [-4686.94171381032, 6639640.447940187], [-4814.703362955528, 6639750.029849142], [-4950.499498625348, 6639629.332833432], [-5015.776119453019, 6639512.482029206], [-5114.728347714923, 6639447.820389901], [-5370.0, 6639497.5], [-5425.0, 6639350.0], [-5490.135261194031, 6639268.913246268], [-5430.0, 6639125.0], [-5410.0, 6639145.0], [-5288.409090909092, 6639069.7727272725], [-5323.659974905897, 6638964.020075282], [-5268.302640209342, 6638910.515989073], [-5495.389631987959, 6638709.566290705], [-5849.891539187982, 6638807.226362861], [-5795.0, 6638940.0], [-5869.065678475481, 6638976.34158452], [-5860.460301541703, 6639013.560962758], [-6088.202452079398, 6639105.3447461985], [-6185.455291576674, 6639181.479049676], [-6360.357549035152, 6639148.34096653], [-6542.650072101427, 6638924.7109577255], [-6536.147995047738, 6638818.852004953], [-6577.581702901113, 6638725.663057183], [-6714.8953974895385, 6638646.638493724], [-6730.0, 6638675.0], [-6807.028571428571, 6638655.571428572], [-6855.0, 6638550.0], [-6830.430554749127, 6638447.538044425], [-7055.134941904651, 6638412.657829418], [-7131.25, 6638345.0], [-7181.8707310099435, 6638371.674397179], [-7250.633446711232, 6638551.678014931], [-7296.5625, 6638608.4375], [-7397.44933783348, 6638547.9697410185], [-7488.4121187332, 6638407.0619570725], [-7504.794031651239, 6638225.571680502], [-7678.669964281682, 6638223.798021431], [-7760.0, 6638175.0], [-7807.142857142858, 6638213.571428572], [-7906.896551724138, 6638147.068965517], [-7950.717981888745, 6638174.941785253], [-7819.453828491564, 6638297.815313966], [-7845.0, 6638400.0], [-7800.652173913044, 6638444.347826087], [-7879.2923610632715, 6638568.009310087], [-8092.316837826633, 6638791.834161104], [-8047.142857142857, 6638944.714285715], [-8096.190476190476, 6638983.952380952], [-8199.054114583945, 6638876.440511201], [-8269.655172413793, 6638974.655172414], [-8441.635150166852, 6638836.635150167], [-8681.289457164177, 6639076.289457164], [-8646.911593293284, 6639193.309423474], [-8862.47398759532, 6639421.576301325], [-8995.523076923077, 6639225.969230769], [-9054.285714285714, 6639225.0], [-9055.150567714332, 6639182.622181998], [-9198.857142857141, 6639086.142857143], [-9390.987021073228, 6639136.381516989], [-9394.259347325691, 6639174.115297805], [-9477.615339906923, 6639206.613408708], [-9542.931034482759, 6639126.8965517245], [-9517.769239607636, 6639073.023701613], [-9574.43035241108, 6638970.968400901], [-9561.34965034965, 6638878.391608392], [-9696.520580518203, 6638675.342325352], [-9799.019023696348, 6638568.559832817], [-9945.283122583283, 6638538.916156383], [-9943.026624902115, 6638456.468285043], [-10023.084351421428, 6638388.409204769], [-10139.767441860466, 6638365.0], [-10200.577658518387, 6638425.345199755], [-10298.519844413277, 6638413.119001734], [-10333.826358250744, 6638321.09174251], [-10426.125186590223, 6638357.850938636], [-10521.917020389654, 6638354.93571591], [-10698.498885770881, 6638205.806990756], [-10766.858349022752, 6637829.5420004325], [-10876.28809792285, 6637806.21601936], [-10907.808071787034, 6637680.804548427], [-11019.669735405707, 6637757.413193044], [-11101.450399889129, 6637663.004737912], [-11223.576246752715, 6637416.675962171], [-11153.780732379319, 6637346.304199817], [-11179.444444444445, 6637254.444444444], [-11072.49312557287, 6637195.009165903], [-11039.565217391304, 6637238.9130434785], [-10946.543546307757, 6637174.121410311], [-10945.14923538816, 6637211.716626228], [-10811.22472174322, 6637303.619297695], [-10784.750887453307, 6637438.687810294], [-10590.171740331107, 6637684.888772967], [-10479.054702495201, 6637656.031669865], [-10386.277756114463, 6637557.997142157], [-10232.19512195122, 6637687.195121951], [-10085.060606060606, 6637540.060606061], [-10017.985074626866, 6637423.731343283], [-10094.232350925291, 6637328.464701851], [-10019.147996857673, 6637168.800318251], [-9919.38402464516, 6637012.020696339], [-10001.756756756757, 6636883.243243244], [-9927.222222222223, 6636793.333333333], [-9992.962049120724, 6636662.516413583], [-10171.255707762557, 6636486.255707762], [-10157.023160597933, 6636381.38060576], [-10243.036467702372, 6636415.0], [-10340.044954503555, 6636294.166459573], [-10269.466439758628, 6636177.877389401], [-10376.0, 6636039.0], [-10410.0, 6636055.0], [-10558.879611869568, 6635896.6066794535], [-10788.38704835016, 6635886.1975366855], [-10916.638947165928, 6635732.842286915], [-11033.274292553631, 6635809.217698705], [-11355.447312913822, 6635482.622120979], [-11321.766743648961, 6635446.535796767], [-11460.351843834815, 6635285.471757919], [-11572.908667298585, 6635217.693265945], [-11745.509683959317, 6635247.890197746], [-11805.384615384615, 6635179.615384615], [-11858.884930530816, 6635222.8161738515], [-12155.804936247856, 6635009.026318743], [-12174.8280973217, 6634947.507331348], [-12390.000000000002, 6635085.0], [-12410.0, 6635045.0], [-12492.116706772087, 6635107.163114472], [-12601.538461538461, 6635022.692307692], [-12740.821639566735, 6635015.854198608], [-12841.735877697061, 6634872.319744118], [-12892.57484081108, 6634888.808056479], [-13100.21492189784, 6634759.255011157], [-13276.021571684163, 6634711.552026021], [-13405.0, 6634710.0], [-13380.792355299202, 6634564.13576534], [-13341.666666666666, 6634526.666666667], [-13473.412109820876, 6634325.232704039], [-13430.816064394588, 6634290.505223497], [-13470.2017317821, 6634065.916120428], [-13709.868423349717, 6633897.135347883], [-13756.812083636998, 6633938.073669948], [-14006.195163810396, 6633772.996967975], [-14237.636495212048, 6633377.1301435735], [-14206.99404982441, 6633288.309878799], [-14240.0, 6633215.0], [-14201.895967311739, 6633151.493278853], [-14219.279880478087, 6633001.220783533], [-14260.0, 6632945.0], [-14363.333333333334, 6632991.666666667], [-14456.051007388505, 6632911.772944423], [-14512.5, 6632997.5], [-14694.373099184753, 6632938.060943571], [-14642.765363128492, 6632877.765363129], [-14674.095280894095, 6632549.462050693], [-14452.368421052632, 6632327.368421053], [-14354.163634291725, 6632074.204168859], [-14249.365474806125, 6631995.698390868], [-14275.192949154754, 6631932.588815462], [-14191.252656519242, 6631776.196510626], [-13970.0, 6631595.0], [-13920.0, 6631605.0], [-13750.0, 6631435.0], [-13659.39393939394, 6631435.0], [-13704.0, 6631303.0], [-13640.731707317074, 6631245.975609756], [-13565.0, 6631098.454106281], [-13576.621052631579, 6631026.03508772], [-13516.282266627539, 6630896.474840446], [-13440.48980302515, 6630841.70831809], [-13433.752742668601, 6630748.752742669], [-13484.94149380553, 6630569.94681014], [-13265.167326554834, 6630350.288802598], [-13274.856176497236, 6630258.667493738], [-13445.0, 6630000.0], [-13458.0, 6629883.0], [-13595.456062291436, 6629692.614015573], [-13537.727272727272, 6629678.181818182], [-13550.686293765451, 6629605.134388419], [-13428.455068915777, 6629602.053269168], [-13390.0, 6629505.0], [-13350.0, 6629545.0], [-13211.938398468672, 6629532.7186858235], [-13192.50479921339, 6629756.102132304], [-13041.349100617654, 6629890.411060586], [-13066.073619631901, 6629932.607361963], [-12951.192809567077, 6629995.513825206], [-12899.23076923077, 6630063.461538462], [-12771.446348651894, 6629979.627224103], [-12678.333333333334, 6630023.333333333], [-12650.405955588187, 6630003.906990888], [-12596.0, 6630089.0], [-12563.709677419354, 6630059.193548387], [-12460.251562285861, 6630117.655963672], [-12424.386618832048, 6630263.321829593], [-12412.953597939435, 6630506.436179143], [-12237.612049894093, 6630697.686749823], [-12038.526093088858, 6630865.289139633], [-11980.394753442055, 6630765.032843553], [-11995.0, 6630720.0], [-11823.333333333334, 6630548.333333333], [-11700.0, 6630575.0], [-11531.392044249875, 6630462.533817535], [-11595.0, 6630330.0], [-11531.235294117647, 6630278.156862745], [-11423.076923076922, 6630391.923076923], [-11316.458149762835, 6630324.638943978], [-11177.607657666584, 6630493.730413939], [-11004.630872483222, 6630585.536912751], [-10934.781069321894, 6630545.82248965], [-10805.686435916801, 6630629.584985687], [-10685.945945945947, 6630547.702702703], [-10542.60955999477, 6630552.726606436], [-10374.044706186698, 6630669.507571138], [-10420.841151580653, 6630756.237173533], [-10269.797464844602, 6630834.123045883], [-10245.0, 6630940.0], [-10078.021350199175, 6631124.725172968], [-10132.111111111111, 6631310.666666667], [-10181.650087317903, 6631288.702168579], [-10247.727272727272, 6631417.2727272725], [-10064.057396055443, 6631586.296281514], [-9927.604410038177, 6631514.832869796], [-9853.102057742828, 6631707.904567352], [-9865.406462319634, 6631721.489306809], [-9715.6, 6631794.216], [-9667.5, 6631762.5], [-9630.0, 6631805.0], [-9576.715651922437, 6631772.316337306], [-9374.72054001609, 6632022.747140942], [-9298.876102026363, 6631973.429409385], [-9224.666247567871, 6632259.518252277], [-9072.930038116316, 6632453.046641256], [-8918.883275186057, 6632563.196025023], [-8857.600896860986, 6632666.1659192825], [-8738.831775700935, 6632765.140186916], [-8980.934807219008, 6633135.61036907], [-8963.630063734014, 6633188.5601668], [-8832.925947353197, 6633281.01243853], [-8855.026873221625, 6633376.783117293], [-8765.742416178819, 6633416.330494944], [-8752.813857290588, 6633532.186142709], [-8668.339715405478, 6633586.251446799], [-8569.031780638841, 6633567.887497056], [-8393.382213812678, 6633587.426679281], [-8356.224058800446, 6633668.112463956], [-8301.456408076636, 6633678.075618061], [-8298.636561525236, 6633863.477976942], [-8257.5, 6633922.5], [-8102.0, 6633767.0], [-8040.0, 6633755.0], [-7944.756756756757, 6633882.756756756], [-7792.290876133776, 6633990.842663829], [-7766.014297830588, 6634100.786671711], [-7628.99824372414, 6634140.678331457], [-7555.304536739593, 6634202.163231272], [-7408.90938600308, 6634027.887682742], [-7492.474637465065, 6633869.1582124885], [-7392.241779357979, 6633799.030340372], [-7189.0, 6633506.0], [-7241.896715023866, 6633354.343473653], [-7093.32206888782, 6633384.193765702], [-6879.354215833423, 6633521.658691301], [-6825.064008219711, 6633483.012829414], [-6755.493957193978, 6633530.848693538], [-6651.038365621104, 6633382.170369528], [-6534.351692484222, 6633278.743545611], [-6527.400873246298, 6633218.798955965], [-6437.305209390546, 6633141.785767766], [-6480.586334256694, 6633075.493998153], [-6443.157894736842, 6633038.684210527], [-6543.18458525166, 6632923.471384932], [-6501.664320262156, 6632806.689827772], [-6594.285714285715, 6632763.571428572], [-6610.0, 6632805.0], [-6812.814681251068, 6632582.879627414], [-6793.076923076923, 6632488.076923077], [-6549.31445500461, 6632650.43715956], [-6455.123466020676, 6632548.950613592], [-6390.0, 6632575.0], [-6346.42328042328, 6632530.195767196], [-6167.875235321442, 6632672.992138075], [-6151.142857142859, 6632747.571428572], [-6023.115320171923, 6632812.516864574], [-5882.496847050883, 6632669.3762370795], [-5879.293774553487, 6632541.903983596], [-5843.956473012926, 6632493.856968328], [-5969.167953247392, 6632345.765365562], [-5718.793943733086, 6632162.994494303], [-5503.515819184742, 6632250.590864848], [-5366.168186199691, 6632372.525343415], [-5087.241022028475, 6632328.742820993], [-4880.813953488372, 6632558.759689922], [-4943.292401106262, 6632661.366129807], [-4908.153130652598, 6632781.761833646], [-4834.073407985528, 6632799.583004478], [-4597.0383550071565, 6632787.599720814], [-4464.0, 6632869.0], [-4398.4375, 6632806.5625], [-4301.666666666666, 6632903.333333333], [-4230.0, 6632855.0], [-4128.864, 6632943.304], [-4039.972238345097, 6632929.548054528], [-3872.5, 6633094.5], [-3799.8387096774186, 6633105.161290322], [-3679.5070163532455, 6633199.693871059], [-3580.1907823870624, 6633133.795926841], [-3484.0729753081105, 6633219.984778238], [-3374.1048084574286, 6633414.641923383], [-3330.0, 6633385.0], [-3286.910258635653, 6633445.3256379105], [-3168.4570082449936, 6633475.447585395], [-3127.2073941302424, 6633417.533699213], [-2845.0, 6633586.666666667], [-2845.0, 6633680.0], [-2673.6825722908525, 6633882.243358518], [-2567.457886676877, 6633817.833078101], [-2525.175394543954, 6633848.7695676815], [-2436.4735383449115, 6633712.228684181], [-2242.262450184773, 6633766.185389824], [-2192.8357187243655, 6633754.640459848], [-2037.4224053790258, 6633827.0687561], [-1970.9950683193092, 6633945.1982710175], [-1756.3734653716274, 6633781.53652709], [-1671.4285714285706, 6633595.0], [-1456.363469675598, 6633632.6963328635], [-1348.310424037054, 6633581.125452976], [-1260.8366984784116, 6633401.748626121], [-1129.3477384587277, 6633466.590306562], [-921.1111111111113, 6633345.888888889], [-866.1538461538457, 6633357.307692308], [-746.2363822672851, 6633279.60117571], [-665.6603773584902, 6633339.339622642], [-626.4595370559728, 6633301.482967906], [-504.17445660337944, 6633419.990652076], [-424.2088850190885, 6633384.130327811], [-310.0, 6633595.0], [-266.66666666666606, 6633578.333333333], [-154.8453006421496, 6633720.102159954], [-90.0, 6633695.0], [-55.79594345420992, 6633788.269821757], [57.87927531688547, 6633763.987019776], [182.7129213599237, 6633855.373962072], [213.57142857142935, 6633961.428571428], [288.9117647058829, 6634034.009803922], [303.00421145095606, 6633955.873674231], [368.461538461539, 6633955.0], [493.68932919343206, 6634174.916303028], [473.1789493844535, 6634237.450270805], [605.5228795168023, 6634267.3618608955], [620.0, 6634295.0], [664.7368421052633, 6634246.578947368], [810.6299212598424, 6634234.37007874], [863.3333333333339, 6634181.666666667], [938.5, 6634210.75], [990.0, 6634185.0], [1202.0683514899592, 6634349.5001964625], [1173.0396110956553, 6634422.504715607], [1264.0, 6634415.0], [1290.0, 6634515.0], [1330.0, 6634535.0], [1360.0, 6634435.0], [1508.8491184955055, 6634251.701690059], [1622.1239359263818, 6634365.0], [1918.4682958380945, 6634371.09652252], [2049.155102040815, 6634485.0], [2200.0, 6634355.0], [2220.0, 6634375.0], [2295.0355781576, 6634277.352932839], [2351.9132683842217, 6634273.275098876], [2477.3376701616253, 6634022.055616015], [2878.480883892171, 6633983.524543526], [2909.403525718426, 6634014.606375271], [2885.0, 6634096.666666667], [2915.0, 6634140.0], [2860.961538461539, 6634164.423076923], [2905.591950313272, 6634255.863651595], [2759.7260832790525, 6634309.186487898], [2705.0656047929697, 6634430.175453095], [2710.3226404849265, 6634572.161702736], [2786.737365463021, 6634795.567937727], [2928.5342833948016, 6634939.698574908], [2881.9502859565837, 6635009.574571065], [2983.986614829588, 6635102.124541404], [3075.176039745431, 6635239.195432195], [3075.2042231363885, 6635380.816892546], [3008.6915737652234, 6635454.262846979], [3088.063025710275, 6635587.558317967], [3101.503555915275, 6635676.787704386], [2656.9804326224876, 6636180.016306148], [2633.929926094628, 6636416.419392645], [2734.0965077833425, 6636477.412694584], [2682.8473581213293, 6636575.264187867], [2842.070714616544, 6636770.504997685], [2867.314107298076, 6636904.5798356095], [3109.569393942904, 6636884.57454226], [3158.670076726343, 6636962.953964194], [3235.121951219513, 6636927.276422764], [3301.502269005923, 6636953.669282621], [3385.105680855224, 6636931.729189753], [3375.0, 6637015.0], [3473.5131509173552, 6637208.183020306], [3599.3030909027075, 6637127.736862789], [3683.0, 6637254.0], [3656.4103064460505, 6637307.1793871075], [3704.6067669182157, 6637437.819350525], [3780.0881277390763, 6637453.974871525], [3913.0647004922466, 6637603.976103646], [3970.4060534070013, 6637759.255164222], [4070.0, 6637825.0], [4095.261237034192, 6637802.9927007295], [4095.0, 6637920.0], [4048.286701208981, 6637980.972366149], [3998.5529583780117, 6637967.343776196], [3855.0, 6638080.0], [3881.820811961199, 6638124.621683897], [3743.333333333332, 6638300.0], [3596.5467014706737, 6638596.432779048], [3463.4273062519314, 6638726.101331668], [3594.3279753381576, 6638884.175547154], [3634.7142857142862, 6639119.714285715], [3514.0349986205983, 6639220.605199726], [3355.0, 6639230.0], [3394.4736842105267, 6639305.263157895], [3329.615384615383, 6639337.692307692], [3372.050457321413, 6639413.312524062], [3376.155512758789, 6639560.649975927], [3479.771707535783, 6639740.539121902], [3670.3448275862065, 6639617.75862069], [3683.623153882796, 6639656.031443545], [3614.45555638933, 6639864.325441928], [3722.4000000000015, 6639985.0], [3807.5999999999985, 6640005.0], [3869.03590664273, 6640129.910233393], [3814.554181009098, 6640453.881396916], [4005.6440941984656, 6640704.8141665645], [3973.5393807178625, 6640800.954890113], [4033.333333333332, 6640942.5], [3979.983783783784, 6640994.92972973], [4019.9451103350184, 6641137.662853185], [3934.6296296296314, 6641240.37037037], [3957.0, 6641272.0], [3825.6691842528926, 6641393.276110918], [3812.4390243902453, 6641502.804878049], [3712.6279105478825, 6641602.624465847], [3655.9660001137127, 6641562.198571242], [3595.0, 6641670.0], [3625.0, 6641760.0], [3598.15789473684, 6641786.842105263], [3775.0, 6641990.0], [3760.787476280835, 6642032.637571158], [3686.956521739128, 6642025.0], [3532.8190061000932, 6642313.837619348], [3646.3838046494275, 6642397.367254221], [3804.6684994115785, 6642327.964230259], [3935.0, 6642425.714285715], [3853.849415417084, 6642523.42621409], [3911.68275271128, 6642761.544679465], [3741.5110222087133, 6642932.35400646], [3702.2302158273415, 6643071.442119032], [3580.0, 6643107.0], [3471.7794163961516, 6643054.768667841], [3442.070847399282, 6643123.526341627], [3300.041350792555, 6643162.263955892], [3237.7777777777774, 6643117.222222222], [3157.403070081309, 6643170.116095518], [2894.814325790234, 6643025.007045653], [2831.290313079844, 6642944.835360645], [2792.5, 6642957.5], [2763.225573675856, 6642852.631692885], [2673.119760156438, 6642721.32232007], [2490.432160804012, 6642712.242881072], [2338.700173310226, 6642561.666666667], [2214.271347825583, 6642560.043756306], [2090.0, 6642397.5], [2144.545856609966, 6642272.206253294], [2052.2893334895452, 6642125.0], [1978.8838409284363, 6642114.916503066], [1920.0, 6642005.0], [1846.3833872481882, 6642010.9109425545], [1810.648779593983, 6642055.171106706], [1681.1608937683632, 6641956.458945415], [1510.0, 6642055.0]]]}}]}