{"type": "FeatureCollection", "crs": {"type": "name", "properties": {"name": "EPSG:25833"}}, "features": [{"type": "Feature", "properties": {"station": "41.8.0", "name": "Hellaugvatn", "series": ["1001.1"], "nodes": 1240, "fine_vertices": 242, "fine_area_m2": 123950.0, "reduced_vertices": 9, "reduced_area_m2": 123949.9999999844, "outline_tolerance_m": 20.0, "windows": [[450, 419], [854, 857]], "placed_on": "number", "distance_m": 110.29666612607093, "uncertainty_m": 110.29666612607093, "elvid": "041-118-347", "objectid": 11233817, "lake": false, "confluence_near": false, "reach_up_m": 286.1163276121303, "reach_down_m": 165.541544460441, "reach_fork": false, "seeded_by": "river", "lake_rule": null, "lake_number": null, "lake_name": null, "lake_distance_m": null, "node_offset_m": 4.2937205980214115, "chain_nodes": 49, "lowered_nodes": 7, "lowered_max_m": 0.51092529296875, "direction_ok": true, "end_extended_m": 0.0, "end_closed": true, "downstream_checked": "whole", "a0": 0.124, "area_up": 0.0031000000000000003, "area_down": 0.00030000000000000003, "swing": 0.975, "largest_step": 0.12730000000000002, "largest_step_at_m": 90.71067811865476, "checked_up_m": 96.5685424949238, "checked_down_m": 100.71067811865476, "drains": false, "monotone": false, "causes": ["swing", "chain_not_draining"]}, "geometry": {"type": "Polygon", "coordinates": [[[5190.0, 6653175.0], [5120.889030685633, 6653048.537592474], [4715.388578484741, 6652699.874748142], [4763.333333333333, 6652628.333333333], [4830.0, 6652695.0], [5003.532702031831, 6652654.111870475], [5306.796099882021, 6652923.344137314], [5243.831168831169, 6653017.012987013], [5280.985037406484, 6653084.014962593], [5190.0, 6653175.0]]]}}]}