{"type": "FeatureCollection", "crs": {"type": "name", "properties": {"name": "EPSG:25833"}}, "features": [{"type": "Feature", "properties": {"station": "42.2.0", "name": "Djupevad", "series": ["1001.1"], "nodes": 309808, "fine_vertices": 4852, "fine_area_m2": 30980850.0, "reduced_vertices": 240, "reduced_area_m2": 30980850.00000013, "outline_tolerance_m": 20.0, "windows": [[436, 479], [1142, 1092], [2338, 2252]], "placed_on": "number", "distance_m": 11.687447188253117, "uncertainty_m": 30.0, "elvid": "042-144-1", "objectid": 11417215, "lake": false, "confluence_near": false, "reach_up_m": 1000.0, "reach_down_m": 130.0, "reach_fork": false, "seeded_by": "river", "lake_rule": null, "lake_number": null, "lake_name": null, "lake_distance_m": null, "node_offset_m": 6.259564168908776, "chain_nodes": 110, "lowered_nodes": 69, "lowered_max_m": 1.9272384643554688, "direction_ok": true, "end_extended_m": 0.0, "end_closed": true, "downstream_checked": "whole", "a0": 30.980800000000002, "area_up": 30.98, "area_down": 31.0885, "swing": 0.0034763466404998476, "largest_step": 0.10729999999999862, "largest_step_at_m": 14.142135623731065, "checked_up_m": 24.142135623731065, "checked_down_m": 28.28427124746213, "drains": true, "monotone": true, "causes": []}, "geometry": {"type": "Polygon", "coordinates": [[[-10450.0, 6673455.0], [-10484.854214272504, 6673522.658180647], [-10586.829608938548, 6673445.209497207], [-10555.127754752653, 6673391.265501819], [-10501.115555555556, 6673135.413333333], [-10560.185185185186, 6673091.111111111], [-10515.156760515334, 6673030.024013987], [-10411.938920795323, 6672978.1322991215], [-10324.767736437421, 6672881.117516626], [-10372.755102040815, 6672822.244897959], [-10325.345361400698, 6672727.366154503], [-10063.102688211082, 6672519.641139166], [-10099.4993098882, 6672432.71358839], [-10034.523809523811, 6672380.714285715], [-10081.95652173913, 6672273.043478261], [-10022.83972020295, 6672174.055682297], [-10183.103049324745, 6672120.604844186], [-10253.067275204428, 6672000.9875829], [-9825.144398757093, 6671521.194796783], [-9785.0, 6671350.769230769], [-9720.0, 6671335.0], [-9718.056862208696, 6671225.263849996], [-9592.922040481837, 6671054.839486394], [-9644.190681897797, 6670940.967533902], [-9782.777777777777, 6670834.444444444], [-9853.86656709754, 6670679.761874803], [-10072.223088298262, 6670541.169960623], [-10150.140845070422, 6670541.056338028], [-10270.263511032696, 6670457.534157333], [-10322.883977672234, 6670454.814826018], [-10359.431893456487, 6670319.72165452], [-10440.0, 6670315.0], [-10450.796610169491, 6670244.406779661], [-10379.87667975716, 6670204.128475234], [-10329.444444444445, 6670054.444444444], [-10354.904544534485, 6670003.682763395], [-10208.114419553462, 6669877.473749517], [-10130.906748851801, 6669759.046686547], [-10194.70588235294, 6669590.294117647], [-10256.941085241193, 6669641.977383578], [-10535.700043346336, 6669571.601647161], [-10603.976319800757, 6669582.955749898], [-10744.797292304811, 6669417.501055179], [-10918.178525974101, 6669358.181609111], [-11001.405816339091, 6669192.68316197], [-10905.820624449181, 6669090.153746738], [-11062.325095125456, 6669067.447674254], [-11076.932623395554, 6668911.65566668], [-11149.158057315817, 6668791.997208152], [-11246.0, 6668819.0], [-11302.446294968264, 6668769.76575294], [-11384.33962264151, 6668758.396226415], [-11502.035479330998, 6668841.765947698], [-11585.388235294118, 6668797.451824274], [-11731.50317067533, 6668846.287743951], [-11976.0, 6668649.0], [-12162.918814472567, 6668541.247248833], [-12260.132963472339, 6668590.236886009], [-12255.0, 6668340.0], [-12209.23076923077, 6668294.230769231], [-12232.059796326319, 6668128.542067597], [-12094.591018647723, 6667917.648610935], [-12087.579453775195, 6667780.772082419], [-12447.33852293783, 6667521.919456203], [-12538.622047244095, 6667568.267716535], [-12605.0, 6667480.0], [-12496.29055222211, 6667429.00742398], [-12418.703703703704, 6667336.296296297], [-12495.073040246667, 6667249.975557961], [-12452.501992455236, 6667122.5580468625], [-12374.0, 6667149.0], [-12336.56971054958, 6667093.340673479], [-12076.435469710272, 6666934.490781387], [-11989.645447151477, 6666925.1356035], [-11934.925995654245, 6666873.006421896], [-12046.70305676856, 6666701.7030567685], [-12009.0, 6666664.0], [-12084.02730884593, 6666416.56700011], [-12256.465712732948, 6666444.800476129], [-12378.775524012872, 6666572.004643031], [-12450.636363636364, 6666585.090909091], [-12627.788894223648, 6666379.175289368], [-12532.996328145064, 6666013.08883557], [-12265.513770218813, 6665633.9329078], [-12241.052866562992, 6665443.209284834], [-12125.912717053492, 6665394.857270517], [-11980.263448885156, 6665277.384264608], [-11719.069489875421, 6665265.158083353], [-11647.159223912713, 6665324.041272899], [-11597.39944243485, 6665436.0302242385], [-11359.379741632672, 6665287.124051673], [-11290.0, 6665285.0], [-11284.356938650628, 6665457.452372069], [-11329.90070585717, 6665513.82960744], [-11238.333333333334, 6665626.666666667], [-11265.0, 6665720.0], [-11217.990566037735, 6665732.820754717], [-11041.401058429614, 6665608.357268336], [-10991.0, 6665663.0], [-10948.333333333334, 6665633.333333333], [-10915.0, 6665650.0], [-10960.737704918032, 6665768.196721312], [-10897.21532070871, 6665824.001598226], [-10848.965168887958, 6665798.684434598], [-10737.604171624835, 6665862.074451428], [-10646.639802326721, 6665801.049639133], [-10480.947475513476, 6665768.173370852], [-10450.452642475655, 6665637.539323373], [-10390.0, 6665685.0], [-10252.255707762557, 6665525.365296803], [-10250.0, 6665485.0], [-10188.442706490714, 6665498.395933977], [-10053.564318115057, 6665389.639243904], [-9878.666872134392, 6665493.05542328], [-9801.575302280151, 6665414.630637497], [-9640.0, 6665405.0], [-9624.013214578772, 6665420.986785421], [-9480.741554059185, 6665392.5467514675], [-9300.0, 6665525.0], [-9240.469277515193, 6665495.104659014], [-9182.834150691038, 6665526.439589835], [-9217.5, 6665602.5], [-9042.105263157895, 6665682.894736842], [-8890.0, 6665835.0], [-8865.0, 6665932.0], [-8803.760314481, 6665923.351807912], [-8663.802844590322, 6666060.920730977], [-8596.338028169015, 6665979.929577465], [-8475.585207766704, 6666059.813937887], [-8408.367775714727, 6666155.661712548], [-8315.0, 6666100.0], [-8329.56087879049, 6666056.317363628], [-8263.155602395465, 6665924.670712117], [-8162.704374544344, 6665827.521348509], [-8016.940823035937, 6665924.934247818], [-7982.775741891657, 6665759.624064353], [-7899.2695995487875, 6665706.172383736], [-7789.965031044624, 6665770.309775172], [-7593.65540381424, 6665703.1042634295], [-7476.250138665824, 6665457.895556093], [-7373.927800007082, 6665605.13898233], [-7306.428571428572, 6665782.857142857], [-7342.547169811321, 6665822.452830189], [-7199.263553507732, 6666014.554528742], [-7067.215558326866, 6666147.02073675], [-7009.972833742503, 6666372.776190285], [-6943.832587936649, 6666483.313132853], [-7025.080015488047, 6666604.716822612], [-7153.574488496392, 6666574.09937151], [-7233.440407231877, 6666762.593470247], [-7295.0, 6666695.0], [-7373.580998787071, 6666730.314965849], [-7295.462582021905, 6667023.297209663], [-7140.93316519546, 6667012.288776797], [-6894.9548680710695, 6667036.249612386], [-6845.333333333333, 6667017.666666667], [-6769.36506096165, 6667078.661218758], [-6661.730083864233, 6667265.346924655], [-6690.238095238095, 6667305.238095238], [-6635.0, 6667355.0], [-6597.014002215522, 6667582.559621187], [-6524.843104297698, 6667650.615598591], [-6572.552727606884, 6667745.487425645], [-6439.888602337867, 6667848.445268279], [-6405.0, 6667917.5], [-6460.0, 6667986.25], [-6393.442998312847, 6668024.509520367], [-6402.88679245283, 6668057.811320755], [-6285.0, 6668200.0], [-6325.0, 6668240.0], [-6320.2, 6668390.4], [-6286.635220125786, 6668443.144654088], [-6360.0, 6668555.0], [-6410.0, 6668535.0], [-6464.26894107222, 6668611.736818786], [-6556.601462381486, 6668565.792848948], [-6620.830033268407, 6668648.4929482], [-6590.934295598586, 6668696.5333018135], [-6689.580472799652, 6668819.356579494], [-6688.344018939176, 6668891.052911089], [-6785.0, 6668960.0], [-6767.857142857143, 6669012.857142857], [-6805.0, 6669050.0], [-6746.466478657781, 6669141.620641581], [-6803.176417641765, 6669224.678667867], [-6890.477707006369, 6669228.789808917], [-6925.0, 6669300.0], [-6752.368421052632, 6669396.842105263], [-6756.351351351351, 6669499.189189189], [-6705.536739214483, 6669646.688606322], [-6745.0, 6669680.0], [-6606.4534883720935, 6669862.57751938], [-6663.823529411765, 6669916.470588235], [-6600.662207121115, 6669995.422241098], [-6614.955396966994, 6670103.577163247], [-6493.032176137615, 6670280.47862353], [-6534.221717435019, 6670347.665152305], [-6417.80212901747, 6670614.605668062], [-6265.0, 6670780.0], [-6316.654094323443, 6671064.353855074], [-6109.592617509355, 6671301.644900177], [-6312.094437256422, 6671405.60342278], [-6308.359735764341, 6671526.268778216], [-6417.86210570764, 6671432.812013512], [-6483.19526627219, 6671460.443786982], [-6659.955258341746, 6671362.097249329], [-6892.200086296946, 6671553.772621545], [-6939.3748501695, 6671534.369301268], [-7173.323402145064, 6671692.696214582], [-7166.4967711606505, 6671762.913378034], [-7284.761479281791, 6671765.552578207], [-7494.68533654899, 6672023.265397782], [-7629.472759226714, 6672105.421792619], [-7690.504201680672, 6672056.596638655], [-7784.999999999999, 6672100.0], [-7763.275198874997, 6672219.82235672], [-7898.075197044925, 6672245.531316582], [-8087.897311366991, 6672134.769360295], [-8170.0, 6672185.0], [-8278.678347644465, 6672192.592248782], [-8327.848878874629, 6672355.318962889], [-8413.514632705015, 6672365.0498686135], [-8606.75584016848, 6672304.223377645], [-8581.308068459657, 6672384.352078239], [-8694.117692765949, 6672492.2854315], [-8778.042853755102, 6672442.1438652435], [-8964.724693334061, 6672438.826984304], [-9028.540460391774, 6672677.47718534], [-9166.521121647302, 6672933.706950306], [-9144.447729460764, 6673004.42362393], [-9266.052631578947, 6673144.736842105], [-9250.787970885036, 6673221.060145575], [-9366.615834201068, 6673206.3536663195], [-9685.0, 6673479.506726458], [-9685.0, 6673513.333333333], [-9887.968909783263, 6673447.253276233], [-9981.602805903207, 6673493.503272073], [-10157.76237820764, 6673463.4475243585], [-10225.77449168207, 6673568.756007394], [-10322.337662337663, 6673482.922077922], [-10450.0, 6673455.0]]]}}]}