{"type": "FeatureCollection", "crs": {"type": "name", "properties": {"name": "EPSG:25833"}}, "features": [{"type": "Feature", "properties": {"station": "48.1.0", "name": "Sandvenvatn", "series": ["1001.1"], "nodes": 4677146, "fine_vertices": 22348, "fine_area_m2": 467715050.0, "reduced_vertices": 1055, "reduced_area_m2": 467715049.99999917, "outline_tolerance_m": 20.0, "windows": [[860, 553], [1652, 1351], [3044, 2949], [5443, 5870]], "placed_on": "number", "distance_m": 252.36231539556786, "uncertainty_m": 252.36231539556786, "elvid": "048-67-1238", "objectid": 10872681, "lake": true, "confluence_near": false, "reach_up_m": 1000.0, "reach_down_m": 290.3710951300113, "reach_fork": false, "seeded_by": "lake", "lake_rule": "lake_line", "lake_number": 1701, "lake_name": "Sandvinvatnet", "lake_distance_m": 2.51876232946252, "node_offset_m": null, "chain_nodes": null, "lowered_nodes": null, "lowered_max_m": null, "direction_ok": null, "end_extended_m": null, "end_closed": null, "downstream_checked": null, "a0": null, "area_up": null, "area_down": null, "swing": null, "largest_step": null, "largest_step_at_m": null, "checked_up_m": null, "checked_down_m": null, "drains": null, "monotone": null, "causes": []}, "geometry": {"type": "Polygon", "coordinates": [[[19875.0, 6683570.0], [20021.683421616177, 6683528.350601933], [20604.50478145584, 6682966.306874096], [20622.14285714286, 6682772.857142857], [20586.913619537354, 6682721.774748329], [20539.348782320238, 6682407.278305073], [21708.0, 6681255.0], [21817.05364703854, 6681266.586844921], [21992.78813334632, 6681101.264141587], [22273.60980810235, 6681278.667377398], [22411.9865883412, 6681285.555529859], [22647.246835443035, 6681084.082278481], [22740.0, 6681115.0], [22770.0, 6681085.0], [22840.0, 6681115.0], [22867.142857142855, 6681072.142857143], [22968.484848484844, 6681099.242424242], [23151.53341024049, 6681059.882420801], [23180.0, 6681085.0], [23193.867069486405, 6681058.806646526], [23300.0, 6681079.0], [23421.13856018104, 6681059.1214464195], [23468.426871905504, 6681117.907017638], [23700.381297797227, 6681085.240529366], [23888.972341442168, 6680919.996071048], [23964.090909090908, 6680649.090909091], [23936.666666666668, 6680621.666666667], [23806.522559663972, 6680637.934680042], [23740.834127607086, 6680484.083034312], [23815.0, 6680346.0], [23783.75, 6680344.75], [23721.236443948106, 6680095.155451665], [23665.74867818901, 6679993.280392591], [23797.6671221329, 6679741.449228813], [23706.954928419756, 6679608.180697308], [23786.69166937455, 6679390.490303967], [23832.42424242424, 6679354.090909091], [23735.0, 6679270.0], [23770.984470327232, 6679246.788685524], [23750.97347480106, 6679176.832891246], [23785.0, 6679140.0], [23543.68230553305, 6678768.740942732], [23638.05508820882, 6678692.872454843], [23855.513944778824, 6678599.975224574], [23938.427870800853, 6678174.064837942], [23905.29020723525, 6678145.268553167], [24055.5146034936, 6677736.4857806945], [23657.0985719739, 6677404.0827312125], [23648.802167706694, 6677430.054083701], [23407.681159420288, 6677317.463768116], [23401.428571428572, 6677256.428571428], [23307.857142857138, 6677162.857142857], [23265.0, 6676956.666666667], [23325.0, 6676973.333333333], [23323.109572428533, 6676717.5643114485], [23464.041181395954, 6676670.149902112], [23560.681818181816, 6676546.136363637], [23554.970414201183, 6676612.98816568], [23731.330699993523, 6676661.689114809], [23767.431291094665, 6676692.441470192], [23819.61325966851, 6676662.5138121545], [23996.677752024767, 6676676.795358194], [24055.0, 6676600.0], [24017.222222222223, 6676547.777777778], [24179.751716134313, 6676348.18733121], [24098.14395263545, 6676374.345300364], [24080.0, 6676287.5], [24210.447670600246, 6676229.354720469], [24216.515341264872, 6676095.49780839], [24288.46170938117, 6676076.1143286675], [24359.871794871797, 6675880.512820513], [24560.38466293749, 6675891.8792155655], [24613.798468847064, 6675831.866485974], [24754.89413362454, 6675912.182741635], [24914.418575618667, 6675753.189059847], [25026.533600684576, 6675783.596162506], [25136.532447504476, 6675859.9339369275], [25294.265552849058, 6675897.262756179], [25335.831858656882, 6675654.842920494], [25328.846247415157, 6675650.913514171], [25382.5, 6675564.318181818], [25522.835185198368, 6675606.131831624], [25573.026965205103, 6675567.5019095875], [25593.081098543335, 6675971.032718248], [25707.0, 6676068.0], [25699.531774638628, 6676247.934056441], [25764.983922829582, 6676391.655948553], [25857.678439755226, 6676430.188587764], [25915.957108737886, 6676356.972904818], [26023.288713195554, 6676492.360861721], [26109.96451590002, 6676678.001075989], [26312.534713362038, 6676558.115816712], [26486.48192385783, 6676164.856983022], [26624.024744830953, 6676234.73957172], [26725.11027502657, 6676131.505864025], [26770.56070075, 6676175.13827272], [26847.48603676984, 6676144.581684897], [26876.637064192502, 6675906.93469776], [26826.664678945708, 6675903.433301788], [26868.110521848896, 6675791.863336703], [26874.59233299957, 6675580.407667001], [26914.398099260823, 6675466.779303063], [26845.0, 6675303.333333333], [26851.784856157392, 6675135.2180245705], [26898.666666666664, 6675125.0], [26965.3490508267, 6675036.221677894], [26933.840837328968, 6674977.852648813], [26988.75, 6674896.25], [26950.448882236175, 6674866.5158261275], [27004.550782361228, 6674449.07720284], [26937.700447918294, 6674311.751119796], [27069.229795945135, 6674068.459591891], [27045.0, 6674020.0], [27254.990964041295, 6674044.296822415], [27440.643755511534, 6673882.855613909], [27416.17270238482, 6673804.972813161], [27496.01483205984, 6673535.842459029], [27547.0, 6673508.0], [27626.62392328069, 6673192.60562213], [27780.4974103391, 6673263.771621225], [27805.967246673492, 6673240.2610030705], [27878.492185185154, 6673275.347170657], [27935.346687211095, 6673196.941448382], [28003.01861756369, 6673231.706246048], [28252.89569520216, 6673128.730268453], [28440.691699039635, 6673311.187059907], [28390.6216701659, 6673441.385049172], [28510.0, 6673458.333333333], [28618.890054710337, 6673530.92670314], [28766.21062946434, 6673290.580340777], [28709.35184866045, 6673081.67456945], [28698.928779588685, 6672989.478182502], [28632.15645289266, 6672831.160638019], [28686.861300309596, 6672629.682972136], [28665.07817640235, 6672558.015438141], [28735.533874699955, 6672459.304088832], [28805.15989065305, 6672299.245248274], [28750.924309991562, 6672205.924309991], [28896.23040218132, 6672068.442399454], [29004.559452061163, 6672040.94333301], [29125.0, 6671880.0], [29117.631578947367, 6671697.368421053], [29185.0, 6671630.0], [29122.71979985704, 6671503.55968549], [29155.075520028848, 6671336.20230163], [29096.75644627159, 6670966.107163392], [29124.36981598514, 6670905.226674199], [29055.658132236626, 6670799.120978568], [29138.472222222223, 6670694.861111111], [29090.955037024334, 6670655.531835394], [29039.843366455105, 6670703.666432887], [28870.442049293546, 6670630.014592473], [28796.0321166465, 6670664.591387275], [28614.22722122181, 6670656.6464542635], [28483.389043679257, 6670399.340043139], [28416.031746031746, 6670445.158730159], [28385.0, 6670360.230179029], [28322.61343586126, 6670320.505421741], [28355.0, 6670246.666666667], [28226.0449616412, 6670261.985906676], [28261.2464277042, 6670047.628712401], [28332.85140797973, 6669991.410976263], [28319.76542466212, 6669828.847932629], [28391.428968957232, 6669687.367935057], [28431.142278323205, 6669684.929873773], [28589.277884606057, 6669449.55378374], [28485.0, 6669272.0], [28460.0, 6669175.0], [28331.497382812362, 6669189.059895312], [28357.845498332717, 6669045.683586514], [28280.0, 6669025.0], [28218.060225092067, 6668898.004727626], [28103.03867403315, 6668808.370165746], [28065.089285714286, 6668858.303571428], [27975.0, 6668800.0], [27995.0, 6668740.0], [27948.568101360164, 6668651.779392584], [27894.347826086956, 6668665.434782608], [27848.0, 6668727.0], [27825.841584158414, 6668687.607260726], [27761.298216802403, 6668716.98627789], [27679.70588235294, 6668627.647058823], [27659.133422728795, 6668421.166610794], [27685.0, 6668405.0], [27667.14709765851, 6668313.687562496], [27733.333333333336, 6668325.0], [27743.63553113553, 6668237.939560439], [27681.347855610395, 6668133.579514], [27675.028788696578, 6668058.674170928], [27765.0, 6667960.384615385], [27765.0, 6667924.688007552], [27873.950012649337, 6667879.813954364], [27935.56179775281, 6667770.898876404], [27935.0, 6667660.0], [27822.19443317154, 6667573.273215704], [27863.333333333336, 6667405.0], [27733.129638159226, 6667384.795978335], [27758.472459270753, 6667343.435738298], [27660.0, 6667195.0], [27610.470688123878, 6667222.540744107], [27490.0, 6667047.5], [27495.0, 6666970.0], [27436.875, 6666926.40625], [27431.0, 6666794.0], [27480.223018458197, 6666714.012595005], [27430.885138732185, 6666638.789478517], [27484.74429854872, 6666557.774706289], [27408.535353535353, 6666496.96969697], [27396.323050479463, 6666409.40790664], [27342.5, 6666422.5], [27328.71912290036, 6666252.424122465], [27252.428261935973, 6666108.520534915], [27176.182168594743, 6666116.027938074], [27161.324205363802, 6666153.2704112], [27065.181818181816, 6666165.636363637], [27068.636272540214, 6666085.4664231185], [27031.25, 6666053.75], [27070.0, 6666015.0], [27039.782608695652, 6665984.347826087], [27066.908548707754, 6665684.274353877], [27053.70042335843, 6665598.398760478], [27193.125541525565, 6665464.969829131], [27160.79005384322, 6665357.82804087], [27218.333333333336, 6665286.666666667], [27195.275531649964, 6665230.378503733], [27315.74771825824, 6665179.920692099], [27338.75264270613, 6665119.566596194], [27218.965495973243, 6664843.760211085], [27361.547723817905, 6664748.541483318], [27395.0, 6664690.0], [27338.773584905663, 6664617.735849056], [27486.935625909842, 6664568.149646168], [27488.531028264624, 6664539.416908115], [27638.38153671398, 6664422.2135685785], [27695.0, 6664280.0], [27672.5, 6664257.5], [27747.166666666664, 6664182.166666667], [27794.778260503015, 6664214.990935044], [27886.30586790826, 6664167.336501301], [28026.000191668798, 6664181.490863787], [28177.5, 6664262.5], [28262.28207639569, 6664232.659157689], [28344.166001596168, 6664289.69273743], [28619.26602336478, 6664319.494554872], [28725.105645702497, 6664440.082375016], [29024.477611940296, 6664442.76119403], [29063.45930232558, 6664500.087209302], [29140.028658358013, 6664402.22436913], [29221.806243883493, 6664457.178920765], [29271.333333333332, 6664393.666666667], [29254.020945867458, 6664294.165367079], [29311.84210526316, 6664208.421052632], [29274.546932748854, 6664186.726736016], [29133.252502321742, 6664221.602001857], [29060.0, 6664135.0], [28911.669474034898, 6664163.351371162], [28873.95627114142, 6664200.842675749], [28651.50629307698, 6663971.084913736], [28527.613949774503, 6663759.881997703], [28437.433857918062, 6663660.991790364], [28362.83876746954, 6663387.8286394635], [28183.085192712657, 6663542.870718686], [28052.142453699496, 6663528.7262878185], [28122.57818044389, 6663460.930786512], [27937.551399094486, 6663395.053440214], [27944.444444444445, 6663295.0], [27884.444444444445, 6663295.0], [27882.272214243014, 6663212.107936312], [27940.379241549083, 6663123.098713562], [27815.879292178455, 6662940.098725517], [27919.821755465106, 6662806.017005766], [28155.052918302357, 6662392.144577897], [28195.0, 6662370.0], [28055.387653341037, 6662226.371888656], [27958.640342105835, 6662228.9423772], [27955.0, 6662180.0], [28010.871399358606, 6662141.3809746485], [27999.988905546837, 6662048.057892118], [28084.973471946658, 6661884.123079886], [28317.272727272728, 6661862.2727272725], [28344.814674139234, 6661826.337044219], [28420.599745870393, 6661811.312579416], [28476.0, 6661889.0], [28520.0, 6661845.0], [28687.13857739346, 6661876.472402249], [28705.636469007317, 6661793.827015316], [28862.756894904436, 6661652.182421622], [28861.732051785013, 6661568.638681836], [29007.601352616774, 6661569.740268354], [29061.333600669663, 6661479.643801356], [29176.91176470588, 6661487.205882353], [29159.390302467345, 6661341.2960536815], [29283.333333333336, 6661345.0], [29252.94931478949, 6661232.255811923], [29339.996876951904, 6661144.990630856], [29315.0, 6661090.0], [29391.515151515152, 6661074.696969697], [29467.549399457574, 6661156.175900813], [29440.28296999281, 6661197.075545011], [29642.596180909408, 6661438.228972769], [29690.0, 6661425.0], [29768.134014423078, 6661543.188100962], [29755.898573081373, 6661595.106054762], [29840.69789078136, 6661581.0820694985], [29890.0, 6661515.0], [29951.366446826054, 6661551.819868095], [30088.103448275862, 6661466.551724138], [30126.651389495128, 6661491.601597233], [30173.058433196213, 6661341.17966565], [30213.53899849461, 6661311.179808979], [30199.754044382564, 6661242.868933426], [30319.294961216256, 6661181.4658670155], [30613.68130581254, 6661480.8429602925], [30600.473490652774, 6661522.911431198], [30655.0, 6661630.0], [30575.0, 6661720.0], [30598.678216231598, 6661777.816811011], [30390.007982820865, 6661849.191842017], [30439.13437345214, 6661943.55888525], [30313.872093023256, 6661988.872093023], [30351.84037912312, 6662054.293627629], [30480.0, 6662025.0], [30511.022727272728, 6662066.363636363], [30491.76541464505, 6662175.037335733], [30402.636972521243, 6662144.711677828], [30294.719235996214, 6662247.844307683], [30134.965034965036, 6662225.0], [30158.543899563516, 6662320.232905822], [29953.478487147295, 6662524.567442013], [29788.714343109685, 6662545.056247489], [29785.0, 6662610.0], [29860.279092362027, 6662672.22666909], [29931.207079671785, 6662968.153050542], [30023.15321328122, 6663178.265649115], [29965.347843421114, 6663300.228441268], [29997.623225290678, 6663388.715928258], [30123.461838132163, 6663471.538161868], [29999.61685293937, 6663504.540593584], [29860.642899321003, 6663633.810077958], [29924.456329046523, 6663705.769902967], [30004.52908587258, 6663984.238227147], [29997.18152550893, 6664050.366270419], [30085.39962024383, 6664198.991439726], [30090.0, 6664315.0], [30126.219748305906, 6664312.161987738], [30239.22654268808, 6664452.679628064], [30211.381465188995, 6664525.369880932], [30245.0, 6664580.0], [30208.1640625, 6664594.7265625], [30272.57009579808, 6664744.280685626], [30345.0, 6664730.0], [30329.211313817286, 6664696.843834409], [30437.40740740741, 6664685.37037037], [30540.0, 6664555.0], [30583.254437869822, 6664610.254437869], [30685.13715169298, 6664536.663962015], [30772.60006044624, 6664601.197008603], [30813.833333333332, 6664585.0], [30858.64025876924, 6664653.30613236], [31003.719632514498, 6664517.99179063], [31160.0, 6664525.0], [31281.83625981916, 6664621.694764871], [31288.006843815223, 6664749.001524879], [31508.0, 6664907.0], [31543.333333333336, 6664871.666666667], [31657.404330232297, 6664970.467345809], [31718.841374858803, 6665092.957076005], [31672.114741026075, 6665152.53408955], [31737.19914671995, 6665320.946820935], [31814.153783512906, 6665323.7883362565], [31855.0, 6665230.0], [31819.990825688074, 6665177.486238532], [31927.142857142855, 6665143.571428572], [31950.0, 6665195.0], [32129.310344827587, 6665172.586206896], [32124.608182384734, 6665091.998404848], [32265.384267498237, 6665016.53254747], [32213.333333333332, 6664941.666666667], [32309.011492609105, 6664909.7671836605], [32295.929111732563, 6664863.830571096], [32430.734420793473, 6664727.236893033], [32385.0, 6664650.0], [32412.763706480888, 6664624.555852969], [32502.383720930233, 6664675.523255814], [32588.41724093331, 6664845.67799267], [32698.272727272728, 6664741.636363637], [32660.58904109589, 6664722.794520548], [32685.0, 6664679.696969697], [32655.0, 6664570.303030303], [32680.854626920413, 6664533.242357555], [32826.65434806019, 6664659.126819777], [32904.54134056288, 6664608.519814028], [32872.34429894602, 6664533.552265365], [32936.24569896421, 6664478.249139793], [32990.0, 6664485.0], [32990.68802190309, 6664320.501595686], [33072.34783887092, 6664232.571092536], [33065.0, 6664174.761904762], [33254.74238551855, 6664042.153591348], [33272.469332483925, 6663979.946007669], [33367.03669605619, 6663931.046100176], [33405.0, 6663860.0], [33358.46523480758, 6663789.520540282], [33473.6, 6663681.4], [33694.64813714772, 6663850.147132435], [33743.0, 6663978.0], [33815.0, 6664000.0], [33797.19106768441, 6664085.037890293], [33937.66782911944, 6664186.31211857], [33897.22222222222, 6664242.222222222], [33915.35262345431, 6664351.953831177], [33876.33398285491, 6664418.820517349], [33973.181818181816, 6664517.7272727275], [33935.18622387992, 6664633.167034582], [33964.6779286275, 6664715.4842347335], [34114.547093827015, 6664556.2484221915], [34141.15417017692, 6664598.951137321], [34182.25202269323, 6664587.962808851], [34218.32061068702, 6664672.786259542], [34315.0, 6664612.384524279], [34339.95647696117, 6664554.059413976], [34470.3506554904, 6664478.959989317], [34547.5, 6664567.5], [34661.43177227373, 6664485.1166687235], [34631.405362926525, 6664441.765259201], [34808.665968091336, 6664297.549035519], [34797.943288525305, 6664226.24032816], [34900.28012701873, 6664125.895881128], [34875.0, 6664100.0], [35023.0, 6664002.0], [35132.03166505641, 6663978.202345544], [35204.532127940765, 6663857.896245437], [35254.11111111111, 6663852.222222222], [35274.13979552628, 6663782.974111212], [35513.94567894173, 6663693.406501831], [35565.01897170342, 6663588.91572012], [35657.560975609755, 6663678.414634147], [35711.7621899059, 6663619.508126604], [35840.0, 6663705.0], [35879.924812030076, 6663637.105263158], [36076.27233931517, 6663602.159763172], [36068.168768182884, 6663505.830998179], [36318.482142857145, 6663399.464285715], [36399.45246282374, 6663400.675052181], [36445.74978596701, 6663301.739644051], [36801.75733740622, 6662956.34779043], [36985.0, 6662945.0], [37024.814624476916, 6662985.515380662], [37112.194185251225, 6662880.319467885], [37347.14924296242, 6663079.898291913], [37467.878906515965, 6663025.9478525985], [37690.90909090909, 6663217.7272727275], [37780.0, 6663205.0], [37877.76288524159, 6663263.995658323], [37858.57771260997, 6663305.68914956], [37969.90487747593, 6663367.187818054], [37965.0, 6663480.0], [38092.09573038832, 6663586.088171646], [38005.378225043896, 6663642.956909361], [37990.0, 6663735.0], [38052.675696050355, 6663773.6419860395], [37995.234607672755, 6663928.109273693], [37834.09547738693, 6664000.904522613], [37756.42857142857, 6663983.80952381], [37690.78598336426, 6664126.908271927], [37620.068493150684, 6664089.04109589], [37579.143613189575, 6664134.997647209], [37695.0, 6664270.0], [37674.07536407298, 6664335.710698788], [37715.966386554624, 6664433.1512605045], [37675.0, 6664610.0], [37705.0, 6664640.0], [37579.34324096066, 6664698.9419503035], [37414.32835820895, 6664876.791044776], [37319.80404487472, 6664903.122033405], [37365.60411114853, 6665022.013703829], [37303.52703002199, 6665068.765944389], [37276.98754990594, 6665233.453593309], [37334.45794640578, 6665308.593740202], [37400.71535021895, 6665529.929122712], [37360.0, 6665635.0], [37299.90427007149, 6665595.512193616], [37211.20687927941, 6665747.197889621], [37378.590568641914, 6665939.519895009], [37360.0, 6666015.0], [37410.0, 6665965.0], [37546.73148840688, 6665992.075542259], [37505.0, 6666050.0], [37852.94421549329, 6665966.499576739], [38010.47002716107, 6665818.02394319], [38119.12474073098, 6665837.458074064], [38275.71739269915, 6666069.423789317], [38450.0, 6665975.0], [38505.0, 6666030.0], [38476.42857142857, 6666071.428571428], [38530.0, 6666125.0], [38578.28482964191, 6666116.096642203], [38885.57402935071, 6666245.166264157], [38971.98359446252, 6666238.520019797], [39109.93626143648, 6666096.302362398], [39217.142857142855, 6666027.857142857], [39371.133209223, 6666006.4506624285], [39487.80101816151, 6665840.718834914], [39647.039134728926, 6665792.039134729], [39700.33333333333, 6665845.333333333], [39665.241200580516, 6666007.634447315], [39666.81010996987, 6666181.3497959], [39828.31063580336, 6666363.584022115], [39969.22490193716, 6666349.698088179], [40155.88850592841, 6666541.234300745], [40240.0, 6666535.0], [40268.31058365702, 6666591.621167314], [40631.983633487886, 6666857.432145382], [40697.22819989638, 6666870.3035224285], [40792.58169934641, 6666958.62745098], [40728.67811759937, 6667049.337815807], [40778.05815679781, 6667115.665743543], [40870.0, 6667125.0], [40916.84580070214, 6667171.845800702], [40848.557377049176, 6667224.967213115], [41071.18631054317, 6667380.892829126], [41165.37425685364, 6667382.467622108], [41179.99757191152, 6667613.894174367], [41349.940119760475, 6667658.592814371], [41410.0, 6667595.0], [41437.76379477251, 6667613.509196515], [41441.37934236294, 6667699.15281644], [41747.674418604656, 6667890.5813953485], [41780.0, 6667875.0], [41810.041775672245, 6667942.729681091], [41864.70385677389, 6667933.90978266], [41992.40775659085, 6668035.667265125], [42123.33333333333, 6668055.0], [42162.210300429186, 6668161.802575108], [42192.230769230766, 6668169.307692308], [42243.0, 6668312.0], [42290.0, 6668295.0], [42356.08774943354, 6668361.087749434], [42506.32797385272, 6668335.0], [42529.34534179111, 6668519.152223024], [42483.80757488524, 6668559.621041604], [42441.536907201546, 6668868.966372998], [42542.01793148005, 6668982.959395133], [42606.92450991508, 6668925.114273113], [42680.20990207422, 6668940.126644331], [42791.5935802882, 6668859.965449698], [42873.06125480895, 6668929.110771291], [42915.0, 6668916.666666667], [42944.90339056935, 6669223.002508977], [43124.75734369199, 6669183.792743528], [43157.631578947374, 6669267.894736842], [43488.387256520306, 6669616.896665567], [43430.828687278256, 6669656.03649265], [43513.0, 6669758.0], [43473.316973904715, 6669822.745989945], [43539.545454545456, 6669914.545454546], [43515.0, 6669963.333333333], [43583.59239076569, 6669923.358202054], [43717.11695603393, 6670020.951474573], [43831.91386943365, 6669996.619427983], [43966.392112382884, 6670110.408710478], [43988.772241301536, 6670390.354882988], [43835.59524185849, 6670597.3617838295], [43490.27820948826, 6670870.184329866], [43276.67715674133, 6670969.253293266], [43217.28770595691, 6671072.215885087], [42888.36567130839, 6671320.891065991], [42880.15759823247, 6671473.83806303], [42998.232610064326, 6671678.188800257], [42966.57581764123, 6671793.85530228], [43010.06915363633, 6671795.20976603], [42903.72470217093, 6671945.758625008], [42711.022806321045, 6672043.216773697], [42602.806211955314, 6672162.853119013], [42449.289301114244, 6672258.002676412], [42468.914164972666, 6672344.504074209], [42512.600000000006, 6672362.4], [42455.692518475465, 6672465.475379889], [42515.0, 6672520.0], [42393.778999323156, 6672569.290841381], [42412.17624552561, 6672703.413756894], [42581.25845705127, 6672738.806572462], [42625.0482579384, 6672717.580272554], [42756.56059276447, 6672798.8376008], [42971.06177719796, 6672601.170585964], [43295.613918391624, 6672420.195610898], [43392.80715502922, 6672467.194367966], [43431.07461191788, 6672381.119178768], [43437.08648459056, 6672214.203478874], [43545.0, 6672130.0], [43511.08695652174, 6672072.173913044], [43597.385590943275, 6671963.556376625], [43825.859218704514, 6672230.8592187045], [43887.766888387865, 6672440.425646428], [43998.05716707249, 6672394.514787894], [44125.0, 6672530.0], [43998.13329925835, 6672609.897462109], [43977.32746955345, 6672743.3829499325], [44035.0, 6672860.0], [44011.92307692308, 6672896.153846154], [44092.90190459479, 6673063.620938062], [44251.60445170569, 6673067.142951334], [44440.0, 6673185.0], [44538.871322374616, 6673123.217389354], [44630.49323354618, 6673194.591948849], [44782.8860643386, 6673068.517657079], [44896.0, 6673145.0], [44986.829268292684, 6673071.8292682925], [45146.97524305911, 6673214.105826276], [45257.55094582854, 6673142.743085832], [45319.53645364536, 6673152.223222322], [45235.0, 6673270.0], [45322.772796724814, 6673435.496248298], [45281.45882352941, 6673537.63882353], [45301.21808259722, 6673579.605909672], [45270.479535839855, 6673640.135068554], [45231.72727272727, 6673784.909090909], [45076.92286442375, 6673779.456042804], [44848.96344897825, 6673919.396740118], [44785.023170800436, 6674045.658308025], [44891.45448850037, 6674206.015514127], [44794.38539087807, 6674276.998213537], [44516.62357707891, 6674356.1576307155], [44344.39944600554, 6674241.69999333], [44167.88990406927, 6674417.1571376715], [44132.142857142855, 6674412.857142857], [44135.24772614842, 6674561.890855124], [44418.60841423948, 6674850.533980583], [44536.25142999725, 6674912.904241662], [44780.63499680997, 6674761.007912253], [44878.47527593438, 6674802.714996759], [44977.92306780194, 6674735.947704328], [45022.5, 6674787.5], [45115.09355918961, 6674644.060643661], [45229.77376443284, 6674644.269930922], [45277.66355140187, 6674721.168224299], [45397.181603773584, 6674682.1816037735], [45427.42162482187, 6674777.443171339], [45485.76198826889, 6674772.382095436], [45733.73296852283, 6674957.003830669], [45802.90565040773, 6674920.811300815], [45935.740136242115, 6674964.040841184], [45830.04576354286, 6675053.467429336], [45809.35483870968, 6675130.806451613], [45918.12673229172, 6675234.637441618], [45945.0, 6675430.0], [45912.862728003834, 6675462.780785165], [45991.8, 6675455.2], [46018.41176470588, 6675496.588235294], [45980.68886605326, 6675531.565757953], [46045.96926713948, 6675713.7115839245], [45937.359690218946, 6675852.359690219], [45985.0, 6675900.0], [45975.0, 6676030.0], [45875.04137360364, 6676047.703764998], [45942.142857142855, 6676127.142857143], [45918.99429663838, 6676216.1367623415], [45979.15162454874, 6676265.126353791], [45975.09639657807, 6676351.936442644], [46103.846153846156, 6676348.846153846], [46185.0, 6676430.0], [46183.47744415108, 6676553.949534148], [46274.78161658677, 6676624.039588419], [46171.8890643212, 6676841.011272401], [46136.02976400287, 6676860.3131345995], [46134.41365700815, 6676952.855121853], [45983.8757636348, 6677036.252326115], [45928.71607325452, 6677124.082909468], [45982.94628569622, 6677169.831492081], [45905.0, 6677270.0], [46024.71207652378, 6677335.097306836], [45975.0, 6677420.0], [46053.8188976378, 6677530.367454068], [46008.296516842136, 6677576.64854121], [46281.762010974126, 6677864.856983539], [46265.869743908566, 6677893.853492591], [46321.66666666667, 6678003.333333333], [46282.142857142855, 6678042.857142857], [46374.96989410905, 6678160.649852905], [46340.758289703794, 6678249.674655233], [46212.160804020095, 6678351.432160804], [46062.48209770223, 6678323.816081283], [46001.49124321192, 6678257.157799639], [45936.688102893895, 6678360.908360128], [45985.365347720755, 6678510.428636302], [46075.71428571429, 6678616.428571428], [46056.75343963366, 6678711.232801831], [45943.12905993292, 6678790.058663606], [45856.57127314851, 6678772.234769864], [45850.75935190916, 6678816.518703818], [46120.124598139635, 6679074.089194033], [46160.0, 6679065.0], [46218.31893676304, 6679181.637873526], [46372.791033821166, 6679095.189258216], [46238.149805272624, 6678923.355737605], [46333.0187687007, 6678783.05240729], [46538.43966975155, 6678638.839905643], [46625.92763391274, 6678663.836466832], [46776.84210526316, 6678495.0], [46929.010513571266, 6678515.545876077], [46952.48106441955, 6678498.540201325], [47085.0, 6678580.0], [47145.53409922877, 6678806.674878856], [47265.381997310746, 6678745.756990481], [47305.538532141945, 6678868.400646329], [47410.21710526316, 6678915.217105263], [47572.58620689655, 6678815.517241379], [47615.0, 6678823.333333333], [47610.5063933428, 6678764.361680536], [47655.0, 6678740.0], [47619.04324055666, 6678664.758946322], [47944.46230271163, 6678684.700693644], [48040.0, 6678755.0], [48166.1136532278, 6678678.109077418], [48302.77166839113, 6678703.659207404], [48309.68194489855, 6678852.486447853], [48503.59672148161, 6678805.337306501], [48557.391893143744, 6678854.584869232], [48664.81578947368, 6678870.921052632], [48661.24540273464, 6679020.178921413], [48614.792005182884, 6679082.700354261], [48698.23049845178, 6679111.848958535], [48576.243250754116, 6679238.944184436], [48681.666666666664, 6679416.666666667], [48682.818628175926, 6679597.789346032], [48720.27324399847, 6679671.908897498], [48650.91532757017, 6679758.663265484], [48736.64991989279, 6679966.826688861], [48533.80038896747, 6680189.348479491], [48470.0, 6680135.0], [48521.14315374745, 6680281.10069958], [48724.19316747817, 6680425.108488824], [48814.509789679185, 6680643.238628616], [48675.085991320666, 6680867.753283396], [48677.73234859918, 6680917.66621654], [48582.96287871339, 6681017.778845494], [48635.0, 6681110.0], [48598.18826868496, 6681160.245979186], [48662.21053447125, 6681248.774375417], [48442.72727272727, 6681553.484848484], [48400.0, 6681525.0], [48379.28571428571, 6681574.285714285], [48425.0, 6681620.0], [48361.98630136986, 6681783.643835616], [48197.1320203055, 6681665.154938819], [48150.0, 6681685.0], [48055.72902796272, 6681624.936750999], [48009.45129469791, 6681698.335388409], [47825.0, 6681840.0], [48210.667197948875, 6682116.772744621], [48395.19649854986, 6682150.289872886], [48430.60659303496, 6682207.712595973], [48565.0, 6682250.0], [48549.82260183968, 6682392.982917214], [48486.00590815526, 6682570.588341289], [48356.66666666667, 6682623.888888889], [48334.14634146342, 6682600.853658536], [48295.431432973804, 6682659.784283513], [48209.17803781388, 6682644.708289143], [48205.0, 6682780.0], [48028.4206185567, 6682899.226804123], [47820.168994416395, 6682865.254796037], [47686.3321115133, 6682986.626207164], [47477.92319910473, 6682880.156770552], [47362.91596484676, 6682730.383797316], [47382.933278248296, 6682692.231976864], [47143.63636363637, 6682495.0], [46954.696748436094, 6682447.753382162], [46990.464788732395, 6682517.2676056335], [46939.545454545456, 6682542.7272727275], [46975.0, 6682580.0], [46938.78517069917, 6682627.224137409], [46747.93814432989, 6682604.072164948], [46661.775462311576, 6682716.569191041], [46406.446043165466, 6682851.316546762], [46265.9234426488, 6682729.219773887], [46023.09942648042, 6682571.620042431], [45851.97025400947, 6682785.112906225], [45723.88098168271, 6682779.56114508], [45749.04842994346, 6682834.397861181], [45687.00795613527, 6682956.869395023], [45783.48058902276, 6683048.012048192], [45650.53189561886, 6683166.67043848], [45735.0, 6683250.0], [45681.036209132566, 6683321.60579942], [45760.838679581866, 6683423.099441827], [45688.27589122436, 6683561.890659383], [45706.64816203958, 6683684.660646218], [45590.20577341347, 6683655.342633151], [45454.01909947097, 6683445.735675396], [45386.48936170213, 6683496.382978723], [45400.0, 6683545.0], [45337.88281024591, 6683577.309855554], [45160.85727971358, 6683950.538202632], [45274.83912255618, 6684116.010369763], [44961.17217065704, 6684365.465956268], [44826.19302949061, 6684332.4620196605], [44751.73815571451, 6684355.623723335], [44756.06513515407, 6684427.756238114], [44570.0, 6684565.0], [44540.0, 6684535.0], [44480.0, 6684565.0], [44386.887381150926, 6684489.977297483], [44287.82983400151, 6684554.073712511], [44348.82237609614, 6684636.220848717], [44300.0, 6684735.0], [44216.33761983413, 6684575.280732101], [44068.45966909981, 6684503.593595887], [44047.25525830311, 6684402.303983375], [43953.722987673624, 6684406.063710764], [43684.746396703646, 6684535.434748508], [43650.0, 6684595.0], [43540.0, 6684581.470588235], [43479.207459207464, 6684645.839160839], [43222.92027536355, 6684610.993102334], [43129.86729241768, 6684710.333696088], [42956.65031828727, 6684692.610973567], [42907.217960574504, 6684557.116657395], [42911.62162162162, 6684447.702702703], [42703.572528487835, 6684571.079457961], [42487.26157175179, 6684613.564213676], [42445.0, 6684590.0], [42481.29547416451, 6684534.075718338], [42115.07602865131, 6684285.388606876], [42107.17705123759, 6684298.443633805], [41975.94594594595, 6684222.567567567], [41935.75854214123, 6684281.186788155], [41820.0, 6684285.0], [41796.46953405018, 6684321.800079649], [41751.31578947368, 6684313.684210527], [41655.54626653578, 6684469.340094743], [41739.197628209906, 6684586.424899302], [41630.72693033377, 6684756.153413246], [41492.88774905178, 6684872.553824599], [41518.92857142857, 6684943.928571428], [41382.017541933725, 6685024.2382617695], [41408.21191511809, 6685084.40755662], [41304.10361588984, 6685195.9639063], [41064.53923561043, 6685157.760913613], [40935.085862720756, 6685197.390266345], [40992.68939795456, 6685483.834922845], [40967.57546924571, 6685510.134208], [41007.027078691186, 6685597.77046576], [40823.553199724876, 6685656.350214917], [40804.35754656008, 6685862.84398348], [40657.92641967627, 6685950.115151309], [40531.46788990826, 6685996.0091743115], [40503.97435897436, 6685969.615384615], [40325.0, 6685985.0], [40253.33333333333, 6686087.222222222], [40146.02272727273, 6685998.9772727275], [40108.89069264069, 6686012.9347041845], [40053.233061144245, 6685914.148301408], [40005.29702970297, 6685948.465346535], [39953.95119567072, 6685888.92395516], [39830.0, 6685935.0], [39740.555317234015, 6686051.576833463], [39234.754100880105, 6686455.4883179385], [39141.09508631943, 6686435.857370521], [39045.0, 6686580.0], [39065.0, 6686630.0], [38869.859850318, 6686824.525055734], [38801.28712677959, 6686865.686371013], [38686.62282542039, 6687022.697285608], [38566.234177215185, 6687074.20886076], [38322.96587391452, 6687101.510488871], [38251.13535867851, 6687226.135358678], [38277.596153846156, 6687252.596153846], [38179.648858476416, 6687458.9839470675], [38103.09454016249, 6687501.845857317], [38024.16666666667, 6687410.833333333], [37972.225381890676, 6687465.635069866], [37934.3794917043, 6687583.425154566], [37965.0, 6687720.0], [37853.75747483474, 6687877.02138852], [37767.87801262016, 6687879.890484819], [37716.47765651871, 6687988.522343481], [37639.91147240145, 6688052.521950968], [37642.28156751104, 6688065.32046456], [37477.63361085771, 6688228.024791856], [37382.113538124555, 6688235.930374128], [37073.36645197304, 6688038.509962381], [37068.62305905367, 6687840.088397115], [36897.33377230892, 6687887.0359269185], [36835.20005554364, 6687799.105803608], [36937.509176872045, 6687762.845643137], [36927.40926157698, 6687692.108886108], [36769.02679280611, 6687751.224384718], [36772.752293577985, 6687776.834862385], [36558.54240249866, 6687928.942957547], [36504.341674398296, 6687911.327430006], [36441.143177015074, 6687812.844127283], [36157.92620073834, 6687929.975653845], [36035.0, 6687846.909871245], [36062.88234499017, 6687694.055479038], [35974.5426339665, 6687611.218363107], [36003.762376237624, 6687554.108910891], [35811.02066790545, 6687680.127152233], [35503.77400680301, 6687818.940565353], [35402.37564345276, 6687918.925278553], [35364.806616947724, 6688120.750716703], [35235.0, 6688240.0], [35254.66101694915, 6688299.322033898], [34944.57096942978, 6688580.501532252], [34873.25940506798, 6688565.471939235], [34769.736794300894, 6688680.480776312], [34686.03602363936, 6688661.181964475], [34596.089823446026, 6688547.6429399885], [34634.38739881039, 6688487.8685463015], [34629.86373165618, 6688337.589098533], [34600.67767653758, 6688323.88952164], [34426.10734517197, 6688442.877303194], [34308.89536864524, 6688358.290776602], [34335.0, 6688176.0], [34287.03832965286, 6688146.893766717], [34325.0, 6687995.0], [34245.0, 6687930.0], [34269.5998214817, 6687793.597143707], [34235.0, 6687770.0], [34252.29441962164, 6687632.692271128], [34181.666666666664, 6687576.666666667], [34213.157608240515, 6687512.635457667], [34139.75, 6687455.25], [34063.55190503564, 6687493.0488377325], [33920.7636215011, 6687281.878080518], [33742.8132584689, 6687121.149844366], [33701.69136760677, 6687153.072274895], [33399.4217519877, 6686887.474350379], [33555.42168674699, 6686689.457831325], [33464.82988730437, 6686580.793425428], [33329.794560338, 6686582.960918933], [33302.989690721646, 6686622.422680412], [33220.0, 6686525.0], [32967.22926311978, 6686689.036805214], [32935.0, 6686850.0], [32855.824752130095, 6686898.374157612], [32800.26806620716, 6687005.234114018], [32776.62946257931, 6686984.589480926], [32570.0, 6687155.0], [32515.555555555555, 6687119.444444444], [32480.0, 6687155.0], [32438.571428571428, 6687126.428571428], [32365.15625, 6687199.84375], [32213.333333333336, 6687067.222222222], [32187.799709593164, 6687100.692076053], [31904.8, 6687096.6], [31844.713891538835, 6687143.512148852], [31593.82075471698, 6687177.311320755], [31475.375365121334, 6687237.366156823], [31216.473944218644, 6687479.380087652], [31110.0, 6687475.0], [30929.328818845148, 6687614.129529534], [30660.132243211956, 6687496.981629143], [30610.0, 6687405.0], [30448.715679953137, 6687458.457117441], [30202.837372788574, 6687400.95379565], [30080.527950310556, 6687521.770186336], [30102.671520625656, 6687615.672755008], [30047.823778363938, 6687692.450063995], [30115.0, 6687850.0], [29936.773441423342, 6687909.735275127], [29677.824600458225, 6687777.999031224], [29566.97794555931, 6687851.224915558], [29437.692647214644, 6687809.583212102], [29254.29333892864, 6687965.791109246], [29130.0, 6688025.0], [28931.34963768116, 6687935.498188406], [28965.0, 6687890.0], [28874.304454616504, 6687821.978340962], [28807.80487804878, 6687863.130081301], [28694.438196052488, 6687749.4631896205], [28730.0, 6687605.0], [28676.409065612468, 6687661.325778657], [28603.463785564512, 6687589.328435595], [28449.44958833082, 6687645.691433293], [28400.73417721519, 6687728.82278481], [28350.0, 6687695.0], [28268.647540983606, 6687727.540983606], [28166.84484751868, 6687660.767746745], [27995.479708295454, 6687844.771907508], [27786.400537633876, 6687890.456627224], [27698.835420790638, 6688089.46354496], [27734.75020690693, 6688159.604243473], [27640.721124673317, 6688432.1552624805], [27604.91492894596, 6688678.788774669], [27475.78796957714, 6688954.906165014], [27515.0, 6689000.0], [27358.790318636347, 6689374.58012283], [27259.548979251267, 6689386.5736774765], [27233.008382854227, 6689417.5696385], [27091.730637128632, 6689461.887343294], [26908.571428571428, 6689416.428571428], [26860.766350736892, 6689438.898774631], [26691.241122437976, 6689404.627158513], [26647.142857142855, 6689433.571428572], [26538.179938400244, 6689324.888817317], [26492.0, 6689377.0], [26461.80204410974, 6689346.802044109], [26411.4450867052, 6689403.901734104], [26128.313915398077, 6689500.341069253], [26052.644273669262, 6689476.384995543], [25782.270213311578, 6689670.0803430425], [25664.656980130738, 6689911.940327487], [25594.0, 6689861.0], [25456.69552683224, 6689998.304473168], [25480.71436480809, 6690131.159769741], [25312.123076923075, 6690046.415384616], [25283.928571428572, 6689988.928571428], [25195.0, 6690040.0], [25218.76552122437, 6690121.975166041], [25095.0, 6690200.0], [25080.0, 6690255.0], [24954.0, 6690281.0], [24885.0, 6690350.0], [24927.039395114385, 6690478.633840636], [24898.783597518952, 6690524.534803583], [24981.153074093374, 6690641.429185926], [24888.531353135313, 6690715.148514852], [24927.061994394124, 6690735.754745581], [24934.285714285714, 6690835.0], [24880.0, 6690835.0], [24806.25935162095, 6690949.488778055], [24415.844201827742, 6691168.867282523], [24268.713787403853, 6691288.724023081], [24094.7314285263, 6691311.02267967], [24071.584552494445, 6690924.2013761755], [23956.17737988991, 6690735.335744574], [23486.104368932043, 6690233.540799815], [23279.60657272197, 6690092.123953441], [22780.06857013238, 6690003.988298263], [22706.078021284768, 6689921.949572111], [22567.55471380188, 6689858.964970932], [22340.812243511213, 6689889.68033199], [21915.22192013906, 6690050.859844564], [21747.082301896586, 6690009.215716452], [21597.90393055351, 6689880.36698645], [21541.192990038213, 6689762.361764329], [21124.785954565723, 6689369.798210815], [20985.99143013481, 6689110.099345315], [20841.423126575588, 6688766.70894438], [20897.159766490804, 6688629.735163589], [20821.666666666664, 6688532.222222222], [20833.153648408952, 6688487.231543732], [20171.289196381367, 6687542.244555066], [20062.80031201248, 6687181.700468019], [20046.14067520086, 6687005.047823502], [19978.424689340616, 6686823.532275997], [19789.387269236468, 6686586.059130772], [18653.108771320552, 6685599.126499723], [18597.60216834731, 6685582.602168348], [18492.987288135595, 6685477.987288136], [18297.0127118644, 6685382.012711864], [18101.875, 6685245.875], [18169.78403152411, 6685284.875966729], [19893.78074153588, 6683588.780741536], [19875.0, 6683570.0]]]}}]}