{"type": "FeatureCollection", "crs": {"type": "name", "properties": {"name": "EPSG:25833"}}, "features": [{"type": "Feature", "properties": {"station": "48.5.0", "name": "Reinsnosvatn", "series": ["1001.1"], "nodes": 9, "fine_vertices": 36, "fine_area_m2": 850.0, "reduced_vertices": 4, "reduced_area_m2": 850.0, "outline_tolerance_m": 20.0, "windows": [[513, 450], [838, 839]], "placed_on": "number", "distance_m": 129.08100696636532, "uncertainty_m": 129.08100696636532, "elvid": "048-67-591", "objectid": 10869787, "lake": false, "confluence_near": false, "reach_up_m": 1000.0, "reach_down_m": 229.0810069663653, "reach_fork": false, "seeded_by": "river", "lake_rule": null, "lake_number": null, "lake_name": null, "lake_distance_m": null, "node_offset_m": 25.499883854642125, "chain_nodes": 154, "lowered_nodes": 60, "lowered_max_m": 1.932861328125, "direction_ok": true, "end_extended_m": 495.9797974644666, "end_closed": false, "downstream_checked": "partly", "a0": 0.0009000000000000001, "area_up": 0.3462, "area_down": 0.0043, "swing": 3.7777777777777772, "largest_step": 0.011, "largest_step_at_m": -10.0, "checked_up_m": 116.56854249492415, "checked_down_m": 48.28427124746213, "drains": false, "monotone": false, "causes": ["swing", "downstream_unread", "chain_not_draining", "chain_end_open"]}, "geometry": {"type": "Polygon", "coordinates": [[[38650.0, 6677005.0], [38645.0, 6677000.0], [38730.0, 6676915.0], [38735.0, 6676920.0], [38650.0, 6677005.0]]]}}]}