{"type": "FeatureCollection", "crs": {"type": "name", "properties": {"name": "EPSG:25833"}}, "features": [{"type": "Feature", "properties": {"station": "50.1.0", "name": "H\u00f8len", "series": ["1001.1"], "nodes": 2320369, "fine_vertices": 18132, "fine_area_m2": 232037350.0, "reduced_vertices": 906, "reduced_area_m2": 232037350.00000164, "outline_tolerance_m": 20.0, "windows": [[441, 417], [1064, 1153], [2272, 2352], [4717, 4589]], "placed_on": "name", "distance_m": 32.109698108504034, "uncertainty_m": 32.109698108504034, "elvid": "050-1-1", "objectid": 10807705, "lake": true, "confluence_near": false, "reach_up_m": 1000.0, "reach_down_m": 132.10969810850406, "reach_fork": false, "seeded_by": "lake", "lake_rule": "lake_line", "lake_number": 154600, "lake_name": null, "lake_distance_m": 5.965056930483759, "node_offset_m": null, "chain_nodes": null, "lowered_nodes": null, "lowered_max_m": null, "direction_ok": null, "end_extended_m": null, "end_closed": null, "downstream_checked": null, "a0": null, "area_up": null, "area_down": null, "swing": null, "largest_step": null, "largest_step_at_m": null, "checked_up_m": null, "checked_down_m": null, "drains": null, "monotone": null, "causes": []}, "geometry": {"type": "Polygon", "coordinates": [[[52685.0, 6720260.0], [52630.226096156985, 6720199.609510623], [52507.31645743538, 6720206.738616935], [52579.20801969385, 6720131.553377394], [52401.59229208925, 6719947.5179037135], [52300.80316396142, 6720002.345742178], [52217.10526315789, 6719994.736842105], [52091.70336056356, 6720094.199713667], [51883.76075300406, 6720003.4530727705], [51940.42274052478, 6719845.56851312], [51792.25588886185, 6719601.166945118], [51607.01306148039, 6719448.045385895], [51574.666566346714, 6719466.774981636], [51477.47572815534, 6719474.514563107], [51248.49193583551, 6719436.456483136], [50971.571903804615, 6719559.607767548], [50942.129514808614, 6719615.529735998], [50648.64121870075, 6719620.764314481], [50551.78645186582, 6719723.731934763], [50482.82608695652, 6719657.826086956], [50249.52892682236, 6719847.463346085], [50175.0, 6719860.0], [50167.70755723987, 6719823.501345975], [49990.73709777181, 6719761.412569583], [49932.96478314821, 6719820.700570314], [49693.64272142976, 6719685.556894356], [49620.0, 6719795.0], [49567.16122740712, 6719783.243008078], [49424.60044559074, 6719886.841002337], [49300.77669902913, 6719833.252427184], [49170.0, 6719915.0], [48945.39257455873, 6719840.920987108], [48840.0, 6719905.0], [48778.0, 6719867.0], [48701.16930319934, 6719981.317019377], [48673.31265899252, 6719970.276332069], [48605.0, 6720028.333333333], [48563.846153846156, 6719985.0], [48454.55505700686, 6720075.598838127], [48375.0, 6720074.444444444], [48375.0, 6720103.333333333], [48353.48399743458, 6720075.844147995], [48114.579918762916, 6720177.915983752], [48034.15066011509, 6720159.843270906], [47994.969609140695, 6720200.459291867], [47867.15598884394, 6720132.930671625], [47639.470947225396, 6720235.514903382], [47506.7468606971, 6720087.89167938], [47421.66655003989, 6720086.66655004], [47380.0, 6720045.0], [47307.692307692305, 6720083.461538462], [47176.2216226811, 6720034.249997118], [47082.22222222222, 6720042.777777778], [47030.0, 6720005.0], [46985.71428571428, 6720049.285714285], [46957.29004665629, 6720021.99844479], [46591.5503875969, 6720133.449612403], [46516.64084702601, 6720096.7300340915], [46154.34547381609, 6719748.406590072], [46014.65824238943, 6719698.236645606], [45910.0, 6719755.0], [45897.59694850604, 6719723.722186904], [45748.23529411765, 6719793.823529412], [45713.60655737705, 6719770.737704918], [45580.0, 6719885.0], [45545.0, 6719850.0], [45450.877159602634, 6719901.030455637], [45351.64451180616, 6719869.890522908], [45255.59830601204, 6719909.295921056], [45090.0, 6719851.666666667], [44882.723335138064, 6719617.306009745], [44732.857142857145, 6719682.142857143], [44599.90456822309, 6719663.020369713], [44510.23347259769, 6719601.237404767], [44460.088548173844, 6719614.975740226], [44334.2, 6719423.6], [44300.0, 6719435.0], [44271.53465346534, 6719368.158415842], [44321.153846153844, 6719308.615384615], [44105.96895074946, 6718949.031049251], [44060.925248426305, 6718802.978772234], [44115.0, 6718750.0], [44085.0, 6718720.0], [44136.42857142857, 6718631.428571428], [44051.585701191565, 6718546.585701192], [44007.7303423257, 6718416.5159360105], [44040.0, 6718346.875], [43932.26727954999, 6718202.19052351], [44170.79781413578, 6717833.068789589], [44153.86261099086, 6717588.33598757], [44237.93739989944, 6717580.690600052], [44231.74072889849, 6717518.528675276], [44386.035003652425, 6717242.740876929], [44525.408139103136, 6717302.296206201], [44587.06008583691, 6717204.334763949], [44549.48842079353, 6717176.288608469], [44686.88215370704, 6717086.987931266], [44716.56602271188, 6717114.631931], [44790.51783893986, 6717086.03567788], [44891.63160497625, 6717156.460990313], [45078.10943122777, 6716972.132416729], [45082.685464717426, 6716945.0446904395], [45250.0, 6716875.0], [45399.1282051282, 6716875.205128205], [45569.50565216565, 6716725.879550714], [45688.560487774004, 6716698.586016301], [45755.0, 6716610.0], [45715.0, 6716560.0], [45808.653846153844, 6716511.39546351], [46057.15954956828, 6716510.219633548], [46117.27635751104, 6716452.713949641], [46249.96020120546, 6716541.019379201], [46373.55156950673, 6716438.156950673], [46410.03982017523, 6716441.394900618], [46519.36222955761, 6716336.884121745], [46609.67171877985, 6716342.87652041], [46701.75252544904, 6716248.180321065], [46718.28922098022, 6716170.255054967], [47100.29089149074, 6715792.772844672], [47058.4762407825, 6715660.958335527], [47122.45030867633, 6715412.591284125], [47013.25997378867, 6715136.83908609], [46967.70549809472, 6715104.88296135], [47149.35894383663, 6714830.067295702], [47140.0, 6714795.0], [47004.92668246657, 6714869.180539284], [46852.41379310345, 6714872.931034483], [46731.427777777775, 6714683.572222223], [46799.49420468511, 6714615.505795315], [46641.276015034295, 6714553.773373048], [46580.539536835706, 6714567.701221614], [46525.7474319673, 6714312.586382374], [46488.02514444175, 6714337.320373742], [46151.93888802501, 6714101.830404145], [46176.31081081081, 6714056.1486486485], [46027.10020088555, 6713914.901601581], [46013.75, 6713816.25], [46139.054413540645, 6713754.241062848], [46199.83600227907, 6713625.3843289735], [46443.36641314515, 6713445.0], [46500.0, 6713445.0], [46653.686131386865, 6713298.193430657], [46906.44059662786, 6713280.026971199], [47157.06365304743, 6713112.063653047], [47453.17444219067, 6712778.174442191], [47431.475458345885, 6712705.062266751], [47540.36692801634, 6712471.762206415], [47653.05105295622, 6712395.382733408], [47620.11201353906, 6712342.995184026], [47780.918972211366, 6712231.789077017], [47848.894933105374, 6712270.916490864], [47894.599109131406, 6712217.14922049], [47813.25112546486, 6712168.744372676], [47825.734715441955, 6712107.346924712], [47888.75, 6712066.25], [47831.25, 6712023.75], [47867.0, 6711988.0], [47835.0, 6711970.0], [47839.00921658986, 6711867.373271889], [47738.81801372502, 6711729.64878323], [47910.931119444744, 6711619.357545176], [48084.968434343435, 6711646.837121212], [48035.0, 6711500.0], [48075.0, 6711460.0], [48088.7112585253, 6711301.879753465], [47978.3222573557, 6711154.181896136], [48022.80390918341, 6711093.019624873], [47996.41787352309, 6710881.4962869575], [48109.597715210315, 6710730.136303405], [48125.826287998774, 6710629.5485604685], [48004.89413203643, 6710532.224986975], [48055.0, 6710490.0], [48033.24324324324, 6710424.72972973], [48118.34606842296, 6710361.591180763], [48227.142857142855, 6710326.428571428], [48274.38202247191, 6710357.921348315], [48328.68035121602, 6710298.612505767], [48382.171428571426, 6710302.371428572], [48430.0, 6710245.0], [48525.454545454544, 6710259.545454546], [48544.36359518636, 6710184.632781213], [48461.828529749546, 6710120.2427946245], [48471.06223637955, 6710076.630306], [48408.20081909335, 6710035.113583635], [48497.40436665924, 6709958.653400007], [48565.59739832139, 6710010.541705986], [48668.333333333336, 6709986.666666667], [48627.0, 6709884.0], [48684.142857142855, 6709784.0], [48617.49558196658, 6709656.30966464], [48621.949579008295, 6709567.228201332], [48507.51118383003, 6709313.166641677], [48653.889899187314, 6709104.0877649905], [48553.43190184283, 6708989.682056107], [48635.0, 6708870.0], [48603.46050073125, 6708803.966266417], [48672.82642868129, 6708736.925013046], [48691.41952400161, 6708658.384025817], [48780.35850007592, 6708690.8518582955], [48795.0, 6708550.0], [48768.125, 6708469.375], [48810.0, 6708435.0], [48835.962810285935, 6708460.962810286], [48963.860166309285, 6708491.709750536], [48995.15873015873, 6708444.761904762], [48970.0, 6708325.0], [48935.0, 6708336.666666667], [48853.78661087866, 6708236.116756326], [48879.48275862069, 6708185.517241379], [48745.0, 6708030.0], [48744.722960463805, 6707909.890768353], [48630.79105073911, 6707740.892928486], [48581.35358930794, 6707776.762379997], [48333.998462447315, 6707366.058232524], [48256.3436588277, 6707349.839005427], [48175.0, 6707390.0], [48182.93103448276, 6707332.413793104], [48069.68875491629, 6707227.057667106], [48087.117465773306, 6707039.784567843], [48011.24194796173, 6706954.617342713], [47775.01581255603, 6706992.443004449], [47633.2090975089, 6706877.296091682], [47518.00637959077, 6706918.685026521], [47433.72422258476, 6706988.379159849], [47362.75350455336, 6706875.30594495], [47348.27031291086, 6706893.11306863], [47263.498886721194, 6706838.702604815], [47132.21417410663, 6706627.168220724], [47100.188679245286, 6706630.094339622], [46974.90009579322, 6706489.527583854], [46876.932079003105, 6706478.101052321], [46672.02282990146, 6706322.775105731], [46628.68421052631, 6706366.842105263], [46575.0, 6706340.0], [46552.75700934579, 6706192.429906542], [46326.553787953184, 6705926.15951333], [46210.0, 6705735.0], [46110.52631578947, 6705825.52631579], [46055.0, 6705770.0], [46044.73684210527, 6705675.0], [46132.71714922049, 6705675.0], [46144.97512437811, 6705607.985074627], [46048.44991210778, 6705492.1099665], [46036.666666666664, 6705295.0], [46140.605419200445, 6705279.766571807], [46242.18686882735, 6705147.418649452], [46374.8168809597, 6705086.739791264], [46469.98629221288, 6704895.54141973], [46410.0, 6704695.0], [46443.333333333336, 6704695.0], [46412.407116677714, 6704587.126792474], [46504.83606557377, 6704468.5245901635], [46486.894993899565, 6704333.905219645], [46445.16960208741, 6704273.385518591], [46403.282718704715, 6704115.470334455], [46536.42608196655, 6704152.120516175], [46637.96795952783, 6704017.032040472], [46620.603469043606, 6703964.396530956], [46767.63501872912, 6703910.942534767], [46782.0, 6703937.0], [46843.08823529412, 6703831.544117647], [46890.0, 6703855.0], [46948.333333333336, 6703790.0], [46976.536326822425, 6703855.814388748], [47068.44542073738, 6703830.228079946], [47286.98048583802, 6704122.595518812], [47322.44796724874, 6704110.442955384], [47525.05397099725, 6704307.912697132], [47651.668256653305, 6704357.780003759], [47859.87150654605, 6704633.482834286], [47931.35135135135, 6704699.054054054], [48050.0, 6704685.0], [48067.692307692305, 6704716.538461538], [48122.523160037366, 6704676.506333001], [48146.501785767556, 6704510.985917759], [48294.0259570295, 6704620.691708913], [48452.67762651202, 6704527.411171024], [48500.0, 6704545.0], [48569.74391383572, 6704330.888541425], [48684.57992058416, 6704210.678351383], [48813.20754716981, 6704279.528301887], [48925.95082807188, 6704228.44390095], [49074.04063150313, 6704362.496067166], [49120.62686910513, 6704375.080546385], [49109.33389799589, 6704414.969063731], [49442.56284746639, 6704784.589165324], [49536.94271349667, 6704800.153306897], [49578.15789473684, 6704725.263157895], [49690.23768552377, 6704709.421380942], [49737.362380891056, 6704615.990468847], [49830.0, 6704685.0], [49863.27860763596, 6704577.890142416], [50064.13751507841, 6704642.165259348], [50130.0, 6704515.0], [50199.55496602904, 6704538.184988677], [50352.57297111205, 6704396.420316091], [50273.70397126557, 6704325.127328875], [50342.89017341041, 6704160.260115607], [50392.31401301975, 6704198.460901271], [50547.06293706294, 6704127.797202798], [50626.741758241755, 6704182.752747253], [50682.89881501575, 6704171.318792172], [50810.0, 6704245.0], [50888.20803482295, 6704133.274235968], [50881.73200969759, 6704045.853678553], [50699.456214849866, 6703827.579702877], [50843.196273291345, 6703677.107837822], [50970.831661158474, 6703595.271005357], [50987.291941875825, 6703608.5667107], [51162.297569954026, 6703448.7257026415], [51284.27803818452, 6703525.149765634], [51433.333333333336, 6703415.0], [51441.54424439354, 6703543.102589082], [51590.2976838066, 6703542.44302216], [51647.534506532334, 6703429.90155025], [51956.47613032905, 6703346.478607418], [51989.5334927003, 6703406.117379156], [52152.52593736435, 6703412.928163735], [52213.24783306328, 6703281.002485529], [52196.72656437917, 6703258.868488529], [52290.05776486965, 6703227.483035267], [52540.95223608441, 6703381.968547319], [52612.92682926829, 6703327.926829268], [52633.37415606846, 6703353.446851939], [52730.0, 6703295.0], [52777.268722466964, 6703326.850220264], [52857.67924528302, 6703280.075471698], [52976.67094646558, 6703105.568127012], [53114.51415547292, 6703047.168369947], [52864.4, 6702800.6], [52840.0, 6702825.0], [52651.896365467685, 6702669.365844432], [52694.7746168722, 6702631.413822242], [52616.515072721755, 6702466.041333577], [52735.0, 6702237.692307692], [52722.0, 6702161.0], [52611.72150648147, 6702118.497708189], [52615.740740740745, 6702050.740740741], [52510.85771170615, 6701989.796923942], [52514.87804878049, 6701861.585365853], [52462.37676516734, 6701824.316068866], [52345.0, 6701833.333333333], [52382.26706311756, 6701688.405865654], [52079.56915412149, 6701385.588197982], [51888.76158509093, 6701241.726115926], [51875.82910366393, 6701201.064822748], [51694.62104876984, 6701282.06365015], [51604.22768504879, 6701204.153311108], [51435.0, 6700940.0], [51385.20086083214, 6700762.890961262], [51455.0, 6700730.0], [51421.048653902886, 6700609.578819312], [51475.340768887385, 6700355.626941458], [51574.65569365133, 6700273.794088008], [51486.74516368565, 6700043.36776179], [51485.86204384153, 6699874.930695598], [51627.619047619046, 6699905.0], [51608.147221442814, 6699814.609733224], [51796.987230540835, 6699625.819000622], [51840.46511627907, 6699637.325581395], [51976.6869850553, 6699497.629932653], [51984.6317804189, 6699392.278906106], [51900.82292322199, 6699281.33453788], [51973.52826105053, 6699201.133771747], [51915.0, 6699110.0], [51978.42105263158, 6699015.0], [52095.50138862674, 6699007.207781702], [52160.0, 6699085.0], [52267.943680282195, 6699013.416729476], [52404.19122274943, 6698780.538943627], [52258.417343015804, 6698588.517727467], [52281.77419354839, 6698485.322580645], [52215.0, 6698400.0], [52364.661016949154, 6698141.895223421], [52318.06408407171, 6698069.175767566], [52342.0, 6698033.0], [52367.091565944145, 6698074.641322205], [52439.42123585727, 6698002.106179287], [52395.0, 6697880.0], [52446.0, 6697829.0], [52634.87001733102, 6697913.960138648], [52673.00401203611, 6697833.009027082], [52625.0, 6697760.0], [52668.71428571429, 6697705.285714285], [52765.15785319653, 6697789.842146804], [52838.333333333336, 6697716.666666667], [52805.666666666664, 6697649.333333333], [52875.0, 6697580.0], [52861.099476572694, 6697518.179072046], [53182.15414827582, 6697233.123473219], [53124.45902735709, 6697070.540972643], [53228.623585280475, 6697039.907105664], [53308.84189031505, 6696931.823220537], [53381.15107913669, 6696952.410071942], [53490.07423048478, 6696783.650536283], [53771.21576751479, 6696802.168732136], [53862.38619748513, 6696741.0639438545], [53932.30033417614, 6696831.150167088], [54015.04590720563, 6696780.119358734], [53965.0, 6696650.0], [53951.10727273607, 6696469.394545569], [54049.673397817176, 6696355.677944083], [54154.123579745166, 6696406.179297374], [54240.0, 6696365.0], [54317.13030746706, 6696422.8477306], [54520.47846268381, 6696231.471737425], [54554.60736486253, 6696127.622397463], [54505.460704607045, 6696039.539295393], [54566.513751837076, 6695971.513751837], [54499.17833688755, 6695904.178336888], [54605.95640649937, 6695729.7721760925], [54558.38983050847, 6695656.610169492], [54655.0, 6695560.0], [54662.284743160155, 6695462.384441654], [54502.67302190131, 6695206.249076724], [54561.15474284411, 6694859.391036017], [54604.96277382213, 6694829.171481602], [54615.19607843137, 6694719.019607843], [54698.116041077315, 6694668.631278791], [54888.75035682211, 6694806.975256693], [55087.62769255562, 6694819.633453784], [55141.53852682703, 6694857.899562619], [55303.333333333336, 6694671.666666667], [55405.73174277489, 6694675.883809784], [55442.37796098886, 6694841.626257407], [55650.145625645266, 6694880.890524156], [55756.17427877424, 6694993.742799173], [55857.37541679428, 6694967.624583206], [55839.81533340562, 6694871.388499945], [55889.36314363144, 6694834.227642276], [55872.50151029521, 6694762.373464782], [55930.555555555555, 6694657.777777778], [55895.0, 6694640.0], [56024.9514258853, 6694555.539015982], [56084.96254681648, 6694633.146067415], [56047.67399267399, 6694659.010989011], [56169.98231439957, 6694901.235306754], [56250.0, 6694875.0], [56350.90909090909, 6694966.818181818], [56418.81669598768, 6694952.929970012], [56335.515220973844, 6694792.111321413], [56315.64472981073, 6694359.755896017], [56365.0, 6694310.0], [56351.36363636363, 6694261.818181818], [56449.70673776054, 6694224.110518662], [56435.0, 6694190.0], [56509.340954589774, 6694207.831073431], [56761.0749882858, 6694006.573033704], [56819.83604611367, 6693804.385187058], [56792.69230769231, 6693722.307692308], [56876.44682756437, 6693605.596268919], [56911.13244724807, 6693641.379835235], [57207.10777559055, 6693356.7711614175], [57261.95704992554, 6693391.7803119365], [57325.0, 6693320.0], [57222.10940725155, 6693175.589458584], [57327.01357466063, 6693088.940765117], [57520.0, 6693235.0], [57589.0, 6693334.666666667], [57748.21530670856, 6693403.513400261], [57914.94973375988, 6693539.154750577], [57831.60701232772, 6693629.998648848], [57984.407507792224, 6693720.635136315], [58080.0, 6693825.0], [58115.71428571429, 6693790.714285715], [58163.09918543364, 6693838.099185433], [58322.01119357586, 6693806.568317314], [58367.5, 6693892.5], [58475.0, 6693875.348837209], [58475.0, 6693960.0], [58540.0, 6694025.0], [58562.786063058295, 6693907.427082319], [58635.54982671881, 6693827.6680870475], [58840.366972477066, 6693822.247706422], [58933.023255813954, 6693892.441860465], [59000.0, 6693865.0], [59020.579491274686, 6694017.76391009], [58995.0, 6694100.0], [59036.26829268293, 6694150.032520325], [59066.25, 6694141.25], [59211.931265727726, 6694230.96917106], [59185.0, 6694340.0], [59247.31914893617, 6694359.765957447], [59266.875, 6694325.0], [59324.10935395464, 6694360.311566558], [59308.11434854315, 6694453.114348543], [59488.76515309131, 6694629.668173307], [59477.827896528135, 6694688.7293587485], [59609.37375823407, 6694752.689630476], [59641.8111053451, 6694869.016606123], [59763.73956262425, 6694938.739562624], [59943.33333333333, 6695118.333333333], [59985.71428571429, 6695092.142857143], [60052.88510988067, 6695133.764398636], [60263.35276147682, 6694987.989932218], [60320.0, 6695035.0], [60578.33333333333, 6695016.666666667], [60610.0, 6694985.0], [60776.97142475672, 6695088.550345774], [60805.69113282587, 6695233.497301046], [60897.275463454724, 6695398.821329404], [61085.50502946404, 6695527.800762235], [61030.44842722644, 6695733.314817981], [61055.0280960629, 6695945.0140480315], [61198.2117424695, 6696049.909282117], [61202.737905412665, 6696213.6309165945], [61437.97103226972, 6696222.971032269], [61502.75132275133, 6696287.751322751], [61572.96296296296, 6696217.962962963], [61710.0, 6696355.0], [61880.76361886449, 6696427.907404269], [61843.21906417837, 6696512.339527958], [61974.5229468599, 6696699.462560386], [61957.08333333333, 6696727.916666667], [62098.39272639381, 6696860.892532838], [62095.0, 6697070.0], [61906.81048629667, 6697209.685768598], [61955.0, 6697260.0], [61853.46153846154, 6697361.538461538], [61934.21537229784, 6697451.377101681], [61907.0, 6697546.0], [62049.63427138042, 6697735.965681465], [62278.412145345945, 6697877.120457939], [62360.99750496461, 6697808.645297622], [62419.754510956205, 6697864.227437335], [62494.28571428571, 6697829.285714285], [62570.0, 6697905.0], [62606.906406873764, 6697877.561180975], [62773.04224495871, 6698048.869962214], [62717.5, 6698197.5], [62792.804656801425, 6698329.957735404], [62984.06161967125, 6698478.741622217], [63016.66666666667, 6698771.666666667], [62928.62640236826, 6698785.781412186], [62942.09759506708, 6698857.595872631], [62781.78082191781, 6698813.356164384], [62647.4241269527, 6698945.017234225], [62375.453135601434, 6698781.363283901], [62253.150979906924, 6698883.343552788], [62230.0, 6698855.0], [62170.33364884051, 6698890.799810695], [62089.23514276852, 6698753.974581731], [62009.21431890916, 6698773.907146647], [61924.17817769974, 6698717.6212892635], [61803.07692307692, 6698851.153846154], [61922.83466228699, 6698934.041614171], [62018.714287456656, 6699115.314384939], [62145.85365853658, 6699261.097560976], [61942.49831745509, 6699340.659172217], [61879.988066825776, 6699342.505966587], [61904.444444444445, 6699369.074074074], [61870.0, 6699415.0], [61794.96820777249, 6699339.968207773], [61555.66575044155, 6699548.4576836685], [61621.78787878788, 6699659.333333333], [61580.0, 6699705.0], [61546.66666666667, 6699645.0], [61449.20947849433, 6699665.851503852], [61272.4261213445, 6699403.182106054], [61127.04, 6699512.12], [60975.035625145945, 6699454.926330222], [60877.505836575874, 6699503.673151751], [60865.0, 6699410.0], [60950.60573417187, 6699325.972048679], [60869.95937208859, 6699164.959372088], [60877.683655665096, 6699099.80993418], [60689.796098829014, 6698790.838700938], [60588.489330746845, 6698813.402036858], [60389.85815602837, 6698733.794326241], [60350.0, 6698845.0], [60213.456109581886, 6698879.627981988], [60178.400893337624, 6698848.329424922], [60098.70329786111, 6698944.462573203], [60044.33566433567, 6698942.552447553], [59987.27272727273, 6699018.636363637], [59893.359321968244, 6698976.709507598], [59751.89391577735, 6699219.848157154], [59565.697655485674, 6699139.888703826], [59526.04412204542, 6698979.786780956], [59625.304912255146, 6698911.386065642], [59605.686510306536, 6698831.873900341], [59530.22077360801, 6698787.168839588], [59555.0, 6698760.0], [59410.0, 6698615.0], [59332.9920699112, 6698443.2130790325], [59399.55941050046, 6698364.528707399], [59328.97166810691, 6698294.4163033385], [59230.028587296045, 6698476.641169725], [59023.85487528345, 6698658.854875283], [58833.34061135371, 6698641.6593886465], [58742.33652251113, 6698690.262747781], [58710.77411836019, 6698868.9379351735], [58780.555555555555, 6698994.444444444], [58665.30905785477, 6699043.348304994], [58653.18872017354, 6699013.242950109], [58590.0, 6699005.0], [58564.14964289412, 6699087.892632916], [58371.767768912345, 6699005.389300697], [58397.91660359438, 6698903.147775228], [58329.28571428571, 6698822.857142857], [58245.23943661972, 6698907.6197183095], [58183.333333333336, 6698876.666666667], [58068.17391304348, 6698953.173913044], [58004.20548077854, 6698933.303476324], [57834.25063308722, 6699064.0379745485], [57835.64806054872, 6699199.181646168], [57905.0, 6699195.555555556], [57935.0, 6699334.444444444], [57828.98129159352, 6699465.72253432], [58023.0213225792, 6699761.333160955], [58090.37112353838, 6699928.085917641], [58183.29113924051, 6699866.139240506], [58255.0, 6699950.0], [58237.59259259259, 6699995.259259259], [58326.796374973695, 6700134.255113286], [58514.69084419971, 6700300.6625076225], [58472.5, 6700357.5], [58422.767929089445, 6700308.9766317485], [58376.818181818184, 6700377.296650718], [58375.29978204029, 6700471.417458002], [58219.45248854073, 6700580.190006762], [58359.64783676767, 6700866.334987947], [58303.181818181816, 6700908.181818182], [58491.61442445235, 6701102.8420111425], [58257.096607133935, 6701362.110276534], [58599.444444444445, 6701716.666666667], [58498.78489000057, 6701792.161332499], [58464.95956873315, 6701758.261455526], [58306.79096207504, 6701897.83170106], [58065.0, 6701721.666666667], [57985.95818815331, 6701768.275261324], [57925.32258064516, 6701877.419354838], [57965.0, 6701930.0], [57892.16487686249, 6702122.4453612035], [57766.88368582225, 6702130.410876119], [57750.60295939633, 6702193.128657888], [57689.26908962225, 6702228.642442644], [57648.43402913821, 6702334.67443511], [57447.66980602733, 6702589.123977992], [57357.77777777778, 6702632.777777778], [57247.26761536316, 6702589.731852592], [57144.197324414716, 6702707.090301003], [57348.374765070585, 6702799.345513928], [57442.27272727273, 6702900.909090909], [57399.11891833611, 6702976.042954682], [57620.514201439015, 6703196.183511621], [57734.0, 6703211.0], [57820.0, 6703175.0], [57929.56366967108, 6703363.021444657], [58094.2190646361, 6703471.921328704], [58203.46153846154, 6703644.615384615], [58166.634654716894, 6703896.8029424185], [58084.36832741917, 6703976.532310738], [58210.278597456745, 6704088.143345047], [58165.0, 6704220.0], [58207.22222222222, 6704357.777777778], [58142.083333333336, 6704422.916666667], [58021.08170869558, 6704465.474919564], [57876.58004510708, 6704397.193348369], [57782.48398060957, 6704505.413996768], [57730.0, 6704485.0], [57652.3949579832, 6704562.605042017], [57566.17647058824, 6704578.823529412], [57645.0, 6704670.0], [57545.00488599117, 6704724.1574893175], [57523.73509145022, 6704778.237821914], [57294.545454545456, 6705043.181818182], [57110.0, 6705055.0], [57008.93205930111, 6705100.548354196], [57041.22222222222, 6705243.777777778], [56975.0, 6705310.0], [57026.32977466888, 6705369.504657948], [57058.937206784554, 6705582.277156262], [57028.63636363637, 6705643.636363637], [57067.857632534, 6705746.485153532], [57153.99774774775, 6705724.436936937], [57226.74418604651, 6705823.372093023], [57330.0, 6705895.0], [57384.043715846994, 6705859.644808743], [57571.75203366855, 6706024.26047651], [57666.666666666664, 6706063.888888889], [57791.321694822705, 6706004.463193307], [57930.66834519253, 6706144.0340791], [57981.666666666664, 6706113.888888889], [58059.5462519898, 6706164.842495818], [58267.71767810026, 6705985.928071585], [58335.0, 6706130.0], [58256.788200467534, 6706229.651824437], [58222.11356466877, 6706221.309148265], [58130.0, 6706295.0], [58038.68797177932, 6706304.16819715], [57972.259194910584, 6706499.019663989], [58064.16131341725, 6706677.243890165], [58002.063379650026, 6706736.352209897], [58045.0, 6706870.0], [57991.212397306226, 6706942.771310575], [58010.70897510139, 6707182.318797837], [57917.9441277081, 6707270.2919042185], [57674.68965751232, 6707311.827539652], [57614.11207896042, 6707382.804667985], [57775.0, 6707530.0], [57821.43969513105, 6707633.6351779625], [57738.2640161622, 6707748.1895746505], [57720.57239570191, 6707854.698262979], [57660.0, 6707875.0], [57595.846541025785, 6707798.015849231], [57459.91100972879, 6707849.284217037], [57563.43363469967, 6707975.858159452], [57515.0, 6708069.459459459], [57567.88014485582, 6708085.168846652], [57607.35294117647, 6708217.647058823], [57737.0359385206, 6708375.915059254], [57665.19063049676, 6708490.10111055], [57679.01133329701, 6708552.62827149], [57577.87562641785, 6708587.549248299], [57530.0, 6708645.0], [57424.081030648216, 6708630.13417974], [57347.906645246294, 6708748.766712441], [57239.63738571716, 6708811.640738486], [57160.0, 6709045.0], [57114.40932080925, 6709015.899566474], [56976.470588235294, 6709205.0], [56828.595737732496, 6709203.127551349], [56865.0, 6709270.0], [56786.39033408285, 6709364.7940089], [56832.943885199136, 6709506.350276663], [56707.31225775194, 6709572.442482454], [56715.333333333336, 6709652.333333333], [56656.16810981596, 6709678.166336307], [56637.866126278444, 6709741.051768501], [56488.47577145814, 6709727.224983636], [56397.92334569293, 6709829.631377863], [56296.317520578195, 6710142.851331256], [56373.880943445525, 6710241.372688125], [56686.8013985094, 6710239.83249296], [56725.71428571429, 6710325.0], [56787.60658512772, 6710320.340338645], [56889.44813109095, 6710447.743521527], [56926.460866151334, 6710593.104340572], [56894.55608798532, 6710680.443912014], [57049.61160321648, 6710880.214354623], [56979.352725606965, 6710972.750038174], [57048.22567402041, 6711200.49228006], [57008.14541906356, 6711286.492163363], [57151.17844548461, 6711455.479635386], [57180.53405353316, 6711575.220223377], [57050.32360680203, 6711674.893571064], [56778.46153846154, 6711475.769230769], [56748.131433095805, 6711522.505938242], [56714.0, 6711491.0], [56492.4737565472, 6711616.249736992], [56317.99269703314, 6711636.638891593], [56534.07628034359, 6711898.96391716], [56656.46379380815, 6712117.024362397], [56617.31146641254, 6712151.173168217], [56660.48684038009, 6712313.479877379], [56586.666666666664, 6712335.0], [56623.5216586036, 6712490.211165568], [56609.512, 6712533.296], [56784.38533656398, 6712725.21081111], [56843.65770739051, 6712815.0], [56890.0, 6712815.0], [57019.795151928985, 6712939.778081256], [57061.62393162393, 6712917.478632479], [57130.0, 6713005.0], [57169.946768551905, 6712969.031938869], [57340.082570603874, 6713111.001764596], [57459.32329386727, 6713117.993747332], [57490.0, 6713215.0], [57700.45257411938, 6713156.362661219], [57771.0, 6713354.0], [57725.0, 6713400.0], [57824.88283091766, 6713537.177250445], [57737.27986406063, 6713525.895257356], [57640.03329315463, 6713574.649306581], [57655.13372155721, 6713744.403105791], [57701.086956521736, 6713803.9130434785], [57621.84210526316, 6713883.157894737], [57685.0, 6714010.0], [57645.19292604501, 6714117.8135048235], [57486.31832797428, 6714088.392282958], [57476.666666666664, 6714125.0], [57543.6303674343, 6714115.738713283], [57572.30744018355, 6714169.3657817105], [57414.8476938545, 6714277.798959196], [56877.90821342737, 6714302.541981743], [56659.86541358457, 6714488.575187993], [56595.944649446494, 6714459.520295203], [56483.271470537, 6714551.923735163], [56298.77903653988, 6714644.985345669], [56072.87212646009, 6714636.449010987], [55995.292976766366, 6714765.34048675], [55681.31188118812, 6714621.262376238], [55646.153989448656, 6714684.700286508], [55662.36947791165, 6714732.630522088], [55484.158415841586, 6714812.227722772], [55391.79004969316, 6714769.247159152], [55289.86545416675, 6714822.50626126], [55294.30766066843, 6714884.539015483], [55130.681077417365, 6714961.292930736], [55007.59782787353, 6714876.149852033], [54918.83851629824, 6714943.838516299], [54812.386634844865, 6714901.085918854], [54780.663265306124, 6714953.1122448975], [54912.40793878527, 6715021.855571497], [54945.0, 6715250.0], [55032.692307692305, 6715352.307692308], [55120.0, 6715335.0], [55152.22222222222, 6715418.555555556], [55249.770796917175, 6715403.309694153], [55566.7323943662, 6715552.070422535], [55595.19749928957, 6715506.71923842], [55647.5, 6715572.5], [55715.40275049116, 6715568.634577603], [55827.05709495988, 6715689.389383469], [55952.95952881109, 6715634.568249992], [56078.3760445437, 6715685.729805036], [56116.0, 6715651.0], [56162.06451612903, 6715697.064516129], [56426.925006748344, 6715492.737114236], [56505.860465116275, 6715487.186046512], [56570.27983638392, 6715418.516849909], [56667.1375401354, 6715483.118954946], [56608.07641431292, 6715674.593648963], [56680.0, 6715715.0], [56743.333333333336, 6715658.333333333], [56871.50022509004, 6715818.796643658], [56923.333333333336, 6715936.111111111], [56995.24696901662, 6715963.758419398], [56978.6575552672, 6716020.891812366], [57145.006319816894, 6716070.154802095], [57236.63426143655, 6716056.888901455], [57321.36363636365, 6716214.545454546], [57260.0, 6716305.0], [57223.333333333336, 6716281.666666667], [57021.39619386116, 6716429.85489384], [57055.0, 6716520.0], [56962.11729622266, 6716555.725646123], [57031.27216302954, 6716666.920583719], [57175.48613151498, 6716814.693883074], [57240.365853658535, 6716805.365853659], [57359.17355669319, 6716950.803933686], [57429.99159372289, 6717087.18747097], [57330.71428571429, 6717204.285714285], [57365.0, 6717240.0], [57319.93375447758, 6717299.337268513], [57440.046457640055, 6717459.3085234845], [57367.16981132075, 6717677.8301886795], [57417.43839353745, 6717744.3911369275], [57199.59455998427, 6717938.317988462], [57444.70566593083, 6718218.301692421], [57226.84289064945, 6718455.693304451], [57161.27725856698, 6718501.573208722], [57162.96172331399, 6718624.798815693], [57296.267576819715, 6718723.5322979], [57292.49297810099, 6718794.727172191], [57343.55230811254, 6718979.871619776], [57434.45190916694, 6719009.750347061], [57425.0, 6719110.666666667], [57474.41069665212, 6719158.3107699165], [57413.540145985404, 6719269.239339224], [57399.20156672398, 6719417.83750461], [57191.319080729154, 6719518.359305886], [57204.28571428571, 6719605.0], [57125.5780618164, 6719600.9293919625], [57140.89364636058, 6719667.656557007], [56969.37349058572, 6719811.284369641], [56552.94117647059, 6720022.647058823], [56487.95018632135, 6720004.425285884], [56390.00832249675, 6720125.024967491], [56354.90270007298, 6720206.767209925], [56270.0, 6720265.0], [56271.20426739484, 6720077.225578344], [55993.642005752125, 6719859.130806079], [55801.63125485191, 6719899.263373383], [55552.775665582034, 6719825.010957753], [55523.73885293394, 6719911.264990923], [55420.416666666664, 6719851.666666667], [55167.647585316285, 6719856.020587619], [55086.49948277523, 6719881.891402729], [55013.26494201606, 6719802.091882248], [54960.0, 6719855.0], [54796.85073697322, 6719756.862154868], [54703.15789473684, 6719868.157894737], [54667.31304796287, 6719838.1923672], [54468.37837837838, 6720023.378378378], [54320.687541570645, 6720012.691441895], [54235.35390096012, 6719919.64609904], [54031.25, 6720123.75], [53930.0, 6720065.0], [53812.1778945692, 6720175.865583692], [53838.59646358242, 6720214.569085474], [53761.708192114354, 6720318.718761824], [53784.26302027234, 6720421.25715279], [53639.897959183676, 6720417.551020408], [53574.20481173069, 6720462.4946172815], [53500.0, 6720415.0], [53378.144813355844, 6720513.57437629], [53282.03056768559, 6720533.327510917], [53248.50257338906, 6720697.069703215], [53095.0, 6720570.0], [53073.63686534216, 6720478.00772627], [52996.2611550903, 6720484.008924073], [52910.0, 6720415.0], [52853.67464001039, 6720449.848963758], [52677.34369236444, 6720309.94829267], [52685.0, 6720260.0]]]}}]}