{"type": "FeatureCollection", "crs": {"type": "name", "properties": {"name": "EPSG:25833"}}, "features": [{"type": "Feature", "properties": {"station": "55.4.0", "name": "R\u00f8ykenes", "series": ["1001.1"], "nodes": 503362, "fine_vertices": 7018, "fine_area_m2": 50336250.0, "reduced_vertices": 301, "reduced_area_m2": 50336250.000000566, "outline_tolerance_m": 20.0, "windows": [[509, 425], [1113, 1154], [2312, 2353], [4540, 4369]], "placed_on": "number", "distance_m": 8.698874044951186, "uncertainty_m": 30.0, "elvid": "055-8-1", "objectid": 11778341, "lake": false, "confluence_near": true, "reach_up_m": 1000.0, "reach_down_m": 130.0, "reach_fork": false, "seeded_by": "river", "lake_rule": null, "lake_number": null, "lake_name": null, "lake_distance_m": null, "node_offset_m": 4.958309720239472, "chain_nodes": 113, "lowered_nodes": 95, "lowered_max_m": 0.3416328430175781, "direction_ok": true, "end_extended_m": 0.0, "end_closed": true, "downstream_checked": "whole", "a0": 50.336200000000005, "area_up": 50.3344, "area_down": 50.3415, "swing": 0.00010529201648114687, "largest_step": 0.002899999999996794, "largest_step_at_m": 10.0, "checked_up_m": 24.142135623731065, "checked_down_m": 20.0, "drains": true, "monotone": true, "causes": []}, "geometry": {"type": "Polygon", "coordinates": [[[-18130.0, 6730125.0], [-18282.92164674635, 6730140.853917663], [-18330.0, 6730115.0], [-18410.0, 6730195.0], [-18437.5, 6730158.333333333], [-18587.673484895175, 6730157.543379523], [-18645.0, 6729910.0], [-18588.548387096773, 6729817.419354838], [-18622.20317821618, 6729648.085771686], [-18683.565737051795, 6729585.697211156], [-18737.615242269207, 6729177.949879086], [-18916.637523412202, 6728837.081708062], [-19116.70691709943, 6728799.0332220895], [-19175.0, 6728890.0], [-19111.592381488932, 6728953.4076185115], [-19120.503791815496, 6729146.497302117], [-19262.69154104896, 6729464.611934721], [-19333.759354973095, 6729511.873718116], [-19375.0, 6729630.0], [-19345.0, 6729680.0], [-19477.1040733774, 6729799.419813053], [-19681.711651497513, 6729715.810755229], [-19815.99908961053, 6729694.386386872], [-19943.4375, 6729838.4375], [-20062.43707924459, 6729665.475265979], [-20274.130047939863, 6729462.179219911], [-20389.001025668, 6729198.893790764], [-20395.644677268552, 6729099.355322732], [-20437.029360183427, 6729048.951047562], [-20664.33653077538, 6729242.941646683], [-20647.920329807414, 6729460.134228472], [-20620.710761649774, 6729505.7107616495], [-20637.84866951582, 6729640.064395385], [-20803.115593298862, 6729668.115593299], [-20851.350525160684, 6729716.35052516], [-20935.447479981158, 6729740.353273669], [-20887.067677674477, 6729916.4729196355], [-21094.62935825205, 6730087.020533539], [-21215.133759820994, 6729969.319318683], [-21410.067258683008, 6729973.52754059], [-21476.666666666668, 6729831.666666667], [-21633.32725500568, 6729744.591225273], [-21784.52720141624, 6729439.5166246565], [-21845.851929345517, 6729403.120378327], [-21918.157894736843, 6729225.263157895], [-21985.381405969914, 6729231.046652622], [-22018.684210526317, 6729176.842105263], [-22058.74912998162, 6729255.570895205], [-22120.59989767204, 6729275.34151957], [-22265.93268922386, 6729449.067310777], [-22330.0, 6729385.0], [-22384.5, 6729457.666666667], [-22540.0, 6729265.0], [-22575.22557050174, 6729285.412314321], [-22602.0, 6729201.0], [-22643.509234828496, 6729227.216358839], [-22761.166193802164, 6729042.076107846], [-22810.0, 6729065.0], [-22831.677074041036, 6729030.209634255], [-22970.0, 6729085.0], [-23043.333333333336, 6729025.0], [-23133.60338910096, 6729097.934198875], [-23268.27868852459, 6728960.983606557], [-23298.169106996167, 6728785.779002642], [-23363.643362463587, 6728705.064502705], [-23367.58064516129, 6728602.903225807], [-23432.000230043708, 6728508.760064412], [-23490.0, 6728525.0], [-23588.363215671274, 6728473.437886738], [-23663.58151546766, 6728331.773284913], [-23724.63295672674, 6728279.240167987], [-23772.337474652846, 6728120.49792934], [-23917.031230114193, 6728034.37130807], [-23925.0, 6727986.666666667], [-24104.861570878988, 6727809.871089259], [-24150.0, 6727835.0], [-24252.659246298135, 6727732.582503365], [-24322.26365999149, 6727755.505004609], [-24493.6191926885, 6727715.548362529], [-24558.636363636364, 6727544.545454546], [-24575.491246206082, 6727563.820741747], [-24791.679546094674, 6727448.3123843195], [-24832.390511865167, 6727471.977077588], [-24826.580957290687, 6727276.610783735], [-24759.888268156425, 6727232.150837989], [-24815.0, 6726970.0], [-24770.361139369277, 6726925.361139369], [-24892.777777777777, 6726683.703703703], [-24921.70760191929, 6726407.712570038], [-25095.0, 6726235.454545454], [-25081.29348513599, 6726129.348513599], [-24888.32067656196, 6725900.193303417], [-25006.724137931036, 6725728.620689655], [-24910.957946669798, 6725597.871490661], [-24945.0, 6725540.0], [-24856.069133632904, 6725451.863159225], [-24881.82786223708, 6725316.265050319], [-24818.689852399177, 6725198.255232266], [-24985.781378131665, 6724664.191229417], [-24963.12496108067, 6724626.073625921], [-25009.594594594593, 6724505.27027027], [-24717.692510351713, 6724250.295511833], [-24639.48975044563, 6724093.576203208], [-24689.166666666668, 6724022.5], [-24675.0, 6723980.0], [-24736.773914212084, 6723945.989642737], [-25072.647299967473, 6723399.01106154], [-25381.23240987501, 6723139.293423879], [-25488.48529227954, 6723196.748549814], [-25732.289169089778, 6722760.363688533], [-26010.90715585239, 6722471.51918384], [-25958.328617657182, 6722413.5608399], [-26297.102383435576, 6721901.380052018], [-26352.357945275668, 6721914.452091745], [-26480.689655172413, 6721830.862068965], [-26504.896620323387, 6721845.725994935], [-26756.566354526876, 6721644.976440587], [-26741.666666666668, 6721623.333333333], [-26848.333333333332, 6721556.666666667], [-26895.95238095238, 6721579.047619048], [-26874.04761904762, 6721520.952380952], [-26910.555555555555, 6721484.444444444], [-26875.0, 6721430.0], [-26932.142857142855, 6721277.142857143], [-26863.444444444445, 6721208.444444444], [-26918.2, 6721065.2], [-27029.34757559239, 6721086.833150875], [-27129.28033785803, 6720926.685739213], [-27417.096489732714, 6720643.007566186], [-27460.892781303257, 6720652.259232538], [-27800.554237302815, 6720360.128997056], [-27868.27135051358, 6720393.037189692], [-27990.0, 6720235.0], [-28037.1511627907, 6720235.0], [-28033.634616717383, 6720043.056274847], [-27988.44, 6720036.08], [-27980.859145180824, 6719924.580377228], [-27928.430596196267, 6719869.866036097], [-28078.456812533877, 6719722.484199707], [-28200.0, 6719745.0], [-28245.0, 6719700.0], [-28265.060100483744, 6719570.849169947], [-28351.632985260454, 6719456.270765753], [-28317.387643005204, 6719411.189983175], [-28348.997265370024, 6719147.807111802], [-28266.870609032514, 6718986.918915044], [-28515.0, 6718663.21242859], [-28490.02878455403, 6718554.07047934], [-28536.954538583217, 6718555.082953618], [-28705.0, 6718220.0], [-28685.645161290322, 6718198.70967742], [-28785.0, 6718060.0], [-28771.363636363636, 6718011.818181818], [-28868.115183246075, 6717976.256544502], [-28900.146495457608, 6717884.031554487], [-28939.0, 6717904.0], [-29033.269763352626, 6717740.491694839], [-29139.308780719504, 6717683.524108941], [-29301.523343034674, 6717512.4628706565], [-29179.68085106383, 6717384.680851064], [-29290.47790562759, 6717244.007021559], [-29360.69288389513, 6717194.681647941], [-29405.0, 6717041.428571428], [-29370.0, 6717035.0], [-29314.65648854962, 6717118.740458015], [-29231.793878836754, 6717105.69085041], [-29107.740478994896, 6716971.276010993], [-29100.068087382097, 6716867.295941653], [-29064.0, 6716844.6], [-28949.518733836278, 6716964.189003885], [-28953.287275266754, 6716995.68549241], [-28811.923076923078, 6717079.615384615], [-28773.284457478007, 6717041.656891496], [-28657.16614077683, 6717235.663344358], [-28573.538913732253, 6717184.223263062], [-28436.248541430512, 6717255.785964411], [-28478.333333333332, 6717426.666666667], [-28246.851826722337, 6717641.654749478], [-28221.98945397816, 6717714.095475819], [-28145.0, 6717682.222222222], [-28069.34860869289, 6717592.149206589], [-27782.178802128965, 6717423.0828123195], [-27808.047551939402, 6717315.866097086], [-27723.567731107727, 6717240.822136831], [-27670.0, 6717325.0], [-27583.240767612904, 6717313.6483247345], [-27538.527414171247, 6717404.094300151], [-27442.782448731068, 6717492.073104378], [-27375.555555555555, 6717420.555555556], [-27321.797800747572, 6717464.785825303], [-27210.0, 6717465.0], [-27102.149179803644, 6717538.2093023835], [-27019.37219071576, 6717683.369285832], [-27083.75, 6717781.25], [-26975.0, 6717840.344827586], [-26975.0, 6717895.772357724], [-26880.384615384617, 6717994.615384615], [-26925.0, 6718080.0], [-26830.96628441579, 6718187.351547499], [-26780.0, 6718158.333333333], [-26693.684210526317, 6718251.842105263], [-26660.0, 6718225.0], [-26613.938945345406, 6718331.472428507], [-26396.248669389886, 6718603.471135241], [-26296.92416863441, 6718673.0729206335], [-26335.088608751255, 6718750.017356353], [-26303.153846153848, 6718848.615384615], [-26345.0, 6718870.0], [-26297.413313277742, 6718947.145886622], [-26356.708371804853, 6719050.991384851], [-26237.16816184336, 6719158.047056719], [-26162.458347018353, 6719319.634222369], [-25719.93203012061, 6719781.940339527], [-25655.002172291668, 6719781.492174096], [-25453.881563626623, 6719962.579426976], [-25494.531377910356, 6720039.117646635], [-25317.316014611126, 6720235.462938477], [-25144.353968005627, 6720572.092940129], [-25105.0, 6720600.0], [-25105.0, 6720679.2432449395], [-24536.579943881563, 6721423.801433138], [-24414.81440926419, 6721312.818561465], [-24279.619730687453, 6721228.290876835], [-24050.465415221286, 6721465.925589814], [-23887.23431698251, 6721524.037152235], [-23733.14518670963, 6721874.647287426], [-23655.0, 6721884.0], [-23655.0, 6721820.0], [-23600.0, 6721765.0], [-23602.143445971684, 6721634.241355734], [-23506.82316315404, 6721642.963457663], [-23316.40889128041, 6721558.662632359], [-23194.195660858684, 6721854.325230557], [-22807.33837582653, 6722236.1384087335], [-22723.066754791806, 6722205.515532056], [-22546.47479885694, 6722245.377479773], [-22452.729787594642, 6722178.682481486], [-22364.28502962819, 6722222.29083112], [-22180.0, 6722105.0], [-22138.75348189415, 6722163.029247911], [-22185.382188094158, 6722232.294533694], [-22042.479949345714, 6722315.571971296], [-21882.509678724327, 6722494.001104151], [-21855.022358755246, 6722487.221089318], [-21705.818333612748, 6722605.37077671], [-21598.015402308843, 6722802.888634356], [-21560.209903771734, 6722778.396889023], [-21328.400734309173, 6723135.754807043], [-21325.261093996298, 6723170.301460909], [-21120.65806061724, 6723440.7163942], [-21036.11111111111, 6723801.111111111], [-21081.666666666664, 6723846.666666667], [-21049.444444444445, 6723994.444444444], [-21081.0, 6724026.0], [-21031.46877867127, 6724138.425711048], [-20801.857771440213, 6724342.235954007], [-20504.557291666668, 6724814.713541667], [-20390.162182748405, 6724887.535641401], [-20385.22184729433, 6724991.598575138], [-20299.412331208943, 6724989.1990100145], [-20274.465593456567, 6725106.805059419], [-20031.483835091036, 6725239.558303195], [-19902.70149858242, 6725244.177804779], [-19563.333333333336, 6725328.333333333], [-19502.127659574468, 6725267.127659574], [-19410.03185957013, 6725313.318766797], [-19255.136363636364, 6725298.954545454], [-19164.991460789242, 6725347.379163477], [-19044.638654562674, 6725298.370871323], [-18923.40909090909, 6725408.409090909], [-18883.547297297297, 6725370.033783784], [-18783.7242236686, 6725562.943107062], [-18440.036400782687, 6725921.029120626], [-18363.48564551043, 6725879.161590256], [-18165.24179193083, 6726061.91411695], [-18156.11111111111, 6726233.333333333], [-18061.612711136062, 6726382.599710255], [-18049.885763672093, 6726766.757463869], [-17940.24089271114, 6726990.366411289], [-18028.739176834693, 6726993.739176835], [-18072.333333333336, 6727037.333333333], [-18032.704286798275, 6727107.583664906], [-18027.165858679036, 6727533.732252112], [-18394.333762199727, 6727920.358362501], [-18326.428933521303, 6728278.779253305], [-18365.0, 6728320.0], [-18297.896722243724, 6728549.42074557], [-18178.88441239192, 6728608.43860857], [-18113.86630903006, 6728828.230151107], [-18030.641025641024, 6728783.846153846], [-17937.649568378998, 6728897.73059706], [-17920.959344146824, 6728994.441269063], [-17812.005875180133, 6729105.621328012], [-17785.060045254293, 6729373.944843809], [-17722.91954834512, 6729468.26593126], [-17743.458847918486, 6729924.569782756], [-17791.96054441217, 6729966.465321446], [-17865.62235571199, 6730248.725074529], [-17950.0, 6730235.0], [-18026.704880394653, 6730161.835344855], [-18102.38041002278, 6730191.3097949885], [-18130.0, 6730125.0]]]}}]}