{"type": "FeatureCollection", "crs": {"type": "name", "properties": {"name": "EPSG:25833"}}, "features": [{"type": "Feature", "properties": {"station": "6.10.0", "name": "Gryta", "series": ["1001.1"], "nodes": 76529, "fine_vertices": 2464, "fine_area_m2": 7652950.0, "reduced_vertices": 123, "reduced_area_m2": 7652950.000000057, "outline_tolerance_m": 20.0, "windows": [[459, 487], [1251, 1086]], "placed_on": "number", "distance_m": 10.508073996224244, "uncertainty_m": 30.0, "elvid": "006-11-279", "objectid": 10918353, "lake": false, "confluence_near": true, "reach_up_m": 1000.0, "reach_down_m": 130.0, "reach_fork": false, "seeded_by": "river", "lake_rule": null, "lake_number": null, "lake_name": null, "lake_distance_m": null, "node_offset_m": 2.9826007011827995, "chain_nodes": 118, "lowered_nodes": 35, "lowered_max_m": 7.0919342041015625, "direction_ok": true, "end_extended_m": 10.0, "end_closed": true, "downstream_checked": "whole", "a0": 7.652900000000001, "area_up": 7.6497, "area_down": 7.6558, "swing": 0.00041814214219453217, "largest_step": 0.0023999999999997357, "largest_step_at_m": 14.142135623731065, "checked_up_m": 28.28427124746213, "checked_down_m": 24.142135623731065, "drains": true, "monotone": true, "causes": []}, "geometry": {"type": "Polygon", "coordinates": [[[265835.0, 6657480.0], [265773.62700228835, 6657418.627002289], [265735.29777147685, 6657339.091161938], [265798.49381359713, 6657184.472722497], [265765.14925373136, 6657149.73880597], [265855.0, 6657020.0], [265799.44444444444, 6656922.777777778], [265815.0, 6656860.0], [265623.0144788746, 6656719.012376677], [265623.3123763286, 6656606.286488334], [265698.3650644859, 6656377.838025665], [265760.0, 6656415.0], [265807.8993270155, 6656380.638648537], [265791.68750991486, 6656309.78147639], [265877.3112632703, 6656255.981044312], [265768.89634528593, 6655845.997214025], [265840.0, 6655815.0], [265865.2999681107, 6655747.533418371], [265906.8683059803, 6655734.065847009], [265898.26531106856, 6655538.902030165], [265830.71428571426, 6655392.857142857], [265878.1685790862, 6655221.439102975], [266030.03968117526, 6655137.531107743], [265995.0, 6655030.0], [266091.5677966102, 6654935.923728813], [266305.35619061353, 6655115.397599854], [266287.7808668163, 6655582.862804256], [266215.6937203171, 6655677.06492785], [266233.8829303763, 6655862.305944374], [266305.0, 6655846.363636363], [266347.62039990665, 6655710.238854742], [266456.25, 6655771.25], [266568.0823895516, 6655741.174317402], [266636.977835374, 6655758.022164626], [266775.79613437643, 6655670.694891854], [266764.5051150161, 6655565.779960609], [266854.4345830422, 6655544.779843141], [266838.7584233043, 6655636.505769221], [266907.36842105264, 6655672.368421053], [267062.40748351533, 6655559.299769751], [267126.97024299897, 6655673.955681234], [267244.71133814147, 6655616.3802319], [267375.22434324987, 6655676.509943555], [267471.4058617826, 6655681.283443444], [267643.50974129664, 6655840.431810924], [267631.2111180991, 6655926.522173306], [267691.89111704135, 6655951.079889912], [267734.3156367398, 6656138.82154891], [267616.56492516445, 6656245.314632391], [267525.2964553401, 6656399.59773802], [267533.28310502286, 6656477.424657534], [267345.0341687368, 6656644.715686395], [267372.66974727093, 6656873.036515911], [267414.1763281986, 6656868.893223671], [267383.99721681926, 6656990.894012506], [267480.0, 6657135.0], [267555.56950735796, 6657124.204356092], [267640.13740458013, 6657297.977099237], [267704.0, 6657295.0], [267682.0208285008, 6657410.015391976], [267965.2593630851, 6657890.650136719], [268008.0566495217, 6658030.2196571315], [268054.58549672633, 6658078.720350449], [268076.2686567164, 6658226.3432835825], [268152.4489512285, 6658279.432886832], [268337.25268958276, 6657983.241931251], [268432.7422389464, 6658055.286923801], [268507.962962963, 6658029.62962963], [268472.21796417254, 6658135.434742456], [268514.31894556043, 6658190.794563513], [268455.0, 6658260.0], [268412.24911122274, 6658409.832305433], [268487.54088978557, 6658541.693512668], [268555.0, 6658570.0], [268504.36420834396, 6658727.295141745], [268643.89258258464, 6659051.052723086], [268601.09999209514, 6659181.968379315], [268640.775524627, 6659219.026503209], [268597.12489862123, 6659301.962692619], [268704.17190868437, 6659387.323381274], [268665.0, 6659678.181818182], [268569.5369240807, 6659739.182078189], [268535.0, 6659824.190578546], [268467.1369817352, 6659843.7286128], [268426.6830637758, 6659760.178088253], [268256.72642821306, 6659957.918696355], [268218.125, 6659903.125], [268186.43005063804, 6659948.372712238], [268275.0, 6660054.545454546], [268200.75403593667, 6660058.327515767], [268144.70588235295, 6660139.117647059], [268036.7574993658, 6660162.616555084], [267941.8393665468, 6660241.470786666], [267847.9656471349, 6660213.11678], [267734.59448999946, 6660290.932997238], [267682.0689655172, 6660251.413793104], [267586.34877477476, 6660287.950343375], [267540.19519842626, 6660122.792797639], [267590.1480168292, 6660040.490724777], [267664.6582317554, 6660073.622697868], [267708.2129895278, 6659956.581098773], [267618.68385006563, 6659859.090161954], [267569.46236099233, 6659714.929597947], [267484.2047239217, 6659656.617522787], [267451.5, 6659703.5], [267404.24748782587, 6659642.032189608], [267120.0505906419, 6659786.296549854], [267032.98517274065, 6659243.26772641], [266986.1053540135, 6659223.882450107], [266885.0, 6658870.0], [266755.2134256497, 6658781.166689659], [266603.94017724134, 6658479.71184784], [266685.4439716968, 6658205.929254962], [266474.71502161154, 6657973.835610596], [266417.77181491494, 6658019.000159927], [266322.7674023769, 6658039.821731749], [266248.34131616156, 6657964.7281623315], [266240.25773195876, 6657882.886597938], [266153.40338555793, 6657810.902449237], [266062.5708884688, 6657845.0], [265959.09582575737, 6657722.385869375], [265945.3916564871, 6657651.410465086], [265821.92307692306, 6657545.384615385], [265835.0, 6657480.0]]]}}]}