{"type": "FeatureCollection", "crs": {"type": "name", "properties": {"name": "EPSG:25833"}}, "features": [{"type": "Feature", "properties": {"station": "62.18.0", "name": "Svartavatn", "series": ["1001.1"], "nodes": 723059, "fine_vertices": 7672, "fine_area_m2": 72305950.0, "reduced_vertices": 371, "reduced_area_m2": 72305950.00000058, "outline_tolerance_m": 20.0, "windows": [[431, 436], [1092, 1216], [2291, 2415], [4340, 4634]], "placed_on": "number", "distance_m": 97.19853671922867, "uncertainty_m": 97.19853671922867, "elvid": "062-24-1", "objectid": 11866509, "lake": false, "confluence_near": false, "reach_up_m": 1000.0, "reach_down_m": 197.19853671922874, "reach_fork": false, "seeded_by": "lake", "lake_rule": "inside", "lake_number": 26361, "lake_name": "Svartavatnet", "lake_distance_m": 0.0, "node_offset_m": null, "chain_nodes": null, "lowered_nodes": null, "lowered_max_m": null, "direction_ok": null, "end_extended_m": null, "end_closed": null, "downstream_checked": null, "a0": null, "area_up": null, "area_down": null, "swing": null, "largest_step": null, "largest_step_at_m": null, "checked_up_m": null, "checked_down_m": null, "drains": null, "monotone": null, "causes": []}, "geometry": {"type": "Polygon", "coordinates": [[[15370.0, 6768985.0], [15335.052285475847, 6768938.403047301], [15152.989445646746, 6768958.196004661], [15084.692250417798, 6768934.199398679], [14869.624545360672, 6768929.146026447], [14660.608694688608, 6768957.705989492], [14599.743012944557, 6768902.053290983], [14534.690690088732, 6768993.059517384], [14400.261095247453, 6768911.244956706], [14335.0, 6768930.0], [14351.666666666666, 6768886.666666667], [14239.867402627797, 6768784.824407193], [14040.384858001371, 6768867.2628212515], [14079.512801620924, 6768887.364155461], [14036.401508448742, 6768950.122167802], [14000.0, 6768925.0], [13854.806307087265, 6769046.280238406], [13680.073984876284, 6769030.420945252], [13520.000000000002, 6768975.0], [13405.303271042409, 6769095.924683683], [13295.78774975434, 6769019.212250246], [13173.733333333334, 6769141.266666667], [13084.166666666666, 6769043.333333333], [13011.54430379747, 6769128.848101266], [12811.056517374944, 6769020.2873210525], [12600.927743086528, 6768961.297948261], [12434.0, 6768860.5], [12360.0, 6768905.0], [12220.184928712766, 6768756.936179128], [12204.006011007987, 6768659.90422902], [11988.186090662439, 6768498.697690748], [11976.96411733983, 6768430.999336847], [11927.272727272728, 6768459.545454546], [11855.717126473928, 6768358.965498388], [11704.03641881639, 6768454.71168437], [11612.549501262558, 6768405.639894405], [11496.641175458008, 6768607.65402798], [11517.68399283221, 6768644.133858923], [11417.458053691274, 6768723.305369128], [11285.967741935485, 6768539.516129033], [11272.748851454824, 6768546.125574272], [11295.90781527792, 6768704.394789815], [11213.63325788667, 6768743.794292827], [11054.0, 6768687.0], [11040.0, 6768715.0], [10916.923076923078, 6768582.692307692], [10873.898305084746, 6768597.033898305], [10740.933969418846, 6768475.621664928], [10693.507055495777, 6768552.961636666], [10638.879614389843, 6768560.489066541], [10600.370845724137, 6768610.526447863], [10388.70600471515, 6768665.442581579], [10173.490095312078, 6768662.105082315], [10087.034457176967, 6768538.680195211], [10073.591036312919, 6768430.715368213], [9996.370077650683, 6768455.059602639], [9889.786096256685, 6768369.438502674], [9810.0, 6768415.0], [9756.333127906326, 6768370.913496555], [9687.332574616343, 6768361.6548178345], [9792.297297297297, 6768173.243243244], [9755.20740812755, 6768065.705410616], [9610.757253715656, 6767923.946436783], [9582.602253571113, 6767757.704285334], [9360.724408857997, 6767780.21424471], [9250.392670157067, 6767905.54973822], [9315.0, 6767960.0], [9315.439560439561, 6768068.901098901], [9258.95905755118, 6768107.307840865], [9263.6659162966, 6768151.571750904], [9178.79213332032, 6768224.65026155], [9179.801158787472, 6768024.943236208], [9122.272727272728, 6767996.363636363], [9067.556860784804, 6768043.846538366], [8957.448086012073, 6768016.521512214], [8941.602892602587, 6767894.51107297], [8854.736842105263, 6767801.842105263], [8782.919525065963, 6767855.811345646], [8764.51632338957, 6767744.552326433], [8596.457983177197, 6767767.217030424], [8545.0, 6767680.0], [8354.440708361351, 6767616.421206008], [8294.666666666668, 6767639.666666667], [8241.409498327761, 6767586.409498327], [8101.642430736262, 6767561.061533752], [7960.533799160735, 6767633.259799699], [7923.1178707224335, 6767581.159695817], [7780.0, 6767555.0], [7703.076923076923, 6767601.153846154], [7676.0, 6767555.0], [7563.453639082752, 6767530.533399801], [7486.621549315457, 6767468.839359129], [7366.666666666667, 6767558.333333333], [7312.525351448469, 6767539.703160215], [7267.220205848971, 6767627.799033013], [7025.178559215835, 6767524.515914712], [6829.132423208608, 6767291.9666731525], [6790.0, 6767295.0], [6698.836192493432, 6767207.737992552], [6638.823529411765, 6767306.960784313], [6612.142857142857, 6767254.285714285], [6570.0, 6767275.0], [6507.9315369492315, 6767162.794610848], [6369.635627530363, 6767023.987854251], [6195.237615812448, 6766948.700358846], [6152.9773410479365, 6767056.784917736], [6016.102573053856, 6767038.2397620175], [5825.1655967827855, 6766848.17956515], [5645.3546097427125, 6766423.705331081], [5092.3420971313135, 6766418.820661221], [5058.265717674971, 6766386.734282325], [4905.112301504647, 6766545.4303094065], [4837.407407407407, 6766524.62962963], [4780.0, 6766605.0], [4552.981745951438, 6766562.946102883], [4500.490933183857, 6766508.192270607], [4425.915802855356, 6766552.597718678], [4307.146512863761, 6766457.586020878], [4327.6415946529105, 6766380.0], [4255.0, 6766390.0], [4298.8540121272845, 6766252.9481969755], [4135.1034482758605, 6766051.9655172415], [4046.420574196872, 6766014.947583032], [3950.9054427036713, 6766052.763921224], [3860.7749077490776, 6766039.280442804], [3820.0, 6765925.0], [3690.5185522847855, 6765909.606614146], [3744.3595494281267, 6765568.783844746], [3692.879287487375, 6765461.032414358], [3610.0, 6765495.0], [3550.947520883641, 6765426.665024166], [3575.0015708368646, 6765247.392080942], [3431.1185033329784, 6765113.562551649], [3505.0, 6765060.0], [3498.955123625738, 6765011.882784061], [3650.405170270943, 6765029.243102162], [3780.0, 6765145.0], [4075.336452604494, 6764971.580337564], [4133.606557377049, 6764888.606557377], [4256.30286400139, 6764850.795713868], [4242.619047619048, 6764632.380952381], [4305.0, 6764570.0], [4231.364175073984, 6764384.4131291825], [4255.711351458623, 6764360.711351459], [4325.161871580903, 6764393.444637371], [4368.569622832118, 6764464.547194555], [4602.730322127853, 6764293.999827189], [4561.349866844208, 6764210.260486019], [4615.456906965017, 6764147.959504627], [4505.0, 6763950.0], [4505.0, 6763847.575057737], [4591.6, 6763913.4], [4636.923076923077, 6763868.076923077], [4672.5, 6763897.5], [4805.0, 6763783.584905661], [4774.881317272924, 6763724.808188004], [4836.225047611177, 6763578.519724409], [4691.542604519633, 6763332.115176781], [4732.077546296296, 6763278.958333333], [4678.333333333334, 6763190.0], [4725.301320858558, 6763076.152802893], [4664.9324324324325, 6763070.337837838], [4689.494745351658, 6762959.490703315], [4625.0, 6762845.384615385], [4605.0, 6762730.0], [4671.084472736491, 6762642.310988099], [4588.778000968838, 6762352.123779178], [4558.349632992713, 6762066.584009829], [4502.777777777777, 6761953.333333333], [4510.0, 6761885.0], [4463.2542113323125, 6761893.139356814], [4486.111111111111, 6761721.111111111], [4325.839829347346, 6761507.100592562], [4275.251799890839, 6761367.431858383], [4058.3735919806622, 6761296.931359508], [3975.3266000280723, 6761404.084803896], [3954.8571428571427, 6761608.428571428], [3764.0447147311215, 6761716.967110869], [3723.7087164468726, 6761776.394674246], [3658.75, 6761629.0625], [3685.0, 6761550.0], [3480.432922158536, 6761321.865474524], [3440.0, 6761245.0], [3382.5479452054797, 6761234.144109589], [3314.80363726343, 6761080.494222429], [3315.03306433299, 6760998.129904456], [3246.709787409329, 6760860.681355524], [3115.978515548474, 6760900.978515549], [3068.4753709169236, 6760835.339014837], [2991.7952007307813, 6760899.14213085], [2903.6234274358612, 6760711.43062218], [2869.385756914194, 6760405.60488612], [2730.841437832904, 6760382.779285403], [2723.1562450756837, 6760232.2309040995], [2589.080059671805, 6760181.360019891], [2571.321560991535, 6760102.502492435], [2488.7946649656506, 6760061.039063329], [2366.25, 6760082.5], [2310.082304526749, 6760032.983539094], [2227.278197381672, 6760052.456445116], [1965.7240201175093, 6759875.882452305], [1907.3828247440647, 6759818.706268745], [1872.0360982883003, 6759718.372408439], [1934.3585798816569, 6759706.035502959], [1750.774647887324, 6759535.070422535], [1805.0, 6759480.0], [1692.7207526588493, 6759421.320425415], [1632.1427042073149, 6759290.887598261], [1659.0304424617614, 6759102.329409678], [1750.6889491992847, 6759137.5744145], [1831.2255590496572, 6759116.225559049], [2188.9746562870946, 6759178.291600735], [2362.665195612206, 6759027.087540013], [2430.7539320246688, 6759054.6059482945], [2648.796999770996, 6758853.7984631015], [2820.508576722117, 6758951.826615985], [2815.0, 6759004.285714285], [2894.979502615925, 6758985.095104995], [2955.6666666666665, 6759025.333333333], [3040.0, 6758955.0], [3173.252032520325, 6759041.097560976], [3380.7981829082814, 6758814.511042907], [3321.842105263158, 6758725.263157895], [3364.470468431772, 6758693.238289205], [3357.749754661433, 6758582.749754662], [3161.666666666667, 6758386.666666667], [3170.0, 6758365.0], [3210.0, 6758405.0], [3241.7073170731705, 6758383.737446198], [3407.329004554116, 6758469.082702108], [3593.051282051282, 6758301.948717949], [3497.770599957731, 6758055.692070373], [3540.6619937301066, 6757807.814149573], [3743.128660824269, 6757810.497071341], [3876.3147568757927, 6757943.525876805], [4006.2783208889473, 6757971.201481965], [4141.271676300577, 6758193.959537572], [4167.270830753507, 6758172.68750211], [4354.525940674481, 6758273.604989392], [4458.167830747636, 6758281.520817456], [4540.0, 6758235.0], [4597.5, 6758269.0], [4663.015310454579, 6758228.815644397], [4677.195521881833, 6758171.773101901], [4914.0, 6758085.0], [4910.909090909091, 6758044.090909091], [5078.513180136286, 6758012.355433725], [5226.955439163736, 6758150.633280124], [5300.0, 6758135.0], [5316.993464052288, 6758189.379084967], [5430.0, 6758245.0], [5527.591239597699, 6758187.847995738], [5601.0, 6758267.0], [5730.0, 6758325.0], [5782.766704715075, 6758299.768636404], [5900.0, 6758365.0], [5930.0, 6758335.0], [5957.554127054347, 6758414.420719157], [6123.444039560379, 6758617.24290753], [6242.312988462969, 6758710.5954596205], [6296.58064516129, 6758857.193548387], [6396.572009431574, 6758897.6596668], [6389.922030815999, 6758847.150403212], [6480.398397844762, 6758921.193275587], [6557.910921289407, 6758879.070392751], [6591.971046770601, 6758975.7461024495], [6905.689316596614, 6759280.289773164], [6926.666666666667, 6759255.0], [7029.373595258857, 6759311.6246321965], [7141.1875235563475, 6759544.213442758], [7511.00557021981, 6760006.839292225], [7573.898937866794, 6760188.09360333], [7684.711960919386, 6760193.78927534], [7746.270258567537, 6760072.21301179], [7865.0, 6760030.0], [8047.617322651837, 6760251.035889958], [8230.102167613832, 6760341.822768902], [8313.79441202799, 6760321.557924966], [8390.0, 6760345.0], [8452.5, 6760327.5], [8499.882098722264, 6760416.38821562], [8791.689996734694, 6760623.478179803], [9231.606818738579, 6760785.623793944], [9316.017714345831, 6760764.169561441], [9598.566102282679, 6761280.470132141], [9792.2424442882, 6761531.875675276], [9881.213006850525, 6761514.803009511], [10096.3103671909, 6761805.325798806], [10150.0, 6761785.0], [10264.761904761905, 6761880.238095238], [10308.287123960044, 6761836.71287604], [10509.23156399717, 6761950.247239475], [10533.366929810167, 6762076.869646252], [10608.709609568226, 6762113.697642033], [10685.0, 6762260.0], [10711.735181765287, 6762226.61772731], [10837.852726104753, 6762363.354362485], [11080.785952896682, 6762414.9630285045], [11157.219210573707, 6762458.804480736], [11170.15892622598, 6762713.233489766], [11323.644405341896, 6762891.613758465], [11506.846401672665, 6763033.3249164345], [11493.936877076412, 6763141.893687707], [11521.363669563576, 6763215.112482929], [11990.99743909646, 6763267.089434631], [12133.095215562691, 6763338.840527031], [12334.852931997208, 6763572.860340588], [12239.675324675325, 6763745.974025974], [12313.333333333334, 6763801.666666667], [12250.126050420167, 6763797.31092437], [12257.725527831095, 6763877.274472169], [12220.515021459227, 6763914.484978541], [12266.8, 6763961.4], [12247.142857142857, 6764000.714285715], [12175.775656324582, 6763968.5990453465], [12155.0, 6764064.0], [12198.792401610659, 6764072.478208952], [12306.003379296637, 6764226.147585045], [12242.575757575758, 6764323.333333333], [12310.0, 6764375.0], [12362.857142857143, 6764357.857142857], [12441.529754371035, 6764456.851612759], [12646.276604788787, 6764456.874908032], [12865.73896658057, 6764575.056964251], [12785.0, 6764650.0], [12867.367732149529, 6764728.463419657], [12850.37515797952, 6764790.663281842], [13163.58429521546, 6765050.348146118], [13156.648176989447, 6765125.996970263], [13385.0, 6765453.123028391], [13465.737607293464, 6765670.056079092], [13469.869299685117, 6765886.849630344], [13760.335452288007, 6766055.844391943], [13903.642815698558, 6765971.357184301], [13924.838597985286, 6766006.704462991], [14042.560055247537, 6765953.198557837], [14049.558619685082, 6765865.160638077], [14273.119917516173, 6766020.404021086], [14403.703703703703, 6766059.814814814], [14634.65003274365, 6766446.642907434], [14712.19889028143, 6766414.00527701], [14799.224748008151, 6766531.823350358], [14455.136779073431, 6767015.082886858], [14296.448177313398, 6767333.139490445], [14340.451461799386, 6767516.527216928], [14503.908236011275, 6767678.283995734], [14564.533630620588, 6767650.734922355], [14763.17809786901, 6767685.057231706], [14815.0, 6767720.0], [14796.965699208444, 6767798.148636763], [14911.42857142857, 6767843.571428572], [14929.824379673457, 6767805.837557781], [15054.46062716489, 6767833.396152945], [15283.981900452489, 6767983.054298642], [15298.259436964507, 6768153.081628296], [15377.378048780489, 6768149.634146341], [15538.504542278128, 6768223.504542278], [15584.864145265934, 6768287.346587931], [15645.0, 6768295.714285715], [15645.0, 6768371.839578961], [15713.776577019828, 6768374.490862734], [15709.274671109286, 6768481.194763428], [15814.318152902037, 6768570.833227308], [15816.898830924389, 6768661.4393822765], [15928.229545015342, 6768978.469463765], [15915.0, 6769020.0], [15976.516449046318, 6769094.445079053], [15899.89401336139, 6769193.481274327], [15785.0, 6769170.581527175], [15785.0, 6769126.301816995], [15426.909090909092, 6768976.87012987], [15370.0, 6768985.0]]]}}]}