{"type": "FeatureCollection", "crs": {"type": "name", "properties": {"name": "EPSG:25833"}}, "features": [{"type": "Feature", "properties": {"station": "62.15.0", "name": "Kinne", "series": ["1001.1"], "nodes": 1947, "fine_vertices": 328, "fine_area_m2": 194650.0, "reduced_vertices": 8, "reduced_area_m2": 194650.0000000486, "outline_tolerance_m": 20.0, "windows": [[461, 471], [880, 874], [1678, 1457], [3208, 2656], [5470, 5055], [9208, 9854]], "placed_on": "name", "distance_m": 11.801448187461768, "uncertainty_m": 30.0, "elvid": "062-17-59", "objectid": 10777966, "lake": false, "confluence_near": false, "reach_up_m": 1000.0, "reach_down_m": 130.0, "reach_fork": false, "seeded_by": "river", "lake_rule": null, "lake_number": null, "lake_name": null, "lake_distance_m": null, "node_offset_m": 15.24647523670707, "chain_nodes": 116, "lowered_nodes": 25, "lowered_max_m": 0.1579132080078125, "direction_ok": true, "end_extended_m": 0.0, "end_closed": true, "downstream_checked": "whole", "a0": 0.1947, "area_up": 0.00030000000000000003, "area_down": 0.2003, "swing": 0.9984591679506934, "largest_step": 0.1943, "largest_step_at_m": 0.0, "checked_up_m": 20.0, "checked_down_m": 24.142135623731065, "drains": false, "monotone": true, "causes": ["swing", "chain_not_draining"]}, "geometry": {"type": "Polygon", "coordinates": [[[35939.0, 6751616.0], [35793.045415974426, 6751716.568702581], [35343.09404267451, 6751159.325295937], [35202.23042758193, 6750960.136297068], [35253.77731529657, 6750922.22164412], [35293.72359202011, 6750980.425469327], [35483.1076728674, 6750952.0246333005], [35692.99541809851, 6751213.665521191], [35939.0, 6751616.0]]]}}]}