{"type": "FeatureCollection", "crs": {"type": "name", "properties": {"name": "EPSG:25833"}}, "features": [{"type": "Feature", "properties": {"station": "62.14.0", "name": "Slondalsvatn", "series": ["1001.1"], "nodes": 414505, "fine_vertices": 4742, "fine_area_m2": 41450450.0, "reduced_vertices": 219, "reduced_area_m2": 41450450.00000009, "outline_tolerance_m": 20.0, "windows": [[605, 492], [1217, 1276], [2406, 2384]], "placed_on": "number", "distance_m": 15.443514112421502, "uncertainty_m": 30.0, "elvid": "062-17-55", "objectid": 11874042, "lake": true, "confluence_near": false, "reach_up_m": 1000.0, "reach_down_m": 130.0, "reach_fork": false, "seeded_by": "lake", "lake_rule": "inside", "lake_number": 27292, "lake_name": "Slondalsvatnet", "lake_distance_m": 0.0, "node_offset_m": null, "chain_nodes": null, "lowered_nodes": null, "lowered_max_m": null, "direction_ok": null, "end_extended_m": null, "end_closed": null, "downstream_checked": null, "a0": null, "area_up": null, "area_down": null, "swing": null, "largest_step": null, "largest_step_at_m": null, "checked_up_m": null, "checked_down_m": null, "drains": null, "monotone": null, "causes": []}, "geometry": {"type": "Polygon", "coordinates": [[[62940.0, 6755175.0], [62846.8320610687, 6755296.259541985], [62813.932995495496, 6755398.932995495], [62755.990948701095, 6755352.00680341], [62567.692307692305, 6755349.615384615], [62504.83362053101, 6755428.824803841], [62425.30258786135, 6755408.317969477], [62331.475409836065, 6755534.180327869], [62140.36230038413, 6755420.40295426], [61969.30281252763, 6755452.619790371], [61969.57746478873, 6755410.533199195], [61920.0, 6755435.0], [61900.0, 6755395.0], [61824.140572200944, 6755435.002252759], [61830.67567567567, 6755353.513513514], [61643.48832582067, 6755151.438235741], [61603.76260433377, 6755187.717048872], [61570.0, 6755135.0], [61378.88421049886, 6755146.044298261], [61090.0, 6755405.0], [61007.52861681206, 6755368.695224648], [60820.0, 6755485.0], [60702.266721506036, 6755430.6800164515], [60343.99115758688, 6755005.9666801905], [60226.0, 6754985.0], [60216.0, 6755035.0], [60115.017181844385, 6754998.748523085], [59775.3688294571, 6755046.219337238], [59710.0, 6755115.0], [59620.84335728434, 6755050.514956281], [59483.27954425465, 6754855.566360679], [59375.68783270687, 6754658.953684781], [59409.853471851384, 6754590.238522906], [59307.98701298701, 6754434.415584415], [59308.30377599764, 6754307.49484289], [59155.0, 6754210.0], [59226.00563214146, 6754117.470997848], [59021.29818396252, 6753897.435292278], [59030.79677003236, 6753794.7411097], [59266.50932315226, 6753530.215748169], [59195.0, 6753440.0], [59365.0, 6753322.94117647], [59365.0, 6753266.065573771], [59503.499691928526, 6753138.499691929], [59580.10578959899, 6753138.052822794], [59760.851029229336, 6752990.369562706], [59621.485139576034, 6752745.343071756], [59645.0, 6752690.666666667], [59607.5, 6752637.5], [59645.73529411765, 6752599.264705882], [59665.045045045044, 6752485.0], [59610.0, 6752485.0], [59496.54381427, 6752299.445035699], [59440.070358210236, 6752303.892031309], [59385.0, 6752240.0], [59495.04726099469, 6752207.639190112], [59422.762597784116, 6751921.872038002], [59374.62441314554, 6751868.779342723], [59287.185246406465, 6751635.237365847], [59343.333333333336, 6751541.666666667], [59297.67515923567, 6751444.394904459], [59405.0, 6751400.0], [59534.637468390836, 6751235.579870807], [59644.4073526905, 6751215.997689263], [59819.99521254469, 6751090.208020056], [59872.66922860621, 6750886.520178519], [60059.0, 6750734.0], [60095.0, 6750630.0], [59955.0, 6750460.0], [60106.02753503295, 6750266.085569829], [60112.26538374113, 6750137.371649917], [60192.46540538472, 6749891.743089418], [60336.723984848584, 6749718.361992424], [60450.8696296707, 6749759.314012685], [60655.104057906145, 6750046.296465577], [60958.79746835443, 6749856.835443038], [60927.25894845008, 6749810.532882343], [61192.88155219942, 6749641.844479047], [61209.26291695493, 6749536.78248747], [61381.478893832136, 6749391.97468971], [61452.17391304348, 6749440.217391305], [61586.204081632655, 6749361.204081632], [61618.02274518288, 6749430.634582519], [61682.970639403764, 6749412.425417213], [61716.02731010164, 6749334.379423955], [61846.13661551195, 6749373.191218135], [61826.86935371786, 6749442.585128562], [61897.75117175084, 6749607.7841571355], [61961.879832729624, 6749662.187120396], [62081.228070175435, 6749636.754385965], [62113.333333333336, 6749668.333333333], [62171.40886295159, 6749630.3399962], [62283.89722278582, 6749633.871906054], [62301.98709304565, 6749718.449239068], [62265.0, 6749800.0], [62295.395763656634, 6749827.898550725], [62420.0, 6749735.0], [62510.0, 6749745.0], [62585.90478778782, 6749686.061868356], [62777.12226262242, 6749837.784649135], [62853.2353650609, 6749786.644561966], [62997.118359722626, 6749823.255940143], [63065.71428571428, 6749792.142857143], [63145.47278762247, 6749840.638709284], [63531.538318151375, 6749563.377055076], [63607.165249223865, 6749467.834750776], [63691.96174972619, 6749571.974331715], [63863.96580138599, 6749636.592672026], [63911.666666666664, 6749470.0], [63893.10286418232, 6749436.585155528], [64049.25618954751, 6749379.252430798], [64054.41835415769, 6749276.454114606], [64136.849511708795, 6749232.722618682], [64142.08791208791, 6749092.362637362], [64180.0, 6749105.0], [64272.9420363211, 6749025.241253523], [64245.0, 6748971.6187765775], [64396.024105674485, 6748808.370956657], [64401.60030328211, 6748623.399696718], [64365.820814477695, 6748425.734087488], [64435.0, 6748350.0], [64347.7699736611, 6748265.122914838], [64294.78260869565, 6748268.043478261], [64226.02329184251, 6748176.364389123], [64393.51851851852, 6748168.592592592], [64495.0, 6748120.0], [64486.25654450262, 6748022.565445026], [64540.511288378184, 6747986.753860296], [64725.0, 6748030.0], [64722.795530305266, 6748067.475984811], [64956.035579575524, 6748397.995552553], [65042.628923577, 6748401.835534638], [65063.7125521085, 6748491.823529658], [65214.896616754086, 6748704.972754769], [65174.60872567589, 6748827.134679875], [65322.2648661332, 6748935.993382219], [65407.0157020234, 6749073.392687343], [65648.16156720584, 6749034.305070729], [66091.61864028519, 6749412.815656231], [66247.5729638686, 6749299.466710887], [66367.3439810473, 6749475.7071559215], [66379.74665574335, 6749582.112556437], [66478.12007011393, 6749677.800175285], [66557.66504412808, 6749858.066127195], [66136.30629740133, 6750221.700852554], [65957.17448760784, 6750278.444372413], [66018.70697263902, 6750381.31165655], [65976.90476190476, 6750458.571428572], [65975.0, 6750660.0], [65856.19496855346, 6750778.805031447], [65865.0, 6750860.857142857], [66040.0, 6751005.0], [66155.3050397878, 6750997.8116710875], [66329.71433036099, 6751093.154761436], [66273.2292637465, 6751192.031686859], [66295.0, 6751290.0], [66522.4182626177, 6751511.643741403], [66486.01799149135, 6751562.5652104905], [66581.08695652174, 6751668.695652174], [66539.78917230609, 6751723.629497215], [66645.5044193836, 6751923.306297549], [66518.18746491255, 6752004.436132436], [66487.22222222222, 6752107.777777778], [66547.12846321076, 6752208.161949341], [66686.2920908379, 6752322.380579483], [66580.19199485534, 6752438.910931404], [66662.21991572605, 6752643.887632818], [66752.34133864437, 6752668.892531707], [66708.86662353198, 6752720.569904527], [66843.57142857143, 6753008.571428572], [66815.0, 6753050.0], [66864.2963920377, 6753119.399312276], [66829.19354838712, 6753222.580645162], [66855.25888547608, 6753271.658622202], [66825.0, 6753420.0], [66725.0, 6753520.0], [66771.80872113431, 6753719.173836597], [66600.0, 6753895.0], [66478.35573562399, 6753915.065033299], [66281.72043010753, 6754075.0], [66227.6345505206, 6754075.0], [66086.44158291457, 6754182.082286432], [66196.82625661803, 6754391.829469439], [66204.4056241013, 6754523.928783025], [66248.68364718996, 6754538.977200676], [66255.81237911026, 6754837.872340426], [66306.15226337449, 6754904.320987654], [66292.01978050864, 6755061.0310836565], [66329.21052631579, 6755119.47368421], [66308.81735789671, 6755222.932052742], [66158.81925261191, 6755386.361695973], [66077.77273334224, 6755373.167979703], [65974.67767387955, 6755524.472571627], [65907.10787247065, 6755528.740073543], [65774.72222222222, 6755720.277777778], [65724.2449314706, 6755700.412521417], [65700.4056902002, 6755603.674042852], [65660.20834970383, 6755604.257136686], [65625.68928764596, 6755731.138525659], [65510.0, 6755815.0], [65460.0, 6755765.0], [65362.15395363776, 6755826.546104753], [65344.079336020106, 6755922.363976929], [65226.10041654256, 6756051.490027327], [64960.31798597025, 6755867.506719199], [64905.9375, 6755959.0625], [64769.64237350881, 6755870.727560134], [64599.66538959786, 6755959.200978868], [64365.387069217235, 6755875.475427236], [64235.845790090614, 6755747.794593354], [64106.003256003256, 6755728.23972324], [64013.21930800121, 6755665.181629907], [63933.93249808233, 6755665.161084122], [63835.0, 6755552.7272727275], [63827.74672723775, 6755486.087939216], [63565.413532777224, 6755410.231578413], [63521.06844751578, 6755340.342237579], [63065.92001751283, 6755163.207980216], [63000.0, 6755215.0], [62940.0, 6755175.0]]]}}]}