{"type": "FeatureCollection", "crs": {"type": "name", "properties": {"name": "EPSG:25833"}}, "features": [{"type": "Feature", "properties": {"station": "62.10.0", "name": "Myrkdalsvatn", "series": ["1001.0"], "nodes": 1578225, "fine_vertices": 12664, "fine_area_m2": 157822450.0, "reduced_vertices": 597, "reduced_area_m2": 157822449.9999991, "outline_tolerance_m": 20.0, "windows": [[734, 673], [1417, 1471], [2616, 3036], [4983, 5039]], "placed_on": "number", "distance_m": 397.84126049671886, "uncertainty_m": 397.84126049671886, "elvid": "062-17-1763", "objectid": 11872216, "lake": true, "confluence_near": true, "reach_up_m": 1000.0, "reach_down_m": 73.83196914099244, "reach_fork": false, "seeded_by": "lake", "lake_rule": "lake_line", "lake_number": 2091, "lake_name": "Myrkdalsvatnet", "lake_distance_m": 2.25440662288987, "node_offset_m": null, "chain_nodes": null, "lowered_nodes": null, "lowered_max_m": null, "direction_ok": null, "end_extended_m": null, "end_closed": null, "downstream_checked": null, "a0": null, "area_up": null, "area_down": null, "swing": null, "largest_step": null, "largest_step_at_m": null, "checked_up_m": null, "checked_down_m": null, "drains": null, "monotone": null, "causes": []}, "geometry": {"type": "Polygon", "coordinates": [[[44285.0, 6787010.0], [44350.242553632364, 6786932.129855342], [44378.69477426024, 6786808.068433915], [44314.63739579034, 6786422.9078052435], [44396.25, 6786321.25], [44302.5, 6786227.5], [44271.9849344551, 6786131.886127959], [44303.666666666664, 6786004.0], [44181.37092390927, 6785811.484601179], [44093.293663303906, 6785778.53168348], [44089.80116027591, 6785641.707244958], [43934.11120488844, 6785512.306378786], [43883.791566263164, 6785518.791566263], [43861.12566244331, 6785357.483599175], [43737.42563491539, 6785473.67591056], [43662.751642862335, 6785477.328984699], [43555.90909090909, 6785396.363636363], [43444.940329835415, 6785434.03520147], [43305.45273075434, 6785617.3710940415], [43233.370786516854, 6785606.123595506], [43131.613979680005, 6785708.344456693], [43145.0, 6785950.0], [43178.58585858586, 6785983.585858586], [43038.74468615207, 6786240.737476448], [43036.73777590769, 6786283.217076621], [42829.62790697675, 6786622.514033681], [42843.333333333336, 6786665.0], [42787.85429010314, 6786665.109282423], [42710.0, 6786765.0], [42720.0, 6786735.0], [42487.20940986306, 6786444.87365359], [42403.6868140593, 6786564.004616472], [42247.97331450374, 6786597.026685496], [42160.0, 6786685.0], [42128.14826084171, 6786640.46457626], [42168.02612209701, 6786484.813670538], [42086.0, 6786381.0], [42020.0, 6786415.0], [41917.77342520621, 6786367.439566932], [41876.433608656545, 6786307.948486376], [41948.047794377904, 6786178.2569326265], [41944.6284675034, 6786048.142337517], [41889.153079710144, 6785997.377717392], [41811.61857285576, 6785775.877923275], [41661.503067484664, 6785663.680981595], [41640.0, 6785705.0], [41563.23809523809, 6785628.238095238], [41535.333333333336, 6785670.333333333], [41420.0, 6785555.0], [41209.529010698374, 6785775.683973311], [40958.77475024225, 6785914.33235143], [40936.7786259542, 6785907.198473282], [40840.769230769234, 6785985.0], [40787.86468427455, 6785923.3388389135], [40784.06071613908, 6785732.210690192], [40737.70270270271, 6785764.054054054], [40708.79224445736, 6785712.485261148], [40750.6, 6785628.4], [40697.97222582204, 6785510.866557129], [40622.0, 6785529.0], [40583.53077680532, 6785407.957415156], [40519.85398514732, 6785382.028717801], [40412.1875, 6785671.5625], [40400.0, 6785795.0], [40436.40715883669, 6785793.55033557], [40441.65718587501, 6785887.6441936605], [40320.31373903824, 6786260.43022979], [40280.13356562137, 6786288.966318235], [40271.25546334978, 6786390.908264255], [39922.55194648588, 6786727.551946486], [39880.0, 6786685.0], [39830.0219138057, 6786714.992695398], [39740.809894640406, 6786626.040769584], [39602.142857142855, 6786601.428571428], [39582.77578848322, 6786633.707019195], [39695.43784946723, 6786807.807017754], [39634.79138064235, 6786952.93002723], [39428.69565217392, 6786945.0], [39362.333901192505, 6787012.461669506], [39302.72727272727, 6787014.090909091], [39210.0, 6786825.0], [39172.37110941863, 6786841.4293644745], [39122.611607142855, 6786762.388392857], [39078.75, 6786806.25], [39010.0, 6786715.0], [38978.37249531577, 6786775.49272417], [38898.104514021696, 6786806.209262607], [38895.820424834135, 6786493.354357408], [38689.39448145973, 6786314.200625105], [38671.94090382387, 6786243.568945539], [38742.32824427481, 6786161.450381679], [38643.66341651217, 6786009.688419645], [38647.29222460385, 6785868.579271221], [38717.199899547966, 6785809.126067303], [38645.0, 6785660.0], [38671.02409638554, 6785627.951807229], [38615.0, 6785554.0], [38587.53882392273, 6785324.97480644], [38364.413861605535, 6785515.897031238], [38375.0, 6785590.0], [38301.48637410876, 6785693.368164902], [38205.8154746936, 6785575.567381012], [38185.04089795162, 6785611.579929622], [38093.33333333333, 6785548.333333333], [38027.03387920604, 6785420.648706027], [37848.69089138407, 6785429.542557557], [37864.36216806192, 6785233.885757574], [37701.225751364895, 6785210.929466209], [37661.81621621622, 6785083.443243243], [37579.96887988916, 6785153.598102952], [37581.05704697987, 6785265.1174496645], [37489.16622205542, 6785120.594230857], [37334.46830037394, 6784975.87837001], [37302.314316469325, 6784982.685683531], [37149.6019094113, 6784843.788130752], [37114.91415364297, 6784619.52894563], [37013.75, 6784491.25], [36953.27089661155, 6784541.271092602], [36903.333333333336, 6784496.111111111], [36841.331740818154, 6784530.431472081], [36637.91007626384, 6784399.999561377], [36608.524590163935, 6784437.786885246], [36568.04267738714, 6784387.638145818], [36547.5, 6784512.5], [36473.39173712794, 6784512.154147545], [36352.580665457666, 6784612.024705888], [36279.70802919708, 6784568.430656934], [36195.294117647056, 6784650.294117647], [36045.0, 6784585.0], [36002.555415705196, 6784528.17902425], [35836.198347107435, 6784600.950413223], [35794.28571428572, 6784560.714285715], [35744.46436379536, 6784609.066462615], [35565.02107715167, 6784528.575932556], [35453.48765905258, 6784578.5275180135], [35411.95652173913, 6784536.521739131], [35342.45033252725, 6784594.398551818], [35281.503214811375, 6784772.055929971], [35292.142857142855, 6784922.857142857], [35250.38461538462, 6784964.615384615], [35116.666666666664, 6784982.777777778], [35067.35495264016, 6784949.903301761], [35093.58872683305, 6784916.415930391], [35030.43328973185, 6784758.739372139], [34949.15156951575, 6784773.643984022], [34754.26327593375, 6784491.1724158535], [34670.30069582505, 6784244.898111332], [34608.30152005401, 6784265.906096511], [34633.791540785496, 6784385.981873112], [34560.555555555555, 6784476.666666667], [34585.0, 6784530.0], [34392.75093022337, 6784520.615533613], [34423.05913781228, 6784326.247295228], [34263.90554121729, 6784126.082678124], [34137.85714285715, 6783845.714285715], [34025.6933624182, 6783873.497974447], [33973.333333333336, 6783788.333333333], [33897.65982136578, 6783774.574512975], [33851.891203803454, 6783845.782856333], [33734.576286524185, 6783742.883765663], [33689.49282009817, 6783581.775935475], [33613.803112911344, 6783512.71575842], [33518.273292811806, 6783308.943536902], [33386.03149145912, 6783341.192348577], [33256.32185304242, 6783125.385588694], [33109.98676691875, 6782721.398593955], [33021.08639453909, 6782621.245009881], [33012.394664628926, 6782388.463808513], [33076.11274008773, 6782231.828633263], [33081.808216164936, 6781982.370055227], [32945.0, 6781710.0], [32969.65517241379, 6781678.1034482755], [32856.470588235294, 6781602.647058823], [32790.0, 6781615.0], [32708.090350442137, 6781477.174737198], [32622.084930698908, 6781480.581686818], [32511.074884353715, 6781214.1410934], [32625.16482796718, 6781127.40181459], [32512.796223111327, 6780896.795828219], [32938.0, 6780457.0], [32990.0, 6780505.0], [33147.00934893666, 6780423.456335601], [33345.34748677738, 6780221.63246662], [33396.13434727503, 6780258.392479933], [33485.0, 6780210.0], [33482.112068965514, 6780097.327586207], [33513.06419622492, 6780062.014809428], [33495.29657500319, 6779988.7233718885], [33554.335788276825, 6779901.075452869], [33772.2039169324, 6779792.21282779], [33789.403735551045, 6779671.318180084], [33840.20132316049, 6779631.577506272], [33860.328068516246, 6779484.20818271], [33805.0, 6779290.0], [33827.767295597485, 6779244.465408805], [33783.57142857143, 6779105.714285715], [33805.0, 6779030.0], [33758.68098159509, 6778888.834355828], [33770.700762717075, 6778700.268248022], [33677.848204682115, 6778608.229421759], [33631.83152458412, 6778369.679613451], [33555.2581032413, 6778365.06002401], [33542.5, 6778312.5], [33464.47477253929, 6778293.4623356955], [33403.043322080266, 6778203.146057992], [33275.0, 6778220.0], [33295.0, 6778270.0], [33219.51130052091, 6778300.633345735], [33066.78939266778, 6778107.500362657], [32915.0, 6778070.0], [32966.28303980716, 6777999.82120649], [32918.67132867133, 6777786.888111888], [33111.32602368063, 6777732.093258147], [33150.0, 6777645.0], [33167.63933469507, 6777662.639334695], [33347.83950617284, 6777419.75308642], [33348.773234108834, 6777244.801691102], [33304.574468085106, 6777203.404255319], [33293.83248730964, 6777108.832487309], [33220.0139598422, 6777016.41080574], [33263.844253913645, 6776864.456951707], [33150.22193658954, 6776431.362467866], [33194.04761904762, 6776327.142857143], [33127.850289396185, 6776119.987779313], [33135.0, 6776023.333333333], [33202.73171343753, 6775892.652512038], [33194.18608002772, 6775801.356533287], [33233.641304347824, 6775735.597826087], [33115.926898996906, 6775456.618860832], [32749.40648587355, 6775117.807572896], [32756.521016121682, 6775067.221626041], [32595.707991396564, 6774797.671996124], [32602.959336298227, 6774749.6904815], [32469.69097821003, 6774610.46895281], [32474.337889790688, 6774552.28961982], [32398.60192066232, 6774473.776946181], [32244.852288182723, 6774155.390531334], [32147.085693490713, 6774172.085693491], [32044.0, 6774069.0], [31995.723212582365, 6774096.207014061], [31914.999999999996, 6773750.0], [31803.172412474676, 6773476.467860214], [31792.341122861933, 6773160.623421799], [31660.478994796293, 6773019.314272487], [31665.0, 6772910.0], [31618.333333333332, 6772848.333333333], [31662.84347558586, 6772792.695655517], [31568.194881166935, 6772475.452717919], [31302.644245758544, 6772474.257035194], [31230.0, 6772505.0], [31147.83410138249, 6772420.852534562], [30912.766940604135, 6772605.534147078], [30777.580580509497, 6772599.798697927], [30753.168432038055, 6772453.748162609], [30811.7159842522, 6772347.16495], [30785.894978681597, 6772142.014677224], [30738.15495153111, 6772059.15422296], [30669.646065780216, 6772033.403925507], [30562.104253554153, 6771772.721088724], [30544.260915307732, 6771845.0], [30451.17867459471, 6771788.415606688], [30427.347316798532, 6771554.02061777], [30386.69513344876, 6771512.2773956815], [30351.58041214199, 6771348.433715325], [30215.796771318215, 6771386.055759137], [30009.74787047688, 6771184.534755289], [30054.6, 6771101.2], [29985.0, 6771020.0], [29991.543535620054, 6770847.625329815], [29945.0, 6770790.0], [30005.0, 6770730.0], [29989.70588235294, 6770684.117647059], [30055.0, 6770592.072072072], [30055.0, 6770545.3513513515], [30105.512578742528, 6770545.101924739], [30240.0, 6770275.0], [30351.696943269195, 6770396.299987165], [30348.216261564256, 6770540.162783032], [30577.431553686183, 6770531.001312763], [30671.13824422798, 6770446.138244228], [30694.666945457106, 6770572.735008241], [30789.910037878788, 6770622.964015151], [30830.677966101695, 6770696.864406779], [30951.054803020892, 6770763.444859925], [31162.834361266512, 6770764.092501694], [31292.99871006857, 6770823.625010792], [31330.0, 6770897.5], [31285.0, 6770950.0], [31414.375770056035, 6771184.690236748], [31531.477071782152, 6771335.2817902295], [31598.19983989782, 6771348.010910334], [31697.679778133668, 6771238.982656928], [31842.664869352368, 6771190.790253403], [32003.872064306026, 6771463.709311898], [32030.0, 6771455.0], [32115.856123662306, 6771557.312722949], [31997.197323772107, 6771726.652722891], [32229.444444444445, 6772118.888888889], [32193.197278911564, 6772141.598639456], [32236.0, 6772163.0], [32335.459197183776, 6772094.325792421], [32470.13803821565, 6772161.971903308], [32457.089552238805, 6772262.089552239], [32506.703588964072, 6772367.355834235], [32697.391223796123, 6772190.157280406], [32941.24430404206, 6772460.521351814], [33064.0334201998, 6772455.0238211695], [33203.63322542155, 6772537.596934751], [33230.0, 6772465.0], [33329.68176043004, 6772530.041848025], [33564.160403220136, 6772389.16040322], [33687.32858963935, 6772400.6298451675], [33838.46149677464, 6772318.0209543435], [34085.81552266045, 6772220.782291133], [34532.32245357267, 6772156.510354544], [34667.731535116865, 6772044.04851212], [34750.0, 6772075.0], [34806.46464646465, 6772018.535353536], [34874.444444444445, 6772060.555555556], [34960.0, 6771975.0], [35103.333333333336, 6772028.333333333], [35140.0, 6772065.0], [35193.333333333336, 6772011.666666667], [35323.333333333336, 6771971.666666667], [35433.13725490196, 6771885.392156863], [35470.0, 6771905.0], [35511.11111111111, 6771856.111111111], [35574.0, 6771919.0], [35678.308333382796, 6771861.860394023], [36052.45991488482, 6771461.308085943], [36034.040384254426, 6771298.445490225], [36169.51707145649, 6771144.238376076], [36135.0, 6771030.0], [36322.21509494245, 6770746.151594802], [36558.69014582316, 6770713.20691626], [36598.5779319315, 6770682.9080858445], [36521.58297804539, 6770624.680114687], [36467.2566527365, 6770496.781619458], [36494.729672574125, 6770351.0035133045], [36602.72824450922, 6770286.3679299215], [36796.13927192285, 6770004.029186089], [36931.39495134665, 6770136.0414421], [36960.0, 6770225.0], [36990.0, 6770195.0], [37113.80943494594, 6770201.153846154], [37475.6272959403, 6769821.137625837], [37538.707913645274, 6769884.031232621], [37691.895383417905, 6769777.770489299], [37931.482568697145, 6769518.942823042], [38043.99512049656, 6769668.1825902425], [38036.666666666664, 6769727.857142857], [38215.23803410134, 6769864.005782121], [38269.77611940299, 6770092.985074627], [38305.0, 6770115.0], [38291.08695652174, 6770216.0869565215], [38362.0, 6770287.0], [38320.0, 6770345.0], [38463.78082191781, 6770496.780821918], [38510.00090366889, 6770483.545996747], [38779.422773298385, 6770691.11544534], [38810.0, 6770685.0], [38945.4563115696, 6770820.45631157], [39037.14308126978, 6770737.526977299], [39074.21259051234, 6770839.561193376], [38980.66433566433, 6770974.335664336], [39006.333333333336, 6771044.0], [38955.48704954955, 6771075.983952703], [38975.0, 6771121.0], [39070.0, 6771165.0], [39121.36842105263, 6771117.421052632], [39273.535122176305, 6771250.543084902], [39630.69771622312, 6771243.881505299], [39800.0, 6771185.0], [40041.66976171239, 6770966.795170669], [40155.74585635359, 6771079.751381216], [40224.0404040404, 6771056.986531987], [40283.82352941176, 6771153.529411765], [40266.17647058824, 6771226.470588235], [40318.32400388773, 6771297.4876578795], [40251.946271119654, 6771337.959029112], [40292.5, 6771397.5], [40219.649394536755, 6771466.874119966], [40188.22936515896, 6771666.770634841], [40138.60733934285, 6771765.495214374], [40053.45109917279, 6771715.7573378915], [39965.0, 6771970.0], [39985.0, 6772000.0], [39879.4819386872, 6772154.948936364], [39956.29109285906, 6772243.342802445], [39931.481352437986, 6772286.058108884], [40003.15789473684, 6772328.684210527], [39964.98765055981, 6772398.820710066], [40011.35593220339, 6772450.593220339], [39943.85077635577, 6772545.226977136], [39999.28571428571, 6772655.714285715], [39970.00786773839, 6772684.992132261], [40002.14333749119, 6772798.162590162], [40089.38963402161, 6772813.333129792], [40152.5, 6772922.5], [40127.7016356458, 6772984.207557811], [40247.63644647488, 6773021.493157793], [40460.62116642848, 6773183.518028123], [40532.556068422484, 6773123.910127614], [40662.0, 6773213.0], [40753.22853615048, 6773210.424031659], [41131.91377559571, 6773419.117890627], [41109.93022438469, 6773495.86003994], [41235.0, 6773570.0], [41143.0, 6773646.0], [41040.27579631724, 6774099.457811808], [40955.58823529412, 6774234.117647059], [41094.50381497296, 6774237.9986471245], [41109.62753950339, 6774281.6478555305], [41269.081209687494, 6774417.64021657], [41160.588225397885, 6774575.25277012], [40958.49948451198, 6774732.711032935], [41001.671944525224, 6774781.119907542], [40947.69645284943, 6774852.9591374295], [41202.91288566243, 6775126.261343013], [41178.190645302384, 6775264.838790589], [41228.333333333336, 6775333.333333333], [41161.115126484256, 6775407.813629324], [41113.021330494164, 6775603.850686541], [41195.110461201955, 6775714.779077596], [41267.72447466194, 6775658.331583354], [41449.565217391304, 6775871.0869565215], [41504.0, 6775821.0], [41625.61116458133, 6775910.40904716], [41772.64811826624, 6775944.278083271], [41936.484439113694, 6776043.313869074], [42021.88410431934, 6775991.92019668], [42228.889901002745, 6776002.212102846], [42312.13387699626, 6775976.333673122], [42442.64069264069, 6776057.9004329005], [42725.687975916415, 6776019.312024084], [42993.0, 6775752.0], [43028.496576271085, 6775602.485225825], [43181.925710651434, 6775419.19684814], [43295.0, 6775380.0], [43360.11363636363, 6775249.7727272725], [43301.52173913043, 6775099.130434782], [43329.6875, 6775052.1875], [43403.80521224811, 6775161.159213049], [43668.748282692766, 6775143.692716743], [43938.37758128775, 6775326.622418712], [44025.152657709616, 6775244.138604348], [44173.88888888889, 6775367.037037037], [44302.67136911637, 6775534.382127288], [44260.90909090909, 6775585.0], [44183.78378378379, 6775561.216216216], [44008.59283440394, 6775676.801969025], [43269.45184635015, 6776444.45184635], [43333.20737238064, 6776640.819000994], [43257.9520295203, 6776815.57195572], [43326.99430675219, 6776903.190723802], [43325.0, 6777000.0], [43373.333333333336, 6777047.5], [43345.0, 6777090.0], [43542.662855445364, 6777287.662855445], [43436.47064679926, 6777432.916009053], [43396.04027772299, 6777532.399305693], [43445.33343622158, 6777624.5923134275], [43548.33333333333, 6777500.0], [43597.01912858661, 6777630.828905419], [43646.94950486474, 6777615.912896614], [43701.86552567237, 6777654.8704156475], [43666.57894736842, 6777712.631578947], [43705.89146695161, 6777750.8670432], [43613.0, 6777840.0], [43590.625, 6777945.625], [43647.77777777778, 6778002.777777778], [43710.36220472441, 6777957.503937008], [43743.962251631325, 6778046.097606654], [43848.7883303304, 6778135.087512219], [43885.40599455041, 6778100.945504087], [44012.17391304348, 6778212.826086956], [44068.0, 6778157.0], [44209.73543439195, 6778155.98237965], [44067.2801256049, 6778522.02110723], [44064.05940680652, 6778660.99106223], [43985.01700313217, 6778735.952699233], [44015.0, 6778860.0], [43985.0, 6778890.0], [44030.86166266333, 6778958.482617896], [43927.10585732271, 6779270.00971628], [43816.04480626603, 6779434.070812575], [43871.44227290832, 6779673.39197964], [43990.664296370116, 6779889.406105197], [44123.67438174368, 6779795.1616663225], [44326.92307692308, 6779967.307692308], [44350.400686891815, 6779944.376073268], [44503.47604967348, 6780161.556167948], [44603.333333333336, 6780198.333333333], [44716.666666666664, 6780171.666666667], [44762.0, 6780217.0], [44948.146468981664, 6780132.235037066], [45157.99535483018, 6779859.467585273], [45189.025554902575, 6779872.245556582], [45172.5, 6779917.5], [45255.83333333333, 6780120.833333333], [45245.87374359881, 6780174.4515865315], [45335.0, 6780352.5], [45250.436893203885, 6780445.458421517], [45335.0, 6780610.0], [45295.51851851852, 6780708.444444444], [45120.59498350402, 6780831.304686576], [45125.0, 6780915.0], [45066.56527365493, 6780963.307390757], [45072.45790735083, 6781438.37166756], [45124.9850689013, 6781626.762340995], [45175.32868899978, 6781697.568684985], [45130.35625235323, 6781802.488182675], [45131.91727290687, 6782113.216475265], [45176.45576707727, 6782136.215005599], [45158.333333333336, 6782183.333333333], [45215.63595993472, 6782287.0794539945], [45181.334498322765, 6782444.603523068], [45203.2664862389, 6782584.690273221], [45408.34993865821, 6782675.4217435615], [45474.17815580647, 6782671.655626803], [45740.50683687936, 6782275.506836879], [45821.54563312762, 6782256.479627443], [45856.18025751073, 6782289.635193133], [45965.44469238126, 6782155.0], [46018.36361466329, 6782199.762621798], [46087.98479087453, 6782206.013941699], [46190.0, 6782085.0], [46383.68262240349, 6781938.1815694375], [46506.71610367737, 6782188.035931505], [46645.0, 6782260.0], [46661.068803065136, 6782354.168139735], [46758.99687337155, 6782416.492965086], [46774.40526015892, 6782501.136018421], [46927.59730103882, 6782723.663861951], [47088.185432979626, 6782693.18833338], [47166.1503772284, 6782743.297162893], [47335.95959595959, 6782695.808080808], [47476.28313799789, 6782759.407446317], [47552.357416964405, 6782859.69961625], [47495.0, 6782920.0], [47533.66732127189, 6783002.552333598], [47640.0, 6783055.0], [47690.0, 6783005.0], [47755.0, 6783005.384615385], [47755.0, 6783076.0], [47674.64064436183, 6783179.46716233], [47731.92424157461, 6783307.691919475], [47659.642857142855, 6783331.785714285], [47761.609760906766, 6783398.10660662], [47993.425696516155, 6783389.038529605], [48090.0, 6783525.0], [48119.323695081126, 6783505.128069168], [48339.0, 6783744.0], [48305.69781163758, 6783886.014595407], [48079.01455481438, 6784197.803842834], [48001.81818181818, 6784255.0], [47874.950716994936, 6784492.740115374], [47903.33333333333, 6784535.0], [47857.71530707991, 6784603.42703938], [47739.12087912088, 6784624.84507296], [47734.53898678344, 6784692.723746475], [47598.75, 6784768.75], [47561.36363636363, 6784725.454545454], [47486.830385094, 6784754.853888494], [47224.95430098328, 6784661.219671823], [47224.42605028892, 6784629.0808995785], [47120.58273032107, 6784621.75568799], [47001.41369047619, 6784694.058248299], [46973.7547528947, 6784571.621076748], [46821.681892489665, 6784561.141936725], [46727.089168151, 6784484.545450073], [46662.72727272727, 6784542.2727272725], [46590.255681818184, 6784492.556818182], [46283.54663833689, 6784559.286049144], [46143.857117251595, 6784539.655952216], [46048.30435032312, 6784568.389287142], [45816.65712970443, 6784813.011214182], [45818.73725934315, 6784846.917327293], [45665.0, 6784990.0], [45677.25258549106, 6785075.768098437], [45630.445046668625, 6785136.110797875], [45624.270729791, 6785348.972694508], [45398.532053433795, 6785554.680505338], [45400.21739130435, 6785646.347826087], [45503.46153846154, 6785804.615384615], [45489.95412844037, 6785874.9541284405], [45584.8017257498, 6785917.116231516], [45668.08736367131, 6786050.1083619455], [45349.2033999418, 6786440.968004898], [45283.93009682094, 6786584.650484105], [45298.21483622154, 6786791.7483510235], [45180.1040438013, 6787068.496737223], [44883.28721271466, 6787276.296525212], [44721.220341759064, 6787228.257219631], [44614.1262716706, 6787261.599185823], [44507.39936273328, 6787364.448025702], [44315.83241366012, 6787260.425281526], [44285.0, 6787010.0]]]}}]}