{"type": "FeatureCollection", "crs": {"type": "name", "properties": {"name": "EPSG:25833"}}, "features": [{"type": "Feature", "properties": {"station": "62.5.0", "name": "Bulken (Vangsvatnet)", "series": ["1001.1"], "nodes": 10936273, "fine_vertices": 42544, "fine_area_m2": 1093627650.0, "reduced_vertices": 2062, "reduced_area_m2": 1093627649.9999995, "outline_tolerance_m": 20.0, "windows": [[767, 1170], [1565, 1968], [3163, 3266], [6361, 5665], [11347, 10464]], "placed_on": "number", "distance_m": 282.1392000835107, "uncertainty_m": 282.1392000835107, "elvid": "062-17-1", "objectid": 10778058, "lake": true, "confluence_near": false, "reach_up_m": 1000.0, "reach_down_m": 382.1392000835108, "reach_fork": false, "seeded_by": "lake", "lake_rule": "lake_line", "lake_number": 2085, "lake_name": "Vangsvatnet", "lake_distance_m": 8.31494126466751, "node_offset_m": null, "chain_nodes": null, "lowered_nodes": null, "lowered_max_m": null, "direction_ok": null, "end_extended_m": null, "end_closed": null, "downstream_checked": null, "a0": null, "area_up": null, "area_down": null, "swing": null, "largest_step": null, "largest_step_at_m": null, "checked_up_m": null, "checked_down_m": null, "drains": null, "monotone": null, "causes": []}, "geometry": {"type": "Polygon", "coordinates": [[[44285.0, 6787010.0], [44350.242553632364, 6786932.129855342], [44378.69477426024, 6786808.068433915], [44314.63739579034, 6786422.9078052435], [44396.25, 6786321.25], [44302.5, 6786227.5], [44271.9849344551, 6786131.886127959], [44303.66666666667, 6786004.0], [44181.37092390928, 6785811.484601179], [44093.293663303906, 6785778.53168348], [44090.00496732235, 6785642.945304555], [43934.52088831466, 6785511.860452836], [43883.79158115379, 6785518.791581154], [43861.12562914962, 6785357.483510564], [43737.212985172955, 6785473.876906494], [43662.607145374976, 6785477.187927628], [43555.90909090909, 6785396.363636363], [43444.953513139335, 6785434.048692568], [43305.98361699433, 6785616.628332042], [43237.29311797464, 6785607.556665228], [43137.97906094864, 6785697.87114212], [43137.80652039281, 6785942.806520393], [43178.58585858586, 6785983.585858586], [43038.74468615207, 6786240.737476448], [43036.73777590769, 6786283.217076621], [42829.62790697675, 6786622.514033681], [42843.33333333333, 6786665.0], [42787.85429010313, 6786665.109282423], [42710.0, 6786765.0], [42720.0, 6786735.0], [42487.20940986306, 6786444.87365359], [42403.6868140593, 6786564.004616472], [42247.97331450374, 6786597.026685496], [42160.0, 6786685.0], [42128.14826084171, 6786640.46457626], [42168.02612209701, 6786484.813670538], [42086.0, 6786381.0], [42020.0, 6786415.0], [41917.77342520621, 6786367.439566932], [41876.43360865655, 6786307.948486376], [41948.0477943779, 6786178.2569326265], [41944.6284675034, 6786048.142337517], [41889.153079710144, 6785997.377717392], [41811.61857285576, 6785775.877923275], [41661.50306748466, 6785663.680981595], [41640.0, 6785705.0], [41563.23809523809, 6785628.238095238], [41535.33333333333, 6785670.333333333], [41420.0, 6785555.0], [41209.529010698374, 6785775.683973311], [40958.77475024224, 6785914.33235143], [40936.7786259542, 6785907.198473282], [40840.769230769234, 6785985.0], [40787.86468427455, 6785923.3388389135], [40784.06071613908, 6785732.210690192], [40737.70270270271, 6785764.054054054], [40708.79224445736, 6785712.485261148], [40750.6, 6785628.4], [40697.97222582204, 6785510.866557129], [40622.0, 6785529.0], [40583.53077680532, 6785407.957415156], [40519.85398514732, 6785382.028717801], [40412.1875, 6785671.5625], [40400.0, 6785795.0], [40436.407158836686, 6785793.55033557], [40441.65718587501, 6785887.6441936605], [40320.31373903824, 6786260.43022979], [40280.13356562137, 6786288.966318235], [40271.25546334978, 6786390.908264255], [39922.55194648588, 6786727.551946486], [39880.0, 6786685.0], [39830.0219138057, 6786714.992695398], [39740.8098946404, 6786626.040769584], [39602.142857142855, 6786601.428571428], [39582.77578848322, 6786633.707019195], [39695.43784946723, 6786807.807017754], [39634.79138064235, 6786952.93002723], [39428.695652173905, 6786945.0], [39362.3339011925, 6787012.461669506], [39302.72727272727, 6787014.090909091], [39210.0, 6786825.0], [39172.37110941864, 6786841.4293644745], [39122.611607142855, 6786762.388392857], [39078.75, 6786806.25], [39010.0, 6786715.0], [38978.372495315765, 6786775.49272417], [38898.104514021696, 6786806.209262607], [38895.820424834135, 6786493.354357408], [38689.39448145972, 6786314.200625105], [38671.94090382387, 6786243.568945539], [38742.32824427481, 6786161.450381679], [38643.66341651217, 6786009.688419645], [38647.29222460385, 6785868.579271221], [38717.199899547966, 6785809.126067303], [38645.0, 6785660.0], [38671.02409638555, 6785627.951807229], [38615.0, 6785554.0], [38587.53882392273, 6785324.97480644], [38364.413861605535, 6785515.897031238], [38375.0, 6785590.0], [38301.48637410876, 6785693.368164902], [38205.815474693605, 6785575.567381012], [38185.04089795162, 6785611.579929622], [38093.33333333333, 6785548.333333333], [38027.03387920605, 6785420.648706027], [37848.69089138407, 6785429.542557557], [37864.36216806192, 6785233.885757574], [37701.22575136488, 6785210.929466209], [37661.81621621622, 6785083.443243243], [37579.968879889166, 6785153.598102952], [37581.05704697986, 6785265.1174496645], [37489.16622205544, 6785120.594230857], [37334.468300373934, 6784975.87837001], [37302.31431646932, 6784982.685683531], [37149.6019094113, 6784843.788130752], [37114.91415364297, 6784619.52894563], [37013.75, 6784491.25], [36953.27089661155, 6784541.271092602], [36903.333333333336, 6784496.111111111], [36841.331740818154, 6784530.431472081], [36637.91007626384, 6784399.999561377], [36608.524590163935, 6784437.786885246], [36568.04267738714, 6784387.638145818], [36547.5, 6784512.5], [36473.39173712794, 6784512.154147545], [36352.58066545767, 6784612.024705888], [36279.70802919706, 6784568.430656934], [36195.29411764707, 6784650.294117647], [36045.0, 6784585.0], [36002.555415705196, 6784528.17902425], [35836.198347107435, 6784600.950413223], [35794.28571428571, 6784560.714285715], [35744.46436379536, 6784609.066462615], [35565.021077151665, 6784528.575932556], [35453.48765905258, 6784578.5275180135], [35411.95652173913, 6784536.521739131], [35342.45033252725, 6784594.398551818], [35281.503214811375, 6784772.055929971], [35292.142857142855, 6784922.857142857], [35250.38461538462, 6784964.615384615], [35116.666666666664, 6784982.777777778], [35067.35495264016, 6784949.903301761], [35093.58872683305, 6784916.415930391], [35030.43328973185, 6784758.739372139], [34949.15156951576, 6784773.643984022], [34754.26327593375, 6784491.1724158535], [34670.30069582505, 6784244.898111332], [34608.30152005402, 6784265.906096511], [34633.79154078549, 6784385.981873112], [34560.555555555555, 6784476.666666667], [34585.0, 6784530.0], [34505.0, 6784541.428571428], [34380.73230261236, 6784488.244344388], [34432.60182937751, 6784357.803213088], [34404.811153545816, 6784266.295023965], [34329.33624952453, 6784234.496006086], [34221.0523612611, 6784053.947638739], [34151.24956746706, 6783842.396896132], [34025.693362418206, 6783873.497974447], [33973.33333333333, 6783788.333333333], [33897.65982136578, 6783774.574512975], [33851.891203803454, 6783845.782856333], [33734.57628652418, 6783742.883765663], [33689.49282009817, 6783581.775935475], [33613.803112911344, 6783512.71575842], [33518.273292811806, 6783308.943536902], [33386.031491459114, 6783341.192348577], [33256.32185304242, 6783125.385588694], [33109.98676691875, 6782721.398593955], [33021.08639453909, 6782621.245009881], [33012.394664628926, 6782388.463808513], [33076.11274008773, 6782231.828633263], [33081.808216164936, 6781982.370055227], [32945.0, 6781710.0], [32969.6551724138, 6781678.1034482755], [32856.47058823529, 6781602.647058823], [32790.0, 6781615.0], [32708.090350442137, 6781477.174737198], [32622.08493069891, 6781480.581686818], [32511.074884353715, 6781214.1410934], [32624.651446660508, 6781128.893333584], [32513.402033007667, 6780896.008564608], [32938.0, 6780457.0], [32990.0, 6780505.0], [33147.0093489366, 6780423.456335601], [33345.34748677738, 6780221.63246662], [33396.13434727503, 6780258.392479932], [33485.0, 6780210.0], [33482.112068965514, 6780097.327586207], [33513.06419622492, 6780062.014809428], [33495.29657500319, 6779988.7233718885], [33554.33578827682, 6779901.075452869], [33772.203916932405, 6779792.21282779], [33789.40373555104, 6779671.318180084], [33840.20132316049, 6779631.577506272], [33860.328068516246, 6779484.20818271], [33805.0, 6779290.0], [33827.767295597485, 6779244.465408805], [33783.57142857143, 6779105.714285715], [33805.0, 6779030.0], [33758.68098159509, 6778888.834355828], [33770.700762717075, 6778700.268248022], [33677.79365358546, 6778608.175348732], [33631.879330718715, 6778369.688570129], [33555.2581032413, 6778365.06002401], [33542.5, 6778312.5], [33464.47477253929, 6778293.4623356955], [33403.043322080266, 6778203.146057992], [33275.0, 6778220.0], [33295.0, 6778270.0], [33209.43729776348, 6778310.231469263], [33080.16061982326, 6778105.410865663], [32915.0, 6778070.0], [32966.28303980716, 6777999.82120649], [32922.75341388807, 6777805.144356348], [33121.96511042058, 6777708.134182405], [33341.666666666664, 6777433.333333333], [33354.24113048707, 6777249.923030667], [33304.574468085106, 6777203.404255319], [33293.83248730964, 6777108.832487309], [33220.013959842196, 6777016.41080574], [33263.844253913645, 6776864.456951707], [33150.22193658954, 6776431.362467866], [33194.04761904762, 6776327.142857143], [33127.850289396185, 6776119.987779313], [33135.0, 6776023.333333333], [33202.73171343753, 6775892.652512038], [33194.18608002772, 6775801.356533287], [33233.641304347824, 6775735.597826087], [33115.9268989969, 6775456.618860832], [32749.40648587355, 6775117.807572896], [32756.521016121686, 6775067.221626041], [32595.707991396564, 6774797.671996124], [32602.959336298227, 6774749.6904815], [32469.69097821003, 6774610.46895281], [32474.337889790688, 6774552.28961982], [32398.60192066231, 6774473.776946181], [32244.852288182723, 6774155.390531334], [32147.085693490713, 6774172.085693491], [32044.0, 6774069.0], [31995.723212582358, 6774096.207014061], [31915.0, 6773750.0], [31803.172412474676, 6773476.467860214], [31792.34112286193, 6773160.623421799], [31660.478994796293, 6773019.314272487], [31665.0, 6772910.0], [31618.333333333336, 6772848.333333333], [31662.84347558586, 6772792.695655517], [31568.194881166935, 6772475.452717919], [31302.644245758573, 6772474.257035194], [31230.0, 6772505.0], [31147.83410138249, 6772420.852534562], [30912.76694060413, 6772605.534147078], [30777.580580509497, 6772599.798697927], [30753.168432038055, 6772453.748162609], [30811.7159842522, 6772347.16495], [30785.8949786816, 6772142.014677224], [30738.154951531113, 6772059.15422296], [30669.646065780216, 6772033.403925507], [30562.10425355415, 6771772.721088724], [30544.260915307736, 6771845.0], [30451.17867459471, 6771788.415606688], [30427.347316798532, 6771554.02061777], [30386.69513344876, 6771512.2773956815], [30351.580412141993, 6771348.433715325], [30215.796771318193, 6771386.055759137], [30009.747812479593, 6771184.5346528], [30054.6, 6771101.2], [29985.0, 6771020.0], [29991.543535620054, 6770847.625329815], [29945.0, 6770790.0], [30005.0, 6770730.0], [29989.70588235294, 6770684.117647059], [30055.0, 6770592.072072072], [30055.0, 6770545.3513513515], [30126.153846153844, 6770545.0], [30149.228430179937, 6770435.304981404], [30246.403262912627, 6770271.386274557], [30240.0, 6770205.0], [30204.838709677417, 6770238.870967742], [30145.180722891568, 6770191.144578313], [30106.428571428572, 6770077.142857143], [30009.10495394669, 6770058.355542628], [29965.93886462882, 6769710.76419214], [30035.0, 6769650.0], [30000.331010452963, 6769476.655052265], [29923.333333333336, 6769474.333333333], [29860.0, 6769525.0], [29813.15789473684, 6769492.894736842], [29767.83783783784, 6769523.108108108], [29596.097727414905, 6769291.974189933], [29544.098302681115, 6769325.102841869], [29480.589692765112, 6769158.384539148], [29496.50446031009, 6769051.08547516], [29402.157446308374, 6769036.1872668015], [29405.0, 6768850.0], [29312.747700198626, 6768692.711441934], [29270.241922740985, 6768674.911495626], [29097.91248010886, 6768465.513998688], [29115.0, 6768323.333333333], [29055.0, 6768290.0], [29075.4286345559, 6768168.952717631], [29038.38555172261, 6768140.339435545], [29032.17028714856, 6767974.373695994], [29107.881554758584, 6767897.238697962], [29172.47746528731, 6767709.690826165], [29224.568051965347, 6767657.70320428], [29191.769691908314, 6767558.828725638], [29373.666666666668, 6767346.666666667], [29404.266215258216, 6767239.961854441], [29549.9257151505, 6767146.149204828], [29629.0, 6767035.0], [29585.0, 6766990.0], [29625.0, 6766965.0], [29630.875388553533, 6766744.623296172], [29825.521158995594, 6766554.27090604], [29930.529914457373, 6766380.446871337], [30118.13161824774, 6766365.841656631], [30132.479024629683, 6766102.027932201], [30190.467680205624, 6766042.658241503], [30195.0, 6765730.0], [30235.0, 6765710.0], [30215.78947368421, 6765615.0], [30159.108227476077, 6765636.64978121], [30158.05568954345, 6765511.652957229], [30055.0, 6765363.527747744], [30055.0, 6765320.4639175255], [29980.384615384617, 6765225.769230769], [30035.53000171464, 6765156.8374978565], [30112.95209317709, 6765192.9148916835], [30179.893193759082, 6765114.522233234], [30328.277710715083, 6765200.968350367], [30539.286924438085, 6765059.796506155], [30581.771941636925, 6765080.432085938], [30769.82992839723, 6764983.672754178], [30832.039604467067, 6764803.649586477], [30880.302663438262, 6764791.210653753], [30867.260174418596, 6764708.835755814], [31010.190409528826, 6764595.498562124], [30905.0, 6764457.99], [30919.04060811152, 6764245.959391888], [30946.597633136094, 6764218.402366864], [30993.666666666668, 6764058.666666667], [30965.0, 6764030.0], [31058.05954825462, 6763968.64476386], [31033.139646102343, 6763871.673840268], [31088.238479221334, 6763552.376533445], [31015.436398750273, 6763336.630200886], [30951.55194496403, 6763436.225049442], [30898.10824742268, 6763460.9639175255], [30790.940401393644, 6763363.700714686], [30950.507246376812, 6763103.478260869], [30911.00397614314, 6763078.528827038], [30950.874137512128, 6762713.894258052], [30965.277777777777, 6762684.166666667], [30890.69358345316, 6762745.858277703], [30830.0, 6762705.0], [30666.767697725154, 6762721.741774593], [30658.56772103611, 6762608.563906295], [30705.485853025544, 6762546.097323588], [30747.431763548047, 6762384.973944949], [30724.44847571527, 6762248.271482128], [30818.004484304947, 6762132.735426009], [30918.605344956948, 6762082.215632332], [30886.234947875673, 6762032.498023299], [30983.391209045258, 6761948.282679391], [30991.38655462185, 6761693.613445378], [31095.0, 6761590.0], [31113.641195199285, 6761508.097928305], [31175.58139534884, 6761514.534883721], [31172.360178970917, 6761407.360178971], [31109.225612066024, 6761254.923027044], [30948.513813890444, 6761256.263909578], [30877.32330400683, 6761177.195775091], [30943.695652173912, 6761043.043478261], [30859.341399027748, 6760916.5120985415], [30830.68772248304, 6760804.001134149], [30755.26853232289, 6760713.335911911], [30809.41176470588, 6760620.294117647], [30785.0, 6760580.0], [30944.225432995074, 6760524.594670224], [30875.00561625864, 6760250.179284755], [30976.571743697765, 6760117.2156806], [31032.95984583927, 6759994.387614785], [30955.96775317807, 6759929.032246822], [30904.523665676505, 6759972.67796542], [30752.54636771204, 6760002.401397954], [30735.0, 6760120.0], [30616.642935377873, 6760202.7783862725], [30540.0, 6760125.0], [30475.555555555555, 6760125.0], [30471.26010176594, 6760003.401676144], [30369.78199051245, 6759914.8096742565], [30248.548886387733, 6759975.709417355], [30038.05374849712, 6759903.570657364], [29986.292620621796, 6760010.830040263], [29875.8064516129, 6759997.119815668], [29820.0, 6760135.0], [29808.965517241377, 6760089.482758621], [29780.0, 6760115.0], [29717.911694510738, 6760069.331742244], [29743.39111433174, 6759965.051413982], [29795.41699936337, 6759894.3187381225], [29714.11111111111, 6759779.111111111], [29788.839590443687, 6759630.759385666], [29596.361637004422, 6759472.7188779125], [29568.636363636364, 6759485.454545454], [29527.168452906993, 6759350.152713435], [29391.033667411408, 6759398.3013916025], [29243.296861918283, 6759343.416400829], [29105.0, 6759545.0], [28949.145490042964, 6759654.31610384], [28879.258620885164, 6759598.383038316], [28904.77776197849, 6759385.285724844], [28769.35777312441, 6759374.321578864], [28774.959716411842, 6759300.530630891], [28553.10308743986, 6759152.34700603], [28381.428571428572, 6759283.571428572], [28300.0, 6759245.0], [28276.22641509434, 6759292.547169811], [28218.571428571428, 6759256.428571428], [28003.399962928554, 6759746.871686928], [27925.34894503485, 6759837.943500851], [27842.727272727272, 6759775.0], [27795.51717268602, 6759984.465451729], [27674.444444444445, 6759969.444444444], [27580.0, 6759875.0], [27447.843297930427, 6759987.581672567], [27417.02392510259, 6759934.38476797], [27233.631087567945, 6759825.0], [27038.939224556772, 6759813.931122543], [27041.65543036199, 6759756.293230062], [26922.91208791209, 6759697.912087912], [26966.57639331345, 6759661.323818245], [26804.13769414354, 6759615.914243824], [26749.19804475674, 6759653.716107843], [26775.0, 6759720.0], [26690.208794685226, 6759807.144890857], [26523.971202972596, 6759818.683232699], [26500.0, 6759765.0], [26471.714079542617, 6759793.285920457], [26350.738257752433, 6759726.832200391], [26371.279069767443, 6759536.279069767], [26241.195278531144, 6759480.556264011], [26263.96243291592, 6759357.549194991], [26197.223566281893, 6759165.441956155], [25859.47237202491, 6758988.995212268], [25831.5, 6759013.5], [25755.0, 6758956.013071896], [25769.96355530044, 6758857.269253108], [25690.389042126375, 6758803.09926243], [25588.51114491509, 6758826.998107737], [25498.076923076922, 6758614.615384615], [25515.0, 6758521.818181818], [25484.122807017542, 6758487.368421053], [25518.90243902439, 6758467.804878049], [25498.24450472398, 6758417.161636782], [25560.513169712838, 6758349.28735867], [25532.711101756122, 6758218.140415839], [25255.0, 6758110.0], [25270.0, 6758045.0], [25163.011873911164, 6757955.4285456], [25001.66383921008, 6758023.33616079], [25008.523071193697, 6758081.717059242], [24949.054166568712, 6758159.2753645135], [24818.00226394605, 6758011.768476975], [24684.13456161474, 6758048.032313621], [24606.76001740548, 6757957.389078962], [24461.273543366828, 6757966.017262903], [24347.36800453568, 6757873.461293142], [24435.555555555555, 6757819.444444444], [24495.32112938256, 6757858.475023271], [24695.000000000004, 6757660.0], [24670.167346938775, 6757617.657142857], [24705.0, 6757520.0], [24671.25, 6757486.25], [24746.945659083398, 6757403.33694609], [24630.3042026162, 6757273.110492624], [24510.31469358444, 6757272.714594789], [24479.60942878943, 6757060.179939734], [24552.412935323384, 6757002.10199005], [24525.0, 6756898.75], [24911.52163235553, 6756512.251570805], [24953.53676567195, 6756512.755650636], [24898.125, 6756436.875], [24935.132168053548, 6756388.902745116], [24858.5, 6756283.5], [24904.363827549947, 6756218.848580441], [24960.0, 6756255.0], [25025.0, 6756190.0], [24970.414800719773, 6756113.580721008], [24966.39300048735, 6755981.77852574], [24858.472712068527, 6755880.63546028], [24920.23076923077, 6755657.038461538], [24961.688864224932, 6755636.722160562], [24848.48806565926, 6755459.413713101], [24815.459039548023, 6755520.063559322], [24606.54518412801, 6755327.09420363], [24645.723529549417, 6755062.760597927], [24539.13281718391, 6755057.882664213], [24388.009413164433, 6755007.368863071], [24251.7816091954, 6754866.091954023], [24265.0, 6754800.0], [24206.53846153846, 6754728.461538462], [24225.0, 6754710.0], [24147.924528301886, 6754695.566037736], [24106.4, 6754640.2], [24066.600249066003, 6754678.250311333], [24046.352214227172, 6754646.413392326], [23883.41397968184, 6754735.699135609], [23740.714285714275, 6754654.285714285], [23688.502805871856, 6754559.355802845], [23587.896540741785, 6754494.78950701], [23635.0, 6754396.155268022], [23766.951219512197, 6754271.951219512], [23685.0, 6754190.0], [23713.20512820513, 6754147.692307692], [23636.79487179487, 6754072.307692308], [23665.0, 6754030.0], [23608.54716981132, 6753906.79245283], [23544.25908297636, 6753828.072346502], [23476.272727272728, 6753651.2727272725], [23745.0, 6753370.0], [23710.917492757246, 6753267.339942058], [23571.647316800394, 6753136.295851633], [23408.81948782011, 6753048.7747241305], [23287.41379310345, 6753085.862068965], [23214.307324589514, 6752997.0033779545], [23428.57938555054, 6752677.190112225], [23079.23981289243, 6752529.97833949], [22992.78385254797, 6752579.369580572], [22838.28719318615, 6752611.635930541], [22780.0, 6752485.0], [22652.44793752503, 6752477.88245895], [22597.368805637085, 6752432.914988964], [22558.92523364486, 6752453.925233644], [22537.758620689656, 6752395.862068965], [22508.613206339287, 6752411.03255818], [22299.273403689924, 6752198.455318503], [22282.576168127784, 6752132.030877474], [22037.021276595744, 6752070.134751773], [22021.25, 6752044.375], [22134.88055541865, 6751997.937449624], [22123.168275390708, 6751967.992270014], [21987.272727272728, 6751934.090909091], [21942.273945077024, 6751797.267247153], [21959.194987984894, 6751721.1225540675], [21635.62742987248, 6751413.244384481], [21422.14285714286, 6751147.142857143], [21424.301870483752, 6751096.406043632], [21210.72253278597, 6750871.907297353], [21275.0, 6750600.0], [21076.353871474705, 6750421.265612708], [21206.536886981725, 6750379.215113817], [21191.047238990093, 6750255.284815881], [20898.88125438785, 6750161.017791011], [20710.19988889391, 6749972.010367902], [20784.55878432418, 6749935.882431352], [20775.542635658916, 6749808.527131783], [20862.75072497057, 6749664.597605444], [20978.66125760649, 6749629.320486816], [21110.0, 6749375.0], [21095.0, 6749310.0], [21272.93841048841, 6749284.708268052], [21302.73698510719, 6749192.311686355], [21563.441814595662, 6748932.209072978], [21548.333333333332, 6748856.666666667], [21620.749486652978, 6748835.905544148], [21615.0, 6748786.0], [21752.06110891125, 6748876.096365427], [21800.0, 6748865.0], [21956.402562373565, 6748953.308929776], [22066.84210526316, 6748888.233082707], [22153.55087885936, 6748988.275068393], [22323.746546602717, 6748846.129434227], [22420.05988023952, 6748644.760479042], [22705.12296808533, 6748740.213291339], [22887.0, 6748528.0], [22949.524713230894, 6748526.148514471], [23044.222137890007, 6748357.207532463], [23146.33147929067, 6748381.578800345], [23070.83552077966, 6748254.8355702795], [22936.031149922415, 6748182.937700155], [22960.0, 6748135.0], [22983.15569645733, 6748158.155696457], [23104.558541266793, 6748088.848368522], [23105.331197058353, 6747994.769766595], [23235.006645881927, 6748064.653185631], [23388.928553743808, 6748278.28669288], [23619.009497201754, 6748278.97818943], [23674.807945825534, 6748124.018534664], [23608.175116864437, 6748019.53613808], [23665.84104411311, 6747831.601461218], [23576.556636553163, 6747706.358582349], [23654.52707206815, 6747647.640106221], [23785.546063241716, 6747354.509977867], [23755.0, 6747310.0], [23788.454035159542, 6747181.749573843], [23861.499292286277, 6747174.858558285], [23935.886459648995, 6747022.981558331], [24010.12480661701, 6747103.230599168], [24101.764705882353, 6747051.470588235], [24129.50874263101, 6746996.710022673], [24245.0, 6746960.0], [24219.712328767124, 6746893.488584475], [24332.75258953815, 6746835.060709435], [24297.5, 6746804.53125], [24401.26678807193, 6746525.180969724], [24498.0, 6746539.0], [24670.675975880673, 6746474.222469058], [24700.67655154044, 6746423.864359914], [24757.09497206704, 6746434.031657356], [24807.14285714286, 6746365.476190476], [24886.291311640387, 6746369.800536732], [24972.726371790675, 6746302.9339936795], [24969.51138868479, 6746272.4761205], [25111.36977639517, 6746134.421713483], [25130.998735611243, 6746007.37120991], [25278.172757475084, 6745886.827242525], [25301.114034195314, 6745902.900195838], [25510.0, 6745695.0], [25586.86075949367, 6745710.52742616], [25579.238368103517, 6745823.178776078], [25633.995653955713, 6745868.407170973], [25708.71344593683, 6745793.713445937], [25883.551163110285, 6746024.6522830445], [26075.846027012798, 6745811.902597038], [26122.35294117647, 6745655.294117647], [26155.0, 6745646.666666667], [26152.81586509705, 6745703.211492487], [26563.713463131637, 6746034.361021], [26653.512372469868, 6745904.367754651], [26740.236316750885, 6745876.810637335], [26913.333333333332, 6745695.0], [26906.17004621601, 6745653.739466204], [27010.42681054109, 6745554.200187697], [27024.433003075806, 6745442.759760203], [27098.073093220337, 6745390.952330508], [27174.49955423459, 6745268.663437274], [26918.884230566695, 6745083.884230567], [26936.00838497995, 6745029.00838498], [26825.0, 6744950.0], [26833.811475409835, 6744889.487704918], [26755.4759603769, 6744833.150519449], [26830.0, 6744745.0], [26743.181818181816, 6744675.454545454], [26783.32761509372, 6744596.60083176], [26682.25, 6744497.25], [26790.0, 6744405.0], [26826.666666666668, 6744428.333333333], [26841.05906020936, 6744372.712646596], [27068.07612247562, 6744175.332631207], [27356.69446609509, 6743755.572876072], [27352.80781961607, 6743599.870499093], [27435.149014601127, 6743486.192454595], [27413.83770270652, 6743405.67437837], [27548.294586306904, 6743404.973939416], [27608.752727883162, 6743576.623300319], [27798.2945550153, 6743679.862379075], [27919.239505213838, 6743864.676463809], [28063.47404799069, 6743666.633371712], [28060.167849497673, 6743591.912140823], [28215.0, 6743490.0], [28195.0, 6743470.0], [28294.773719730052, 6743183.977768956], [28338.333333333336, 6743160.0], [28341.493844909695, 6743112.462934676], [28445.0, 6742990.0], [28433.505225171186, 6742975.139030343], [28787.39362672559, 6742651.020656383], [28769.516129032258, 6742568.70967742], [28686.29590766002, 6742522.681007345], [28712.388259595864, 6742465.80953377], [28645.0, 6742457.953216374], [28681.77554055545, 6742347.921178215], [28630.108783239324, 6742278.785925329], [28734.706767684947, 6742081.711337448], [28668.571428571428, 6741942.142857143], [28641.697107203632, 6741989.689733409], [28539.677419354837, 6741951.451612903], [28555.0, 6741910.0], [28448.230088495577, 6741867.389380531], [28316.378943985488, 6741763.159869384], [28271.9912262946, 6741661.995350697], [28202.6, 6741586.8], [28219.824214373755, 6741476.961651386], [28275.449101796406, 6741448.053892216], [28340.0, 6741495.0], [28403.28947368421, 6741431.97368421], [28409.17302699505, 6741304.492176261], [28451.22699386503, 6741267.45398773], [28663.22419834841, 6741339.444223649], [28616.208053691276, 6741417.955601445], [28653.27262856579, 6741485.657223702], [28791.654037948912, 6741500.114686549], [28897.449544750634, 6741547.834977818], [29145.0, 6741620.0], [29128.354142504162, 6741659.979123594], [29197.272727272728, 6741713.181818182], [29368.33669913799, 6741725.820928066], [29426.04445975413, 6741772.351514416], [29480.165975103737, 6741701.73582296], [29590.0, 6741765.0], [29690.481283422458, 6741735.855614973], [29708.0, 6741767.0], [29786.84856396867, 6741702.535485403], [29785.80623741086, 6741667.2743863305], [29885.0, 6741550.0], [29836.18039346449, 6741513.385295099], [29900.075233891737, 6741429.586032135], [29909.05431219386, 6741235.823121116], [29771.1930950788, 6741140.2099380465], [29808.884655712853, 6741039.122964004], [29790.62673988725, 6740957.77877829], [29705.21623547816, 6740928.164654973], [29799.137931034482, 6740836.8965517245], [29736.91670015962, 6740797.122908995], [29646.612455770246, 6740511.310129133], [29689.0, 6740474.0], [29645.0, 6740430.0], [29725.0, 6740260.0], [29704.949356831763, 6740234.787805125], [29834.469915892656, 6740081.246586835], [29792.027597491564, 6739958.974325225], [29812.663738240946, 6739825.409109589], [29777.748701641198, 6739778.921718813], [29799.364035087718, 6739731.184210527], [29662.56067112174, 6739713.454460394], [29608.716682731436, 6739607.207160858], [29288.247751685914, 6739282.298005617], [29381.315789473687, 6739166.315789473], [29328.476649369903, 6739088.6879169755], [29355.0, 6739040.0], [29289.185366941227, 6738955.44563578], [29159.68601116598, 6738936.383589977], [28988.033472798616, 6738830.561401024], [29021.44262165509, 6738672.27852792], [28940.992192076912, 6738527.58912812], [28943.333333333336, 6738455.0], [28904.444444444445, 6738455.0], [28871.277929288273, 6738320.633624125], [28913.042446478816, 6738265.721756993], [28797.152317880795, 6738074.44812362], [28833.61000076493, 6738040.296092368], [28697.962188203226, 6737873.241101708], [28736.52220040129, 6737816.254613144], [28854.256603773585, 6737771.981132075], [28938.513575280387, 6737835.4356925115], [29035.666666666664, 6737732.0], [29015.0, 6737710.0], [29126.93548387097, 6737610.9677419355], [29006.467659296963, 6737525.725750642], [29035.0, 6737360.0], [28921.17886178862, 6737232.975609756], [28935.0, 6737150.0], [28742.00716295073, 6736936.144108495], [28634.57171018472, 6736882.960873353], [28566.666666666668, 6736945.0], [28590.116279069767, 6736876.976744186], [28525.0, 6736810.0], [28556.692051858532, 6736745.88345613], [28366.014284940167, 6736638.714934996], [28401.33249308043, 6736593.79943579], [28367.222222222223, 6736492.222222222], [28492.415763173223, 6736414.126843306], [28380.698911597246, 6736353.301446276], [28307.151898734177, 6736240.75949367], [28340.81268502126, 6736160.192604249], [28285.0, 6736100.0], [28311.5, 6736020.5], [28247.68203654745, 6735969.736982287], [28188.125, 6736076.875], [28138.57456318228, 6736000.726601123], [28175.842625471654, 6735808.3147490565], [28069.692380344888, 6735637.869223005], [28158.80349592309, 6735295.27823028], [28181.09273493655, 6734980.957124988], [28000.0, 6734895.0], [28013.840579710144, 6734822.463768116], [27959.087318999562, 6734766.825362001], [27968.78417812742, 6734747.431643745], [28228.39361774882, 6734885.742126961], [28257.455256663725, 6734857.842953603], [28385.921192758255, 6734915.07454739], [28445.0, 6734885.0], [28663.962271362445, 6735030.029865597], [28771.129509143826, 6734949.38342734], [28899.625681914094, 6735231.433526965], [28963.501826868505, 6735273.0393748935], [29119.556134472994, 6735484.042172723], [29401.819595645415, 6735383.786936237], [29433.005514921602, 6735452.201873917], [29584.58463393671, 6735570.88626746], [29731.734684427403, 6735603.61299761], [29811.875, 6735553.125], [29850.609842156788, 6735651.031581103], [29904.339306460508, 6735675.427559548], [30025.0, 6735510.0], [29986.80785044971, 6735484.301629799], [30167.5, 6735316.666666667], [30210.0, 6735345.0], [30302.998891621035, 6735165.803650272], [30467.939065424725, 6735133.742032263], [30714.798613184852, 6735244.97816203], [30740.129809794806, 6735176.440786548], [30881.020344249504, 6735046.5430116085], [30778.32850061205, 6734856.006059712], [30804.6, 6734830.8], [30715.297397769515, 6734730.33457249], [30782.848442340288, 6734630.803027647], [30943.522046842878, 6734647.287697302], [31150.0, 6734415.0], [31273.04949441192, 6734425.053219798], [31310.0, 6734385.0], [31498.872463768115, 6734371.739028731], [31600.16018227727, 6734249.499933857], [31361.895088711753, 6734041.628953459], [31321.739130434784, 6734045.0], [31291.67022792023, 6733983.568376068], [31455.084684627604, 6733887.809200665], [31577.445944527906, 6733973.081493022], [31691.761194029852, 6733874.552238806], [31765.0, 6733930.0], [31759.40159063205, 6733974.579076179], [31881.961474931653, 6734187.747265037], [31948.51106542847, 6734174.617072378], [32075.29411764706, 6734034.411764706], [32170.0, 6734015.0], [32196.0, 6733965.0], [32443.856670341786, 6734052.078280044], [32506.599713055955, 6734004.545671928], [32575.0, 6734058.333333333], [32643.64471669219, 6734004.249617152], [32687.30584300464, 6734058.68108376], [32743.138498626453, 6734051.275095073], [32915.454545454544, 6734295.0], [33094.56066945607, 6734243.912133891], [33249.32634730539, 6734274.865269461], [33423.51695510648, 6734493.138966007], [33415.6679462572, 6734542.729366602], [33464.09090909091, 6734547.2727272725], [33494.73491225015, 6734626.745999497], [33720.0, 6734585.0], [33781.57427457774, 6734679.142485925], [33745.135038725006, 6734720.675556389], [33825.0, 6734830.0], [33700.0, 6734905.0], [33767.278240420084, 6735031.120435546], [33843.09875152324, 6735114.250089504], [33771.27906976744, 6735313.2558139535], [34033.31318676808, 6735338.693437231], [34376.02479000161, 6735676.962785726], [34294.62334173429, 6735759.479325338], [34332.77777777778, 6735812.222222222], [34305.0, 6735840.0], [34413.55721393035, 6736034.577114427], [34404.62656611118, 6736089.4368081745], [34675.0, 6736235.384615385], [34723.915867582036, 6736329.92397979], [34865.57894736842, 6736365.0], [35001.86010849209, 6736469.084179639], [34968.24818292851, 6736649.016429907], [35172.093122524224, 6736923.41367804], [35301.25, 6737046.40625], [35257.62295081967, 6737106.393442623], [35320.84063412599, 6737187.492699208], [35279.733181650874, 6737213.30747119], [35345.807190187465, 6737267.237233654], [35307.324598478444, 6737306.745562131], [35399.0, 6737415.0], [35355.0, 6737460.0], [35409.0, 6737500.5], [35381.666666666664, 6737546.666666667], [35464.42477954195, 6737635.389656965], [35438.951298711385, 6737764.830844149], [35385.945482888004, 6737859.054517112], [35390.352329932226, 6737961.513280309], [35193.36956724706, 6738020.546241533], [35110.0, 6738175.0], [35021.717377402165, 6738161.903313322], [34981.644496470646, 6738204.001239416], [34913.792635771955, 6738196.181068714], [34683.0, 6738274.0], [34614.01177087224, 6738226.166422147], [34439.54126798992, 6738274.126341465], [34465.0, 6738460.0], [34655.635148247835, 6738629.309845274], [34776.470588235294, 6738561.470588235], [34811.21419185283, 6738660.610162067], [34756.42857142857, 6738678.571428572], [34854.31573013586, 6738814.668960605], [34986.11884568114, 6738796.986725208], [35120.25893400937, 6738991.766011894], [35057.62295081967, 6739089.836065574], [35074.85406805153, 6739189.953744064], [35197.509018124474, 6739360.072144995], [35245.57771766173, 6739580.669267806], [35303.125924708205, 6739713.671007848], [35292.408693022895, 6739885.92264704], [35327.56477483878, 6739959.120287685], [35305.0, 6740020.0], [35409.13974971596, 6740070.294184887], [35557.59907593198, 6740227.105510793], [35494.86257292955, 6740247.4241918465], [35554.2680108512, 6740345.533501357], [35642.70470942624, 6740365.614137417], [35669.4101116429, 6740637.230933713], [35590.97580669743, 6740705.151342816], [35701.99935290922, 6740971.855042168], [35528.333333333336, 6741043.333333333], [35475.0, 6741100.0], [35527.07317073171, 6741176.463414635], [35704.80923251089, 6741141.292962333], [35925.0, 6741384.736842105], [35973.60887863663, 6741622.717565795], [35933.15699658703, 6741701.740614334], [36107.67722582405, 6741820.472680159], [36307.69688528741, 6741589.453026082], [36298.33333333333, 6741566.666666667], [36432.943582464235, 6741544.858302282], [36430.55910543131, 6741590.511182109], [36525.45618624049, 6741664.746930208], [36487.726055843465, 6741782.027669512], [36568.73938969936, 6741778.735995828], [36678.648247177654, 6741880.766488413], [36706.164448399555, 6741980.764146892], [36561.57142857143, 6742136.571428572], [36609.84588867484, 6742184.845888675], [36548.76054510058, 6742251.768332251], [36574.61826265181, 6742394.858177748], [36495.60860757568, 6742457.438543739], [36551.53846153846, 6742551.153846154], [36506.739130434784, 6742566.0869565215], [36533.333333333336, 6742608.333333333], [36586.96571847864, 6742586.3634406235], [36637.1429010858, 6742671.795506977], [36607.99450028447, 6742708.687654087], [36696.35478313457, 6742801.421846052], [36674.943762280454, 6742923.172525525], [36435.0, 6743160.0], [36414.84918444851, 6743321.281112538], [36495.0, 6743446.0], [36460.51401869159, 6743489.6822429905], [36502.65042679937, 6743603.777343693], [36633.72362869198, 6743652.848101266], [36669.444444444445, 6743635.0], [36769.392465616904, 6743722.848515049], [36801.76800221749, 6743717.601184156], [37026.45562734764, 6743938.544372653], [37050.0, 6743915.0], [37397.25236746164, 6744258.543505988], [37656.66666666667, 6744151.666666667], [37685.38461538462, 6744180.384615385], [37720.380183497575, 6744042.03874004], [37869.403684878576, 6743835.825160292], [37957.0, 6743832.0], [37847.30828982847, 6744179.2562240595], [37783.43356995194, 6744602.026563962], [37706.37721385145, 6744898.403383558], [37695.0, 6745050.0], [37755.552238805976, 6745128.462686568], [37780.0, 6745085.0], [37851.78217821782, 6745156.782178218], [37876.07142857143, 6745253.214285715], [37940.42653355056, 6745283.420130338], [37954.03504067006, 6745466.983770817], [38143.395348837206, 6745652.9069767445], [38260.0, 6745635.0], [38314.84573947111, 6745731.642997062], [38375.0, 6745706.666666667], [38372.93514993369, 6745809.271933952], [38456.6049382716, 6745907.037037037], [38721.874985326875, 6745648.555508043], [38806.11111111111, 6745753.333333333], [38880.477744135045, 6745708.713353519], [38997.919358431725, 6745780.537981733], [39116.66666666667, 6745775.0], [39242.742111281215, 6745870.860660824], [39234.19343013178, 6746052.784958969], [39285.0, 6746110.0], [39237.631578947374, 6746156.842105263], [39214.42430103179, 6746254.754476826], [38861.71963722177, 6746726.61947834], [38869.12587412588, 6746794.125874126], [38659.39717556588, 6746980.57936845], [38675.0, 6747030.0], [38469.21179478962, 6747233.744364116], [38471.0, 6747314.0], [38277.5, 6747532.5], [38269.952568833076, 6747627.089479182], [38446.3396787917, 6747634.501107035], [38415.0, 6747670.0], [38467.20341185559, 6747792.778070562], [38541.34649540346, 6747785.35074383], [38673.30878356382, 6747834.604866517], [38840.46511627907, 6748083.837209302], [38863.50487970431, 6748022.739781987], [38983.0, 6748144.0], [39063.678134493064, 6748086.735248355], [39151.12333707264, 6748137.105241498], [39115.0, 6748230.0], [39177.90060851927, 6748316.957403651], [39272.71217299088, 6748238.847378645], [39409.076161234676, 6748259.227222434], [39512.857142857145, 6748357.857142857], [39546.984850044275, 6748303.971289404], [39570.14979079498, 6748344.850209205], [39555.67567567568, 6748561.182432433], [39636.73951868907, 6748761.40369226], [39535.0, 6748870.0], [39564.89690721649, 6748919.69072165], [39520.71428571429, 6748965.714285715], [39596.811594202896, 6749041.811594203], [39554.298063454175, 6749224.585765597], [39562.510563026386, 6749517.510563026], [39595.0, 6749550.0], [39510.97231063017, 6749692.127625716], [39540.562913907284, 6749743.509933775], [39484.43208657158, 6749808.995899], [39372.91424974148, 6749863.974785274], [39360.498806133604, 6749992.549106445], [39529.11346993729, 6750205.886530063], [39461.39215686274, 6750273.607843137], [39361.90508740698, 6750596.040628558], [39487.11967731498, 6750670.969874706], [39576.880072137064, 6750544.795611662], [39712.86121060219, 6750582.692706533], [39795.72549466866, 6750484.334080597], [39885.0, 6750510.0], [39939.63258010527, 6750642.5273169475], [39980.0, 6750605.0], [40117.83943884953, 6750702.54791057], [40227.32077887223, 6750646.415805019], [40362.02485919418, 6750748.967730986], [40616.517249997996, 6750835.3081778], [40681.131568601755, 6750896.447385664], [40655.0, 6750940.0], [40720.10138740661, 6751019.701173959], [40885.555555555555, 6751055.0], [40980.86499889663, 6751129.589727378], [41123.52127058418, 6751005.126331416], [41413.61693345253, 6751029.548027488], [41506.90027978549, 6750997.471094097], [41590.0, 6751035.0], [41705.240067518986, 6751019.099121628], [41719.49056603774, 6750965.622641509], [41799.282377301075, 6750982.387538874], [41984.46857054487, 6750716.555046531], [42127.64150943396, 6750922.641509434], [42078.05987462362, 6750976.841403821], [42205.0, 6751140.0], [42205.0, 6751177.142857143], [42311.22093023256, 6751193.779069767], [42351.81818181818, 6751153.181818182], [42457.14465395108, 6751247.107002651], [42626.101694915254, 6751211.101694915], [42732.05183126668, 6751286.928275821], [42719.02085254093, 6751366.71454166], [42933.75, 6751573.75], [42980.0, 6751565.0], [43145.38461538462, 6751730.384615385], [43273.8538371232, 6751648.845570661], [43573.96665992505, 6751939.2429078445], [43655.2808988764, 6751916.011235955], [43630.19739401611, 6752238.173293018], [43503.32558139535, 6752461.131782946], [43610.0, 6752535.0], [43681.53846153846, 6752476.538461538], [43718.3495145631, 6752501.990291262], [43868.15766587747, 6752419.871539409], [44107.76960485673, 6752645.745336242], [44328.2895656124, 6752987.47844187], [44563.47826086957, 6752823.695652174], [44620.0, 6752835.0], [44870.55163479278, 6752660.690432415], [44829.85203543282, 6752563.14619174], [45021.79515901416, 6752387.636752097], [45127.377204267206, 6752361.878951071], [45267.407045009786, 6752154.735812133], [45311.40632976816, 6751978.134144463], [45512.52838970572, 6751761.505677941], [45581.027011932805, 6751794.409364386], [45767.98480247973, 6751558.944801824], [46018.80355586554, 6751438.526276148], [46007.97039956012, 6751319.220943347], [46169.17435703255, 6751245.353517498], [46277.668222691565, 6751230.113518917], [46420.607476635516, 6751105.794392523], [46442.202561650105, 6751156.008649727], [46631.726332143844, 6751268.692178096], [46732.312584547246, 6751258.176241407], [46777.11017466533, 6751313.833853372], [46891.05201365004, 6751194.267376767], [47083.249731362754, 6751135.292810932], [47294.42721171801, 6750921.361119542], [47449.598708387595, 6750918.936537818], [47563.16607762307, 6750991.844177303], [47619.6660414713, 6750902.632072522], [47688.65731462926, 6750949.388777555], [47901.91080272732, 6750941.750924298], [47965.0, 6751100.666666667], [48044.187643020596, 6751114.157894737], [48117.99817091708, 6751227.05587264], [48181.66666666667, 6751223.333333333], [48231.015776569664, 6751080.424901396], [48280.0, 6751125.0], [48344.80335267569, 6751094.084461638], [48350.23203638421, 6751050.897991312], [48440.0, 6751015.0], [48477.80487804878, 6751064.756097561], [48646.487558354806, 6750930.466447121], [48895.31532490594, 6750918.672463788], [48945.451372037, 6750959.938658996], [49219.004015247876, 6751007.3405754], [49403.81179720434, 6750941.852683229], [49486.444444444445, 6750988.555555556], [49658.313833293, 6750777.479670328], [49773.148148148146, 6750823.703703703], [49795.0, 6750780.0], [49735.0, 6750750.0], [49748.33333333333, 6750680.34334943], [49678.88759454888, 6750574.386429643], [49701.12405406416, 6750540.239322679], [49591.87566209876, 6750437.758119464], [49598.26542134909, 6750354.57674349], [49673.481396927884, 6750375.991174184], [49997.96539265769, 6750046.27244654], [50180.86775947672, 6750102.364794144], [50307.836021386145, 6749986.966781522], [50308.01750478358, 6750011.091160111], [50550.348319326105, 6750082.774995571], [50712.43837989461, 6750280.364133101], [50849.17446060256, 6750277.802858599], [50956.334004466975, 6750348.8558305055], [51079.32343008397, 6750358.075255568], [51204.79797979798, 6750240.808080808], [51274.46340798746, 6750035.637717543], [51486.43173701217, 6749923.965575886], [51806.896092998926, 6749935.564550086], [52048.78106855933, 6749690.074381846], [52115.0, 6749580.0], [52071.194992831144, 6749551.727142384], [52078.57142857143, 6749506.428571428], [52161.08842811281, 6749550.335075296], [52280.0, 6749365.0], [52320.0, 6749405.0], [52428.89284063974, 6749326.625694017], [52596.875, 6749258.125], [52645.0, 6749290.0], [52645.0, 6749370.0], [52615.0, 6749380.0], [52658.357142857145, 6749425.642857143], [52661.59510649949, 6749521.885321808], [53006.383983659405, 6749437.111833236], [53118.27721661055, 6749531.874298541], [53167.10843373494, 6749506.927710843], [53299.9349917026, 6749569.876777374], [53431.30539499037, 6749518.010597303], [53570.0, 6749585.0], [53628.13620647133, 6749559.2268702015], [53681.28032380596, 6749646.193653609], [53748.57142857143, 6749586.428571428], [53807.22432485635, 6749616.343128355], [53850.0, 6749455.0], [53932.52747252747, 6749473.131868131], [53974.66954979626, 6749441.983376238], [53966.45780692737, 6749268.947045882], [54049.29858429859, 6749169.094809094], [54035.0, 6749116.666666667], [54113.0551312265, 6749167.217040561], [54133.55895705007, 6749133.75025557], [54218.57142857143, 6749163.571428572], [54257.894389438945, 6749136.452145214], [54440.232448610244, 6749365.250627549], [54385.0, 6749470.0], [54423.81426446684, 6749482.88109721], [54687.498805942676, 6749357.153520135], [54712.10526315789, 6749406.052631579], [54864.6966537664, 6749427.043042859], [54922.711933508785, 6749495.18176461], [54989.96195952935, 6749504.833393888], [55226.36609602187, 6749725.24228735], [55217.22222222222, 6749853.333333333], [55275.0, 6749950.0], [55212.64705882353, 6749981.176470588], [55227.028396478214, 6750009.207891441], [55396.74790555979, 6750021.054836253], [55385.716723549485, 6750077.5085324235], [55483.01628584529, 6750171.56413947], [55542.06896551724, 6750297.75862069], [55590.0, 6750265.0], [55648.0, 6750315.0], [55726.50970673275, 6750318.800082611], [55802.01577811153, 6750266.71066872], [55851.44776350593, 6750383.409588973], [56146.58601041445, 6750656.864120186], [56302.86358349644, 6750674.85506448], [56481.111247879075, 6750626.726373663], [56569.09018258656, 6750551.97563503], [56708.28272307919, 6750694.751291001], [56826.37052967599, 6750670.226647507], [56942.98127343655, 6750741.682400246], [57026.41906096706, 6750658.608969867], [57179.89187274735, 6750750.054063627], [57215.82005623243, 6750732.089971884], [57703.39870026974, 6751132.776238109], [57765.0, 6751303.333333333], [57919.104654372306, 6751255.811413212], [58014.68342502391, 6751159.351537491], [58130.12013258682, 6751203.859069577], [58095.6936416185, 6751409.248554913], [58273.92800488874, 6751468.63685182], [58278.556958570814, 6751517.70376085], [58405.645161290326, 6751467.903225807], [58548.496390080574, 6751512.23448781], [58760.0, 6751505.0], [58835.0, 6751569.333333333], [58885.92250922509, 6751800.922509225], [58970.0, 6751885.0], [59041.89835575486, 6751851.0388639765], [59027.22222222222, 6751917.777777778], [59234.335018331425, 6752293.170590566], [59383.883489121836, 6752218.975289278], [59450.90909090909, 6752238.636363637], [59489.800527757165, 6752186.914762055], [59422.76714062671, 6751921.881145399], [59374.62441314554, 6751868.779342723], [59287.18524640647, 6751635.237365847], [59343.33333333333, 6751541.666666667], [59297.67515923567, 6751444.394904459], [59405.0, 6751400.0], [59534.637468390836, 6751235.579870807], [59644.4073526905, 6751215.997689263], [59819.99521254468, 6751090.208020056], [59872.66922860621, 6750886.520178519], [60059.0, 6750734.0], [60095.0, 6750630.0], [59955.0, 6750460.0], [60106.02753503295, 6750266.085569829], [60112.26538374113, 6750137.371649917], [60192.465405384726, 6749891.743089418], [60336.723984848584, 6749718.361992424], [60450.8696296707, 6749759.314012685], [60655.104057906145, 6750046.296465577], [60958.79746835443, 6749856.835443038], [60927.25894845008, 6749810.532882343], [61192.88155219942, 6749641.844479047], [61209.26291695493, 6749536.78248747], [61381.47889383213, 6749391.97468971], [61452.17391304348, 6749440.217391305], [61586.204081632655, 6749361.204081632], [61618.02274518288, 6749430.634582519], [61682.97063940377, 6749412.425417213], [61716.02731010164, 6749334.379423955], [61846.136615511954, 6749373.191218135], [61826.869353717855, 6749442.585128562], [61897.751171750846, 6749607.7841571355], [61961.879832729624, 6749662.187120396], [62081.228070175435, 6749636.754385965], [62113.333333333336, 6749668.333333333], [62171.40886295159, 6749630.3399962], [62283.89722278582, 6749633.871906054], [62301.98709304565, 6749718.449239068], [62265.0, 6749800.0], [62295.395763656634, 6749827.898550725], [62420.0, 6749735.0], [62509.99999999999, 6749745.0], [62585.90478778782, 6749686.061868356], [62777.12226262242, 6749837.784649135], [62853.2353650609, 6749786.644561966], [62997.118359722626, 6749823.255940143], [63065.71428571428, 6749792.142857143], [63145.472787622486, 6749840.638709284], [63531.53831815137, 6749563.377055076], [63607.165249223865, 6749467.834750776], [63691.96174972618, 6749571.974331715], [63864.01691098612, 6749636.611872839], [63911.863905325445, 6749469.112426035], [63891.16725620252, 6749432.33152388], [64049.01862403901, 6749383.983262938], [64054.41835415769, 6749276.454114606], [64136.849511708795, 6749232.722618682], [64142.08791208791, 6749092.362637362], [64180.0, 6749105.0], [64272.9420363211, 6749025.241253523], [64245.0, 6748971.6187765775], [64396.032678048075, 6748808.361690446], [64401.59175244225, 6748623.4082475575], [64365.86114105905, 6748425.785510116], [64433.41463414634, 6748351.8292682925], [64348.48938486663, 6748262.550353838], [64296.59657339201, 6748270.462097856], [64226.02329184252, 6748176.364389123], [64393.51851851852, 6748168.592592592], [64495.0, 6748120.0], [64486.25654450261, 6748022.565445026], [64540.5112883782, 6747986.753860296], [64725.0, 6748030.0], [64722.79553030526, 6748067.475984811], [64956.035579575524, 6748397.995552553], [65042.628923576995, 6748401.835534638], [65063.712552108496, 6748491.823529658], [65214.896616754086, 6748704.972754769], [65174.60872567589, 6748827.134679875], [65322.26486613319, 6748935.993382219], [65407.0157020234, 6749073.392687343], [65648.16156720585, 6749034.305070729], [66091.61864028519, 6749412.815656231], [66247.5729638686, 6749299.466710887], [66367.3439810473, 6749475.7071559215], [66379.60499272755, 6749580.594450655], [66471.30207406386, 6749673.535171867], [66561.38363956688, 6749854.515561678], [66136.92492347694, 6750221.504890592], [65957.17448760784, 6750278.444372413], [66018.70697263902, 6750381.31165655], [65976.90476190476, 6750458.571428572], [65975.0, 6750660.0], [65856.19496855346, 6750778.805031447], [65865.0, 6750860.857142857], [66040.0, 6751005.0], [66155.30503978778, 6750997.8116710875], [66329.71433036099, 6751093.154761436], [66273.2292637465, 6751192.031686859], [66295.0, 6751290.0], [66522.41826261772, 6751511.643741403], [66486.01799149135, 6751562.5652104905], [66581.08695652173, 6751668.695652174], [66539.78917230609, 6751723.629497215], [66645.5044193836, 6751923.306297549], [66518.18746491254, 6752004.436132436], [66487.22222222222, 6752107.777777778], [66547.23515832215, 6752208.394168113], [66699.045751634, 6752333.980392157], [66842.52993805919, 6752287.529938059], [66869.45396259261, 6752314.453962592], [67075.038647343, 6752292.487922706], [67151.42857142858, 6752246.428571428], [67224.1902479035, 6752431.684414464], [67307.52988702495, 6752531.6169570265], [67397.39088255889, 6752483.934442281], [67562.25309763566, 6752670.978608498], [67730.0, 6752705.0], [67777.5, 6752672.5], [67857.7128132985, 6752749.191811891], [67813.0, 6752802.0], [67852.02127659574, 6752860.531914894], [67796.63472837111, 6752875.813382992], [67815.0, 6753044.117647059], [67785.0, 6753085.882352941], [67870.0, 6753185.0], [67937.77777777778, 6753072.777777778], [67951.81818181818, 6753086.818181818], [68020.08143650257, 6753006.912944525], [68157.56138862626, 6753003.049110901], [68198.69266923431, 6752957.186994588], [68173.49223759703, 6752857.169254134], [68233.91937104627, 6752785.305810808], [68470.47568883537, 6752779.400111965], [68670.69742543327, 6752633.239059716], [68806.26262626263, 6752661.363636363], [68910.0, 6752575.0], [69020.0, 6752685.0], [69130.0, 6752725.0], [69160.0, 6752695.0], [69198.28181583104, 6752845.595661176], [69386.1200107664, 6753022.637839924], [69156.81360206226, 6753075.061721156], [69276.42857142858, 6753192.142857143], [69202.38373112476, 6753249.828953658], [69289.69010980625, 6753342.626114996], [69249.5869205182, 6753419.109436608], [69424.01820763215, 6753569.155460904], [69380.0, 6753735.0], [69321.97862579784, 6753757.598874486], [69275.38100926449, 6753947.394802352], [69344.42370722389, 6753932.310661323], [69383.38441178933, 6754103.788308842], [69422.14285714286, 6754132.857142857], [69421.37135402439, 6754325.361933526], [69504.60141271443, 6754347.270433906], [69522.85819902411, 6754395.955197398], [69630.77904908083, 6754477.644680678], [69704.5595218249, 6754754.43661371], [69743.33209225102, 6754748.5896025915], [69774.64377663906, 6754957.360580882], [69844.58199851922, 6754977.446248167], [69916.35135135136, 6755239.459459459], [69988.82837160413, 6755299.856976337], [69873.24401513755, 6755454.551259337], [69951.65071035596, 6755585.180588881], [69850.0, 6755595.0], [69847.31783496731, 6755664.73629085], [69788.83580225105, 6755669.228852268], [69729.47689625109, 6755735.008718396], [69810.0, 6755785.0], [69820.0, 6755855.0], [69858.88059701493, 6755819.850746268], [69946.04672521751, 6755950.937455347], [70023.46153846153, 6756003.144868018], [69915.0, 6756190.0], [69977.57777777777, 6756276.044444445], [69940.0, 6756365.0], [69895.0, 6756356.666666667], [69908.49397007289, 6756439.748442151], [69727.14285714286, 6756402.142857143], [69650.75451647185, 6756343.7070492385], [69621.21621621621, 6756394.324324325], [69661.40365836484, 6756471.400770212], [69600.0, 6756545.0], [69541.3895859473, 6756533.2779171895], [69525.98370290335, 6756617.423409606], [69461.17342130066, 6756676.804901036], [69500.5840292324, 6756812.703549077], [69418.2585181179, 6756820.451595457], [69361.46642416698, 6756945.31973664], [69290.0, 6756925.0], [69238.15985824232, 6757086.021953873], [69205.74696545285, 6757109.477124183], [69232.64705882352, 6757157.647058823], [69110.46583850932, 6757310.52795031], [69157.65572288637, 6757402.161728283], [69115.87318233895, 6757471.351370406], [69186.67209776567, 6757533.551778157], [69093.7640936687, 6757584.8785776235], [69025.47743121287, 6757547.961226187], [68949.28571428571, 6757616.571428572], [68988.33333333333, 6757640.0], [68930.60220061943, 6757910.46222562], [68994.0, 6757982.0], [68932.64705882354, 6758133.529411765], [68962.2977567482, 6758193.053311495], [68709.20869907746, 6758458.574916183], [68229.36169278085, 6759059.114663259], [68112.90439132851, 6759092.406892718], [68060.0, 6759035.0], [67885.01885775862, 6759124.463900862], [67925.30858520759, 6759228.09497154], [68114.23456790124, 6759346.49382716], [68085.0, 6759390.0], [68137.49184448743, 6759526.977164565], [68059.26539181717, 6759621.873011514], [68083.74835004236, 6759682.402790963], [67963.55222489836, 6759855.667823922], [68050.0, 6759935.0], [68133.89830508475, 6759851.101694915], [68172.77777777778, 6759877.777777778], [68101.46181216976, 6760036.906227929], [68299.57328957133, 6760190.47590759], [68275.0, 6760260.0], [68311.0, 6760296.0], [68415.0, 6760300.0], [68349.64222714273, 6760424.341811975], [68484.1942844046, 6760554.1536503825], [68470.51257253384, 6760628.915538362], [68534.0099009901, 6760729.00990099], [68484.58755634123, 6760799.477886227], [68533.33333333334, 6760925.0], [68575.0, 6760950.0], [68548.28100470957, 6760990.1569858715], [68613.23720062303, 6761037.684981592], [68669.06839102122, 6761145.306119331], [68532.43959327009, 6761352.56040673], [68589.11700975081, 6761502.589382448], [68519.5174560964, 6761623.736665881], [68559.6732389887, 6761712.965495309], [68549.54237288135, 6761872.745762712], [68438.95315794513, 6761914.026818256], [68379.46927374302, 6762016.480446927], [68459.0946197365, 6762131.9371986175], [68646.86306266158, 6762160.543350257], [68671.5599440585, 6762263.196070294], [68783.40909090909, 6762371.590909091], [68637.5, 6762407.5], [68587.7986348123, 6762393.583617748], [68585.0, 6762510.0], [68636.8418314256, 6762613.194588969], [68541.35540874599, 6762680.362043369], [68588.9004403651, 6762740.14992657], [68493.77551020408, 6762927.006802721], [68506.34718044408, 6762990.791014823], [68211.3928531908, 6763029.087547863], [68133.71079573155, 6763067.341964141], [68151.42512077294, 6763103.8647342995], [67957.65670436242, 6763132.838876167], [67877.96883513356, 6763287.472863317], [67778.8896373841, 6763361.849973441], [67905.76195037452, 6763481.787964094], [68019.77739995037, 6763755.25751431], [67915.81619497418, 6763784.905109533], [67912.69230769231, 6764036.923076923], [67945.0, 6764070.0], [67919.40341173227, 6764193.335601875], [68054.31005861312, 6764381.49366127], [68185.88182632052, 6764476.566696509], [68220.69128743085, 6764604.201387246], [68480.3259152099, 6764942.06676311], [68465.0, 6765080.0], [68522.01570680628, 6765150.837696335], [68555.17831938724, 6765375.878571306], [68636.10535574661, 6765476.83332057], [68663.41326036537, 6765653.938654596], [68508.333458181, 6765802.6751169255], [68330.68009514958, 6765670.641240402], [68073.92333660371, 6765732.376078274], [68038.91705472497, 6765715.429256679], [67914.51450756026, 6765779.51450756], [67877.8947368421, 6765742.894736842], [67591.00376342455, 6766114.413574301], [67798.19613701495, 6766299.143347638], [67895.0, 6766480.0], [67857.22222222222, 6766532.222222222], [67895.7500738677, 6766649.501498459], [67729.11795695644, 6766868.959541796], [67753.09675391622, 6767020.873645617], [67950.0, 6767185.0], [67978.92857142858, 6767175.357142857], [68037.50538759946, 6767253.335197505], [67914.4287776174, 6767439.857333185], [67896.58385093167, 6767423.385093167], [67755.097823863, 6767549.364920816], [67527.2046530481, 6767427.429383888], [67490.0, 6767455.0], [67335.18257845491, 6767399.744555768], [67168.96226415093, 6767568.301886792], [67104.58243650451, 6767706.97804563], [67155.0, 6767770.0], [67099.85616854616, 6767787.599095145], [67092.43815104166, 6767865.609537761], [67210.0, 6767895.0], [67240.272, 6767864.728], [67294.84126984127, 6767909.365079365], [67303.4335375742, 6767969.108190945], [67386.6487910352, 6768036.632707754], [67508.42674652066, 6768245.0], [67547.31859479586, 6768245.0], [67553.37903843718, 6768414.265737405], [67728.9120566654, 6768443.097313065], [67723.23529411765, 6768498.823529412], [67825.40769440442, 6768555.8042911105], [67786.0, 6768632.6], [67670.0, 6768695.0], [67610.0, 6768675.0], [67592.0, 6768707.0], [67581.01156310574, 6768657.390238765], [67417.45301216285, 6768542.218288795], [67284.9885545843, 6768504.947712913], [67272.35575560652, 6768403.726332599], [67148.18181818182, 6768375.0], [67115.0, 6768430.0], [67084.07102092581, 6768411.442612556], [66994.80392156863, 6768481.568627451], [66787.45153056816, 6768468.050362117], [66746.47649926743, 6768501.535333932], [66375.21494409288, 6768578.1280708285], [66531.68795520306, 6768696.109631501], [66492.5, 6768757.5], [66556.30307490609, 6768798.784342586], [66758.71553288653, 6769212.8570491895], [67345.77370593762, 6769941.333075834], [67538.08669846723, 6770126.843676755], [67372.80364099366, 6770295.854923495], [66963.96473049163, 6770026.506658652], [66832.3981974695, 6770106.525351145], [66513.97712633417, 6770438.861311388], [66396.66666666666, 6770405.0], [66436.32650001995, 6770529.994027486], [66218.00144811593, 6770728.082005894], [66082.8870580158, 6770781.313079299], [65960.38557836755, 6770768.395092639], [65900.0, 6770855.0], [65650.5633362756, 6770791.214162277], [65455.21557629664, 6770695.834513097], [65372.09689855844, 6770612.008349961], [65068.68479611061, 6770820.455544946], [65055.879690997404, 6770890.662344538], [64878.50441824821, 6770915.759900849], [64862.35294117647, 6770886.764705882], [64818.01781737194, 6770915.690423163], [64780.0, 6770865.0], [64684.6301369863, 6770898.780821918], [64660.0, 6770875.0], [64638.50842601309, 6770974.504003656], [64692.37898465171, 6771035.407319953], [64624.427143406385, 6771123.744713572], [64667.41379310345, 6771247.24137931], [64567.1417047038, 6771373.558659162], [64329.02191385118, 6771313.589189703], [64182.77284742203, 6771245.801569002], [63988.43648416289, 6771083.94865417], [63855.204081632655, 6771108.571428572], [63925.0, 6771190.0], [63895.0, 6771220.0], [63907.87671232877, 6771318.767123288], [63835.0, 6771350.0], [63835.0, 6771383.333333333], [63801.09121584848, 6771373.400457168], [63656.48148148148, 6771468.518518519], [63621.137307734825, 6771445.519295353], [63201.33681451666, 6771707.596132539], [63181.31226340878, 6771505.217150107], [62960.87073464472, 6771270.483569422], [62923.64406779661, 6771285.084745763], [62851.318870215335, 6771184.585229954], [62774.54158319403, 6771215.199940577], [62667.24137931034, 6771175.0], [62594.32635152007, 6771217.8522280725], [62411.07476635514, 6770948.130841121], [62346.43006596578, 6770944.816996495], [62333.018867924526, 6770860.094339622], [62236.65224293095, 6770883.784959216], [62238.169956356236, 6770795.691703036], [62304.23387096774, 6770740.63844086], [62239.41756790225, 6770594.417567902], [62115.61918420762, 6770560.340026174], [62115.090497737554, 6770534.43438914], [62224.192422330074, 6770521.085487019], [62245.0, 6770250.0], [62186.970579046974, 6770220.790559923], [62234.870357393134, 6770096.310441486], [62051.99385347057, 6769981.011478969], [62033.32626339486, 6769857.245663275], [61918.619237075705, 6769837.019437968], [61755.0, 6769722.435127189], [61749.674173821746, 6769670.395726026], [61660.0, 6769645.0], [61595.0, 6769710.0], [61540.0, 6769685.0], [61365.0, 6769860.0], [61324.764319969225, 6769965.689929721], [60952.44380342632, 6769989.788053611], [60873.47078796647, 6769935.3157911785], [60877.142857142855, 6769839.285714285], [60820.0, 6769725.0], [60709.541864409686, 6769743.371511299], [60563.05160152025, 6769614.84894607], [60344.86833583179, 6769642.39086656], [60224.46361451722, 6769612.785445807], [60149.22158242696, 6769624.221582427], [59873.09116701956, 6769539.430680718], [59602.460803381415, 6769402.303070991], [59548.584905660384, 6769206.7169811325], [59446.12558791296, 6769190.221202823], [59108.52112676056, 6769614.647887324], [59235.0, 6769810.0], [59223.199293080914, 6769908.994819155], [59324.98022632144, 6770217.630242666], [59396.37332920979, 6770325.781339098], [59200.38034298348, 6770509.220800295], [59235.0, 6770590.0], [59198.196041166884, 6770626.803958833], [59181.32118699542, 6770853.783547894], [59025.685661803924, 6770991.972581855], [58970.89814566927, 6770940.7230858775], [58860.218478465096, 6771160.030561296], [58839.09090909091, 6771325.0], [58800.0, 6771325.0], [58684.414414414416, 6771192.567567567], [58599.82952983228, 6771173.383282926], [58568.0, 6771211.0], [58520.0, 6771195.0], [58411.475036336546, 6771243.233317183], [58263.73832119023, 6771058.761342068], [58207.27272727273, 6771093.484848484], [58166.11381578048, 6771046.620048069], [58164.0052356021, 6770945.026178011], [58123.04347826087, 6770906.304347826], [57979.729729729734, 6770985.27027027], [57835.700875086, 6770897.422157039], [57807.81505159062, 6770941.212973978], [57636.15384615386, 6771048.076923077], [57544.47510347869, 6771159.13988725], [57528.588176304926, 6771269.915718076], [57464.0393239048, 6771302.971714384], [57360.0, 6771205.0], [57340.3251544269, 6771211.927762526], [57199.68433018493, 6771039.666022084], [57113.31154486892, 6771093.299088234], [56919.39365473773, 6770945.182721736], [56741.09395769153, 6770903.80126534], [56684.61538461538, 6770959.615384615], [56616.666666666664, 6770891.666666667], [56545.14140670695, 6770935.386576443], [56447.2850206234, 6770967.5113559235], [56326.15409625777, 6770857.911515874], [56200.86948708678, 6770834.130512914], [56170.0, 6770865.0], [56116.32792485056, 6770819.355251921], [56006.53806508614, 6770941.538065086], [55715.6333695713, 6770635.721183517], [55616.51944407567, 6770638.654676089], [55558.40909090909, 6770686.590909091], [55504.28571428572, 6770615.0], [55375.24690242647, 6770673.839464551], [55275.0, 6770550.0], [55305.093969999485, 6770319.427030427], [55173.906981486754, 6770146.807021018], [55244.78837665573, 6769922.326416398], [55239.90761190479, 6769770.55851246], [55285.61691904492, 6769611.408751585], [55327.19367251029, 6769604.966861331], [55468.3649222464, 6769323.196056051], [55450.72803263892, 6769042.925190247], [55558.843670737406, 6768958.572242363], [55782.25995268419, 6768662.594639794], [55605.65338895718, 6768518.129564953], [55691.51363479462, 6768233.486365206], [55808.429602888085, 6768011.985559567], [55794.49158065963, 6767886.9555282025], [55677.27272727273, 6767807.7272727275], [55658.01089842069, 6767819.2312465925], [55469.0, 6767626.0], [55382.16495899517, 6767429.131541815], [55495.0, 6767380.0], [55416.91776380795, 6767184.256828461], [55412.69375535391, 6767095.014068252], [55264.97701532893, 6766958.981227455], [55149.12671516108, 6766743.5955039], [54951.07678104503, 6766586.8503240375], [54833.88466100517, 6766168.800476557], [54920.0986627274, 6766133.368830013], [54906.04445667845, 6766066.151370581], [54788.77162629758, 6765957.266435986], [54691.666666666664, 6765786.666666667], [54713.10886784999, 6765690.495482538], [54648.60512146517, 6765607.504456079], [54627.62699747888, 6765487.150930723], [54556.10524087464, 6765402.682961855], [54595.0, 6765315.0], [54530.611548923356, 6765203.790427042], [54474.307352958094, 6765199.702839034], [54408.23677581864, 6765253.589420655], [54307.02577855147, 6765182.642566662], [54254.814734893356, 6764964.139060485], [53956.0147601476, 6764768.062730627], [53987.97201243892, 6764685.0], [54047.643727625866, 6764661.896774316], [54006.67335709303, 6764518.955483292], [53856.75977653632, 6764510.586592179], [53773.43206176575, 6764540.521865617], [53681.850664936, 6764453.806343732], [53617.79425909645, 6764177.392216668], [53558.75, 6764109.263686456], [53545.0, 6763930.0], [53599.97663551402, 6763860.929906542], [53445.0, 6763630.0], [53446.10548356411, 6763561.952651211], [53340.689027170854, 6763524.62609226], [53290.0, 6763445.0], [53215.795281655024, 6763487.544038517], [53210.32807839796, 6763544.671921602], [53107.15810540361, 6763600.870580387], [52928.16601393839, 6763523.713109856], [52751.64319248826, 6763327.20657277], [52642.9650631277, 6763383.173483896], [52404.28674742361, 6763320.714457904], [52259.42687747035, 6763465.533596838], [52139.797632081274, 6763291.439682675], [52153.977483740324, 6763248.290953922], [52125.79331895942, 6763058.802792121], [51971.875, 6762756.875], [51887.92264988192, 6762759.298821132], [51785.0, 6762590.0], [51791.025853985295, 6762573.340286041], [51618.44527255127, 6762328.778826566], [51388.24427768937, 6762132.165537759], [51326.14460705119, 6762158.047531878], [51102.44094488189, 6761997.440944882], [50997.65470973858, 6762069.247207191], [50892.13199296089, 6761984.091232865], [50817.30338581961, 6762019.70249329], [50528.24419036115, 6761679.237612426], [50346.66666666667, 6761735.0], [50270.468201933676, 6761700.831246596], [50157.96456172746, 6761719.9301483845], [49909.04163219268, 6761962.576500529], [49766.629711751666, 6761838.370288248], [49740.0, 6761865.0], [49690.0, 6761815.0], [49607.358636715726, 6761819.368706429], [49430.0, 6761715.0], [49440.299626888125, 6761852.531437544], [48926.34426795985, 6762440.385212531], [48934.46564359709, 6762560.556672911], [48753.27074267598, 6762774.35099373], [48429.435837109966, 6763066.536779786], [48459.14859412391, 6763143.694924048], [48261.533473067866, 6763202.616287428], [48145.454545454544, 6763200.454545454], [47994.128602041834, 6763085.904540092], [47829.661016949154, 6763190.084745763], [47800.0, 6763165.0], [47636.26664818445, 6763293.559405862], [47527.21847842932, 6763445.384436375], [46958.00546448087, 6763966.010928961], [46985.0, 6764000.0], [46893.75, 6763973.75], [46804.315068493146, 6763880.684931506], [46806.97610089884, 6763735.824840236], [46665.01681783602, 6763753.467292716], [46606.22566253418, 6763791.809350521], [46567.76951672863, 6763764.479553903], [46499.8383038512, 6763813.743261436], [46513.3870967742, 6763885.161290322], [46321.63926940638, 6764090.721461187], [46185.0, 6764330.0], [46208.15789473684, 6764358.947368421], [46205.0, 6764450.0], [46055.63492063492, 6764599.365079365], [46072.142857142855, 6764672.857142857], [46037.5, 6764707.5], [45963.43121693122, 6764671.928571428], [45850.17482517482, 6764766.503496503], [45805.0, 6764760.0], [45861.381027469935, 6764826.687313956], [46197.5, 6764877.5], [46238.245787684165, 6764990.004954964], [46208.96732991921, 6765076.723317019], [46363.30258874594, 6765246.84390017], [46377.41935483871, 6765317.258064516], [46238.576717470525, 6765450.379933697], [46302.77777777778, 6765592.222222222], [46282.74647887324, 6765612.253521127], [46323.89740748399, 6765706.657827302], [45902.93675117311, 6766263.225960126], [45765.11627906977, 6766328.2558139535], [45807.975763383496, 6766513.846235827], [45795.3906592459, 6766639.823011959], [45918.46749650329, 6766764.631229331], [45955.0, 6766850.0], [45934.259259259255, 6766911.481481481], [45991.07436985276, 6767000.144746693], [45982.33721022369, 6767083.228372498], [46020.78108358576, 6767078.915904541], [46066.24981401577, 6767448.747210236], [45951.8309151905, 6767563.438535011], [46008.63636363637, 6767709.090909091], [45985.0, 6767780.0], [46035.0, 6767850.0], [45841.893347412886, 6768043.106652587], [45919.41717791411, 6768256.073619632], [46188.92650966737, 6768656.073490333], [46165.0, 6768680.0], [46454.60170176252, 6768986.618794937], [46316.76470588235, 6769111.764705882], [46345.0, 6769140.0], [46290.517241379304, 6769296.206896552], [46378.217651279556, 6769407.928057195], [46285.669278655536, 6769560.244365537], [46335.0, 6769630.0], [46239.32288419425, 6769711.509466503], [46159.059125880805, 6769829.274666369], [46330.4977457784, 6770031.362832083], [46332.47514544856, 6770125.27336722], [46279.54523792638, 6770269.090475853], [46298.585313174946, 6770307.17062635], [46177.608695652176, 6770467.826086956], [46184.54897219904, 6770579.17776776], [46080.521947323, 6770698.216539774], [46050.56069397713, 6770885.593546054], [45860.636658891104, 6771090.699607467], [45835.211011338484, 6771209.814259287], [45635.507246376816, 6771289.637681159], [45553.40614184605, 6771206.107661776], [45431.87734022485, 6771296.3409573035], [45373.404255319154, 6771254.574468086], [45242.412235027456, 6771255.171242665], [45153.97435897436, 6771373.076923077], [45241.342256599215, 6771450.195432416], [45158.11497332388, 6771581.733193326], [45245.0, 6771650.0], [45147.72727272727, 6771772.7272727275], [45169.99496479606, 6771801.912527672], [44807.00474740671, 6772187.974232245], [44708.278625228784, 6772137.014820261], [44681.54477214, 6772166.571844621], [44391.06060606061, 6772090.909090909], [44333.21604562315, 6772183.944032176], [44325.0, 6772310.0], [44405.0, 6772390.0], [44405.0, 6772460.0], [44320.0, 6772465.0], [44254.83739837399, 6772548.157181572], [44275.0, 6772570.0], [44234.83779305559, 6772624.237158172], [44282.43167913735, 6772858.613369222], [44052.24081987387, 6772939.420196394], [44032.47368421053, 6772987.578947368], [44090.35162731334, 6773031.590299936], [44055.0, 6773070.0], [44092.82608695652, 6773148.695652174], [44065.0, 6773260.0], [44123.95522388059, 6773324.328358209], [43981.37786404754, 6773555.4419764355], [43857.56894863202, 6773552.882290257], [43809.736451714605, 6773732.9611396715], [43667.7744141478, 6773871.046859642], [43616.51116909957, 6773863.151185078], [43573.566281159896, 6774025.362247767], [43533.220338983054, 6774001.440677966], [43415.0, 6774060.0], [43439.64391556404, 6774198.58070475], [43334.019966991924, 6774330.0220158715], [43220.024954874636, 6774602.351282611], [43275.0, 6774710.0], [43240.71428571429, 6774745.714285715], [43329.72186148788, 6774840.369477173], [43335.707890938065, 6775036.406237501], [43391.01488371422, 6775162.002421463], [43668.74828269276, 6775143.692716743], [43938.37758128776, 6775326.622418712], [44025.15265770961, 6775244.138604348], [44173.88888888889, 6775367.037037037], [44302.671369116375, 6775534.382127288], [44260.90909090909, 6775585.0], [44183.78378378379, 6775561.216216216], [44008.59283440393, 6775676.801969025], [43269.45184635016, 6776444.45184635], [43333.20737238064, 6776640.819000994], [43257.9520295203, 6776815.57195572], [43326.994306752196, 6776903.190723802], [43325.0, 6777000.0], [43373.33333333333, 6777047.5], [43345.0, 6777090.0], [43542.662855445364, 6777287.662855445], [43436.47064679925, 6777432.916009053], [43396.04027772299, 6777532.399305693], [43445.33343622158, 6777624.5923134275], [43548.333333333336, 6777500.0], [43597.0191285866, 6777630.828905419], [43646.949504864744, 6777615.912896614], [43701.86552567237, 6777654.8704156475], [43666.57894736842, 6777712.631578947], [43705.89146695161, 6777750.8670432], [43613.0, 6777840.0], [43590.625, 6777945.625], [43647.77777777778, 6778002.777777778], [43710.36220472441, 6777957.503937008], [43743.962251631325, 6778046.097606654], [43848.7883303304, 6778135.087512219], [43885.40599455041, 6778100.945504087], [44012.17391304348, 6778212.826086956], [44068.0, 6778157.0], [44209.73543439195, 6778155.98237965], [44067.2801256049, 6778522.02110723], [44064.05940680652, 6778660.99106223], [43985.01700313217, 6778735.952699233], [44015.0, 6778860.0], [43985.0, 6778890.0], [44030.86166266333, 6778958.482617896], [43927.105857322706, 6779270.00971628], [43816.04480626603, 6779434.070812575], [43871.44227290832, 6779673.39197964], [43990.664296370116, 6779889.406105197], [44123.67438174367, 6779795.1616663225], [44326.92307692308, 6779967.307692308], [44350.400686891815, 6779944.376073268], [44503.47604967348, 6780161.556167948], [44603.33333333333, 6780198.333333333], [44716.66666666667, 6780171.666666667], [44762.0, 6780217.0], [44948.146468981664, 6780132.235037066], [45157.99535483017, 6779859.467585273], [45189.025554902575, 6779872.245556582], [45172.5, 6779917.5], [45255.83333333333, 6780120.833333333], [45245.8737435988, 6780174.4515865315], [45335.0, 6780352.5], [45250.436893203885, 6780445.458421517], [45335.0, 6780610.0], [45295.51851851852, 6780708.444444444], [45120.59498350402, 6780831.304686576], [45125.0, 6780915.0], [45066.565273654924, 6780963.307390757], [45072.457907350836, 6781438.37166756], [45124.9850689013, 6781626.762340995], [45175.32868899978, 6781697.568684985], [45130.35625235323, 6781802.488182675], [45131.91727290687, 6782113.216475265], [45176.45576707727, 6782136.215005599], [45158.33333333333, 6782183.333333333], [45215.63595993472, 6782287.0794539945], [45181.334498322765, 6782444.603523068], [45203.26648623891, 6782584.690273221], [45408.34993865821, 6782675.4217435615], [45474.17815580647, 6782671.655626803], [45740.50683687936, 6782275.506836879], [45821.54563312762, 6782256.479627443], [45856.18025751073, 6782289.635193133], [45965.44469238126, 6782155.0], [46018.36361466329, 6782199.762621798], [46087.98479087453, 6782206.013941699], [46189.999999999985, 6782085.0], [46383.68262240349, 6781938.1815694375], [46506.71610367737, 6782188.035931505], [46645.0, 6782260.0], [46661.068803065136, 6782354.168139735], [46758.99687337155, 6782416.492965086], [46774.40526015892, 6782501.136018421], [46927.597301038826, 6782723.663861951], [47088.18543297963, 6782693.18833338], [47166.15037722839, 6782743.297162893], [47335.95959595959, 6782695.808080808], [47476.28313799789, 6782759.407446317], [47552.357416964405, 6782859.69961625], [47495.0, 6782920.0], [47533.66732127189, 6783002.552333598], [47640.0, 6783055.0], [47690.0, 6783005.0], [47755.0, 6783005.384615385], [47755.0, 6783076.0], [47674.64064436183, 6783179.46716233], [47731.92424157461, 6783307.691919475], [47659.642857142855, 6783331.785714285], [47761.609760906766, 6783398.10660662], [47993.425696516155, 6783389.038529605], [48090.0, 6783525.0], [48119.323695081126, 6783505.128069168], [48339.0, 6783744.0], [48305.69781518617, 6783886.013633508], [48078.979613094736, 6784197.844360221], [48001.36363636363, 6784255.454545454], [47875.04973362842, 6784492.887544754], [47903.33333333333, 6784535.0], [47857.71530707991, 6784603.42703938], [47739.12087912088, 6784624.84507296], [47734.53898678344, 6784692.723746475], [47598.75, 6784768.75], [47561.36363636364, 6784725.454545454], [47493.27455398149, 6784752.312011835], [47225.032475775224, 6784665.975826165], [47224.42605028892, 6784629.0808995785], [47120.58273032107, 6784621.75568799], [47001.41369047619, 6784694.058248299], [46973.7547528947, 6784571.621076748], [46821.681892489665, 6784561.141936725], [46727.089168151, 6784484.545450073], [46662.72727272727, 6784542.2727272725], [46590.25568181819, 6784492.556818182], [46283.54663833688, 6784559.286049144], [46143.85711725161, 6784539.655952216], [46048.30435032312, 6784568.389287142], [45816.65712970443, 6784813.011214182], [45818.73725934315, 6784846.917327293], [45665.0, 6784990.0], [45677.25258549106, 6785075.768098437], [45630.445046668625, 6785136.110797875], [45624.270729791, 6785348.972694508], [45398.532053433795, 6785554.680505338], [45400.217391304344, 6785646.347826087], [45503.46153846154, 6785804.615384615], [45489.95412844037, 6785874.9541284405], [45584.80172574979, 6785917.116231516], [45670.26078676665, 6786045.275765877], [45280.62373308542, 6786536.715351536], [45298.21483622154, 6786791.7483510235], [45180.1040438013, 6787068.496737223], [44883.287212714655, 6787276.296525212], [44721.220341759064, 6787228.257219631], [44614.1262716706, 6787261.599185823], [44507.39936273329, 6787364.448025702], [44315.832413660115, 6787260.425281526], [44285.0, 6787010.0]]]}}]}