{"type": "FeatureCollection", "crs": {"type": "name", "properties": {"name": "EPSG:25833"}}, "features": [{"type": "Feature", "properties": {"station": "73.27.0", "name": "Sula", "series": ["1001.1"], "nodes": 33, "fine_vertices": 54, "fine_area_m2": 3250.0, "reduced_vertices": 4, "reduced_area_m2": 3250.000000019555, "outline_tolerance_m": 20.0, "windows": [[500, 457], [1092, 1111], [2291, 2273]], "placed_on": "number", "distance_m": 12.035042908411395, "uncertainty_m": 30.0, "elvid": "073-28-1", "objectid": 11789696, "lake": false, "confluence_near": true, "reach_up_m": 1000.0, "reach_down_m": 130.0, "reach_fork": false, "seeded_by": "river", "lake_rule": null, "lake_number": null, "lake_name": null, "lake_distance_m": null, "node_offset_m": 12.453237525588936, "chain_nodes": 105, "lowered_nodes": 13, "lowered_max_m": 0.8677978515625, "direction_ok": true, "end_extended_m": 0.0, "end_closed": true, "downstream_checked": "whole", "a0": 0.0033, "area_up": 30.213800000000003, "area_down": 0.0054, "swing": 0.6363636363636365, "largest_step": 0.0017000000000000001, "largest_step_at_m": 14.142135623731065, "checked_up_m": 24.142135623731065, "checked_down_m": 28.28427124746213, "drains": false, "monotone": false, "causes": ["swing", "chain_not_draining"]}, "geometry": {"type": "Polygon", "coordinates": [[[129367.77777777778, 6801437.222222222], [129479.09563294638, 6801499.20784964], [129512.91666666667, 6801542.083333333], [129430.5296648487, 6801508.904207618], [129367.77777777778, 6801437.222222222]]]}}]}