{"type": "FeatureCollection", "crs": {"type": "name", "properties": {"name": "EPSG:25833"}}, "features": [{"type": "Feature", "properties": {"station": "73.21.0", "name": "Frostdalen", "series": ["1001.1"], "nodes": 255212, "fine_vertices": 3684, "fine_area_m2": 25521150.0, "reduced_vertices": 168, "reduced_area_m2": 25521149.999999885, "outline_tolerance_m": 20.0, "windows": [[505, 430], [1090, 1179], [2289, 2248]], "placed_on": "number", "distance_m": 14.720897417192834, "uncertainty_m": 30.0, "elvid": "073-28-111", "objectid": 11793496, "lake": false, "confluence_near": false, "reach_up_m": 1000.0, "reach_down_m": 130.0, "reach_fork": false, "seeded_by": "river", "lake_rule": null, "lake_number": null, "lake_name": null, "lake_distance_m": null, "node_offset_m": 6.152906609314657, "chain_nodes": 106, "lowered_nodes": 16, "lowered_max_m": 1.25189208984375, "direction_ok": true, "end_extended_m": 0.0, "end_closed": true, "downstream_checked": "whole", "a0": 25.5212, "area_up": 25.5151, "area_down": 0.0001, "swing": 0.00023901697412347358, "largest_step": 0.00590000000000046, "largest_step_at_m": -14.142135623731065, "checked_up_m": 28.28427124746213, "checked_down_m": 28.28427124746213, "drains": false, "monotone": false, "causes": ["chain_not_draining"]}, "geometry": {"type": "Polygon", "coordinates": [[[123825.0, 6809800.0], [123850.48722800378, 6809736.28192999], [123721.88277485898, 6809677.507275768], [123625.13482581721, 6809492.618754824], [123487.98909404, 6809457.01090596], [123306.53620073402, 6809659.499997035], [123162.38095238095, 6809748.80952381], [123115.20356819968, 6809691.097162399], [123014.9917193456, 6809782.735456906], [122902.84371913789, 6809802.31119653], [122777.62295081967, 6809632.622950819], [122712.37704918033, 6809647.377049181], [122735.0, 6809466.666666667], [122663.3687048685, 6809464.8005113145], [122687.66666666667, 6809356.666666667], [122599.43077860666, 6809276.355523409], [122440.0, 6809355.0], [122386.83012759475, 6809339.808607884], [122245.1724137931, 6809378.925729443], [122200.0, 6809295.0], [122107.0860289006, 6809327.637744163], [122041.85393258427, 6809194.269662921], [121896.81546178555, 6809063.950954078], [121935.0, 6809010.0], [121900.55555555556, 6808975.555555556], [122015.32546003845, 6808801.811315573], [121884.64788732394, 6808743.7323943665], [121690.0, 6808815.0], [121628.77249446472, 6808791.809922042], [121534.7492578031, 6808878.938056648], [121395.27943534995, 6808777.013606958], [121272.31839652751, 6808612.681603473], [121274.78515400225, 6808540.434543484], [121154.59349593495, 6808389.757367887], [121076.7011331171, 6808397.434404269], [121118.36363636363, 6808309.909090909], [121280.45502183406, 6808177.91441048], [121314.42833607907, 6808175.915980231], [121432.63157894737, 6808075.0], [121556.7027027027, 6808048.297297297], [121586.13798465421, 6807949.783527493], [121565.90909090909, 6807903.636363637], [121666.42857142857, 6807752.857142857], [121660.35874439462, 6807706.479820628], [121535.9756326148, 6807696.95126523], [121477.68479391203, 6807612.43840203], [121440.79577094148, 6807624.73474302], [121409.18195673187, 6807334.009198727], [121690.53326003546, 6807083.210992817], [121772.70291380028, 6806963.515121921], [121726.05246227804, 6806851.052462278], [121768.83553293573, 6806704.463457587], [121889.48801222657, 6806745.748877639], [121925.26315789473, 6806693.421052632], [121984.76744186046, 6806713.2558139535], [122295.06978974133, 6806410.447372094], [122236.09814086401, 6806334.746155438], [122325.35127873224, 6806139.530783653], [122449.42159383034, 6805998.457583548], [122412.35922685284, 6805965.456845828], [122394.27710843373, 6805841.084337349], [122502.80949133182, 6805744.819794986], [122574.22053231939, 6805835.0], [122641.91608383009, 6805835.0], [122809.72506104216, 6805630.24353154], [122918.33333333333, 6805646.666666667], [122946.81415929203, 6805602.876106195], [123035.53823012573, 6805692.593909915], [123268.11913872656, 6805609.403945509], [123448.33333333333, 6805358.333333333], [123525.63285835841, 6805370.93881569], [123529.95186126554, 6805275.048138735], [123719.1762730095, 6805182.103906975], [123789.92078067883, 6804876.842879211], [123734.21926819472, 6804829.643877013], [123661.84566476023, 6804537.025072933], [123982.61109767534, 6804122.352513009], [124030.0, 6804145.0], [124149.40585901924, 6804058.420703434], [124218.30296251089, 6804073.084021645], [124295.14161784503, 6804030.354445589], [124418.10371242889, 6803795.949047524], [124381.07250030008, 6803724.96939143], [124600.0, 6803505.0], [124651.91011235955, 6803522.303370787], [124830.0, 6803285.0], [124887.05882352941, 6803288.411764706], [125237.66658655179, 6802972.824556947], [125583.84677436235, 6802527.286018407], [125867.46234067208, 6802852.41599073], [125990.0, 6802745.0], [126033.70558375634, 6802770.482233503], [126207.56510862676, 6802636.006739033], [126273.125, 6802728.75], [126403.65060946287, 6802759.62428652], [126429.27535541994, 6802860.103436645], [126545.0, 6802930.0], [126521.9102005231, 6803006.179598954], [126575.70850358365, 6803205.336526729], [126695.41176470589, 6803302.247058824], [126740.16055143437, 6803280.017016384], [126994.30444398755, 6803556.873843803], [126985.2712870556, 6803670.315477071], [127186.54990050216, 6803901.083999576], [127049.14233117097, 6804057.458088362], [127101.47134302823, 6804160.834046193], [127196.84843489192, 6804222.683372393], [127337.5925925926, 6804185.555555556], [127395.0, 6804220.0], [127377.68292682926, 6804273.902439024], [127445.0, 6804330.0], [127378.20283826768, 6804422.848054808], [127460.03838366868, 6804654.439048799], [127569.17140182198, 6804750.590280028], [127485.0, 6804870.0], [127478.53526740376, 6805108.152082365], [127361.15473708593, 6805263.963400509], [127350.33054541641, 6805331.418980522], [127141.47461623544, 6805740.724828512], [127098.09494451295, 6805911.738594328], [127029.41130171054, 6805950.479441553], [127197.9569961362, 6806130.645026896], [127244.70847578137, 6806313.580450811], [126861.42265550997, 6806706.250405373], [126885.07300470653, 6806906.145573049], [127021.04623667119, 6806855.462366712], [127066.3578355125, 6806950.101308378], [127038.88074754395, 6807013.258285108], [127150.33952354908, 6807094.236835645], [127080.24931016157, 6807265.840903048], [126969.19235451115, 6807348.123470485], [126810.0, 6807405.0], [126770.0, 6807365.0], [126739.16259118542, 6807414.594956756], [126560.19492942344, 6807382.340006507], [126400.0, 6807435.0], [126338.92857142857, 6807504.642857143], [126296.37931034483, 6807479.310344827], [126213.85683143469, 6807577.897448015], [125995.99724627358, 6807684.0608172165], [125910.0, 6807825.0], [125873.57142857143, 6807812.857142857], [125791.70128648414, 6807924.646137347], [125718.33227663612, 6807875.700601687], [125713.04347826086, 6808019.782608695], [125545.74499848389, 6808059.981811923], [125464.66221244882, 6808008.229794393], [125330.30405815375, 6808218.969231089], [125204.44444444444, 6808205.0], [125184.4, 6808280.6], [125090.88903645256, 6808349.803491498], [125098.09096770793, 6808400.941627022], [125007.15041354107, 6808733.545874206], [125058.23738808934, 6808791.582179852], [125051.0, 6809024.0], [124825.0, 6809150.0], [124839.67518914689, 6809212.726324028], [124705.95639042695, 6809425.218047866], [124689.19240732261, 6809540.948460392], [124565.83080228884, 6809574.475604912], [124565.0, 6809654.0], [124520.71175629259, 6809650.51178458], [124182.80982109578, 6809970.609858368], [124145.79637096774, 6810065.493951613], [124078.63636363637, 6810085.454545454], [124031.68508287292, 6809999.69400765], [123946.48466723335, 6810001.151957533], [123921.29934210527, 6809847.409539473], [123825.0, 6809800.0]]]}}]}