{"type": "FeatureCollection", "crs": {"type": "name", "properties": {"name": "EPSG:25833"}}, "features": [{"type": "Feature", "properties": {"station": "76.5.0", "name": "Nigardsbrevatn", "series": ["1001.0"], "nodes": 668236, "fine_vertices": 5846, "fine_area_m2": 66823550.0, "reduced_vertices": 144, "reduced_area_m2": 66823549.99999956, "outline_tolerance_m": 20.0, "windows": [[518, 537], [1191, 1276], [2390, 2475]], "placed_on": "number", "distance_m": 37.13498100975744, "uncertainty_m": 37.13498100975744, "elvid": "076-65-104", "objectid": 11546723, "lake": true, "confluence_near": true, "reach_up_m": 1000.0, "reach_down_m": 137.13498100975744, "reach_fork": false, "seeded_by": "lake", "lake_rule": "lake_line", "lake_number": 29369, "lake_name": "Nigardsbrevatnet", "lake_distance_m": 3.788841514315879, "node_offset_m": null, "chain_nodes": null, "lowered_nodes": null, "lowered_max_m": null, "direction_ok": null, "end_extended_m": null, "end_closed": null, "downstream_checked": null, "a0": null, "area_up": null, "area_down": null, "swing": null, "largest_step": null, "largest_step_at_m": null, "checked_up_m": null, "checked_down_m": null, "drains": null, "monotone": null, "causes": []}, "geometry": {"type": "Polygon", "coordinates": [[[83550.0, 6869665.0], [83520.0, 6869635.0], [83337.05882352941, 6869622.05882353], [82696.82281054504, 6868981.822810545], [82487.00768317004, 6869190.659150601], [82445.98047889276, 6869091.72358653], [81612.29938836655, 6868250.522064664], [81548.27254931486, 6868093.272549314], [80697.0, 6867242.0], [80683.20038827135, 6866757.460127416], [80548.44526194644, 6866486.584132095], [79565.61527338841, 6865478.458954475], [79553.56086186961, 6865345.947997636], [79386.13363528404, 6864803.6719908], [79453.87277771246, 6864447.617760239], [79373.45095849648, 6864119.860642322], [79478.04967965913, 6864155.3062526], [79830.82748442524, 6864424.529658023], [80195.05613624128, 6864489.514290356], [81021.72947147232, 6864669.871850794], [81235.91900452544, 6864463.066141078], [81658.1919032796, 6864438.392779687], [81818.87799855848, 6864276.170954108], [82031.74784198673, 6864167.409763779], [83185.59408944407, 6864027.600600066], [83656.57648981498, 6863838.423510185], [83847.33963308971, 6863647.310665297], [84220.05751258088, 6863581.894320632], [84267.04688724376, 6863418.545648396], [84336.97289022061, 6863441.673209488], [84479.99267885332, 6863405.001830286], [84818.3014354067, 6863066.507177033], [84806.13636363637, 6863005.681818182], [84870.2537991476, 6862917.537050722], [84805.0, 6862860.0], [84846.76211453744, 6862829.838472834], [84902.5, 6862695.0], [85076.52162403645, 6862487.149964802], [85384.46090022502, 6862314.188896644], [85561.9574418163, 6862325.3727548495], [85729.08208058684, 6862180.8616427425], [85743.23954367614, 6862070.814601731], [85817.2829064134, 6861992.931545633], [85679.41588824337, 6861903.3391248435], [85749.4280442196, 6861736.09661076], [85948.83972252288, 6861640.49329011], [85931.07973509617, 6861594.208177369], [86210.19668886131, 6861633.047849704], [86552.70999563643, 6861577.226277913], [86618.18337191883, 6861478.334147195], [86670.0, 6861495.0], [86727.85714285714, 6861437.142857143], [86678.26219552178, 6861373.332672731], [86850.90337841498, 6861279.479514635], [86958.32999575505, 6861379.010454561], [87157.79563447132, 6861346.110636221], [87201.25633656018, 6861161.427127584], [87335.69169960474, 6861157.411067193], [87435.08007488411, 6861051.916580453], [87519.71621532984, 6861074.71621533], [87600.26003915291, 6861048.065474986], [87902.75481601563, 6860807.754816015], [87982.0, 6860887.0], [88060.0, 6860815.0], [88264.8051948052, 6860947.7272727275], [88324.81481481482, 6861031.740740741], [88395.0, 6860995.0], [88468.70168483647, 6861043.8007928645], [88594.09369999269, 6860954.162859788], [88705.93122721929, 6860989.068772781], [88788.36156916397, 6860955.962099995], [89162.66032752281, 6861284.399694762], [89280.0, 6861283.0], [89421.0580596972, 6861366.044385073], [89677.6256101677, 6861622.526484236], [89854.78733751849, 6861522.631953497], [89905.0, 6861568.333333333], [89930.0, 6861545.0], [89971.57308254058, 6861661.77315038], [89966.30750064309, 6861820.399428437], [90397.05413125815, 6862251.9464581655], [90696.86440677966, 6862609.322033898], [90709.55174003227, 6862672.758700161], [91017.63157894737, 6863071.315789473], [91194.9041336097, 6863217.685110174], [91219.45431472082, 6863282.753807107], [91275.55555555556, 6863255.0], [91338.26378704158, 6863381.183733576], [91336.95502560397, 6863512.235577957], [91174.19593335298, 6863542.462371403], [91080.09493670886, 6863663.449367088], [90915.0, 6863650.0], [90938.0, 6863675.0], [90881.97062423501, 6863835.465116279], [90840.0, 6863865.0], [90627.43723113023, 6863825.6018771995], [90395.0, 6863950.0], [90450.9009483667, 6864016.712328767], [90351.21446173059, 6864174.809122833], [90398.75, 6864206.25], [90337.5, 6864267.5], [90260.0, 6864265.0], [90151.99299540017, 6864403.095179313], [90272.11200448766, 6864456.261219148], [90517.90059195491, 6864684.784842153], [90444.84767071267, 6864949.399552454], [89772.46213326279, 6865606.795016254], [89640.0, 6865585.0], [89521.03143790092, 6865720.006780362], [89502.93667913887, 6865837.420848924], [89369.03168643746, 6865905.049513178], [89403.57142857143, 6865971.428571428], [89286.53606846767, 6866244.550404735], [88991.54981346759, 6866493.702661032], [88920.0, 6866505.0], [88943.19090569577, 6866614.070240217], [88780.9226752078, 6867060.155726158], [88215.85652692794, 6867588.702450251], [88213.47659991235, 6867845.985018734], [87932.23144642521, 6868784.152830362], [87925.8922305123, 6868919.4216526], [88087.12944466498, 6869183.525034073], [88183.3407978428, 6869439.645033924], [88050.28256559178, 6869684.816139901], [87736.83206106871, 6869988.167938931], [87550.56167611008, 6870331.210568925], [87623.6330146538, 6870716.202528652], [87302.09313397048, 6871063.984504736], [87294.9378976904, 6871989.8846671395], [87365.0, 6872120.0], [88143.86431742509, 6872898.8643174255], [87976.18657212498, 6872930.832040771], [87373.39301271201, 6872329.922912778], [86878.27875685557, 6872324.662625907], [86797.51632767307, 6872260.730546744], [86508.47622715194, 6872168.399702509], [86319.40980698544, 6872177.017439471], [86196.68157372478, 6872209.557567113], [86212.72351789103, 6871880.722126354], [86127.58561648606, 6871842.585616486], [84750.0, 6870465.0], [84614.5945945946, 6870465.0], [83845.08231096792, 6869729.8553270865], [83581.7667844523, 6869646.554770318], [83550.0, 6869665.0]]]}}]}