{"type": "FeatureCollection", "crs": {"type": "name", "properties": {"name": "EPSG:25833"}}, "features": [{"type": "Feature", "properties": {"station": "77.3.0", "name": "Sogndalsvatn", "series": ["1001.1"], "nodes": 1108103, "fine_vertices": 8316, "fine_area_m2": 110810350.0, "reduced_vertices": 373, "reduced_area_m2": 110810350.00000088, "outline_tolerance_m": 20.0, "windows": [[841, 778], [1454, 1574], [2653, 2773]], "placed_on": "number", "distance_m": 25.521988676378292, "uncertainty_m": 30.0, "elvid": "077-102-1", "objectid": 10791538, "lake": true, "confluence_near": false, "reach_up_m": 1000.0, "reach_down_m": 130.0, "reach_fork": false, "seeded_by": "lake", "lake_rule": "lake_line", "lake_number": 1605, "lake_name": "Dalavatnet", "lake_distance_m": 8.612796214682202, "node_offset_m": null, "chain_nodes": null, "lowered_nodes": null, "lowered_max_m": null, "direction_ok": null, "end_extended_m": null, "end_closed": null, "downstream_checked": null, "a0": null, "area_up": null, "area_down": null, "swing": null, "largest_step": null, "largest_step_at_m": null, "checked_up_m": null, "checked_down_m": null, "drains": null, "monotone": null, "causes": []}, "geometry": {"type": "Polygon", "coordinates": [[[62245.0, 6828610.0], [62202.89473684211, 6828546.842105263], [62256.94509131494, 6828453.608069854], [62136.44914752806, 6828288.550852472], [62278.71503363347, 6828148.921682344], [62163.53664780767, 6827920.840167374], [62106.121856866535, 6827866.615087041], [62052.367631716224, 6827749.418739533], [61942.81305046669, 6827715.57873414], [61746.29165909833, 6827519.062397444], [61677.053694407885, 6827512.00188077], [61580.49529935676, 6827415.067788224], [61655.55118110236, 6827330.62992126], [61647.857142857145, 6827248.571428572], [61753.19277108434, 6827109.156626506], [61725.0, 6827000.0], [61800.14581213971, 6826931.052899288], [61851.46117353871, 6826809.933553633], [61677.8566883859, 6826689.348658552], [61581.21870093268, 6826520.671948601], [61612.89473684211, 6826473.157894737], [61585.0, 6826420.0], [61615.0, 6826390.0], [61585.0, 6826360.0], [61615.0, 6826305.0], [61565.0, 6826230.0], [61619.128755387246, 6826181.381676727], [61548.2058287796, 6825935.1912568305], [61603.040181022516, 6825834.125105457], [61630.92592592593, 6825855.925925926], [61670.08424794299, 6825716.584074091], [61491.66158802106, 6825433.283140341], [61448.529411764706, 6825205.294117647], [61317.090995713, 6825169.933255092], [61311.82266009852, 6825091.972085386], [61380.81099202624, 6825128.765862414], [61577.51908396946, 6825057.480916031], [61546.17647058824, 6825011.764705882], [61584.85004610074, 6824941.998340561], [61515.20277882088, 6824819.808486669], [61701.88311145275, 6824558.730756666], [61521.899216284044, 6824365.569702986], [61543.57142857143, 6824304.285714285], [61495.0, 6824240.0], [61509.38208419534, 6824139.691482782], [61340.69625353821, 6823942.519173437], [61447.85456655806, 6823705.271525462], [61425.0, 6823610.0], [61455.0, 6823580.0], [61407.907348242814, 6823509.488817891], [61471.21219433656, 6823413.532019614], [61411.875422463156, 6823354.816968486], [61436.417051806304, 6823274.661761773], [61575.13603223124, 6823279.779209088], [61712.78634722678, 6823178.374747995], [61816.19043704982, 6823186.710131052], [61846.05797563112, 6823224.842319026], [62002.55545220114, 6822992.92794446], [62084.23384324255, 6823043.160638407], [62192.850317218035, 6823029.124726447], [62253.0, 6822966.0], [62234.43462334522, 6822884.953978816], [62421.19386570798, 6822883.581630903], [62503.378838784934, 6823008.636076375], [62633.846153846156, 6822974.230769231], [62702.53011614187, 6823020.020077428], [62806.344625993916, 6822958.891070555], [63057.61773466911, 6823008.197466476], [63330.82018166441, 6823122.921105618], [63441.20647238599, 6823293.9097493775], [63623.58087152676, 6823196.92720174], [63898.34624669457, 6823131.087506572], [64017.012380108325, 6823031.629516108], [64141.69361912071, 6823158.060999342], [64221.95575739818, 6823148.259595663], [64270.0, 6823205.0], [64340.0, 6823145.0], [64454.935844280495, 6823247.837085452], [64522.93715235502, 6823360.2458381485], [64483.54423130772, 6823499.768497628], [64720.0, 6823535.0], [64829.923269086335, 6823653.557292901], [64986.06432600426, 6823713.9196192995], [65003.50449154317, 6823700.366263446], [65245.66903045933, 6823817.183107523], [65362.97490150381, 6823758.662104375], [65425.13715009143, 6823778.868335912], [65720.58644189383, 6823734.413558106], [65773.79106992418, 6823681.208930076], [65857.47368421052, 6823722.47368421], [65927.77777777778, 6823687.222222222], [66104.36626726663, 6823766.187459616], [66142.66047278643, 6823813.29128415], [66340.30135447891, 6823655.301354479], [66275.56015837967, 6823559.012603902], [66458.33665554448, 6823376.671288873], [66407.0779143644, 6823312.597435852], [66426.16491110626, 6823199.781311244], [66585.75744728434, 6823277.059124344], [66752.05882352941, 6823433.529411765], [66778.09652454343, 6823406.943548624], [66878.08755760369, 6823436.912442396], [66920.23809523809, 6823291.428571428], [66865.0, 6823250.0], [66897.72727272728, 6823172.7272727275], [66855.0, 6823130.0], [66894.10990009083, 6823092.373599757], [66942.58472877562, 6822909.666639336], [66861.48904583113, 6822800.587389028], [67113.55542812086, 6822852.538439482], [67139.7569124547, 6822761.883429507], [67369.65518028064, 6822745.912327449], [67536.84612811211, 6822892.259990787], [67640.0, 6822805.0], [67708.49465846553, 6822818.790870832], [67740.69904496304, 6822912.663921703], [67902.32168487538, 6822885.389463587], [67947.54119973633, 6822932.927927928], [68145.71428571429, 6822807.857142857], [68215.54545454546, 6822881.363636363], [68310.0, 6822865.0], [68414.18181818182, 6822950.636363637], [68686.42108702219, 6822997.742139718], [68768.9145085893, 6822992.331727322], [68888.03738317757, 6823080.981308411], [68920.0, 6823055.0], [69051.42636021855, 6823118.417180382], [69328.33333333333, 6823005.0], [69461.54185022027, 6823100.903083701], [69414.61468600194, 6823153.014133886], [69401.52496664599, 6823255.408977756], [69540.2195638277, 6823388.088630443], [69695.70757187433, 6823366.366509468], [69778.48934198332, 6823462.006487489], [69905.46385533924, 6823372.784032436], [70040.33333333333, 6823425.333333333], [70078.15789473684, 6823494.736842105], [70145.81197825457, 6823503.215379082], [70188.79077919076, 6823446.593084393], [70241.65505442911, 6823491.053352274], [70585.41927620738, 6823529.109164105], [70613.52471365019, 6823380.131896613], [70701.07333318189, 6823156.073333181], [70686.725824189, 6823141.725824189], [70695.56526153031, 6822982.526404171], [70850.15341530049, 6822792.349820386], [71195.30464631335, 6822489.721741414], [71229.03770245885, 6822387.070936062], [71351.22452384743, 6822255.892934406], [71444.04494382022, 6822201.9662921345], [71550.0, 6822225.0], [71640.0, 6822135.0], [71695.58932542623, 6822140.744996293], [71809.54193195287, 6822048.97947122], [72018.28925133556, 6822248.822990763], [72140.0, 6822235.0], [72193.99842096952, 6822288.99842097], [72525.62458194827, 6822156.52624917], [72721.42835568868, 6822281.713335029], [73109.53330482198, 6822611.320966535], [73155.75753347826, 6822608.423515749], [73161.7917706111, 6822710.55723426], [73249.9543248644, 6822771.697116757], [73293.23589235701, 6822743.837523827], [73650.04679469924, 6823029.324190932], [73748.8344221674, 6823013.936825726], [73755.90886237187, 6823125.45568814], [73964.19632112003, 6823316.750653595], [74015.0, 6823460.0], [73975.28324971999, 6823533.028195845], [74102.56602266183, 6823678.809579277], [73861.22707272635, 6823944.862850435], [73912.34854445318, 6824014.468922108], [73855.0, 6824080.0], [73869.17134295373, 6824123.222596009], [73789.87677694652, 6824343.50539775], [73849.35503959001, 6824451.345914842], [73877.7478753541, 6824612.747875354], [73969.36254293019, 6824678.574158637], [73947.94117647059, 6824791.176470588], [74025.0, 6824900.0], [74007.84929493684, 6824972.027362749], [74101.14322271965, 6825027.086242722], [74047.47942386831, 6825139.893689986], [73990.0, 6825105.0], [73843.25367973045, 6825187.79171839], [73865.26427379665, 6825227.312436856], [73743.58530717422, 6825301.876568539], [73775.77377963696, 6825404.790470187], [73715.45385650487, 6825458.499990784], [73716.0060825315, 6825679.870094134], [73660.82437275986, 6825675.071684588], [73576.52344320796, 6825755.568959248], [73718.7194826263, 6825837.103809645], [73657.85714285714, 6825931.428571428], [73748.7737961926, 6825976.886898097], [73737.37388724036, 6826050.682492581], [73775.0, 6826110.0], [73682.13776944019, 6826285.124705422], [73783.59027258387, 6826360.076502295], [73824.49660601195, 6826531.903435661], [73915.0, 6826612.222222222], [73915.0, 6826660.0], [74003.4455371257, 6826696.226769819], [74134.30580864847, 6826912.727949881], [74144.07056798623, 6827074.647160069], [74235.14852903668, 6827177.231358631], [74272.68676917201, 6827341.4733671015], [74418.84615384616, 6827434.615384615], [74416.08108108108, 6827529.189189189], [74370.23809523809, 6827563.571428572], [74415.0, 6827740.0], [74349.390181318, 6827765.0], [74296.54433040199, 6827865.775327634], [74353.16349945893, 6827914.256133645], [74352.9800060557, 6828016.590633], [74494.09624798207, 6828137.813965862], [74405.18488085456, 6828203.3812654065], [74328.28714931553, 6828141.652421781], [74194.13223140496, 6828155.826446281], [74167.92589322834, 6828258.324595211], [73994.28571428571, 6828215.0], [73941.75891211595, 6828171.376045655], [73810.16612606597, 6828143.444257433], [73656.8637492856, 6828026.995302753], [73500.74718071218, 6827985.977167935], [73490.0, 6827955.0], [73454.84553532173, 6827982.462697579], [73210.05650251682, 6827827.707783946], [73076.66666666667, 6827681.666666667], [72970.38087835212, 6827732.341624563], [72923.33333333333, 6827701.666666667], [72849.38924939164, 6827778.915685093], [72950.88745028658, 6827944.034693216], [73124.64264288616, 6828090.984532355], [72898.56717526242, 6828244.570227873], [72788.71715358694, 6828370.256394591], [72543.52620647641, 6828585.199553198], [72566.19207064122, 6828660.728635771], [72430.60469470892, 6828735.140019674], [72336.69623677457, 6828978.31260968], [72121.50660443857, 6829046.381352197], [71884.07908477014, 6828995.852110552], [71773.0, 6829056.0], [71680.0, 6829015.0], [71655.82043343653, 6829069.953560372], [71481.17025111815, 6829094.144918822], [71419.76018078117, 6829049.750717301], [71276.0, 6829095.0], [71264.30420553651, 6829178.367202865], [71190.0, 6829195.0], [71160.6289308176, 6829165.440251572], [71123.67143127603, 6829222.147387354], [71022.36999147486, 6829199.910485934], [70790.0, 6829435.0], [70692.72727272726, 6829422.2727272725], [70635.0, 6829480.0], [70685.0, 6829510.0], [70657.27722772278, 6829549.306930693], [70697.02960526316, 6829604.34868421], [70662.03534720014, 6829787.571307246], [70469.46389765531, 6829926.159744138], [70492.2775098002, 6829983.193774501], [70337.55685570672, 6830219.122743871], [70356.35954041443, 6830317.083086649], [70466.26798012244, 6830387.201229591], [70442.42641766988, 6830459.803396195], [70578.85091725366, 6830538.984957556], [70442.06686209745, 6830754.154274395], [70408.72881355933, 6830926.27118644], [70295.32355638614, 6831050.155627665], [70302.75, 6831107.75], [70243.915821948, 6831193.472895549], [70218.82755709827, 6831386.57492065], [70324.50319724545, 6831671.318248893], [70417.26838268383, 6831770.954929549], [70475.13653916674, 6831901.016347577], [70427.38998507209, 6832074.063483958], [70323.0268155131, 6832204.285330419], [70339.44707752542, 6832670.708570121], [70310.0124966308, 6832727.471882581], [70386.77296773072, 6832843.816663941], [70543.08565866321, 6832962.128487995], [70566.0861574609, 6833068.933390638], [70752.33796832389, 6833388.058692025], [70874.88890002752, 6833499.702490712], [70875.3393854393, 6833820.911516524], [70956.66588500407, 6834044.614789813], [71044.41176470589, 6834073.882352941], [71055.0, 6834144.0], [71354.0339581961, 6834486.46801856], [71387.68847227763, 6834745.209413642], [71360.0, 6834725.0], [71037.4016410688, 6834951.633705028], [71029.2023633678, 6834944.404234367], [70750.0, 6835135.0], [70622.69142008063, 6835144.178549207], [70377.6593546303, 6835280.54999204], [70310.0, 6835105.0], [70266.79830747531, 6835119.400564175], [70143.68660481459, 6835042.059285892], [69905.74603216244, 6835252.352183086], [69748.87165060602, 6835307.150132975], [69542.30158529087, 6835124.326705196], [69408.9262472885, 6835224.685466377], [69447.0, 6835248.0], [69164.31459765467, 6835516.451678123], [69058.05060076645, 6835480.178314618], [68950.02348624203, 6835569.895748714], [68851.85175445187, 6835501.900969269], [68867.26203108672, 6835441.070929921], [68777.65266129872, 6835372.564311235], [68586.09318996416, 6835318.906810036], [68186.0426332705, 6835344.147585412], [67961.29376049606, 6835162.422167678], [67860.05243664369, 6835349.014830695], [67240.72216109044, 6835914.313636325], [66951.48748854549, 6835862.899162791], [66578.72649690375, 6835560.048977333], [66432.12765957447, 6835622.872340426], [66364.20577617329, 6835566.931407942], [66264.4670363032, 6835576.749089224], [66201.22892582353, 6835425.151411679], [66143.8043964486, 6835481.028666147], [66055.73532095019, 6835428.053761167], [66041.14677185312, 6835380.859547527], [65880.13595513358, 6835295.067977567], [65831.55069276932, 6835196.892984197], [65561.94858381338, 6834910.874519735], [65627.83287318161, 6834793.986901583], [65684.66166658177, 6834621.3533336725], [65696.57764262603, 6834433.588455796], [65646.5725899022, 6834335.803928929], [65683.40629667931, 6834078.555670459], [65655.16129032258, 6834008.548387097], [65794.04134846602, 6833916.626843532], [65715.88053179227, 6833788.232998483], [65774.47368421052, 6833686.842105263], [65593.18092567353, 6833599.6636079885], [65610.64622849581, 6833506.88134098], [65559.47178897954, 6833338.587184642], [65715.98743103539, 6833201.635997844], [65650.70187832108, 6833101.719429117], [65731.74657971605, 6832966.725728501], [65481.341316720616, 6832808.896098621], [65058.447512903156, 6832631.37334103], [64908.95095288339, 6832630.858047558], [64682.56897161745, 6832547.917672804], [64609.46528973271, 6832476.276402661], [64602.747800648234, 6832149.309183847], [64355.595255492706, 6831792.491436233], [64302.74545454545, 6831756.374025974], [64204.080628995216, 6831556.204999169], [64169.1421552809, 6831339.539855134], [64107.030903891, 6831340.384239632], [63919.68939406855, 6831183.8804394705], [63905.66493955095, 6831115.0], [63711.17344333248, 6831136.526489004], [63682.233377659795, 6830900.524656171], [63579.94653550611, 6830926.0678413], [63525.70471991319, 6830707.279312735], [63560.137593557265, 6830225.407849155], [63541.118721461185, 6830181.141552512], [63565.67183610644, 6830106.393276863], [63349.34767742881, 6829674.975333366], [63101.47609723792, 6829366.690487845], [63048.333333333336, 6829373.333333333], [62910.19736842105, 6829235.197368421], [62843.10344827586, 6829272.931034483], [62622.469798657716, 6829138.8953020135], [62446.835094608236, 6829072.229713994], [62250.01144658978, 6828862.307934863], [62201.88311688312, 6828696.233766234], [62245.0, 6828610.0]]]}}]}