{"type": "FeatureCollection", "crs": {"type": "name", "properties": {"name": "EPSG:25833"}}, "features": [{"type": "Feature", "properties": {"station": "79.3.0", "name": "Nessedalselv", "series": ["1001.1"], "nodes": 65, "fine_vertices": 50, "fine_area_m2": 6450.0, "reduced_vertices": 4, "reduced_area_m2": 6449.999999998243, "outline_tolerance_m": 20.0, "windows": [[467, 501], [1230, 1175], [2250, 2374]], "placed_on": "number", "distance_m": 1.2906512272783242, "uncertainty_m": 30.0, "elvid": "079-35-1", "objectid": 11509359, "lake": false, "confluence_near": false, "reach_up_m": 1000.0, "reach_down_m": 130.0, "reach_fork": false, "seeded_by": "river", "lake_rule": null, "lake_number": null, "lake_name": null, "lake_distance_m": null, "node_offset_m": 1.0549189609310874, "chain_nodes": 114, "lowered_nodes": 69, "lowered_max_m": 0.71612548828125, "direction_ok": true, "end_extended_m": 14.142135623730951, "end_closed": true, "downstream_checked": "whole", "a0": 0.006500000000000001, "area_up": 30.096400000000003, "area_down": 30.1213, "swing": 4633.046153846154, "largest_step": 30.114700000000003, "largest_step_at_m": 28.28427124746213, "checked_up_m": 24.142135623731065, "checked_down_m": 28.28427124746213, "drains": false, "monotone": false, "causes": ["swing", "chain_not_draining"]}, "geometry": {"type": "Polygon", "coordinates": [[[31630.0, 6811905.0], [31665.0, 6811940.0], [31568.958333333332, 6812035.9375], [31541.572280178836, 6811993.427719821], [31630.0, 6811905.0]]]}}]}