{"type": "FeatureCollection", "crs": {"type": "name", "properties": {"name": "EPSG:25833"}}, "features": [{"type": "Feature", "properties": {"station": "81.1.0", "name": "Hersvikvatn (Hagevatnet)", "series": ["1001.1"], "nodes": 70803, "fine_vertices": 3176, "fine_area_m2": 7080350.0, "reduced_vertices": 166, "reduced_area_m2": 7080349.999999743, "outline_tolerance_m": 20.0, "windows": [[907, 484], [1548, 963]], "placed_on": "number", "distance_m": 200.52491552541878, "uncertainty_m": 200.52491552541878, "elvid": "081-219-4", "objectid": 10931254, "lake": true, "confluence_near": false, "reach_up_m": 1000.0, "reach_down_m": 119.86754835015745, "reach_fork": false, "seeded_by": "lake", "lake_rule": "lake_line", "lake_number": 2536, "lake_name": "Hagevatnet", "lake_distance_m": 14.440774582320403, "node_offset_m": null, "chain_nodes": null, "lowered_nodes": null, "lowered_max_m": null, "direction_ok": null, "end_extended_m": null, "end_closed": null, "downstream_checked": null, "a0": null, "area_up": null, "area_down": null, "swing": null, "largest_step": null, "largest_step_at_m": null, "checked_up_m": null, "checked_down_m": null, "drains": null, "monotone": null, "causes": []}, "geometry": {"type": "Polygon", "coordinates": [[[-41230.0, 6824055.0], [-41313.059347907496, 6824207.236964071], [-41444.189375646776, 6824173.711624698], [-41442.512338369066, 6824100.67522703], [-41554.3184651413, 6824114.792373392], [-41463.05556165997, 6823894.79308551], [-41627.53357022057, 6823672.178428983], [-41706.851089006785, 6823709.407111124], [-41741.73819742489, 6823499.055793991], [-41692.01433104178, 6823361.930777366], [-41811.666666666664, 6823253.0337078655], [-41815.0, 6823190.0], [-41738.2909885536, 6823151.645494277], [-41709.95811351183, 6823032.3520768015], [-41543.42021013417, 6822867.70744201], [-41567.52489130349, 6822825.588131627], [-41466.97545257612, 6822761.874152532], [-41390.0, 6822565.0], [-41346.666666666664, 6822581.666666667], [-41295.0, 6822530.0], [-41325.79032988757, 6822426.048350562], [-41478.112618862775, 6822349.337856588], [-41336.422604836655, 6822075.738565865], [-41503.51442112056, 6821971.69999527], [-41385.0, 6821800.0], [-41468.666666666664, 6821742.333333333], [-41362.10725723889, 6821612.525116545], [-41434.78801076094, 6821527.49353471], [-41530.586968602394, 6821528.769797166], [-41333.4890564741, 6821387.500765354], [-41290.29850339889, 6821405.574044998], [-41121.97751873439, 6821223.0224812655], [-41169.28571428572, 6821175.714285715], [-41046.00056244386, 6821024.9427062785], [-41081.98324447978, 6820903.01675552], [-41049.44074770124, 6820851.682347629], [-41155.52740637707, 6820733.308613433], [-41106.58536585366, 6820717.926829268], [-41158.62565192196, 6820618.510720494], [-41127.39956272206, 6820566.400655917], [-41165.0, 6820510.0], [-41086.61383285303, 6820385.821325649], [-41155.0, 6820350.0], [-41091.86446226928, 6820241.974549001], [-41126.25066828041, 6820086.224039075], [-41245.0, 6819880.0], [-41176.147540983606, 6819870.327868853], [-41003.17382456275, 6819734.375947934], [-40930.63303219239, 6819734.082580481], [-40889.8626333647, 6819611.461725308], [-40841.068493150684, 6819579.493150685], [-40850.0, 6819535.0], [-40899.175672619975, 6819584.17567262], [-41283.77153832766, 6819231.960830891], [-41340.0, 6819255.0], [-41340.69331788335, 6819184.395519505], [-41290.560975609755, 6819146.658536585], [-41320.50005489077, 6819114.000439126], [-41276.271284644485, 6818938.662536616], [-41302.11031008336, 6818889.747148836], [-41209.13740843647, 6818787.4412730485], [-41237.122541514545, 6818587.877458486], [-41303.94736842105, 6818521.052631579], [-41251.666666666664, 6818446.666666667], [-41325.03659331295, 6818312.158504185], [-41292.81718963165, 6818266.936269733], [-41365.70870233908, 6818195.780768852], [-41281.1742803428, 6818066.5456454335], [-41306.511417282076, 6818011.411422032], [-41220.583279862796, 6817672.737248797], [-41285.0, 6817340.0], [-41222.31240691947, 6817224.963913392], [-41234.070504346826, 6816846.340866464], [-41175.17985611511, 6816888.8848920865], [-41129.10902204181, 6816851.469489597], [-41014.60794831866, 6816905.647822547], [-40805.242767641575, 6816733.425622503], [-40747.66450283982, 6816345.429588474], [-40657.74907677919, 6816263.866776586], [-40627.91535118311, 6816512.180699827], [-40656.11852374776, 6816619.4320237115], [-40585.0, 6816710.0], [-40636.66948867023, 6816958.621203418], [-40495.19637791839, 6817095.670957888], [-40521.25, 6817201.25], [-40498.315283258235, 6817563.343584353], [-40545.0, 6817803.333333333], [-40453.528437106186, 6817773.938847921], [-40460.316838055034, 6817955.587490642], [-40424.71916908712, 6818005.470393666], [-40503.85696134799, 6818108.424308704], [-40452.73058339965, 6818215.978079819], [-40520.775917480765, 6818413.374138407], [-40359.59231137932, 6818675.040302757], [-40363.54714083419, 6818854.9034594465], [-40323.6, 6818902.2], [-40415.0, 6818960.0], [-40394.926564044625, 6819080.271148143], [-40454.09853889292, 6819171.588524777], [-40423.75160067326, 6819284.106474849], [-40379.503407029755, 6819311.7513113385], [-40416.01538563045, 6819432.659690968], [-40353.13610534575, 6819515.660340943], [-40413.251568280524, 6819558.320733473], [-40406.036146905826, 6819717.186590056], [-40229.50246103857, 6820008.391896825], [-40265.0, 6820040.0], [-40238.333333333336, 6820138.639455782], [-40257.80902051319, 6820250.4855950745], [-40318.58495376213, 6820352.298181298], [-40374.280764219315, 6820527.333197694], [-40280.98875829677, 6820721.865454026], [-40371.02348784335, 6820806.821746067], [-40365.730749781214, 6820849.286980753], [-40255.0, 6820860.0], [-40265.0, 6820910.0], [-40345.0, 6820930.0], [-40247.06896551724, 6821059.310344827], [-40306.85641973946, 6821148.652390941], [-40201.37631334214, 6821177.971630372], [-40208.846153846156, 6821508.461538462], [-40265.0, 6821600.0], [-40284.710144927536, 6821787.31884058], [-40377.30819889935, 6821836.766650321], [-40308.838574970636, 6822014.564791857], [-40404.15302448256, 6822140.1619465295], [-40454.42028985507, 6822151.594202898], [-40418.10266075691, 6822279.106466828], [-40516.280000726685, 6822328.89739211], [-40460.0, 6822545.0], [-40408.54838709677, 6822493.225806451], [-40354.24166285976, 6822520.449977159], [-40414.76487437951, 6822662.133210744], [-40371.47384948997, 6822758.560903339], [-40365.89629133093, 6823040.10399414], [-40445.71261599977, 6823088.354657397], [-40466.213020746975, 6823079.684413495], [-40647.06973403605, 6823245.850183395], [-40606.811471715155, 6823367.090168796], [-40526.776067490566, 6823472.399911197], [-40535.145631067964, 6823530.436893204], [-40485.0, 6823551.666666667], [-40565.799486206764, 6823588.535041715], [-40572.46199522739, 6823634.410008017], [-40507.41935483871, 6823666.720430108], [-40515.0, 6823713.333333333], [-40463.57142857143, 6823692.857142857], [-40361.666666666664, 6823833.333333333], [-40371.34935974873, 6823928.748489973], [-40298.00557526609, 6823963.2944754185], [-40362.34190137832, 6824055.739339456], [-40313.5835869594, 6824103.851722254], [-40470.0, 6824195.0], [-40447.0, 6824276.0], [-40457.57142857143, 6824421.285714285], [-40540.936739659366, 6824445.936739659], [-40600.628009062064, 6824576.861344334], [-40692.07331380146, 6824517.201976046], [-40736.50374052158, 6824561.513126453], [-40945.90250142209, 6824597.286735093], [-41023.69798400222, 6824671.19700615], [-41191.86795119459, 6824534.698073208], [-41186.52513414622, 6824489.404170697], [-41259.212671066234, 6824461.007085356], [-41182.05485141339, 6824247.113332055], [-41207.699310451695, 6824230.922755094], [-41230.0, 6824055.0]]]}}]}