{"type": "FeatureCollection", "crs": {"type": "name", "properties": {"name": "EPSG:25833"}}, "features": [{"type": "Feature", "properties": {"station": "82.4.0", "name": "Nautsundvatn", "series": ["1001.0"], "nodes": 2184566, "fine_vertices": 16558, "fine_area_m2": 218457350.0, "reduced_vertices": 806, "reduced_area_m2": 218457349.99999946, "outline_tolerance_m": 20.0, "windows": [[478, 644], [1276, 1354], [2751, 2952], [4817, 5379]], "placed_on": "number", "distance_m": 21.30087579480051, "uncertainty_m": 30.0, "elvid": "082-81-346", "objectid": 11623821, "lake": true, "confluence_near": false, "reach_up_m": 304.3538037803058, "reach_down_m": 130.0, "reach_fork": false, "seeded_by": "lake", "lake_rule": "lake_line", "lake_number": 28684, "lake_name": "Nautsundvatnet", "lake_distance_m": 1.4696491749557572, "node_offset_m": null, "chain_nodes": null, "lowered_nodes": null, "lowered_max_m": null, "direction_ok": null, "end_extended_m": null, "end_closed": null, "downstream_checked": null, "a0": null, "area_up": null, "area_down": null, "swing": null, "largest_step": null, "largest_step_at_m": null, "checked_up_m": null, "checked_down_m": null, "drains": null, "monotone": null, "causes": []}, "geometry": {"type": "Polygon", "coordinates": [[[-12345.0, 6831150.0], [-12310.714285714286, 6831114.285714285], [-12395.100715807357, 6831020.394971555], [-12361.534898724076, 6830803.434121496], [-12428.922208281056, 6830645.2306865025], [-12361.666666666668, 6830513.333333333], [-12418.314651452889, 6830448.844766175], [-12466.87074829932, 6830476.56462585], [-12537.227248780264, 6830430.241542021], [-12673.523717425196, 6830501.495538771], [-12830.369642831538, 6830439.769367535], [-12945.5223880597, 6830502.313432836], [-12986.25, 6830482.5], [-13041.654114664718, 6830529.292046971], [-13090.0, 6830525.0], [-13140.0, 6830615.0], [-13265.852382112822, 6830602.286389217], [-13349.358974358975, 6830503.247863248], [-13440.0, 6830495.0], [-13644.236706689537, 6830327.898799314], [-13676.433500983832, 6830349.928184884], [-13811.810343384077, 6830300.533479635], [-13917.671753125072, 6830343.450305774], [-13992.226345083487, 6830303.5157699445], [-13967.541027040468, 6830253.567069937], [-14024.256423781375, 6830173.12033823], [-13906.829268292684, 6830070.609756097], [-14032.555550569705, 6829926.920883806], [-14003.095238095239, 6829887.142857143], [-14047.05736571312, 6829870.961244709], [-14031.124575860398, 6829673.852399418], [-14091.5, 6829613.25], [-14139.240383158023, 6829642.882112219], [-14200.0, 6829585.0], [-14369.715994407703, 6829546.513340106], [-14503.428571428572, 6829421.857142857], [-14455.486777200436, 6829378.6699180715], [-14524.09751411447, 6829251.6398824835], [-14589.051446945337, 6829226.120042873], [-14603.35015145268, 6829121.035790481], [-14946.116081105458, 6828901.666349295], [-15135.36938239948, 6829021.531046401], [-15250.0, 6828925.0], [-15348.474140394323, 6828910.206210115], [-15439.0, 6828752.0], [-15425.0, 6828710.0], [-15501.623702493194, 6828625.9789535925], [-15723.333333333332, 6828571.666666667], [-15918.6331457584, 6828575.384577964], [-16093.791602322544, 6828513.1708679795], [-15941.589595375723, 6828263.23699422], [-16036.669963435834, 6828208.444524366], [-16495.0, 6827700.0], [-16495.0, 6827652.162162162], [-16822.85946565295, 6827408.989131145], [-17193.92374986584, 6827396.170681331], [-17178.227211038735, 6827374.2489573015], [-17315.432098765432, 6827314.50617284], [-17360.0, 6827345.0], [-17461.44425420342, 6827304.624065952], [-17465.630176629078, 6827249.61231414], [-17520.0, 6827265.0], [-17613.797337304975, 6827204.651997021], [-17708.151708938945, 6827202.272146354], [-17839.427767354595, 6827047.135709818], [-17902.20602673367, 6827115.971520541], [-17892.019209915237, 6827232.581179185], [-18188.49100232041, 6827155.337730304], [-18346.208917968055, 6827154.961315231], [-18351.461465281944, 6827094.062518324], [-18576.666666666668, 6826965.0], [-18600.271331667263, 6826922.511602999], [-18732.25352112676, 6826842.746478873], [-18816.923076923078, 6826867.307692308], [-18850.0, 6826835.0], [-18963.777437468096, 6826930.241685318], [-19073.888888888887, 6826908.888888889], [-19239.542777648596, 6826966.005885273], [-19323.845021004727, 6826950.761799983], [-19573.72484119815, 6826999.964606871], [-19696.403495793347, 6826813.408499392], [-19662.539389890277, 6826756.2353335805], [-19744.91143569694, 6826624.601219701], [-19598.388007721904, 6826553.824794728], [-19727.50712024008, 6826456.590832264], [-19680.840501758914, 6826305.861992119], [-19577.271497300007, 6826215.511986528], [-19640.0, 6826125.0], [-19709.84496124031, 6826131.5891472865], [-19725.0, 6826060.0], [-19656.05005418021, 6825991.05005418], [-19860.611950739985, 6825778.965175659], [-20037.271791719253, 6825851.31791951], [-20069.897756906103, 6825903.5212723445], [-20291.332875637792, 6825883.832433506], [-20375.0, 6825923.333333333], [-20375.0, 6825898.532252783], [-20303.894062863794, 6825807.211874273], [-20345.0, 6825730.0], [-20239.245987605274, 6825679.303988559], [-20208.857221932074, 6825452.634386932], [-19682.993004388103, 6825164.851684767], [-19510.919601200058, 6825195.194886643], [-19309.596623095396, 6825088.736421435], [-19249.23351246808, 6825005.815578718], [-19455.577129401165, 6824820.153185916], [-19503.91154603805, 6824724.785410377], [-19398.41912854461, 6824704.201659915], [-19275.0, 6824580.0], [-19285.0, 6824550.0], [-19210.166980011876, 6824536.693301009], [-19086.210071942445, 6824418.637410072], [-18906.29410529088, 6824351.003270382], [-18895.0, 6824276.666666667], [-18957.8835978836, 6824287.29276896], [-19040.907336386797, 6824067.697876718], [-19013.0, 6824052.0], [-19061.64859673644, 6823974.175293928], [-19185.29411764706, 6823956.176470588], [-19215.88450524976, 6823894.573125464], [-19152.994819854903, 6823786.513979422], [-19021.76858509346, 6823761.528776402], [-19035.0, 6823690.0], [-18978.0, 6823633.0], [-18753.99220715481, 6823600.54515957], [-18463.54697895841, 6823240.88502917], [-18400.0, 6823125.0], [-18351.7265625, 6823188.9296875], [-18124.097284128347, 6823127.035464265], [-18140.35419086003, 6823249.657763508], [-18225.0, 6823293.529411765], [-18022.785446413825, 6823511.268824038], [-17860.0, 6823415.0], [-17803.333333333332, 6823448.333333333], [-17728.571428571428, 6823373.571428572], [-17650.0, 6823435.0], [-17496.521870845045, 6823358.215746336], [-17468.286690944416, 6823381.257035611], [-16948.302771271905, 6823196.955868109], [-16735.128866131152, 6823174.198289157], [-16447.051727293478, 6823009.589791542], [-16244.899372260821, 6823032.11410636], [-16193.333333333332, 6823017.380952381], [-16144.234018586314, 6823071.336243312], [-16080.454545454546, 6823035.0], [-15902.03049065006, 6823138.71438005], [-15899.59111051072, 6823182.307006614], [-15753.50210265769, 6823142.906335616], [-15758.041728529543, 6823262.327946061], [-15932.692067667298, 6823343.828165024], [-15889.010827281307, 6823543.901854334], [-16075.0, 6823600.0], [-16039.545454545454, 6823662.7272727275], [-16105.0, 6823750.0], [-16059.478114478115, 6823836.8350168355], [-16079.49814126394, 6823925.501858736], [-15985.105166000094, 6824041.529509036], [-15738.777570378272, 6823976.436516704], [-15694.259028642591, 6824019.869240348], [-15560.0, 6823955.0], [-15514.666666666668, 6824000.333333333], [-15366.145804611326, 6823947.220947597], [-15335.0, 6823851.762325369], [-15198.788135694576, 6823704.37302132], [-15205.0, 6823626.0], [-15130.0, 6823575.0], [-15096.666666666668, 6823619.444444444], [-14980.0, 6823565.0], [-14785.843643827151, 6823664.040147027], [-14527.97808707893, 6824035.406342147], [-14451.879123280163, 6824084.754518518], [-14151.26358858808, 6824059.537656997], [-14152.203764989043, 6823967.759487687], [-14055.568458491165, 6823755.2754100235], [-14136.779508940192, 6823568.796883908], [-14040.556218254722, 6823495.443483531], [-14070.77407408649, 6823416.873344564], [-13864.74073267563, 6823259.222198027], [-13684.547059998276, 6823194.419579177], [-13650.547848450848, 6823213.236848047], [-13186.847367347928, 6823122.661284713], [-13173.131571839422, 6822957.730256668], [-13052.962962962964, 6822927.962962963], [-12977.5, 6822987.5], [-12827.501472488151, 6823012.176282714], [-12512.662122372298, 6822710.2597641805], [-12362.216, 6822726.976], [-12237.23489729232, 6822677.205836205], [-12110.0, 6822735.0], [-11906.841782895543, 6822632.063507341], [-11781.58173956821, 6822654.007705504], [-11683.58475356778, 6822747.071827831], [-11469.411764705883, 6822775.0], [-11452.307818776879, 6822674.121625031], [-11268.916846774282, 6822699.623776761], [-11136.142264692015, 6822622.620275086], [-11133.27778639772, 6822542.083631273], [-11113.932820491196, 6822529.019385192], [-10846.313346054561, 6822836.3653859375], [-10890.515695067264, 6822885.403587444], [-10759.863896977962, 6822909.404199229], [-10604.133835092109, 6823063.011121587], [-10195.40526340298, 6822974.763204489], [-10163.776843980118, 6823009.757174786], [-9896.666666666668, 6822988.333333333], [-9822.51952531737, 6823094.000615697], [-9755.61095769105, 6823084.443953822], [-9649.6811729398, 6823157.837305553], [-9674.665080729646, 6823207.841372029], [-9853.0, 6823265.0], [-9848.0, 6823315.0], [-9737.291689532045, 6823300.598822276], [-9295.3577878237, 6823384.964162221], [-9263.75, 6823427.5], [-8942.666580200726, 6823450.160241829], [-8824.65523979834, 6823417.283126176], [-8793.49005960013, 6823470.393121328], [-8610.863053395393, 6823511.537086142], [-8494.40332475757, 6823495.79556699], [-8450.0, 6823555.0], [-8321.213686642004, 6823578.415693338], [-8308.276938945983, 6823492.602041462], [-8085.931386151287, 6823525.184705934], [-8025.0, 6823430.0], [-8085.510204081633, 6823406.224489796], [-8175.164205344623, 6823208.796728721], [-8277.562942820348, 6823172.1926654745], [-8108.742514970059, 6823012.065868263], [-7851.432017955098, 6823012.159171952], [-7802.750912408759, 6823064.536192214], [-7643.75, 6822981.25], [-7545.46035957508, 6823005.509448358], [-7406.923076923076, 6822887.307692308], [-7322.399283795881, 6822885.358102059], [-7309.178808821587, 6822852.182946692], [-7399.571428571429, 6822818.285714285], [-7327.572047568268, 6822762.804894511], [-7258.461538461539, 6822662.179487179], [-7205.0, 6822648.333333333], [-7267.92264756085, 6822607.613859586], [-7304.848714207552, 6822529.896863031], [-7025.764705882353, 6822386.294117647], [-6930.0, 6822395.0], [-6861.666666666666, 6822326.666666667], [-6872.2581544134555, 6822254.313527397], [-6611.895732705798, 6822210.42480332], [-6546.23389227151, 6822154.390867918], [-6571.651653301109, 6822099.637482149], [-6533.128249592493, 6822053.345078844], [-6644.991993594875, 6822021.825460368], [-6655.0, 6821950.0], [-6611.630434782608, 6821923.152173913], [-6665.2776489464395, 6821835.694373065], [-6590.070717653221, 6821794.025667889], [-6633.550774832398, 6821768.25583796], [-6417.68185219093, 6821617.842811025], [-6460.0, 6821545.0], [-6617.67201077428, 6821490.160655533], [-6550.843604683145, 6821394.7494230755], [-6225.0, 6821210.0], [-6242.633810477, 6821172.528152737], [-6067.880680975546, 6821096.259418049], [-6110.802847392946, 6821058.52156949], [-6081.941957475001, 6821014.681629166], [-6145.0, 6820990.0], [-6117.857142857143, 6820935.714285715], [-6165.0, 6820890.0], [-6124.244681825119, 6820776.790782847], [-6207.91873624853, 6820762.249181559], [-6240.161290322581, 6820613.870967742], [-6053.315691427213, 6820523.403914763], [-5987.7458143689, 6820362.995104731], [-5847.142857142857, 6820253.979591837], [-5790.647889674536, 6820115.588306712], [-5645.7692307692305, 6820083.846153846], [-5675.0, 6820040.0], [-5549.333333333334, 6819965.0], [-5366.501695383762, 6819721.841423716], [-5409.618594117686, 6819434.618594117], [-5361.666666666666, 6819386.666666667], [-5405.0, 6819310.0], [-5327.515592017493, 6819272.181484237], [-5185.045215712633, 6818999.655125569], [-5177.537097806122, 6818866.019028749], [-5121.153846153846, 6818744.230769231], [-5024.390671373145, 6818905.417471499], [-4901.25, 6818826.25], [-4858.239720998532, 6818872.1677679885], [-4824.931116850674, 6818792.135861584], [-4706.638437571555, 6818744.1037109755], [-4590.0, 6818755.0], [-4560.0, 6818805.0], [-4480.14613008744, 6818768.97462272], [-4308.677399029726, 6818937.2264643805], [-4218.264953257436, 6818800.734165922], [-4114.536074826114, 6818905.052389598], [-4035.2113081766183, 6818871.284926546], [-4024.6153846153848, 6818925.0], [-3927.4389183236235, 6818908.593583613], [-3865.152126863566, 6819025.801815189], [-3775.0, 6819090.0], [-3700.0, 6818965.0], [-3616.1744613767696, 6818981.227009985], [-3540.943810939145, 6818803.844619099], [-3356.1111111111095, 6818813.888888889], [-3175.511593061776, 6818678.29653337], [-3158.8461538461524, 6818442.984615385], [-3078.4948096885782, 6818351.384083045], [-3070.0, 6818255.0], [-2975.3712952018104, 6818304.818569363], [-2774.5521513183267, 6818449.909755198], [-2637.0351590616738, 6818465.15125079], [-2571.972730761918, 6818370.918788696], [-2302.0629263487353, 6818174.355177562], [-2254.5809831935185, 6818206.280575677], [-2125.0, 6818060.0], [-2060.4780667192026, 6818114.595482007], [-1950.0768221741382, 6818085.26750518], [-1866.2982291462176, 6817939.495921199], [-1536.1719172129524, 6818136.495008282], [-1495.9608486038596, 6818112.232659496], [-1504.0, 6817999.0], [-1436.0, 6817951.0], [-1391.8595041322333, 6817983.719008264], [-1365.0, 6817930.0], [-1385.0, 6817890.0], [-1283.8274310633824, 6817891.819141122], [-965.5137201741745, 6818078.266573207], [-936.4167631601194, 6818048.89198105], [-702.3720895743681, 6818093.941865639], [-624.7721897835509, 6818262.255528601], [-583.9676015380755, 6818281.61266923], [-534.7569886625533, 6818139.021103119], [-369.5285334127475, 6818163.399912708], [-315.1760067618052, 6818147.323827739], [-189.81210193605875, 6818215.08016626], [39.66155416854599, 6818061.419604086], [363.66040721823447, 6818019.19517137], [278.6859862374622, 6818328.199733465], [467.78648451229674, 6818495.464414085], [651.9765166340512, 6818751.653620352], [742.0, 6818677.0], [873.9038541234986, 6818778.651056776], [984.6603757754638, 6818746.547717166], [1206.7373245488416, 6818985.0], [1254.3693936386408, 6818964.541377191], [1411.682586141651, 6819070.953679495], [1406.5017757329806, 6819135.337023391], [1683.7969017282958, 6819407.324482262], [1985.469188177878, 6819409.530811822], [2030.0, 6819365.0], [2075.320055904962, 6819401.530398323], [2161.9493105955225, 6819255.98222811], [2343.333333333332, 6819195.0], [2336.410894310873, 6819279.066484273], [2385.7063655219936, 6819456.24287158], [2545.0, 6819520.0], [2537.3076923076915, 6819605.384615385], [2625.0, 6819620.0], [2584.4444444444453, 6819665.0], [2460.0, 6819665.0], [2395.0, 6819730.0], [2481.918696535635, 6819849.625216366], [2438.461538461539, 6819868.846153846], [2514.124239932258, 6819948.055802375], [2401.5802317350426, 6820018.386210861], [2467.5, 6820122.5], [2248.343451516801, 6820311.115111244], [2186.1441221191926, 6820290.385349274], [2064.7368421052633, 6820329.736842105], [2012.2949485695754, 6820394.882051466], [1734.8253582611214, 6820559.235822988], [1685.0, 6820658.823529412], [1725.0, 6820710.0], [1694.6153846153866, 6820740.384615385], [1550.0, 6820625.0], [1457.2940305627963, 6820641.042432627], [1358.642774253407, 6820585.9235788165], [1176.3355481727558, 6820639.554817276], [1082.9223744292249, 6820572.397260274], [1050.0, 6820605.0], [827.4177936336746, 6820465.241433668], [793.4176603286287, 6820494.706130608], [642.1159905154782, 6820538.3788612075], [677.186160440906, 6820550.281690141], [647.5, 6820597.5], [526.09375, 6820540.78125], [440.5861115554253, 6820602.418367114], [290.0, 6820565.0], [227.5, 6820627.5], [260.19832943185247, 6820649.87254119], [110.68637633737671, 6820898.769580468], [180.54939886670036, 6821033.609195387], [325.1181626777834, 6821093.766596485], [288.9353612167288, 6821256.064638783], [220.07575757575614, 6821245.2272727275], [229.07076254949789, 6821333.584110359], [117.83737024221773, 6821463.356401384], [-6.9325598259601975, 6821464.840464104], [-119.88299353366892, 6821543.305374022], [-226.66666666666788, 6821565.0], [-385.428042572883, 6821711.307265155], [-477.21415607985546, 6821671.578947368], [-495.0, 6821705.0], [-431.0, 6821766.0], [-476.1403508771946, 6821811.140350877], [-530.9756097560967, 6821796.463414635], [-542.1386742733739, 6821844.132717167], [-810.1758195848051, 6821848.611949083], [-760.3188516763694, 6821914.592935549], [-866.9218465840531, 6822266.284156639], [-958.9113668368591, 6822386.714881221], [-1046.5505226480818, 6822318.449477352], [-1223.2636613309405, 6822356.181569976], [-1316.4852957014627, 6822239.079258575], [-1428.3042357383529, 6822327.180001334], [-1507.727272727272, 6822315.454545454], [-1535.242940419157, 6822432.64826059], [-1721.4712014077413, 6822721.14581317], [-1886.7845309778022, 6822853.707871672], [-1865.0, 6822900.0], [-1990.056683775987, 6822856.155653235], [-2011.7565296999674, 6822883.428127094], [-1965.105540897097, 6822925.171503957], [-2033.5714285714275, 6823031.428571428], [-1964.0205428555128, 6823032.435616704], [-1911.7020398615095, 6823079.149779879], [-1765.9246575342477, 6823062.089041096], [-1698.3193648966808, 6823222.606682995], [-1807.078520621828, 6823329.316030164], [-1833.4911903214706, 6823439.395600219], [-2000.581463499282, 6823565.727265295], [-2004.2857142857138, 6823615.0], [-1894.482758620692, 6823605.344827586], [-1813.8761242841683, 6823652.938412377], [-1593.993353453665, 6823502.337764365], [-1507.5, 6823560.0], [-1440.0, 6823445.0], [-1421.304347826088, 6823467.173913044], [-1330.0, 6823415.0], [-1200.9831633534122, 6823497.412736958], [-958.9236363636373, 6823476.803636364], [-895.8024811438772, 6823591.82167349], [-663.1313332390782, 6823749.874837516], [-652.1915797148213, 6823958.8088941965], [-516.0606060606078, 6824118.939393939], [-548.5999999999985, 6824178.8], [-436.54344034030146, 6824216.152186553], [-412.83724978242026, 6824129.255874674], [-260.82799828145653, 6824233.716490882], [-82.03135407527225, 6824204.855043927], [83.58497744056149, 6824049.579110475], [99.9583919642937, 6823897.399530591], [65.25780852722892, 6823832.506294496], [175.0, 6823753.007496827], [203.6929619674047, 6823698.070781247], [323.8068181818162, 6823783.096590909], [516.138806566436, 6823734.61498727], [757.658255987666, 6823604.50753291], [777.8710456141234, 6823685.442870588], [904.6666666666679, 6823795.666666667], [928.2352941176468, 6823748.529411765], [982.906326264696, 6823789.662854999], [1116.6876687668773, 6823747.883288329], [1384.1472918071595, 6823915.430231592], [1476.3707975805337, 6823837.976508651], [1650.6019320288688, 6823857.0918582585], [1772.437822423206, 6823944.227273871], [1853.3707865168544, 6823891.742995307], [2087.079993260959, 6824062.024329252], [2100.119760235786, 6824160.990339045], [2323.1132075471687, 6824381.886792453], [2302.179818584398, 6824413.496959995], [2453.994656055558, 6824507.301322454], [2666.6666666666642, 6824555.0], [3028.8076095664874, 6824759.901598608], [3193.082159246642, 6824895.023856602], [3767.47663101117, 6825050.243076739], [3815.0000000000036, 6824920.0], [3869.024340355896, 6824905.108406628], [4018.8504844200033, 6824740.883739199], [4031.863920756743, 6824682.927395966], [4204.00869764778, 6824546.349558484], [4131.566092179608, 6824498.084733649], [4086.666666666668, 6824365.0], [4214.09443225943, 6824347.897019034], [4648.639233016394, 6824548.052951129], [4774.251434533126, 6824559.345331247], [4880.356083086055, 6824644.287833828], [4831.703865437488, 6824725.502183406], [4847.72079487993, 6824851.304704177], [4792.5361618367315, 6824997.252327681], [5113.735362498537, 6825305.4273238], [5326.327311914418, 6825379.672281625], [5333.715243949449, 6825432.7668865165], [5447.2204140235335, 6825586.11932297], [5513.009899478166, 6825534.864296042], [5565.440023577954, 6825635.641909814], [5717.401670231116, 6825684.547989604], [5912.60003441801, 6825682.78432193], [6147.592780137435, 6825579.3875121], [6240.0, 6825445.0], [6327.600176422206, 6825482.32292106], [6497.856530608671, 6825731.829168996], [6744.884993216212, 6825904.05987957], [6772.142857142859, 6825984.285714285], [6898.6406171893395, 6826070.70791279], [6865.565202921709, 6826566.87946493], [7053.582633022677, 6826723.705102078], [7138.027156611082, 6826638.088964442], [7463.180059374059, 6827178.847623462], [7544.502617216527, 6827215.523554949], [7494.0392009571915, 6827272.105645668], [7573.070821772835, 6827385.008812995], [7539.401653856279, 6827433.642055541], [7614.903621204299, 6827706.83449736], [7675.038281057052, 6827670.949617189], [7697.389812304875, 6827921.657390464], [7572.498633400501, 6828060.313012475], [7312.168260944727, 6828170.3592352215], [7264.488165715804, 6828211.272113364], [6945.0401306513995, 6828371.462185234], [6950.0, 6828435.0], [6628.973149972779, 6828652.708991791], [6498.122947349002, 6828571.609489767], [6480.886287625417, 6828477.090301003], [6417.824858757063, 6828432.485875706], [6395.062341407123, 6828270.850415061], [6329.628594911705, 6828234.056053418], [6308.002915451896, 6828355.014577259], [6137.075265576736, 6828508.008362842], [6108.433409521542, 6828577.996291314], [5916.4057312152, 6828786.596005517], [5795.0, 6828790.0], [5853.027107640275, 6828882.614437791], [5767.099081417506, 6828980.034469273], [5643.518408550513, 6829017.166660494], [5589.171528588096, 6828953.313885648], [5615.0, 6828880.0], [5563.27496757458, 6828870.752269779], [5515.37049626105, 6828932.885791978], [5327.9741546623045, 6828831.82754213], [5330.57826400944, 6828919.158937265], [5097.051003983153, 6829129.030285405], [4937.350002345418, 6828896.225815372], [4916.875, 6828975.625], [4804.311926605504, 6828999.311926605], [4766.666666666668, 6828961.666666667], [4679.1131238796115, 6829003.77063874], [4616.52112601107, 6828941.521924223], [4546.0, 6828963.0], [4526.904055230607, 6829018.82433563], [4444.33942432718, 6829003.442417471], [4310.029135804718, 6828887.854786862], [4211.057513873246, 6828901.992100617], [4067.553501329621, 6828844.184500443], [3979.71143722779, 6828979.527645332], [3874.3574072780575, 6828972.9489418175], [3625.1413881748085, 6828798.239074551], [3600.0, 6828815.0], [3570.9841111865135, 6828747.1139104245], [3419.3791520266823, 6828723.1655594595], [3373.9961312217347, 6828747.49637302], [3200.0, 6828605.0], [3167.5, 6828637.5], [3095.3953709059933, 6828508.053662729], [2994.390535997929, 6828485.777432038], [2691.0048791634836, 6828734.759656475], [2567.4471623765385, 6828882.32229671], [2623.1598460093956, 6828993.847853521], [2604.0943274764213, 6829101.781972635], [2543.3681589546613, 6829111.704549191], [2589.6266479530714, 6829208.935075579], [2523.4000000000015, 6829272.0], [2555.4718488675717, 6829387.05615509], [2475.9673525513717, 6829361.4708154], [2290.0, 6829125.0], [2219.9253769817624, 6829187.984530493], [2384.5063034470622, 6829550.33941638], [2329.6808510638293, 6829588.031914894], [2356.9485433670197, 6829787.5556625705], [2484.171906236901, 6830008.518990794], [2605.6533334471023, 6830276.478461394], [2551.666666666668, 6830345.0], [2583.8888888888905, 6830393.333333333], [2550.728155339806, 6830441.456310679], [2577.258757274263, 6830505.105612915], [2478.333333333332, 6830503.333333333], [2556.183673469386, 6830581.183673469], [2469.129172877012, 6830846.591874452], [2305.757575757576, 6830828.717171717], [2158.46242600834, 6830929.813501458], [1900.0, 6830935.0], [1850.0, 6830885.0], [1720.9367245292706, 6830973.027712867], [1414.406779661018, 6830810.593220339], [1345.8178752107888, 6830839.384485666], [1235.53507564971, 6830747.984831619], [1189.2517390486937, 6830778.925549915], [1098.709677419356, 6830718.870967742], [1075.3986091227343, 6830765.252290864], [976.6441441441457, 6830671.1486486485], [885.0573458336949, 6830754.061660615], [809.0344827586196, 6830708.310344827], [690.9686927911644, 6830757.809175663], [585.0171172030059, 6830692.887029349], [430.0, 6830685.0], [384.6753246753251, 6830730.324675324], [362.30769230769147, 6830693.461538462], [275.7783902326046, 6830770.919189259], [172.5994514463273, 6830742.997291267], [152.6271186440681, 6830867.31638418], [211.89322356769844, 6830968.604999154], [166.31805157593044, 6831021.905444126], [194.51802120141292, 6831062.672791519], [151.25, 6831096.25], [195.0, 6831140.0], [106.56559925918191, 6831199.649476156], [154.07298189213543, 6831509.536490946], [201.99071897033718, 6831496.849225166], [265.0, 6831570.0], [323.35406058602166, 6831766.342022302], [534.9540649071096, 6831906.769996027], [531.3530183973926, 6831992.6017184695], [587.6666666666679, 6832112.666666667], [567.6694915254229, 6832447.330508474], [427.2916666666679, 6832587.708333333], [284.28571428571377, 6832593.571428572], [216.47226843740282, 6832542.957567102], [65.0, 6832580.0], [82.1428571428587, 6832632.857142857], [-22.555555555558385, 6832775.666666667], [-33.94071060291026, 6832934.442030518], [-205.26199812961204, 6833018.387815377], [-328.6216260148103, 6832940.819698406], [-513.3876423886795, 6832949.3817742495], [-591.0839884534871, 6832823.635049692], [-675.0, 6832890.0], [-691.3690264037432, 6833031.708854601], [-804.7390155021676, 6833103.475387555], [-938.8364230206316, 6833267.42614191], [-1090.2022178734514, 6833234.530332681], [-1157.0916334661342, 6833302.1713147415], [-1195.0, 6833270.0], [-1207.3617366921098, 6833051.811849822], [-1361.0281888838472, 6832986.370918511], [-1393.488372093023, 6833029.651162791], [-1425.0, 6833000.0], [-1356.4143166067588, 6832875.5333813885], [-1393.8393159522893, 6832738.884310104], [-1324.8343496235648, 6832628.936015407], [-1381.9518941633432, 6832565.481058367], [-1468.1172824860223, 6832120.45850519], [-1601.250264963146, 6831716.661502608], [-1677.9573170731674, 6831600.701219512], [-1665.0, 6831510.0], [-1719.9019607843147, 6831442.7450980395], [-1725.0, 6831360.0], [-1788.7387533699293, 6831253.929093448], [-1847.1428571428587, 6831267.380952381], [-1898.267260485929, 6831214.457547499], [-1960.0, 6831245.0], [-1969.9542134144212, 6831203.938869665], [-2023.2817947108015, 6831226.362582509], [-2144.7048919610206, 6831085.220846177], [-2123.73333333333, 6831139.0], [-2159.879865236282, 6831222.389396223], [-2093.009929664873, 6831253.595366157], [-2195.936468044645, 6831474.527009711], [-2281.6085139968272, 6831583.2503098855], [-2262.0750590237403, 6831873.675531214], [-2334.2072448127255, 6832038.937311356], [-2560.5643576645307, 6832009.754665642], [-2673.49022123971, 6831882.876075392], [-2779.5125367698565, 6831905.48746323], [-2923.7949400798934, 6831877.389406717], [-2990.91735151831, 6832041.880560218], [-3121.8881846364857, 6832145.689669947], [-3139.6127946127963, 6832243.063973064], [-3244.2326610919845, 6832279.232661092], [-3326.5125414113063, 6832233.665109435], [-3444.4773175542396, 6832365.0], [-3626.480020739855, 6832441.648099527], [-3661.228070175439, 6832530.614035088], [-3930.6787050223247, 6832653.4519466385], [-3957.3019498705944, 6832618.375428831], [-4055.0, 6832700.0], [-4033.0, 6832778.0], [-4080.0819672131147, 6832825.081967213], [-4049.0, 6832916.0], [-4075.12784090909, 6833028.330965909], [-4232.914188711431, 6833135.328955345], [-4433.895133089385, 6833166.471790949], [-4560.0, 6833125.0], [-4580.0, 6833145.0], [-4589.699842022117, 6833115.900473934], [-4679.0, 6833101.2], [-4685.0, 6833050.0], [-4581.85938712795, 6833015.173792301], [-4514.756097560976, 6832845.853658536], [-4605.048571887135, 6832726.687703861], [-4837.5239371888165, 6832629.203370356], [-4909.0, 6832566.0], [-4845.0, 6832530.0], [-4847.220464681046, 6832472.325163903], [-4731.660036833835, 6832275.1612139195], [-4764.362944474169, 6832206.592638815], [-4878.294129493834, 6832142.985336321], [-4866.297676365897, 6831999.575995312], [-5024.10862649991, 6831877.801088884], [-5080.00380229708, 6831908.7905831], [-5257.672125989344, 6831736.946308643], [-5318.629378700676, 6831610.392281674], [-5557.704918032787, 6831632.7049180325], [-5590.0, 6831665.0], [-5595.812329903019, 6831636.795370471], [-6044.700565106881, 6831825.852972148], [-6067.595857769009, 6831741.774787767], [-6238.111031580262, 6831732.64820974], [-6312.543049848402, 6831646.074747257], [-6430.813232717963, 6831685.269505457], [-6593.358633500491, 6831611.351184472], [-6667.066551724138, 6831623.33], [-6705.0, 6831750.0], [-6627.499999999998, 6831766.875], [-6581.571428571429, 6831824.285714285], [-6626.004405286343, 6831858.325991189], [-6596.818181818182, 6831906.96969697], [-6637.857142857143, 6831964.285714285], [-6580.571314422692, 6832084.92409109], [-6440.324043541375, 6832233.3960727565], [-6554.117647058823, 6832369.705882353], [-6601.883805179123, 6832323.164497518], [-6709.908590594052, 6832403.38096101], [-6799.205456457119, 6832317.018079949], [-7000.0, 6832515.0], [-7092.583333333334, 6832531.916666667], [-7137.5, 6832602.5], [-7203.492783596859, 6832555.953365802], [-7215.263157894737, 6832621.842105263], [-7292.186619435226, 6832660.250342666], [-7558.2799439667015, 6832304.793764259], [-7522.5, 6832252.5], [-7592.5, 6832182.5], [-7815.792834441247, 6832083.68682828], [-7966.227426747117, 6832068.816277292], [-7993.082851637764, 6832034.691714836], [-8165.48825270063, 6832011.464758102], [-8384.749911983135, 6832256.213201401], [-8415.0, 6832390.0], [-8375.0, 6832415.0], [-8383.537549407118, 6832492.90513834], [-8547.876524368901, 6832619.954776472], [-8505.0, 6832680.0], [-8595.928733264502, 6832723.475742152], [-8790.906971661689, 6832765.906971661], [-8872.51430673128, 6832690.489332371], [-9032.55065045214, 6832672.300536645], [-9252.2775563545, 6832596.023247892], [-9395.671973783825, 6832663.014656148], [-9398.591264394141, 6832699.626741264], [-9646.840373593717, 6832945.871364891], [-9621.499338131503, 6832986.333247235], [-10020.020694992721, 6833462.541311444], [-10016.559633027522, 6833528.440366972], [-10084.25925925926, 6833541.481481481], [-9986.013522076204, 6833830.250485104], [-10188.719371235708, 6834033.805145756], [-10249.234234234234, 6834047.882882883], [-10339.861462685078, 6833943.372679142], [-10529.3078340466, 6833920.391405135], [-10636.658207288885, 6833758.360869529], [-10857.06470451319, 6833971.598819034], [-11139.116001689468, 6833781.740025342], [-11135.0, 6833720.0], [-11248.154134183833, 6833696.190006923], [-11495.0, 6833515.0], [-11554.16, 6833544.44], [-11630.219367332895, 6833466.9510772275], [-11728.335961872335, 6833270.003942808], [-11663.85629165462, 6833173.284437482], [-11783.098953552413, 6833033.0961997425], [-11771.42857142857, 6832990.714285715], [-11869.459459459458, 6832945.540540541], [-11843.544314507224, 6832788.984243294], [-11787.039084776408, 6832781.591904861], [-11833.888888888889, 6832706.666666667], [-11803.429383587269, 6832682.696224353], [-11888.870967741936, 6832524.193548387], [-12074.702012383903, 6832587.898606811], [-12203.871388190058, 6832498.47365433], [-12348.102615341053, 6832611.942276448], [-12506.72349545815, 6832426.793879445], [-12450.555555555555, 6832345.555555556], [-12481.627940374146, 6832313.706361117], [-12474.492413405147, 6832172.97387223], [-12536.840634226137, 6832088.10627986], [-12432.638592834497, 6831994.583155701], [-12584.091860755088, 6831848.157331514], [-12415.591751797201, 6831696.976920166], [-12404.129814195974, 6831623.074971855], [-12322.925587089245, 6831507.554073613], [-12427.0, 6831398.0], [-12344.469792222204, 6831302.181053396], [-12233.95341795987, 6831370.374748599], [-12136.415869179982, 6831271.564792682], [-12345.0, 6831150.0]]]}}]}