{"type": "FeatureCollection", "crs": {"type": "name", "properties": {"name": "EPSG:25833"}}, "features": [{"type": "Feature", "properties": {"station": "83.12.0", "name": "Haukedalsvatn ndf.", "series": ["1001.0"], "nodes": 2069799, "fine_vertices": 12846, "fine_area_m2": 206979950.0, "reduced_vertices": 528, "reduced_area_m2": 206979950.00000072, "outline_tolerance_m": 20.0, "windows": [[473, 494], [1222, 1262], [2495, 2420], [4671, 4819]], "placed_on": "number", "distance_m": 12.716936665525536, "uncertainty_m": 30.0, "elvid": "083-11-1", "objectid": 10756514, "lake": false, "confluence_near": true, "reach_up_m": 1000.0, "reach_down_m": 130.0, "reach_fork": false, "seeded_by": "river", "lake_rule": null, "lake_number": null, "lake_name": null, "lake_distance_m": null, "node_offset_m": 1.2082930503014968, "chain_nodes": 105, "lowered_nodes": 88, "lowered_max_m": 0.528564453125, "direction_ok": true, "end_extended_m": 0.0, "end_closed": true, "downstream_checked": "whole", "a0": 206.97990000000001, "area_up": 206.9479, "area_down": 0.0029000000000000002, "swing": 0.00015460438429050689, "largest_step": 0.030100000000004457, "largest_step_at_m": 0.0, "checked_up_m": 24.142135623731065, "checked_down_m": 24.142135623731065, "drains": false, "monotone": false, "causes": ["chain_not_draining"]}, "geometry": {"type": "Polygon", "coordinates": [[[46330.0, 6846655.0], [46320.49180327869, 6846704.180327869], [46193.289584685524, 6846722.002026897], [46101.94045414553, 6846853.723785584], [45952.719321494835, 6846768.005565863], [45880.0, 6846635.0], [45769.21914556355, 6846775.563950426], [45700.0, 6846765.0], [45623.125, 6846841.875], [45535.0, 6846850.0], [45581.22999505032, 6846766.03200792], [45490.154457562676, 6846670.173510038], [45307.04789221842, 6846669.6452461], [45064.137291280145, 6846803.66419295], [44976.271186440674, 6846783.644067797], [44859.002831078964, 6846871.332179931], [44675.0, 6846694.659668858], [44675.0, 6846641.219973403], [44448.091311821074, 6846567.7037186995], [44329.31698959143, 6846271.027880117], [44389.444444444445, 6846178.888888889], [44370.0, 6846155.0], [44329.439389492225, 6846208.040798357], [44211.22302158273, 6846098.669064748], [44140.88195539536, 6846118.790268078], [43945.0, 6845860.0], [43971.88279301746, 6845822.1197007485], [43889.6912725408, 6845627.506404887], [43805.80378085735, 6845532.193518531], [43825.555555555555, 6845498.333333333], [43722.5037242513, 6845462.95808291], [43629.828920561275, 6845541.234329824], [43137.26815362823, 6845133.195539115], [43120.0, 6845185.0], [43028.06451612903, 6845150.806451613], [43000.77063142235, 6845203.90208919], [42973.1746031746, 6845175.545634921], [42848.21256038647, 6845277.077294686], [42792.38862626418, 6845267.542732949], [42682.91072650738, 6845464.465751746], [42550.0, 6845615.0], [42455.95408475977, 6845558.974172677], [42341.28229842862, 6845677.856036283], [42340.0, 6845775.0], [42254.351057747284, 6845684.22813036], [42104.04553163647, 6845716.200484685], [41874.61538461538, 6845879.615384615], [41765.70239223869, 6845778.52488658], [41412.857142857145, 6846092.142857143], [41324.69194312796, 6846010.8925750395], [41190.0, 6846135.0], [41134.997409190306, 6846079.99740919], [40909.91510805595, 6846196.460993433], [40797.60555469657, 6846127.335647791], [40669.83173362174, 6846239.639109215], [40404.87909446426, 6846349.220640432], [40251.15361644585, 6846290.910356546], [40217.0, 6846094.0], [40245.0, 6845940.0], [40122.68133195397, 6845525.473761413], [39953.64655601533, 6845340.374547013], [39762.66378403173, 6845174.908124443], [39682.318181818184, 6845236.545454546], [39450.65323411763, 6845122.0758564], [39206.48638214357, 6845267.883972034], [39063.49315068493, 6845249.863013699], [38756.79174120576, 6845538.541726779], [38674.42307692308, 6845472.115384615], [38629.923344759576, 6845585.209199947], [38517.64174701278, 6845643.589353111], [38445.666666666664, 6845595.333333333], [38376.38093223149, 6845662.074023448], [38035.081657206036, 6845517.466021027], [37944.239516702204, 6845563.29068941], [37822.849850953484, 6845532.139940381], [37710.712541723326, 6845558.429966621], [37666.0, 6845594.2], [37613.056103495794, 6845557.163780323], [37310.14926404903, 6845660.489616741], [37216.71419313027, 6845735.693454309], [37138.333333333336, 6845673.333333333], [37153.80347263597, 6845624.101625671], [36926.93548387097, 6845431.935483871], [36932.56736433137, 6845314.561975185], [36890.0, 6845295.0], [36844.34755493309, 6845340.938667293], [36524.3784788985, 6845135.0], [36391.99457541313, 6845109.016059044], [36272.40146165488, 6845047.459549705], [36139.412821357306, 6845062.1607125], [35941.2253732989, 6844840.150104998], [35772.223327177155, 6844742.07486859], [35570.0, 6844735.0], [35492.16341829085, 6844682.626686657], [35491.417482741505, 6844504.314159054], [35177.555624071654, 6844247.664289316], [35126.87090739008, 6844171.403180542], [35136.35135135135, 6844034.054054054], [35192.657767863566, 6843960.318054256], [35146.466840533, 6843903.984688354], [35150.99005393711, 6843789.492540453], [35090.573510982125, 6843634.426489018], [35114.51053947838, 6843538.268429201], [34992.969403318464, 6843421.866910661], [34842.75092936803, 6843355.0], [34747.79176768927, 6843240.102439105], [34648.0, 6843257.0], [34010.586394943704, 6843016.280679343], [34007.857142857145, 6842810.12605042], [33977.22222222222, 6842767.777777778], [34037.35449161941, 6842615.195897511], [34035.0, 6842480.0], [34082.45178056023, 6842412.270028863], [34085.0, 6842200.0], [34135.0, 6842150.0], [34099.30726729064, 6842003.237746086], [33921.11616845724, 6841838.99714536], [33841.4997734046, 6841632.766555258], [33755.669005273056, 6841528.197193672], [33702.42914429332, 6841592.085026848], [33259.53880067613, 6841585.5036202], [33056.32033795292, 6841601.182890663], [32829.893536577976, 6841579.154721326], [32678.75425183646, 6841435.59134115], [32439.0, 6841332.0], [32319.83991784804, 6841203.111695942], [32301.0, 6841016.0], [32205.0, 6840920.0], [32140.0, 6840935.0], [32075.0, 6840870.0], [32160.793027842854, 6840732.324201699], [32142.891090624536, 6840644.327088256], [32290.56675062972, 6840264.256926952], [32384.967784888966, 6840149.838924445], [32374.52380952381, 6840097.619047619], [32454.48176583493, 6839929.481765835], [32341.690654247603, 6839816.690654248], [32464.47589000327, 6839629.343145057], [32457.948666107684, 6839575.562878335], [32556.683297689895, 6839488.973497615], [32569.95290671341, 6839310.878550722], [32519.354838709678, 6839228.548387097], [32573.282796878382, 6839200.496153873], [32466.755460168486, 6839102.948311], [32313.56862745098, 6839121.705882353], [32270.0, 6839075.0], [32212.30769230769, 6839094.230769231], [32044.687678884082, 6839005.3799838815], [32007.364942521024, 6838860.731080917], [31930.066016128723, 6838883.400600497], [31797.470215371814, 6838795.331700271], [31633.882980078608, 6838771.117019922], [31539.31883212548, 6838574.588043556], [31430.284192417123, 6838445.249123272], [31252.452810165232, 6838384.3911833605], [31307.116697823152, 6838143.666511487], [30891.536838583448, 6838006.269327518], [30697.31500970869, 6838143.828784021], [30476.143549340326, 6838212.091589522], [30389.345780874843, 6838134.937065882], [30278.91891891892, 6838203.918918919], [30111.258489573203, 6838199.771376908], [30161.100049164976, 6838134.900593563], [30078.333333333332, 6837953.333333333], [30123.6389627754, 6837763.719535553], [30247.549818930205, 6837556.01310035], [30149.831580503243, 6837341.502931149], [30182.52708079576, 6837300.04594051], [30105.863647288585, 6837129.897645061], [30172.537561619927, 6836846.403519117], [30145.46511627907, 6836794.4186046515], [30231.680276861065, 6836797.286512659], [30230.0, 6836515.0], [30359.486668327932, 6836607.90555694], [30462.979110450837, 6836520.130701939], [30395.611762843844, 6836434.597543426], [30484.823311806114, 6836230.989246002], [30570.0, 6836255.0], [30629.738219895287, 6836180.130890053], [30735.652071055665, 6836176.319333466], [30944.80213413985, 6835896.721262593], [30961.364454064165, 6835801.675902891], [31128.571428571428, 6835735.0], [31190.0, 6835665.0], [31292.89097933815, 6835733.593986225], [31547.770983857554, 6835603.483830329], [31595.777777777777, 6835649.222222222], [32135.65508084226, 6835161.70321019], [32118.333333333332, 6835116.666666667], [32249.044795783928, 6834985.955204216], [32167.318840579712, 6834847.68115942], [32247.85714285714, 6834767.142857143], [32181.094674556214, 6834685.207100592], [32215.0, 6834650.0], [32129.457788647203, 6834442.7442204775], [32156.15454320851, 6834339.403001964], [32108.926297961807, 6834243.796063774], [32169.513841326723, 6834180.925673878], [32015.0, 6833920.0], [32050.0, 6833850.0], [31924.336553358244, 6833675.082475167], [31949.0, 6833644.0], [31839.779137839276, 6833534.77913784], [32043.658536585364, 6833280.365853659], [32060.0, 6833215.0], [32282.351630383306, 6833258.293768102], [32379.97972722192, 6833154.035291205], [32737.900835386263, 6832849.17482322], [32631.208425720622, 6832709.689578714], [32648.33077807589, 6832695.519356075], [32543.24086186995, 6832501.75913813], [32539.051843127145, 6832393.796293077], [32734.06331449322, 6832228.900781914], [32774.3722943723, 6832267.597402598], [32847.57704207522, 6832179.884939475], [33136.1494651772, 6832469.579353824], [33206.121495327105, 6832452.663551402], [33298.000854841855, 6832534.334093193], [33408.471175188206, 6832716.541996389], [33813.97269026117, 6833132.6711214855], [33842.0, 6833097.0], [33952.881376931065, 6833214.290472605], [33998.37696335078, 6833191.282722513], [34090.14785608674, 6833260.110892065], [34062.26631395018, 6833494.558747278], [34180.0, 6833645.0], [34277.33463494423, 6833637.644030659], [34609.01440739102, 6833356.654894537], [34656.22679575186, 6833213.246162374], [34686.58251368327, 6833325.689862114], [34742.40405050632, 6833333.884860608], [34987.50037275306, 6833535.200929205], [35030.598566695175, 6833535.695757857], [35219.5592736902, 6833808.6444414295], [35205.8035976289, 6833924.155656025], [35398.07420861864, 6834179.415083159], [35325.94876723893, 6834235.025212467], [35300.318354741015, 6834363.374925097], [35376.60627776687, 6834428.92753332], [35385.95523330408, 6834599.115418257], [35710.0, 6834755.0], [35740.0, 6834735.0], [35878.97459525266, 6834821.487297626], [36113.0582292171, 6835040.632080697], [36109.4, 6835160.8], [36175.0, 6835210.0], [36172.41915695082, 6835311.120759128], [36254.77008804978, 6835382.787389938], [36185.0, 6835470.0], [36243.95484495082, 6835514.830246681], [36295.02095458626, 6835663.6243237825], [36430.0, 6835715.0], [36472.985245037766, 6835631.558053751], [36599.411470959305, 6835702.94139678], [36715.8064516129, 6835615.645161291], [36794.99191304396, 6835779.624917489], [36866.0, 6835681.0], [36944.8, 6835809.8], [37097.57752377877, 6835754.890694977], [37214.180063088206, 6835891.186637462], [37175.0, 6835920.0], [37274.55089820359, 6835968.532934132], [37350.0, 6835935.0], [37611.928791264785, 6835912.49925124], [37681.5520048013, 6835951.2483795285], [37908.03667650609, 6835786.896738676], [37983.838484685344, 6835834.7690942995], [38004.795731291044, 6835914.58003203], [38280.035211267605, 6835938.169014084], [38310.0, 6835995.0], [38402.447919239254, 6835980.0], [38505.95485772092, 6835827.701049307], [38567.303502471535, 6835662.300558898], [38665.482251256144, 6835613.61964603], [38743.88888888889, 6835686.666666667], [38730.548750421585, 6835745.089840699], [38919.60175863387, 6835816.747801708], [38976.760584387324, 6835903.047487921], [39037.644122785125, 6835866.039846934], [39137.69230769231, 6835986.538461538], [39205.41334863736, 6835937.534846133], [39280.52382126323, 6835963.640559784], [39301.711814906506, 6835804.402958074], [39520.97886106805, 6835777.173533996], [39614.421449378264, 6835835.67475415], [39626.68539325843, 6836048.314606742], [39674.98962655602, 6836120.031120332], [39655.816326530614, 6836177.551020408], [39856.435736677115, 6836436.188087774], [39912.94117647059, 6836417.352941177], [39990.0, 6836505.0], [40098.458131999796, 6836408.8014078885], [40154.800995024874, 6836467.782960199], [40228.57142857143, 6836449.285714285], [40325.619692691434, 6836339.894720346], [40527.397260273974, 6836417.465753425], [40615.454545454544, 6836380.454545454], [41079.708283531814, 6836536.874010931], [41242.27860625975, 6836509.400662225], [41568.94430348155, 6836490.436961857], [41580.0, 6836595.0], [41633.15473806659, 6836540.222770419], [41737.35661815161, 6836513.366396949], [41758.8336616477, 6836589.202391664], [41820.0, 6836645.0], [41990.10783721873, 6836607.103584423], [42050.0, 6836495.0], [42120.0, 6836495.0], [42284.41904249597, 6836663.055406133], [42273.86513655908, 6836718.561133652], [42436.666666666664, 6836881.666666667], [42461.818181818184, 6836831.363636363], [42564.85542078557, 6836849.180084249], [42798.5160412296, 6837104.905655096], [42777.578790182495, 6837168.7777855145], [42979.351443947235, 6837147.318426599], [43353.02965680112, 6836703.187952142], [43330.65217391304, 6836644.347826087], [43662.25164513556, 6836407.523575974], [43760.41751636316, 6836377.406757024], [43826.07026451844, 6836429.430562924], [43920.48189762251, 6836378.621455578], [43956.701171639615, 6836090.825753421], [44007.99492385787, 6836050.609137055], [44003.125458754446, 6835903.853876122], [44018.42292655457, 6835821.650702818], [44071.154752553026, 6835765.2278083265], [44067.43942519493, 6835629.450718506], [44115.0, 6835570.0], [44077.32432432433, 6835475.567567567], [44113.07339449541, 6835455.458715596], [44030.25048355511, 6835308.263006288], [44171.308599898475, 6835312.839969477], [44240.3031035531, 6835330.871783742], [44625.7886122001, 6835691.863870364], [44877.33854844763, 6835719.454862012], [45032.93696799278, 6835905.0], [45080.52631578947, 6835905.0], [45045.0, 6836000.0], [45115.0, 6836058.333333333], [45093.32369942196, 6836104.43159923], [45258.876295760456, 6836090.796156356], [45474.842519685044, 6836371.811023622], [45491.791393826, 6836523.208606174], [45462.66666666667, 6836552.333333333], [45481.000271666984, 6836691.675932434], [45564.256462315985, 6836747.361401971], [45774.575702673494, 6836951.249598478], [45884.14634146341, 6836904.756097561], [45906.072425772356, 6836933.77670713], [46054.477884908745, 6836786.685787736], [46237.80530973451, 6836853.938053098], [46308.323238019344, 6836835.516502625], [46443.333333333336, 6836925.0], [46640.0, 6837105.0], [46687.5, 6837072.5], [46790.236849231165, 6837179.701646662], [46901.241720375954, 6837483.7259204695], [47085.911797740344, 6837301.7426070785], [47182.924416724374, 6837301.100234551], [47295.92232399651, 6837369.086508943], [47330.423012204046, 6837287.615421598], [47410.0, 6837225.0], [47485.93372375704, 6837289.695550407], [47593.58950906638, 6837253.783603533], [47688.23604633786, 6837330.949565927], [47903.358648375855, 6837413.426592901], [47991.2598793434, 6837526.863474099], [48041.72448807654, 6837481.4472603155], [48217.28534842824, 6837484.762467988], [48731.06290578487, 6838061.682653206], [48730.2441759792, 6838250.6923085125], [48919.66983236711, 6838246.458514627], [49247.077461628214, 6838547.31166733], [49414.70588235294, 6838649.705882353], [49923.619047619046, 6839158.619047619], [49937.29729729729, 6839229.054054054], [49973.70275085781, 6839217.072512376], [50185.70317898651, 6839401.130062651], [50431.304447420946, 6839398.093632078], [50626.26919234896, 6839309.1322283475], [51021.31613990196, 6838939.380408448], [51124.0625, 6838910.3125], [51147.985160829165, 6839027.054867763], [50907.177782649655, 6839287.043074436], [50919.35558755444, 6839627.659231548], [51137.54722223083, 6839870.569982186], [51134.90121844381, 6840089.3016818045], [51319.180166616476, 6840093.362150982], [51396.39807217331, 6839984.536884338], [51510.2596340485, 6840028.417463377], [51843.27012988689, 6839676.416136984], [52210.63067497287, 6839678.635273937], [52346.39009287926, 6839641.3900928795], [52586.30349563276, 6839873.2066239165], [52572.77777777778, 6840081.111111111], [52687.005590496155, 6840184.248777079], [52665.0, 6840210.0], [52789.39522998297, 6840242.881885292], [52853.57142857143, 6840327.142857143], [52825.0, 6840370.0], [53037.4572932079, 6840630.316170689], [53471.89004917076, 6840736.166334227], [53491.38419766494, 6840772.686342656], [53523.02752293578, 6840745.733944954], [53617.51737301291, 6840806.211953883], [53777.47572815534, 6840797.524271845], [53885.35398230089, 6840893.215339233], [53990.771913450684, 6840887.5569792325], [54414.28571428571, 6841127.857142857], [54516.89181234491, 6841102.118067108], [54761.52799604134, 6841271.192520729], [55041.065841102856, 6841554.263364411], [55065.0, 6841650.0], [54945.0, 6841770.0], [55066.38583987762, 6841814.061558677], [55136.23683937476, 6841771.112816694], [55407.91321292455, 6842032.800272547], [55415.0, 6842170.0], [55305.910138248844, 6842279.0898617515], [55522.73198679601, 6842472.352372039], [55550.0, 6842455.0], [55653.38129496403, 6842491.1151079135], [55670.0, 6842465.0], [55687.39039970473, 6842507.094518911], [55524.70701735658, 6842586.464735114], [55330.0, 6842555.0], [55222.62335077925, 6842681.165549015], [55278.44223077484, 6842768.860611885], [55086.40508350494, 6843163.504994698], [55699.66666666667, 6843795.0], [55568.24205993087, 6843926.72742841], [55536.465565719496, 6844125.694480397], [55473.803928972775, 6844244.528399225], [55584.79609569489, 6844428.980478475], [55790.81158376078, 6844621.632795277], [55781.463533195696, 6844858.128050099], [55817.63717130602, 6844913.447469999], [55832.622933489154, 6845063.270922855], [55969.93430095253, 6845177.305389828], [55954.754499762435, 6845408.503114258], [55482.20268368601, 6845924.524407759], [55255.171126382105, 6845998.954410077], [55236.88657953366, 6845970.0840729475], [55108.78164181054, 6846077.801617232], [55281.938197316704, 6846375.166220613], [55236.825715936895, 6846562.10658207], [55101.422234014804, 6846723.290420772], [54921.66763747331, 6846874.057910583], [54949.35120360055, 6846984.70557264], [54648.19011098308, 6847296.358231497], [54441.4489320819, 6847350.659058816], [54208.91975971712, 6847499.899699646], [54163.443113772446, 6847443.053892216], [54115.18299889138, 6847279.957848388], [53920.78025666353, 6846999.011366461], [53965.51995996512, 6846891.3300900785], [53868.58447987652, 6846673.193593699], [53928.47985347985, 6846638.534798535], [53884.46396803753, 6846599.168478456], [53907.934631432545, 6846452.934631432], [53735.13143623569, 6846261.390152087], [53545.187466809395, 6846342.348108607], [53452.5656654557, 6846214.109892621], [53354.499392814134, 6846166.065632595], [53340.98991750687, 6846085.632447296], [53295.0, 6846089.686098655], [53295.0, 6846153.333333333], [53265.96606079671, 6846138.027098663], [53299.20128287723, 6846004.2012828775], [53259.75813052498, 6845881.318357177], [53190.28791999353, 6845796.170163112], [53161.976744186046, 6845630.465116279], [53184.82370192628, 6845507.986513808], [53123.688786275685, 6845481.136236795], [53085.20554274976, 6845396.600583447], [52940.0, 6845475.0], [52834.0, 6845419.0], [52766.59107271418, 6845442.3038156945], [52695.0, 6845400.0], [52628.61111111111, 6845428.055555556], [52621.228813559326, 6845391.144067797], [52405.0, 6845490.0], [52395.0, 6845610.0], [52306.19692449374, 6845696.195423809], [52200.0, 6845645.0], [52060.655095184775, 6845806.178922484], [52064.17574198269, 6845849.789775259], [51944.4807606627, 6845978.64560562], [51858.23529411765, 6846013.823529412], [51787.66228100938, 6845979.373499933], [51675.073313782996, 6846071.715542522], [51577.86835187407, 6846046.167584658], [51383.06122448979, 6846222.551020408], [51262.34701574582, 6846143.345942329], [51174.32432432432, 6846159.324324325], [50966.3373184392, 6846347.351520187], [50737.24843277509, 6846226.67463998], [50582.20565626274, 6846198.271891585], [50525.67470828538, 6846254.963818853], [50297.34891016368, 6846294.955286995], [50079.6744898607, 6846374.514700963], [49918.38337420591, 6846537.436987535], [49988.78461538462, 6846630.676923077], [49859.178356151795, 6846843.938973504], [49747.22059230358, 6847316.328543758], [49667.79762265654, 6847320.198415104], [49315.96949433557, 6847270.862073572], [49270.654347167525, 6847225.266585883], [48956.68806542744, 6847528.649734531], [48663.333333333336, 6847411.274509804], [48218.35914179866, 6847401.970478973], [48106.184690157956, 6847326.227217497], [48088.00884955752, 6847358.539823009], [47991.5185840708, 6847294.942719228], [47877.47649617485, 6847319.125266117], [47843.57664233577, 6847291.423357665], [47816.825034336136, 6847326.886218142], [47556.666666666664, 6847231.666666667], [47491.03259964512, 6847240.778205462], [47297.17661285484, 6847104.75900989], [47088.02494075976, 6847061.023691092], [46940.75756562472, 6847124.285448306], [46838.52145589183, 6847006.61266933], [46557.0, 6846798.0], [46523.536249296565, 6846649.909200133], [46464.01494490731, 6846597.516437419], [46356.25, 6846672.5], [46330.0, 6846655.0]]]}}]}