{"type": "FeatureCollection", "crs": {"type": "name", "properties": {"name": "EPSG:25833"}}, "features": [{"type": "Feature", "properties": {"station": "83.2.0", "name": "Viksvatn (Hestadfjorden)", "series": ["1001.1"], "nodes": 193479, "fine_vertices": 3190, "fine_area_m2": 19347950.0, "reduced_vertices": 146, "reduced_area_m2": 19347950.000000134, "outline_tolerance_m": 20.0, "windows": [[635, 680], [1433, 1253]], "placed_on": "number", "distance_m": 322.0089040146854, "uncertainty_m": 322.0089040146854, "elvid": "083-11-1", "objectid": 10756606, "lake": true, "confluence_near": true, "reach_up_m": 1000.0, "reach_down_m": 422.0089040146854, "reach_fork": false, "seeded_by": "lake", "lake_rule": "inside", "lake_number": 1650, "lake_name": "Hestadfjorden", "lake_distance_m": 0.0, "node_offset_m": null, "chain_nodes": null, "lowered_nodes": null, "lowered_max_m": null, "direction_ok": null, "end_extended_m": null, "end_closed": null, "downstream_checked": null, "a0": null, "area_up": null, "area_down": null, "swing": null, "largest_step": null, "largest_step_at_m": null, "checked_up_m": null, "checked_down_m": null, "drains": null, "monotone": null, "causes": []}, "geometry": {"type": "Polygon", "coordinates": [[[14335.0, 6836240.0], [14293.833946642135, 6836211.731830726], [14233.128949336762, 6836299.273695817], [14105.063022359536, 6836281.721232553], [14068.571428571428, 6836183.571428572], [13939.844166967741, 6836192.799093117], [13866.63105309424, 6836367.233919222], [13761.43583227446, 6836363.564167726], [13442.423091814939, 6836053.997247281], [13341.783707865168, 6835816.7837078655], [13342.933884297521, 6835700.247933884], [13395.0, 6835610.0], [13344.808756814207, 6835552.165324425], [13429.377575323586, 6835451.215215136], [13361.183589359096, 6835074.47798447], [13391.882550895625, 6834727.150918432], [13305.0, 6834650.0], [13398.648027847497, 6834335.888914368], [13460.918274183554, 6834253.433636286], [13359.492970977422, 6834033.4558840785], [13291.078557040835, 6834037.909723494], [13097.46368102611, 6833834.2842630865], [13242.786172340022, 6833658.69759474], [12815.993939824726, 6833193.441378053], [12695.078326536193, 6833136.312590981], [12692.714285714286, 6833066.514285714], [12823.222304011777, 6832922.955465587], [12839.893617021276, 6832846.808510638], [12747.222222222223, 6832707.777777778], [12772.98105264148, 6832681.79313943], [12672.007600356552, 6832477.784518824], [12695.0, 6832420.0], [12594.530131569978, 6832368.37736042], [12333.230881810388, 6832094.2447791025], [12309.222006333164, 6832005.388996833], [12230.0, 6832045.0], [12175.0, 6831990.0], [12174.268292682927, 6831830.853658536], [12214.152926891808, 6831668.456612044], [12293.781512605043, 6831686.512605042], [12310.0, 6831455.0], [12335.0, 6831470.0], [12627.417912046705, 6831269.659080222], [12628.331530479763, 6830982.793988298], [12665.0, 6830776.666666667], [12722.272727272728, 6830792.7272727275], [12754.230573236815, 6830728.765441086], [12690.0426072717, 6830675.314265439], [12768.603089963555, 6830348.864809104], [12763.297406756777, 6830175.157206483], [12854.358288770054, 6830161.443850268], [12843.171623598244, 6830070.918616106], [12950.0, 6830115.0], [13081.401483924155, 6830086.228359439], [13154.782608695652, 6830161.0869565215], [13254.373588428136, 6830128.4695055615], [13310.0, 6829962.5], [13327.084845286006, 6830043.758329485], [13470.0, 6830155.0], [13506.923076923076, 6830118.076923077], [13580.0, 6830175.0], [13673.20987654321, 6830125.864197531], [13770.0, 6830195.0], [13854.677808380104, 6830060.98553751], [14085.393264266435, 6830186.34889639], [14123.157894736842, 6830113.596491228], [14340.0, 6830095.0], [14542.793421380513, 6830322.712434588], [14587.034965034965, 6830286.482517483], [14656.866448639897, 6830332.358864317], [14757.979063817325, 6830214.132513115], [14735.0, 6830130.0], [14771.818181818182, 6830075.0], [14823.678587550785, 6830100.120629985], [14882.258064516129, 6830022.419354838], [15014.26602810991, 6830099.004219887], [15210.193759265505, 6829848.94020989], [15326.722801253054, 6829937.782698868], [15345.0, 6830016.550764951], [15280.515695067264, 6830053.363228699], [15358.367210659617, 6830195.23529139], [15565.525613511963, 6830389.685525834], [15685.0, 6830674.838219967], [15889.726598702502, 6830847.561911331], [15918.333333333334, 6830956.666666667], [15844.68036798962, 6831070.287197027], [16107.358585426882, 6831330.470893715], [16308.247727538188, 6831476.120483185], [16393.629439675504, 6831851.220063359], [16606.739130434784, 6832108.260869565], [16567.4, 6832147.6], [16628.54820363413, 6832277.523071098], [16690.82389731944, 6832585.163512267], [16623.878205128203, 6832667.938034188], [16526.39751552795, 6832594.089026915], [16269.00905954549, 6832792.274712031], [16163.596160998128, 6832972.073206021], [16033.483624604874, 6832934.383940412], [15939.523364485982, 6833192.623052959], [15968.021401712136, 6833461.459115027], [16022.619112627986, 6833468.602047781], [15899.282863208502, 6833776.057216108], [15973.729934751093, 6833943.080305943], [15946.111111111111, 6833976.666666667], [16071.84926032462, 6834228.00068175], [16000.683611169636, 6834388.242701914], [16144.695790794049, 6834649.450502929], [16051.666666666666, 6834773.333333333], [16075.0, 6834810.0], [15965.0, 6834920.0], [15981.430976430976, 6834981.6161616165], [15910.0, 6835085.0], [16006.735686063304, 6835181.533991445], [15884.16408659563, 6835451.998431659], [15808.56451293706, 6835491.683884555], [15784.202327719537, 6835618.749732526], [15908.163724432405, 6835695.886113726], [15951.153846153846, 6835786.153846154], [15894.706273848611, 6835888.700269175], [15984.565217391304, 6835970.434782608], [15901.0, 6836054.0], [15925.0, 6836080.0], [15778.225806451614, 6836193.870967742], [15762.30127576055, 6836273.4936211975], [15826.206896551725, 6836305.344827586], [15774.907000604859, 6836453.238979774], [15702.946206467663, 6836498.163868159], [15653.745768764353, 6836433.4902276965], [15580.0, 6836545.0], [15453.95917207148, 6836547.715943548], [15411.334413385424, 6836498.531805627], [15397.866151412567, 6836519.563261575], [15204.0, 6836437.666666667], [15170.0, 6836465.0], [15112.746185852982, 6836419.285714285], [15101.74846409173, 6836458.729121168], [14942.189450696678, 6836518.841333553], [14870.54486015256, 6836594.803850345], [14786.879385049418, 6836454.086050891], [14680.955419506185, 6836443.028170136], [14619.149560117301, 6836501.099706745], [14569.069454591412, 6836467.712969728], [14585.519682290302, 6836388.439818451], [14541.25, 6836365.0], [14422.349514563106, 6836470.689320388], [14315.0, 6836280.0], [14335.0, 6836240.0]]]}}]}