{"type": "FeatureCollection", "crs": {"type": "name", "properties": {"name": "EPSG:25833"}}, "features": [{"type": "Feature", "properties": {"station": "83.6.0", "name": "Byttevatn", "series": ["1001.1"], "nodes": 2, "fine_vertices": 8, "fine_area_m2": 150.0, "reduced_vertices": 4, "reduced_area_m2": 150.0, "outline_tolerance_m": 20.0, "windows": [[450, 445], [892, 888]], "placed_on": "number", "distance_m": 30.57528130194345, "uncertainty_m": 30.57528130194345, "elvid": "083-11-506", "objectid": 11370484, "lake": false, "confluence_near": true, "reach_up_m": 441.6931134797693, "reach_down_m": 130.5752813019434, "reach_fork": false, "seeded_by": "river", "lake_rule": null, "lake_number": null, "lake_name": null, "lake_distance_m": null, "node_offset_m": 27.989081724474268, "chain_nodes": 75, "lowered_nodes": 32, "lowered_max_m": 1.354583740234375, "direction_ok": true, "end_extended_m": 221.4213562373095, "end_closed": false, "downstream_checked": "whole", "a0": 0.0002, "area_up": 0.0002, "area_down": 0.057300000000000004, "swing": 285.5, "largest_step": 0.0572, "largest_step_at_m": 24.14213562373095, "checked_up_m": 24.14213562373095, "checked_down_m": 24.14213562373095, "drains": false, "monotone": false, "causes": ["swing", "chain_not_draining", "chain_end_open"]}, "geometry": {"type": "Polygon", "coordinates": [[[38010.0, 6831755.0], [37995.0, 6831740.0], [38000.0, 6831735.0], [38015.0, 6831750.0], [38010.0, 6831755.0]]]}}]}