{"type": "FeatureCollection", "crs": {"type": "name", "properties": {"name": "EPSG:25833"}}, "features": [{"type": "Feature", "properties": {"station": "83.7.0", "name": "Gr\u00f8nengst\u00f8lsvatn", "series": ["1001.1"], "nodes": 656235, "fine_vertices": 6228, "fine_area_m2": 65623450.0, "reduced_vertices": 228, "reduced_area_m2": 65623450.0000003, "outline_tolerance_m": 20.0, "windows": [[502, 523], [1300, 1285], [2532, 2484]], "placed_on": "number", "distance_m": 131.53217679076394, "uncertainty_m": 131.53217679076394, "elvid": "083-11-1", "objectid": 11372177, "lake": true, "confluence_near": false, "reach_up_m": 1000.0, "reach_down_m": 231.53217679076397, "reach_fork": false, "seeded_by": "lake", "lake_rule": "lake_line", "lake_number": 29590, "lake_name": "Gr\u00f8ningsst\u00f8lsvatnet", "lake_distance_m": 0.11693808677783085, "node_offset_m": null, "chain_nodes": null, "lowered_nodes": null, "lowered_max_m": null, "direction_ok": null, "end_extended_m": null, "end_closed": null, "downstream_checked": null, "a0": null, "area_up": null, "area_down": null, "swing": null, "largest_step": null, "largest_step_at_m": null, "checked_up_m": null, "checked_down_m": null, "drains": null, "monotone": null, "causes": []}, "geometry": {"type": "Polygon", "coordinates": [[[46330.0, 6846655.0], [46320.49180327869, 6846704.180327869], [46193.28958468553, 6846722.002026897], [46128.156028368794, 6846815.921985815], [46070.0, 6846845.0], [45926.96871616994, 6846751.080794468], [45855.846209534226, 6846438.307580931], [45857.795446995624, 6846029.991115984], [45825.75471698113, 6845961.132075472], [45985.88502842008, 6845811.63381665], [46064.0, 6845807.0], [46125.168531593896, 6845653.930074379], [46481.87150480757, 6845465.248063718], [46415.24482780052, 6845273.303695886], [46458.20711730605, 6844910.606452931], [46365.45028827862, 6844676.159041564], [46385.0, 6844630.0], [46242.061198351184, 6844434.742777675], [46087.29347174428, 6844406.108733422], [45818.187308513494, 6844449.901175599], [45608.21863445289, 6844612.6913127275], [45236.82267930509, 6844303.836392936], [45275.88430751841, 6844181.269683965], [45202.71126785477, 6843777.550241026], [45070.54073294712, 6843501.178023395], [45061.20123454764, 6843376.483661857], [44953.450612244895, 6843180.563265306], [44865.94059405941, 6843146.98019802], [44704.0833944688, 6842997.146594279], [44685.220780552205, 6842926.4261043845], [44482.80723029402, 6842718.742973725], [44355.07594622458, 6842650.15844748], [44305.0, 6842540.0], [44441.45285935085, 6842476.896665931], [44552.59259259259, 6842377.592592592], [44620.724693741635, 6842452.7658107355], [44800.0, 6842545.0], [45199.97756704286, 6842193.331570002], [45290.601435109806, 6842194.302310636], [45440.660972109166, 6842269.900879143], [45839.67769584494, 6841915.650203804], [45835.0, 6841874.0], [46037.07874640284, 6841715.151351348], [46053.31284096023, 6841600.102914451], [46082.42224021875, 6841552.758928185], [46120.0, 6841595.0], [46327.16388520399, 6841466.616086339], [46340.76553124772, 6841318.496948238], [46724.701492537315, 6841040.746268657], [46705.0, 6840980.0], [46772.993553017026, 6840912.006446983], [46769.883528220234, 6840680.328699015], [46895.3002070481, 6840431.9544919245], [47177.72865817742, 6840245.737902191], [47333.17445099037, 6840084.00984746], [47296.87069172246, 6840016.394551841], [47365.275415130505, 6839731.254445257], [47548.910684591036, 6839378.907024842], [47524.393939393936, 6839293.982683983], [47591.8919388201, 6839148.264182303], [47580.00425713069, 6839064.994323825], [47786.32469141817, 6838873.379602824], [47877.965687656164, 6838960.296661608], [47975.0, 6838820.0], [47955.0, 6838800.0], [48033.02292108779, 6838748.318929606], [48125.55431659042, 6838500.053199583], [48218.69351120568, 6838564.658168624], [48240.0, 6838505.0], [48352.0, 6838493.0], [48624.666666666664, 6838220.333333333], [48744.0, 6838251.0], [48919.30652857395, 6838246.124676677], [49247.07746162822, 6838547.31166733], [49414.705882352944, 6838649.705882353], [49923.619047619046, 6839158.619047619], [49937.2972972973, 6839229.054054054], [49973.70275085781, 6839217.072512376], [50185.703178986514, 6839401.130062651], [50431.30444742094, 6839398.093632078], [50626.26919234896, 6839309.1322283475], [51021.31613990196, 6838939.380408448], [51124.0625, 6838910.3125], [51147.985160829165, 6839027.054867763], [50907.17778264966, 6839287.043074436], [50919.35558755443, 6839627.659231548], [51137.54722223082, 6839870.569982186], [51134.90121844381, 6840089.3016818045], [51319.180166616476, 6840093.362150982], [51394.583434658285, 6839986.925854117], [51518.60308328841, 6840026.218460326], [51835.91679094956, 6839677.300709876], [52210.62052027013, 6839678.638059849], [52346.39009287926, 6839641.3900928795], [52586.30349563276, 6839873.2066239165], [52572.77777777778, 6840081.111111111], [52687.005590496155, 6840184.248777079], [52665.0, 6840210.0], [52789.39522998296, 6840242.881885292], [52853.57142857143, 6840327.142857143], [52825.0, 6840370.0], [53037.457236527334, 6840630.316114467], [53471.899289811954, 6840736.168621667], [53491.34704650951, 6840772.63174661], [53523.07692307692, 6840745.769230769], [53617.51870760193, 6840806.211972865], [53777.47572815534, 6840797.524271845], [53885.35398230088, 6840893.215339233], [53990.771913450684, 6840887.5569792325], [54414.28571428571, 6841127.857142857], [54516.89181234492, 6841102.118067108], [54761.52799604133, 6841271.192520729], [55041.06584110285, 6841554.263364411], [55065.0, 6841650.0], [54945.0, 6841770.0], [55066.38583987762, 6841814.061558677], [55136.23683937476, 6841771.112816694], [55407.91321292455, 6842032.800272547], [55415.0, 6842170.0], [55305.910138248844, 6842279.0898617515], [55522.73198679601, 6842472.352372039], [55550.0, 6842455.0], [55653.38129496403, 6842491.1151079135], [55670.0, 6842465.0], [55687.394574969236, 6842507.104625393], [55524.6817854682, 6842586.4609288145], [55331.93033059685, 6842555.255158642], [55220.24165202109, 6842682.069420035], [55279.30591976238, 6842766.128066984], [55086.65845139747, 6843163.7658956945], [55699.666666666664, 6843795.0], [55568.242059930875, 6843926.72742841], [55536.465565719496, 6844125.694480397], [55473.80392897277, 6844244.528399225], [55584.79609569489, 6844428.980478475], [55790.81158376078, 6844621.632795277], [55781.463533195696, 6844858.128050099], [55817.63717130602, 6844913.447469999], [55832.622933489154, 6845063.270922855], [55969.93430095253, 6845177.305389828], [55954.75449976244, 6845408.503114258], [55482.20268368601, 6845924.524407759], [55255.171126382105, 6845998.954410077], [55240.0, 6845975.0], [55109.794000689944, 6846059.988608005], [55279.87962827388, 6846383.696667823], [55236.825715936895, 6846562.10658207], [55101.422234014804, 6846723.290420772], [54921.6676374733, 6846874.057910583], [54949.008625330454, 6846986.273610427], [54646.129226144505, 6847297.277934677], [54441.448932081905, 6847350.659058816], [54208.91975971712, 6847499.899699646], [54163.443113772446, 6847443.053892216], [54115.18299889138, 6847279.957848388], [53920.78025666353, 6846999.011366461], [53965.51995996511, 6846891.3300900785], [53868.58447987652, 6846673.193593699], [53928.479853479854, 6846638.534798535], [53884.46396803754, 6846599.168478456], [53907.934631432545, 6846452.934631432], [53735.13143623569, 6846261.390152087], [53545.187466809395, 6846342.348108607], [53452.56566545571, 6846214.109892621], [53354.49939281414, 6846166.065632595], [53340.98991750687, 6846085.632447296], [53295.0, 6846089.686098655], [53295.0, 6846153.333333333], [53265.9660607967, 6846138.027098663], [53299.20128287723, 6846004.2012828775], [53259.75813052498, 6845881.318357177], [53190.28791999353, 6845796.170163112], [53161.976744186046, 6845630.465116279], [53184.823701926274, 6845507.986513808], [53123.688786275685, 6845481.136236795], [53085.20554274976, 6845396.600583447], [52940.0, 6845475.0], [52834.0, 6845419.0], [52766.59107271418, 6845442.3038156945], [52695.0, 6845400.0], [52628.61111111111, 6845428.055555556], [52621.228813559326, 6845391.144067797], [52405.0, 6845490.0], [52395.0, 6845610.0], [52306.19692449374, 6845696.195423809], [52200.0, 6845645.0], [52060.65509518477, 6845806.178922484], [52064.17574198269, 6845849.789775259], [51944.48076066271, 6845978.64560562], [51858.23529411765, 6846013.823529412], [51787.66228100938, 6845979.373499933], [51675.07331378299, 6846071.715542522], [51577.86835187407, 6846046.167584658], [51383.06122448979, 6846222.551020408], [51262.34701574582, 6846143.345942329], [51174.32432432433, 6846159.324324325], [50966.33731843919, 6846347.351520187], [50737.24843277509, 6846226.67463998], [50582.20565626274, 6846198.271891585], [50525.67470828536, 6846254.963818853], [50297.34891016368, 6846294.955286995], [50079.6744898607, 6846374.514700963], [49918.38337420591, 6846537.436987535], [49988.78461538462, 6846630.676923077], [49859.17835615181, 6846843.938973504], [49747.22059230359, 6847316.328543758], [49667.79762265654, 6847320.198415104], [49315.969494335564, 6847270.862073572], [49270.654347167525, 6847225.266585883], [48956.68806542744, 6847528.649734531], [48663.33333333333, 6847411.274509804], [48228.53379201563, 6847402.559067259], [48104.35582822086, 6847329.478527607], [48088.008849557526, 6847358.539823009], [47991.51858407079, 6847294.942719228], [47877.47649617485, 6847319.125266117], [47843.57664233576, 6847291.423357665], [47816.825034336136, 6847326.886218142], [47556.666666666664, 6847231.666666667], [47491.032599645114, 6847240.778205462], [47297.17661285485, 6847104.75900989], [47088.02494075976, 6847061.023691092], [46940.75756562472, 6847124.285448306], [46838.52145589184, 6847006.61266933], [46557.0, 6846798.0], [46523.53624929656, 6846649.909200133], [46464.0149449073, 6846597.516437419], [46356.25, 6846672.5], [46330.0, 6846655.0]]]}}]}