{"type": "FeatureCollection", "crs": {"type": "name", "properties": {"name": "EPSG:25833"}}, "features": [{"type": "Feature", "properties": {"station": "84.20.0", "name": "Holsenvatn", "series": ["1001.0"], "nodes": 705181, "fine_vertices": 7960, "fine_area_m2": 70518150.0, "reduced_vertices": 386, "reduced_area_m2": 70518149.99999996, "outline_tolerance_m": 20.0, "windows": [[737, 951], [1533, 1732], [2640, 2931]], "placed_on": "number", "distance_m": 118.17625120337222, "uncertainty_m": 118.17625120337222, "elvid": "084-66-749", "objectid": 11858406, "lake": true, "confluence_near": true, "reach_up_m": 1000.0, "reach_down_m": 36.88649842410132, "reach_fork": false, "seeded_by": "lake", "lake_rule": "inside", "lake_number": 1736, "lake_name": "Holsavatnet", "lake_distance_m": 0.0, "node_offset_m": null, "chain_nodes": null, "lowered_nodes": null, "lowered_max_m": null, "direction_ok": null, "end_extended_m": null, "end_closed": null, "downstream_checked": null, "a0": null, "area_up": null, "area_down": null, "swing": null, "largest_step": null, "largest_step_at_m": null, "checked_up_m": null, "checked_down_m": null, "drains": null, "monotone": null, "causes": []}, "geometry": {"type": "Polygon", "coordinates": [[[23680.0, 6845835.0], [23652.5, 6845807.5], [23804.390591450323, 6845625.782939684], [23718.463110231813, 6845449.787089855], [23739.196038211336, 6845425.803961788], [23711.966371441373, 6845276.281696197], [24041.293865030144, 6844845.91130671], [24028.82116281573, 6844607.395162492], [23650.701754385966, 6844245.0], [23603.90243902439, 6844245.0], [23602.06322369095, 6844148.098165796], [23551.545645369955, 6844089.279622735], [23620.98561475202, 6844041.386079242], [23598.54351035255, 6843979.734513239], [23785.0, 6843730.0], [23765.0, 6843650.0], [23800.418326693227, 6843588.7649402395], [23750.998543600945, 6843557.46574428], [23824.282511210764, 6843480.717488789], [23863.763670191332, 6843517.218486029], [23892.6, 6843442.4], [23805.225596300148, 6843336.93221739], [23873.529411764706, 6843257.94117647], [23853.947490488383, 6843238.763006149], [23929.04348598778, 6843041.978332055], [23725.770494610093, 6843071.860019729], [23476.41561870124, 6842811.9629169535], [23464.157295592147, 6842760.993544477], [23526.74703303753, 6842705.51053138], [23504.256416099364, 6842589.348168037], [23334.321342346855, 6842420.164742233], [23034.404185070704, 6842218.993602888], [22875.952261714945, 6842209.846211339], [22866.333333333332, 6842041.333333333], [22822.619047619046, 6841997.619047619], [22860.0, 6841825.0], [22845.0, 6841720.0], [23000.14003294893, 6841689.934102141], [23075.208842993834, 6841546.651646029], [23037.85714285714, 6841502.857142857], [23037.86240136092, 6841279.21424695], [22814.423841292686, 6841089.461318149], [22858.157894736843, 6841026.842105263], [22817.431366231027, 6841010.6932883505], [22970.3090975979, 6840817.096570517], [22978.542507869504, 6840715.185599484], [23103.557288369684, 6840595.586982793], [23203.785818358425, 6840417.819329772], [23110.646444199705, 6840298.484506631], [23039.291599250617, 6840151.301732947], [22993.22406243117, 6840152.757456971], [22955.384615384617, 6840114.487179487], [22927.896786757545, 6840156.158714703], [22701.98152990599, 6840114.9710387], [22574.221994735304, 6840035.629326314], [22418.517635299635, 6839803.659858015], [22405.406593406595, 6839728.648351648], [22321.89518762158, 6839756.306855285], [22159.829875497766, 6839584.755454079], [21900.538310118296, 6839357.592476602], [21880.93726709973, 6839266.055806725], [21950.512138144168, 6839145.906641594], [22077.368421052633, 6839147.631578947], [22200.0, 6839185.0], [22230.82864749623, 6839139.5151102515], [22373.45760038829, 6839143.043918098], [22541.505371985073, 6838690.392006765], [22495.0, 6838660.0], [22645.506329113923, 6838490.75949367], [22612.747747747748, 6838441.621621622], [22546.666666666668, 6838435.0], [22579.25902260609, 6838369.891155863], [22530.833333333332, 6838325.833333333], [22578.768578564406, 6838282.34368634], [22603.928307866205, 6838138.336266188], [22567.798789712557, 6838098.683812405], [22780.34411012477, 6837825.863080725], [22941.972751155532, 6837822.214721684], [23062.189013598585, 6837618.6605127], [22985.38658757274, 6837522.628484996], [23064.470155657757, 6837440.884124399], [23073.947113150924, 6837362.022621169], [22921.99481865285, 6837068.2383419685], [22840.337694721326, 6837105.214553413], [22741.61730331421, 6837007.820679135], [22845.0, 6836750.0], [22802.31343283582, 6836643.2835820895], [22946.533928689376, 6836514.805548139], [22836.646760685784, 6836323.592367259], [22855.80443028498, 6836220.406475032], [22837.871603431566, 6836081.15510248], [22884.89719517006, 6836041.695086287], [22795.981745859142, 6835931.125180916], [22715.0, 6835900.0], [22762.647058823528, 6835791.176470588], [22837.342882198187, 6835818.417129494], [22911.26908759686, 6835778.989819949], [23053.389631101465, 6835912.723600617], [23168.38650475222, 6835941.924717737], [23225.483870967742, 6836012.096774193], [23305.0, 6836040.0], [23302.549371485682, 6836133.523837401], [23509.714721254357, 6836105.537891986], [23685.15679405778, 6836045.888031429], [23741.81818181818, 6836135.0], [23833.425985318223, 6836150.1307818405], [23949.632707508426, 6836296.074963939], [24084.454625471422, 6836152.777486204], [24150.4161733904, 6836169.25735361], [24220.0, 6836115.0], [24398.66840554085, 6836228.763811227], [24643.03843965025, 6836284.74962209], [24675.0, 6836340.0], [24643.95061728395, 6836419.538852578], [24760.0, 6836425.0], [24842.0, 6836357.0], [25051.296813915535, 6836423.598144523], [25140.0, 6836405.0], [25284.953121943632, 6836728.824010185], [25139.71525000235, 6836806.008566233], [25115.423216196963, 6836870.423216197], [25264.833305887812, 6836939.547972275], [25313.78238341969, 6836891.269430052], [25359.262107061895, 6836975.591440597], [25451.3975, 6836901.7425], [25493.664317180617, 6836930.782966226], [25537.910608369828, 6837182.749952687], [25503.72756745909, 6837293.7322435975], [25390.822275315553, 6837371.966165195], [25402.84931506849, 6837488.97260274], [25333.33856378069, 6837560.830718109], [25402.852657859326, 6837612.137755792], [25213.16120906801, 6837800.982367759], [25194.63180155041, 6837911.592907719], [25097.368421052633, 6837966.754385965], [25144.491446053944, 6838029.324737762], [25100.333333333332, 6838128.0], [25135.0, 6838180.0], [25089.117647058825, 6838304.117647059], [25146.11049017365, 6838361.110490174], [25095.39501302863, 6838495.978748472], [25334.311882295573, 6838483.258258213], [25389.863779002506, 6838570.739481981], [25326.16591928251, 6838579.9103139015], [25250.6340378198, 6838665.63403782], [25279.545454545456, 6838694.545454546], [25245.0, 6838770.0], [25364.885306820113, 6838861.601548412], [25399.847585910535, 6838842.568790806], [25416.32192222858, 6838970.2448972715], [25497.541014177903, 6838987.101346094], [25689.795378346153, 6838845.779448801], [25670.0, 6838795.0], [25691.153846153848, 6838816.923076923], [25772.202383005184, 6838735.980045326], [25953.102362204725, 6838775.661417323], [25968.541328485164, 6838913.171871956], [26039.133920420787, 6839012.643251502], [26133.30622504639, 6839034.91867514], [26143.527442197457, 6839215.626712468], [26414.692749571102, 6839202.001385433], [26470.0, 6839155.0], [26569.703404085365, 6839165.846615412], [26687.142857142855, 6839065.0], [26879.11111111111, 6839064.111111111], [26946.3675825792, 6839131.367582579], [27149.39409592684, 6839085.287933574], [27213.701192031553, 6839156.859892772], [27318.319254177848, 6839197.120697977], [27420.446300751755, 6839166.208063341], [27627.356340305705, 6839175.730676104], [27703.95142755758, 6839082.0563955465], [28234.820780210754, 6838818.064890516], [28260.42597787257, 6838768.278754838], [28373.541841492577, 6838848.512754668], [28533.413976391163, 6838643.828677863], [28665.30050267662, 6838594.822838134], [28823.50277819978, 6838431.936340712], [28781.56626506024, 6838195.963855422], [28854.639271979908, 6838094.274402801], [29055.40374242433, 6838116.82660215], [29217.421594007203, 6838254.513504022], [29204.177236415544, 6838308.075866628], [29338.541384190547, 6838281.956143865], [29410.925925925927, 6838364.444444444], [29546.556416202566, 6838356.066566359], [29672.744051805923, 6838232.657683836], [29806.0, 6838293.0], [29899.337587805603, 6838293.973161331], [29880.937794261776, 6838234.699828967], [30007.272727272728, 6838156.818181818], [30063.918169199584, 6838198.810684364], [30286.414191461852, 6838200.7849598965], [30388.181818181816, 6838133.909090909], [30469.724479995617, 6838205.924986294], [30683.915926380076, 6838153.541979576], [30893.50191995073, 6838006.89884803], [31307.112418104633, 6838143.685358186], [31252.452810165232, 6838384.3911833605], [31430.284192417123, 6838445.249123272], [31539.31883212548, 6838574.588043556], [31633.88298007861, 6838771.117019922], [31797.470215371814, 6838795.331700271], [31930.066016128723, 6838883.400600497], [32007.364942521024, 6838860.731080917], [32044.687678884075, 6839005.3799838815], [32212.307692307695, 6839094.230769231], [32270.0, 6839075.0], [32313.56862745098, 6839121.705882353], [32466.75546016849, 6839102.948311], [32573.282796878382, 6839200.496153873], [32519.354838709678, 6839228.548387097], [32569.956272112817, 6839310.8840267], [32556.678928050846, 6839488.9652931895], [32458.005237887388, 6839575.533902545], [32464.764551316188, 6839628.726402004], [32341.6850514049, 6839816.685051405], [32454.481765834935, 6839929.481765835], [32374.52380952381, 6840097.619047619], [32385.04397537379, 6840150.219876869], [32288.684210526313, 6840266.842105263], [32155.14283912284, 6840598.466994954], [32163.331991274175, 6840728.98276796], [32075.0, 6840870.0], [32140.0, 6840935.0], [32205.0, 6840920.0], [32301.0, 6841016.0], [32323.678232124003, 6841217.380706464], [32453.348021271195, 6841338.018487583], [32640.754873496477, 6841421.150974699], [32854.87804878049, 6841581.585365853], [33117.05007587254, 6841607.091047041], [33130.0, 6841585.0], [33698.754369950206, 6841592.519808875], [33750.0, 6841535.0], [33822.52807834, 6841604.695858466], [33931.29828921331, 6841846.286020919], [34100.1512580877, 6842004.004744788], [34135.0, 6842150.0], [34085.0, 6842200.0], [34082.45178056024, 6842412.270028863], [34035.0, 6842480.0], [34037.35449161941, 6842615.195897511], [33977.22222222222, 6842767.777777778], [34007.857142857145, 6842810.12605042], [34010.461148076014, 6843006.820130916], [34120.0, 6843081.0], [34160.0, 6843065.0], [34642.080685341956, 6843257.94977784], [34745.306019410215, 6843241.386857902], [34847.096774193546, 6843355.0], [34998.08282914174, 6843426.3581632655], [35113.0967046239, 6843537.064469749], [35087.56274998854, 6843656.101379764], [35148.333333333336, 6843735.0], [35125.0, 6843770.0], [35163.22222222222, 6843798.666666667], [35135.0, 6843890.0], [35192.657767863566, 6843960.318054256], [35136.35135135135, 6844034.054054054], [35126.87090739008, 6844171.403180542], [35177.555624071654, 6844247.664289316], [35513.471548265734, 6844522.085634606], [35460.0, 6844665.0], [35349.15578948929, 6844652.114306216], [35301.21852152721, 6844751.181965881], [35235.76803085924, 6844726.378908194], [34960.0, 6844965.0], [34903.57320779772, 6844912.730255154], [34809.63369884526, 6845022.13418167], [34714.0, 6845051.0], [34580.0, 6845035.0], [34438.07233391014, 6844914.753088657], [34325.861981393056, 6845013.324155858], [34227.35899410735, 6844954.825404994], [34066.39331938245, 6845026.028680826], [34023.04878048781, 6844927.073170732], [33980.0, 6844965.0], [33812.10984581783, 6844878.494489389], [33727.25892670689, 6844929.669659638], [33730.0, 6844905.0], [33640.12143671332, 6844842.904747355], [33641.40845070423, 6844775.0], [33590.0, 6844775.0], [33540.8419047619, 6844851.32], [33440.63938653398, 6844738.610880929], [33266.07621499839, 6844866.591374316], [33197.0, 6844792.666666667], [33131.96428571429, 6844814.94047619], [33106.829268292684, 6844773.048780488], [32990.0, 6844715.0], [32970.816063778766, 6844769.793790535], [32847.96242508826, 6844887.689044441], [32632.020219654092, 6844774.595956069], [32587.54579839557, 6844783.4908403205], [32417.82055615302, 6844574.277308342], [32310.655737704918, 6844584.180327869], [32198.543210419375, 6844688.220914918], [32080.0, 6844545.0], [32012.11055733841, 6844576.947973018], [31623.592124642542, 6844436.357361128], [31415.44988837316, 6844458.933184498], [31382.17391304348, 6844414.565217392], [31320.99500488607, 6844465.872046174], [31214.88151658768, 6844405.0], [31102.777777777777, 6844287.777777778], [31155.0, 6844160.0], [31050.599738005563, 6844022.051350908], [30829.05593583394, 6843893.755251333], [30790.0, 6843925.0], [30739.90243902439, 6843818.1707317075], [30688.571428571428, 6843853.571428572], [30567.13458951803, 6843796.841125748], [30517.954545454544, 6843733.409090909], [30334.99689984447, 6843732.361431737], [30299.074282498594, 6843800.630275746], [30316.237399634876, 6843961.446999191], [30170.632428077333, 6844123.505942462], [30101.803278688523, 6844068.442622951], [30043.441852849362, 6844137.720436454], [30065.828821152067, 6844170.472488679], [30024.214625332137, 6844193.553154774], [29803.53179953895, 6844014.318102137], [29817.027382062755, 6843950.397486831], [29535.454545454544, 6843620.454545454], [29316.00390727794, 6843578.581118158], [29271.954973189564, 6843640.8568659965], [29098.531399171556, 6843653.401657853], [29029.550561797754, 6843712.528089887], [29022.80702764977, 6843812.515552996], [28715.0, 6844090.0], [28690.238095238095, 6844176.666666667], [28650.60371581537, 6844192.951534808], [28607.222222222223, 6844311.111111111], [28645.0, 6844330.0], [28600.0, 6844375.0], [28469.546008358724, 6844340.091468976], [28042.86036164382, 6844693.044042664], [28033.15789473684, 6844847.105263158], [27999.434782608696, 6844815.484472049], [27871.187977918773, 6844906.599203072], [27871.40408619817, 6844935.22205497], [27745.963053662534, 6845140.322193449], [27517.47204791259, 6845326.226280274], [27386.464047511075, 6845243.459232613], [27195.19264519218, 6845244.983773773], [26992.667452262755, 6845545.370450707], [26870.000000000004, 6845455.0], [26663.89031887511, 6845410.248356698], [26644.054054054053, 6845483.6486486485], [26503.430681044287, 6845483.5829506], [26480.54822265714, 6845567.9045104915], [26404.106145251397, 6845615.530726257], [26435.656427233997, 6845673.901115302], [26376.491901108267, 6845718.866155158], [26380.51401869159, 6845943.831775701], [26285.889678231335, 6845872.053777219], [26257.773953946096, 6845891.422387281], [26256.593406593405, 6845996.456043956], [26176.26150698943, 6846077.523013979], [26130.0, 6845985.0], [26100.0, 6846005.0], [26090.0, 6846075.0], [26032.121212121212, 6845983.181818182], [25929.870913800434, 6846078.924114475], [25822.461073292146, 6846099.9713720735], [25776.666666666668, 6846178.333333333], [25722.5, 6846150.0], [25619.678523986317, 6846178.955370219], [25596.454502777946, 6846027.569490306], [25664.735779470993, 6845944.617986709], [25743.38343225487, 6845648.406003518], [25586.137359497046, 6845564.416079253], [25503.374182238043, 6845471.355101584], [25451.33865192537, 6845481.996670645], [25275.04854368932, 6845429.95145631], [25254.252217775127, 6845495.238248372], [25136.53029699399, 6845484.166838657], [25056.134600950714, 6845410.399049287], [24961.78422336076, 6845460.142277152], [24764.642857142855, 6845641.428571428], [24612.44242165135, 6845626.262742864], [24390.0, 6845515.0], [24242.944144635432, 6845632.392264088], [24141.829268292684, 6845574.5121951215], [23709.363134205214, 6845797.173315378], [23680.0, 6845835.0]]]}}]}