{"type": "FeatureCollection", "crs": {"type": "name", "properties": {"name": "EPSG:25833"}}, "features": [{"type": "Feature", "properties": {"station": "85.4.0", "name": "Straumstad (Solheimsvatnet)", "series": ["1001.1"], "nodes": 1138812, "fine_vertices": 10164, "fine_area_m2": 113881250.0, "reduced_vertices": 461, "reduced_area_m2": 113881250.00000048, "outline_tolerance_m": 20.0, "windows": [[496, 796], [1294, 1516], [2612, 2715]], "placed_on": "number", "distance_m": 40.11544969777637, "uncertainty_m": 40.11544969777637, "elvid": "085-68-1", "objectid": 10762660, "lake": true, "confluence_near": false, "reach_up_m": 1000.0, "reach_down_m": 140.11544969777628, "reach_fork": false, "seeded_by": "lake", "lake_rule": "lake_line", "lake_number": 1761, "lake_name": "Solheimsvatnet", "lake_distance_m": 0.4269469428793832, "node_offset_m": null, "chain_nodes": null, "lowered_nodes": null, "lowered_max_m": null, "direction_ok": null, "end_extended_m": null, "end_closed": null, "downstream_checked": null, "a0": null, "area_up": null, "area_down": null, "swing": null, "largest_step": null, "largest_step_at_m": null, "checked_up_m": null, "checked_down_m": null, "drains": null, "monotone": null, "causes": []}, "geometry": {"type": "Polygon", "coordinates": [[[5885.0, 6881880.0], [5843.3214312315795, 6881759.793399104], [5602.297618316434, 6881649.806393931], [5340.0, 6881641.666666667], [5268.823529411766, 6881683.823529412], [5211.523178807947, 6881658.046357616], [5159.517242720665, 6881700.971385723], [5130.773584905661, 6881581.059506531], [5009.897782063645, 6881420.130183221], [5032.2615119329, 6881390.478610402], [4793.894829252487, 6881215.340052538], [4624.302148013507, 6881218.6046978915], [4530.359664162854, 6881186.206914892], [4367.730178090869, 6881227.173376782], [4260.192461297755, 6881186.41878745], [3975.8856291978136, 6880919.543008677], [3793.963862751816, 6881020.927235453], [3524.4444444444453, 6881040.555555556], [3355.46618983014, 6880962.984360358], [3147.76598062809, 6880795.840854029], [3005.2866159108125, 6880542.211863106], [2917.894736842107, 6880500.263157895], [2816.630188458479, 6880502.086279686], [2697.944606413994, 6880311.166180758], [2644.3478712369943, 6880103.013972758], [2529.6143875567086, 6880151.7595593], [2500.0, 6880105.0], [2427.142857142857, 6880143.345864662], [2405.0, 6880120.0], [2085.704194916978, 6880212.120438633], [1680.0, 6879925.0], [1605.0, 6879944.0], [1551.0414513578871, 6880175.227464019], [1483.322448979592, 6880218.33877551], [1413.32893993598, 6880148.001318019], [1380.0, 6880245.0], [1357.7912026883187, 6880226.178985329], [1267.8154691794261, 6880294.243816255], [1057.6057511109893, 6880252.705076049], [1035.7221979060223, 6880219.125315917], [912.711598746082, 6880165.423197492], [839.9592666649714, 6880063.230599059], [38.91670717712623, 6879438.568757385], [5.0, 6879290.0], [-96.76708238187257, 6879200.953802916], [-227.7419354838712, 6879201.129032258], [-303.8075065777157, 6879144.499774283], [-418.99199297078485, 6879124.291122146], [-375.45796737766614, 6878960.106649937], [-325.0, 6878955.714285715], [-323.72856092845814, 6879030.925640932], [-204.61824154639544, 6878957.718764481], [-129.86147761507073, 6879005.95323786], [-120.60261494996303, 6878833.366803764], [-249.35374149659856, 6878512.517006802], [-185.76995790994533, 6878236.991626226], [-108.56565182826944, 6878013.075297857], [-391.6860259607811, 6877706.414299017], [-326.5524926686221, 6877643.927859237], [-387.5, 6877577.5], [-295.01446945337557, 6877490.970984535], [-192.34079333818227, 6877560.687712754], [-39.243680423125625, 6877499.330493446], [39.05556432444337, 6877383.650508498], [170.0, 6877385.0], [152.84583620096328, 6877310.399174122], [222.66645059727762, 6877201.166774701], [176.84848231856722, 6877131.042229706], [182.19510727293164, 6877084.445243353], [69.88320355951055, 6876907.730812013], [193.9334282398495, 6876768.794560371], [53.919079009237976, 6876604.165275543], [151.85677455997575, 6876449.911390094], [45.0, 6876370.0], [157.77507203421737, 6876240.114899152], [38.243133720054175, 6876145.473280047], [127.19980384361224, 6876016.424656062], [55.939257963032105, 6875981.68431201], [90.84943891877447, 6875908.4394639125], [35.0, 6875800.0], [243.35412777758575, 6875486.273663633], [125.95537069114562, 6875360.219487574], [-228.13953488372135, 6875400.813953488], [-351.2285298736888, 6875309.73175924], [-478.17322651666746, 6875304.52154294], [-597.4418604651164, 6875166.627906977], [-640.8450704225352, 6875195.563380281], [-692.0, 6875135.0], [-788.9041095890407, 6875224.726027397], [-1012.145238202048, 6875306.088827938], [-1153.4306569343062, 6875120.620437956], [-1221.8026315789475, 6875163.197368421], [-1345.837623762376, 6875039.162376238], [-1550.2213724190187, 6875163.842276091], [-1627.0005396195902, 6875094.415090242], [-1728.1523879017186, 6875118.794663847], [-1909.6220705390315, 6874990.84277593], [-1920.0, 6874925.0], [-2018.3198562443831, 6874984.110512129], [-2120.3255146002875, 6874895.976543801], [-2152.3797312379784, 6874951.2554221675], [-2280.0, 6874985.0], [-2406.5719000105128, 6874858.42809999], [-2636.0040499493753, 6875031.750529255], [-2753.5294117647063, 6875068.529411765], [-2910.0, 6874885.0], [-3046.111819050653, 6874922.284166932], [-3191.4285714285716, 6874846.428571428], [-3228.6169339861967, 6874866.473664151], [-3225.0, 6874790.0], [-3386.829415744695, 6874652.576258142], [-3535.454424420949, 6874730.7017135415], [-3741.577941916148, 6874648.076864273], [-3878.855177631613, 6874716.743578618], [-3976.528065075346, 6874665.0], [-4030.1353908445103, 6874597.073240585], [-4192.73381294964, 6874703.489208633], [-4483.569846272658, 6874381.554287014], [-4277.539169652733, 6874204.794796375], [-3897.6693105552167, 6874144.829164124], [-3925.0, 6874110.0], [-3816.855670103093, 6874002.680412371], [-3870.843766503594, 6873935.19529187], [-3834.166178480765, 6873826.66861941], [-3885.0, 6873780.0], [-3726.2031047865457, 6873613.363518758], [-3768.596837944664, 6873597.154150197], [-3756.0, 6873535.0], [-4059.5974637909494, 6873533.303712678], [-4075.0, 6873571.754703768], [-4175.603400771472, 6873567.449027789], [-4176.0, 6873535.0], [-4292.714932126697, 6873561.244343892], [-4365.045037750743, 6873499.247110499], [-4636.749585406302, 6873500.43946932], [-4668.168305812827, 6873445.5071779005], [-5019.710698854891, 6873383.753270492], [-5063.896103896104, 6873421.103896104], [-5109.285714285714, 6873375.714285715], [-5081.652414829052, 6873346.92959878], [-5197.889819309906, 6873159.97833642], [-5300.0, 6873165.0], [-5362.537313432836, 6873081.567164179], [-5474.753058776164, 6873103.199611093], [-5591.469245998456, 6873036.469245998], [-5585.620279771929, 6872927.802401908], [-5701.452661417365, 6872875.318798329], [-5715.0, 6872790.0], [-5649.0, 6872756.0], [-5691.755364806867, 6872713.244635193], [-5368.3147632311975, 6872355.208913649], [-5387.417271993543, 6872303.450363196], [-5330.2768331699535, 6872277.886956467], [-5737.676892496416, 6872234.288539493], [-5732.608695652174, 6872192.826086956], [-5819.424371223578, 6872105.352716873], [-5939.523809523809, 6872185.666666667], [-6013.666092943201, 6872075.0], [-6083.333333333333, 6872075.0], [-6071.1019223937155, 6872029.347491414], [-6181.666666666667, 6871903.333333333], [-6149.84028580435, 6871844.70578964], [-6022.222222222223, 6871856.975308642], [-6002.937458171408, 6871827.2391645275], [-5806.932871138936, 6871819.9066855265], [-5702.9438865152315, 6871961.67761379], [-5467.548951841362, 6871942.2588733565], [-5159.964471732606, 6871983.257735159], [-4958.562701513676, 6871953.562701514], [-4961.206286509616, 6871840.512663986], [-5057.5, 6871827.5], [-5300.894736842105, 6871595.894736842], [-5167.5, 6871462.5], [-5420.976527975701, 6871134.931083956], [-5580.377610678993, 6871071.79173206], [-5651.736176410874, 6871011.610793073], [-5736.925996845926, 6871068.348841524], [-5806.762188650375, 6871017.069043023], [-5944.796265154625, 6871055.296254337], [-6090.700715984032, 6870986.13192582], [-6112.99853713054, 6871022.151483057], [-6347.29267965245, 6870930.731087894], [-6475.089147697729, 6871006.761897997], [-6538.2438476823245, 6870967.633124553], [-6881.006217042484, 6870905.678647909], [-6995.0, 6870820.0], [-6995.0, 6870780.0], [-6697.89865444303, 6870610.010009306], [-6720.294117647059, 6870572.05882353], [-6689.285714285715, 6870521.428571428], [-6780.533596837945, 6870434.743083004], [-6718.7153536107235, 6870407.606661926], [-6674.985204054596, 6870264.148676105], [-6826.75, 6870141.75], [-6795.0, 6870110.0], [-6971.756756756757, 6869916.756756756], [-6959.0617686502355, 6869773.17948363], [-6811.127973028018, 6869537.120395182], [-6832.713699627476, 6869431.21699483], [-6427.625160703351, 6869211.150511056], [-6145.058054444336, 6868860.21904576], [-6074.442091137696, 6868927.148849029], [-5940.825571028042, 6868836.199257167], [-5860.0, 6868905.0], [-5781.25, 6868893.75], [-5749.940969288154, 6868938.640192478], [-5523.2532720963845, 6868932.442494666], [-5278.881355932203, 6869004.254237288], [-5195.823825948528, 6868974.450782701], [-4957.274598312107, 6869062.376045223], [-4888.913043478261, 6869016.956521739], [-4822.243729758229, 6869048.692099119], [-4732.675234729597, 6868976.607373661], [-4556.617627037, 6869066.051061489], [-4229.267720200312, 6868964.023626934], [-4126.413414034914, 6868898.056502534], [-4041.608341448669, 6868893.811121931], [-3990.0, 6868825.0], [-3902.3207776427703, 6868866.190765492], [-3540.7213493534127, 6868717.826116003], [-3411.642437699324, 6868635.324798422], [-3340.0, 6868675.0], [-3181.4285714285716, 6868656.428571428], [-3164.552666794112, 6868753.297648633], [-3091.25, 6868806.25], [-3138.7982689201353, 6868853.79826892], [-3146.010844761746, 6869073.99012376], [-3217.7272727272725, 6869122.7272727275], [-3145.0, 6869160.0], [-3127.2727272727275, 6869225.0], [-3035.142857142857, 6869189.857142857], [-2893.038961038961, 6869221.961038961], [-2567.4347611424464, 6869394.095515876], [-2517.277150059417, 6869389.802363086], [-2526.997635933806, 6869459.113475177], [-2457.696577243293, 6869477.3034227565], [-2428.215786995728, 6869545.639923501], [-2355.0, 6869550.083658673], [-2369.9838051884008, 6869607.118159219], [-2330.0, 6869655.0], [-2180.907407407407, 6869628.055555556], [-2205.0, 6869730.0], [-1893.290548244353, 6869702.100492633], [-1727.652058075405, 6869713.23244762], [-1693.884815354685, 6869734.164455715], [-1489.1788792884308, 6869716.173029588], [-1444.6229733056662, 6869779.824323849], [-1266.3149606299212, 6869778.68503937], [-1121.4500946531643, 6869857.983172299], [-1054.666666666666, 6869855.0], [-1063.333333333333, 6869905.0], [-1008.5022692889561, 6869866.694402421], [-864.8875086977814, 6869897.932505218], [-763.6583514521471, 6870003.854817839], [-569.0584544320318, 6869990.777748768], [-482.4805218022266, 6870147.409038679], [-406.66666666666606, 6870135.0], [-422.727272727273, 6870192.2727272725], [-366.6981448800225, 6870198.936512138], [-182.24236532384293, 6870385.0], [-90.0, 6870385.0], [-44.90365009620655, 6870451.855633095], [78.33333333333303, 6870513.333333333], [57.240608727958715, 6870539.69923909], [271.1664856985444, 6870705.334140177], [291.53358890005074, 6870922.2088045785], [205.0, 6871070.0], [293.0645634629482, 6871177.8972854], [458.23534677565385, 6871183.338332729], [556.344945500462, 6871220.186350967], [620.909090909091, 6871174.090909091], [684.9290357789141, 6871223.70942227], [1113.5007135334527, 6870942.193390229], [1307.7694526597516, 6870932.769452659], [1389.2013930817157, 6870980.236566111], [1541.426923446661, 6870890.7996603325], [1547.3975214489983, 6870865.86749285], [1688.3860571331443, 6870810.058423464], [1839.2034307613176, 6870923.255362778], [2108.093866131423, 6870937.031471552], [2098.5414340783063, 6870992.236171644], [2186.4705882352937, 6871002.647058823], [2266.5059872159254, 6870947.027657673], [2572.1187788335737, 6870985.958654915], [2741.084531830915, 6870911.144465389], [3099.787476661275, 6870883.170405946], [3190.0, 6870955.0], [3264.605263157895, 6870933.815789473], [3258.0031603671487, 6871078.51286461], [3363.36166082037, 6871050.263409699], [3460.0, 6870955.0], [3654.7481175837765, 6870969.262865095], [3701.95652173913, 6870860.434782608], [3672.142857142857, 6870815.714285715], [3900.146369197415, 6870503.734003761], [4193.016093511773, 6870328.147890903], [4405.22198731501, 6870288.572938689], [4447.5, 6870317.5], [4581.517237458531, 6870246.549697816], [4628.958294668188, 6870333.223347562], [4667.356644934933, 6870276.571096623], [4874.064853703534, 6870382.761988456], [5025.833771065931, 6870284.729597274], [5113.911410497811, 6870382.350955213], [5183.320505448215, 6870377.95583636], [5320.0, 6870425.0], [5342.917834227244, 6870530.438850318], [5408.857837238384, 6870568.855202017], [6033.742029129635, 6870421.757874782], [6411.173319555355, 6870294.903251502], [6521.1083700595755, 6870296.7103467975], [6689.732407982934, 6870213.449017979], [6769.867814693607, 6870253.514130694], [7049.564482733615, 6870154.221649588], [7135.461268976256, 6870191.850914753], [7210.0, 6870155.0], [7263.674802847372, 6870224.497522507], [7346.666666666666, 6870181.666666667], [7395.0, 6870230.0], [7340.885988344795, 6870308.332810656], [7475.253136415538, 6870429.562843683], [7387.631522673262, 6870580.881814661], [7443.727716722928, 6870608.349844891], [7610.0, 6870555.0], [7655.056525188418, 6870595.897461325], [7906.216216216217, 6870572.297297297], [8036.140575079871, 6870484.03514377], [8206.167004627463, 6870531.167004627], [8373.333333333334, 6870698.333333333], [8501.524972909072, 6870679.240961482], [8762.307692307693, 6870806.538461538], [8946.933581628384, 6870810.275480106], [9118.515244587612, 6870733.101730467], [9370.0, 6870715.0], [9534.576260335143, 6870916.223810923], [9297.694083088545, 6871126.069779989], [9389.307692307691, 6871224.307692308], [9398.244306710818, 6871377.016273206], [9435.0, 6871450.4], [9310.0, 6871585.0], [9256.666666666668, 6871569.444444444], [9130.956302728762, 6871719.169010167], [9174.398390213692, 6871782.169436174], [9113.864734299517, 6871931.425120773], [9080.0, 6871915.0], [9038.359748910003, 6871989.139959258], [9110.261776669728, 6872045.906049075], [9151.610169491525, 6872129.152542373], [9057.452342111395, 6872163.004660918], [8869.133247738595, 6872122.225306919], [8815.0, 6872190.0], [8845.0, 6872245.0], [9003.316831683169, 6872285.940594059], [9069.2, 6872333.0], [9006.857855361597, 6872368.715710723], [8988.762219286657, 6872332.524438573], [8956.653743639448, 6872405.877150472], [9080.0, 6872395.0], [9130.670721888231, 6872492.601841707], [8921.722723901421, 6872630.528177777], [8942.959716235824, 6872714.651308442], [9090.144263834925, 6872832.608503223], [9070.0, 6872885.0], [9185.08064516129, 6872955.295698925], [9041.193287806003, 6873035.72924589], [8899.860725201444, 6873039.307099194], [8864.808098502846, 6873107.716579529], [8799.532494232033, 6873152.468891888], [8809.354970680486, 6873268.5769807715], [8718.148148148148, 6873280.555555556], [8702.380952380952, 6873327.857142857], [8755.0, 6873380.0], [8631.767658209663, 6873571.539546043], [8492.384883232275, 6873663.455188625], [8349.15524647167, 6873656.333606054], [8397.376015804157, 6873734.662452692], [8304.523612947563, 6873839.804144163], [8198.52220339568, 6874142.039045842], [8283.333333333334, 6874135.0], [8380.268422747513, 6874204.511411762], [8431.403239305784, 6874157.593560018], [8868.289645109706, 6874503.786019572], [8910.0, 6874475.0], [8950.95890410959, 6874511.575342466], [9030.116279069767, 6874457.0930232555], [9147.259485061273, 6874537.425617191], [9194.316184137213, 6874684.6131816255], [9069.925364040026, 6874726.317403068], [8865.957124829203, 6874910.717958345], [8758.333333333334, 6875106.666666667], [8825.0, 6875190.0], [8710.156995183583, 6875271.501487289], [9042.962570616995, 6875608.937366943], [8919.456928838952, 6875683.0711610485], [8975.984367550749, 6875741.31859584], [8929.0, 6875824.0], [8761.886515789318, 6875905.92059947], [8745.424391159255, 6875965.094554957], [8810.282660439421, 6876058.65907598], [8805.190586577184, 6876383.685741814], [8938.333333333334, 6876593.333333333], [8919.404858299595, 6876673.222672065], [9070.837454620198, 6876820.426059924], [9121.867881548977, 6876839.043879631], [9104.999798581086, 6876873.88555753], [9158.212942114296, 6876962.247219835], [8941.91270475518, 6876883.193324368], [8929.585767443834, 6876946.966062818], [9078.333333333334, 6877006.666666667], [8912.386013259638, 6877106.422859014], [8870.0, 6877085.0], [8804.88031195113, 6877171.826250732], [8526.781345565749, 6877081.22324159], [8502.918707415303, 6877170.209031815], [8062.8290516312245, 6877077.756025303], [8046.629819769485, 6877113.409523723], [8336.164738547119, 6877277.450230792], [8243.812936420713, 6877421.187063579], [8168.398725182131, 6877445.1905151885], [7950.884348464744, 6877339.1661137575], [7271.521739130434, 6877146.956521739], [7239.127470184549, 6877280.2974733645], [7170.0, 6877275.0], [7138.779145441451, 6877366.260959479], [6986.3721091538755, 6877406.991326795], [6983.629180106078, 6877475.417054735], [6930.379166437304, 6877509.510848415], [7374.436033753116, 6877668.207510743], [7470.66233776395, 6877812.577091552], [7465.0, 6877865.482849202], [7689.376395832929, 6878073.573765515], [7701.941964198937, 6878259.736667583], [7593.812378282082, 6878485.164967485], [7415.709698195233, 6878595.785318899], [7243.043567957686, 6878782.766779972], [7115.755585461409, 6878843.353703342], [6993.874491103003, 6878955.020814002], [6985.331648378748, 6879005.15226236], [6909.8076923076915, 6879084.807692308], [6862.5, 6879037.5], [6680.385309166666, 6879199.0041316245], [6639.422657027722, 6879173.522711609], [6420.0, 6879215.0], [6398.762278978389, 6879193.762278979], [6161.833922530121, 6879432.225643365], [6095.01874222701, 6879584.815151133], [6113.263967519164, 6880094.975591746], [6134.926869794368, 6880134.232132841], [6125.0, 6880290.0], [6197.911392405063, 6880330.506329114], [6165.0, 6880400.0], [6204.39393939394, 6880424.545454546], [6164.274466031888, 6880557.49621938], [6267.458304008678, 6880612.481688724], [6602.545975835437, 6880947.818449945], [6399.511732561876, 6881075.0644956585], [6339.548094707088, 6881283.414057957], [6313.558696106427, 6881554.070537196], [6187.211516850804, 6881696.936395802], [5984.983428385862, 6882015.251980596], [5856.882845188284, 6881921.841004184], [5885.0, 6881880.0]]]}}]}