{"type": "FeatureCollection", "crs": {"type": "name", "properties": {"name": "EPSG:25833"}}, "features": [{"type": "Feature", "properties": {"station": "86.10.0", "name": "\u00c5vatn (Ommedalsvatnet)", "series": ["1001.1"], "nodes": 1621834, "fine_vertices": 12040, "fine_area_m2": 162183350.0, "reduced_vertices": 548, "reduced_area_m2": 162183350.0000001, "outline_tolerance_m": 20.0, "windows": [[690, 490], [1304, 1210], [2503, 2738], [4401, 5254]], "placed_on": "number", "distance_m": 38.492905469930044, "uncertainty_m": 38.492905469930044, "elvid": "086-182-308", "objectid": 11710268, "lake": true, "confluence_near": false, "reach_up_m": 420.65847836454185, "reach_down_m": 108.08613439099867, "reach_fork": false, "seeded_by": "lake", "lake_rule": "lake_line", "lake_number": 1771, "lake_name": "Ommedalsvatnet", "lake_distance_m": 0.10319960055823463, "node_offset_m": null, "chain_nodes": null, "lowered_nodes": null, "lowered_max_m": null, "direction_ok": null, "end_extended_m": null, "end_closed": null, "downstream_checked": null, "a0": null, "area_up": null, "area_down": null, "swing": null, "largest_step": null, "largest_step_at_m": null, "checked_up_m": null, "checked_down_m": null, "drains": null, "monotone": null, "causes": []}, "geometry": {"type": "Polygon", "coordinates": [[[19205.0, 6876390.0], [19258.603603603602, 6876357.837837838], [19277.029277474954, 6876117.628998735], [19401.555842918962, 6875877.11931602], [19420.0, 6875905.0], [19581.894439208292, 6875836.215834118], [19627.234083769417, 6875882.36291237], [19793.631977283854, 6875805.23530201], [19755.0, 6875590.0], [19943.805733477937, 6875412.063664078], [19966.545454545456, 6875281.545454546], [19904.032258064515, 6875148.064516129], [19834.898153213377, 6875079.58399], [19704.87037533293, 6874805.461048734], [19777.39169818057, 6874729.102673959], [19903.660714285714, 6874710.267857143], [19957.359856057577, 6874648.709316273], [19937.386330548077, 6874587.332924682], [20006.598386906007, 6874454.995622372], [19850.72838209508, 6874242.058448935], [19903.805344959896, 6874149.686103479], [19760.735914880646, 6874044.481646907], [19605.0, 6874063.333333333], [19599.905660377357, 6874026.981132075], [19507.953995157386, 6874012.953995157], [19516.454811803833, 6873938.008389109], [19453.75830227543, 6873941.460725419], [19268.20767550252, 6873865.634553061], [19360.185185185186, 6873747.777777778], [19333.571428571428, 6873707.857142857], [19396.42295760083, 6873658.891416753], [19322.879401580205, 6873568.886977959], [19280.898528114874, 6873452.6771798525], [19395.0, 6873330.0], [19347.148197764483, 6873276.6702136705], [19386.397163773654, 6873189.292554906], [19330.0, 6873095.0], [19270.0, 6873095.0], [19247.297297297297, 6873049.594594595], [19290.723264325745, 6872959.777250372], [19225.44653737139, 6872814.001160533], [19295.0, 6872730.0], [19163.87444128403, 6872716.887444128], [19125.333333333332, 6872631.0], [19322.898888328353, 6872515.303033018], [19280.6548796929, 6872444.3497976465], [19339.26405559065, 6872384.946304485], [19251.666666666668, 6872283.333333333], [19302.5, 6872232.5], [19227.553735926303, 6872119.888433982], [19245.0, 6872096.0], [19114.668129712114, 6871994.382093627], [19072.465753424658, 6871907.465753425], [19123.157894736843, 6871881.315789473], [18818.274977144545, 6871644.843614611], [18843.304490416667, 6871556.081591781], [18788.816832036548, 6871491.237775716], [18899.090909090908, 6871425.909090909], [18903.97675850815, 6871325.912143427], [18804.23699947583, 6871271.655110212], [18520.534607686986, 6871259.739701908], [18414.132188141062, 6871158.608603594], [18200.98270048661, 6871146.241522663], [17938.2677301055, 6870860.18611866], [17785.65693720395, 6870733.051284766], [17720.937707881723, 6870795.633890442], [17594.46153846154, 6870860.538461538], [17491.93116045682, 6870840.277725382], [17139.378910465763, 6871085.0], [17010.0, 6871085.0], [16956.614173228347, 6871138.385826772], [16906.521739130436, 6871078.043478261], [16949.447236180906, 6871034.447236181], [16845.0, 6870930.0], [16867.85714285714, 6870894.285714285], [16702.93961984462, 6870731.421052984], [16584.285714285714, 6870777.857142857], [16471.40980293077, 6870751.200101061], [16369.565084345058, 6870810.592369385], [16152.96372203724, 6870557.963722037], [15982.048543310104, 6870471.895945916], [15905.0, 6870535.0], [15876.25, 6870477.5], [16014.57085950866, 6870401.556634392], [15985.868644067796, 6870380.783898305], [16093.294571498313, 6870259.714077343], [16138.383381636559, 6870106.736969718], [16194.2, 6870037.6], [16169.297963558414, 6869961.420150054], [16215.0, 6869930.0], [16246.040232256431, 6869767.470201508], [16213.119428131551, 6869687.136078462], [16395.66385880465, 6869599.632972322], [16520.0, 6869605.0], [16649.73876194504, 6869484.9728433555], [16734.999178852875, 6869489.520764365], [16759.10766094622, 6869428.076481431], [16909.49541341436, 6869367.8489910085], [16885.937829034447, 6869196.472979262], [16955.141877024464, 6869147.041516411], [16788.5097660509, 6869011.99554531], [16736.153846153848, 6869025.0], [16697.666477238687, 6868912.090133026], [16582.764542855006, 6868843.593376722], [16519.69447214449, 6868735.339089456], [16415.0, 6868700.0], [16482.49090048568, 6868678.460350909], [16463.125286739032, 6868585.041138975], [16547.150042404115, 6868428.881577797], [16658.373493975905, 6868357.469879518], [16507.21434224958, 6868251.83078278], [16665.0, 6868160.0], [16679.545454545456, 6868064.545454546], [16603.600746268658, 6868006.660447761], [16672.93373629786, 6867977.886775759], [16639.076840981856, 6867943.26040555], [16691.0, 6867826.0], [16655.0, 6867790.0], [16720.063993862386, 6867710.382218037], [16660.32338308458, 6867584.6766169155], [16701.511627906977, 6867543.488372093], [16597.130262940605, 6867271.6850438565], [16468.817204301075, 6867161.666666667], [16394.36761212681, 6867178.543722297], [16342.966922301453, 6867061.587919409], [16409.63333333333, 6867003.6], [16167.121649905537, 6866775.035410177], [15892.488675317587, 6866600.303170911], [15826.502540573765, 6866618.779288639], [15709.668289876478, 6866515.852063958], [15522.307692307691, 6866480.384615385], [15525.936498440238, 6866582.066792018], [15478.666666666666, 6866645.0], [15393.950643324193, 6866645.0], [15201.725218686759, 6866756.841892591], [15093.333333333334, 6866739.814814814], [14885.981658450431, 6866593.127747474], [14830.0, 6866595.0], [14789.121757827366, 6866487.623853092], [14732.441371182416, 6866437.58710072], [14708.628372679183, 6866301.302361879], [14880.60839144963, 6866173.557894337], [15016.993756947086, 6865961.258890716], [15193.51354672416, 6865828.80732144], [15444.711456706651, 6865951.330228814], [15595.545294785814, 6865855.008016334], [15598.583690987125, 6865817.832618026], [15845.707489476184, 6865688.783036314], [15935.88268356481, 6865618.346675387], [15953.075793903216, 6865479.988011939], [16157.955043631175, 6865378.833846332], [16103.253610383279, 6865283.707878862], [16165.0, 6865190.0], [16125.0, 6865160.0], [16185.939667313596, 6865105.228750637], [16297.99569526111, 6865083.912283951], [16427.113554958258, 6864994.9179004505], [16492.007255139055, 6865068.54292624], [16633.79480840544, 6865069.89328389], [16742.5691465849, 6865196.466745441], [16905.06297402107, 6865143.062390611], [16975.317485003074, 6865252.380053406], [17108.302366761396, 6865188.810415233], [17375.474683544304, 6865409.525316455], [17310.747628911507, 6865525.114269641], [17255.71497281466, 6865560.976512633], [17340.0, 6865635.0], [17395.0, 6865610.0], [17479.285714285714, 6865694.285714285], [17437.380952380954, 6865742.380952381], [17539.125983449165, 6865844.12598345], [17476.931076105982, 6865909.794193977], [17578.636363636364, 6866080.0], [17565.0, 6866130.0], [17659.600431965442, 6866262.850971922], [17695.585934951516, 6866413.465891716], [17851.251292657704, 6866452.321613237], [18011.316885102187, 6866318.130723932], [18135.39272450729, 6866346.673353104], [18375.49477206579, 6866121.996514711], [18424.13813707783, 6866154.425424718], [18639.296987087517, 6865945.7030129125], [18734.893617021276, 6865998.404255319], [18783.043478260868, 6865966.304347826], [18828.083573687803, 6866044.020781953], [19030.0, 6866215.0], [19010.98818045325, 6866266.847047848], [19062.096180081855, 6866361.464529332], [19012.222222222223, 6866461.666666667], [19107.637236059556, 6866673.57179302], [19037.010029107987, 6866762.93465138], [19232.5, 6866905.0], [19277.065976552756, 6866895.096449655], [19357.619047619046, 6866983.253968254], [19682.636862847823, 6866804.21089979], [19925.061219236326, 6866572.818464619], [20006.506712071096, 6866619.003591771], [20227.48504387131, 6866497.495014624], [20370.092379382382, 6866498.905427635], [20430.936702403338, 6866568.952831929], [20591.57346264961, 6866533.890837804], [20626.25, 6866491.25], [20726.56345627315, 6866601.451038815], [20848.31303008917, 6866598.70915023], [20877.258734642066, 6866686.281665746], [20935.469998211454, 6866680.426094854], [20976.92395203568, 6866640.0959910145], [21122.847682119205, 6866650.87661206], [21170.0, 6866685.0], [21345.73780352735, 6866528.646658749], [21604.52037072082, 6866726.194740307], [21545.0, 6866800.0], [21611.184210526317, 6866862.763157895], [21685.539215686273, 6866847.892156863], [21748.75, 6866886.25], [21695.181952847768, 6866944.849613784], [21807.512561878884, 6867031.476346447], [21845.03355704698, 6867001.644295302], [21982.19283209973, 6867100.349824698], [21996.26984126984, 6867198.888888889], [21958.87605230163, 6867218.223177503], [22025.695045245422, 6867271.739706715], [22183.10004410476, 6867153.0793840345], [22229.234972677594, 6867194.234972677], [22378.240011660273, 6867157.308985484], [22445.11067388096, 6867250.06148549], [22520.0, 6867245.0], [22577.333100392174, 6867416.912564262], [22833.262401334243, 6867336.535191337], [22902.63021783861, 6867510.789927387], [23070.0, 6867455.0], [23171.692005885237, 6867375.696419814], [23260.0, 6867415.0], [23330.0, 6867345.0], [23361.61449752883, 6867376.614497528], [23527.753795432458, 6867344.385561601], [23818.069240927765, 6867056.4876498515], [23914.495412844037, 6867039.495412844], [24004.06346942207, 6867091.299859098], [24104.164222335672, 6867035.114275205], [24258.442990010335, 6867007.852221839], [24375.369056881165, 6867087.032558432], [24563.113369091137, 6866934.8257133765], [24677.619047619046, 6866891.19047619], [24705.0, 6866935.0], [24808.885421667466, 6866897.424787967], [25022.974725712793, 6866664.269249647], [25211.475750337522, 6866617.96340382], [25273.72944659343, 6866642.525920807], [25496.575804334454, 6866619.03184072], [25584.809926082366, 6866717.291446674], [25736.424054826806, 6866685.101183802], [25865.0, 6866600.0], [25837.65602322206, 6866564.978229318], [26008.31352221549, 6866446.321433509], [25987.67958091152, 6866391.559156118], [26265.106382978724, 6866381.808510638], [26436.762908295805, 6866276.037041631], [26658.903554674456, 6866355.777587957], [27099.0766622034, 6865968.603448923], [27152.0, 6865873.0], [27336.489493201483, 6865791.229913473], [27355.51724137931, 6865809.496551724], [27455.0, 6865760.0], [27447.495305000833, 6865727.366532338], [28003.0765155923, 6865691.144086563], [28107.65629329354, 6865733.875918263], [28164.976135222554, 6865670.550252272], [28339.69559479168, 6865705.82040368], [28614.698319290517, 6865875.991922987], [28761.068877545928, 6865874.840433895], [28806.291399172893, 6866020.314500942], [29277.481598098224, 6865958.15639705], [29348.37016574586, 6865869.309392265], [29661.866193189402, 6866011.862148064], [29746.553672316382, 6865861.158192091], [30303.61939687346, 6865944.13836413], [30394.029674908605, 6866164.722202332], [30615.0, 6866209.596540175], [30615.0, 6866261.4728294285], [30909.42303319033, 6866381.355317463], [30891.534653465344, 6866436.732673267], [30968.333333333336, 6866566.666666667], [30931.363636363636, 6866603.636363637], [31030.80967086943, 6866811.402469152], [31115.282037723537, 6866840.64213921], [31140.0, 6866795.0], [31204.645669291338, 6866819.330708661], [31371.244717633497, 6866663.838263542], [31526.1797752809, 6866714.213483146], [31569.335883545158, 6866658.651669447], [31960.0, 6866645.0], [32007.14285714286, 6866692.142857143], [32138.142319164504, 6866669.8623030195], [32417.984530594927, 6866720.507107064], [32704.861956447414, 6866604.70476143], [33011.69078035264, 6866551.392834245], [33098.39945300388, 6866606.7596236635], [33438.390146512655, 6866575.69369116], [33638.80687738522, 6866511.228361739], [34018.13634679797, 6866495.614569043], [34479.15082050738, 6866616.369262801], [35111.90015390602, 6866521.539647231], [35092.98850250803, 6866450.831268669], [35195.0, 6866410.0], [35180.22388059701, 6866344.47761194], [35323.139534883725, 6866330.186046512], [35395.30860754504, 6866222.030701008], [35530.55555555556, 6866189.948468975], [35509.94641644814, 6865944.595348488], [35641.5052938627, 6865931.945623534], [35732.60709773982, 6865876.644019559], [35692.441860465115, 6865827.441860465], [35766.447294460624, 6865606.896386368], [35717.5, 6865537.5], [35920.3090713751, 6865504.685451053], [35996.883034541956, 6865544.07448676], [36236.66666666667, 6865288.333333333], [36280.0, 6865305.0], [36454.28571428571, 6865130.714285715], [36492.09252777355, 6865167.008826663], [36604.5, 6865143.5], [36750.555686290914, 6865249.986815104], [36856.758988758345, 6865170.481140904], [37064.66254345176, 6865150.337456549], [37200.4491193181, 6865256.286825929], [37375.10204081633, 6865225.0], [37507.5724249917, 6865341.410488246], [37961.00031446529, 6865326.000314466], [38125.0, 6865490.0], [38092.5, 6865537.5], [38127.2982754611, 6865598.121100561], [38357.133109606235, 6865578.423267056], [38469.45978964024, 6865778.223867353], [38633.012595914595, 6865856.413998889], [38880.12534818941, 6865822.568245125], [38776.716607434384, 6865976.704797276], [38755.0, 6866086.666666667], [38643.097550852166, 6866247.2553478675], [38657.52004700867, 6866305.008288439], [38531.98908533968, 6866409.032743981], [38467.04987291197, 6866575.83241275], [38532.51823766647, 6866663.320167452], [38553.63892422315, 6866772.871524623], [38831.59913190293, 6866839.401370425], [39108.5616991884, 6866865.00337641], [39104.666160849774, 6866929.66616085], [39249.20995732595, 6867124.808459264], [39123.970396574194, 6867170.564140756], [39175.0, 6867260.0], [39105.0, 6867330.0], [39104.72222222222, 6867402.222222222], [38998.35381169299, 6867486.683144858], [38920.074347503716, 6867703.887767419], [38695.191897654586, 6868002.750533049], [38714.186302341506, 6868210.9439136265], [38394.13446175694, 6868246.649282261], [38415.0, 6868320.0], [38210.555555555555, 6868385.555555556], [38153.51756191768, 6868457.98646703], [38246.403644635895, 6868584.14970596], [38211.44189399359, 6868663.444174046], [38306.26527701934, 6868709.29464868], [38322.80365866497, 6868821.496799545], [38156.933504680026, 6868936.160833562], [38150.04122277997, 6869033.943852986], [38228.535161410866, 6869177.036548892], [38085.35168507809, 6869248.620241498], [37915.42994840091, 6869372.881689355], [37935.88809472462, 6869494.718916948], [37725.24783752748, 6869625.937499112], [37757.276175342835, 6869762.2761753425], [37805.0, 6869810.0], [37787.857142857145, 6869862.857142857], [37865.0, 6869940.0], [37532.21806224124, 6869997.021948852], [37483.32141696458, 6869939.527136821], [37271.11739002401, 6870006.256559414], [37040.0, 6869995.0], [37010.0, 6870035.0], [36930.602032097646, 6869923.978739886], [36648.037383177565, 6869995.46728972], [36598.61596795852, 6869902.3934960775], [36317.88113210286, 6869968.499379503], [36075.63591358497, 6869672.121294689], [36079.50321646726, 6869563.392105356], [35748.52343101459, 6869460.02730799], [35663.0, 6869386.0], [35407.838482964704, 6869577.673875528], [35286.1083396913, 6869532.951757732], [35274.16148901361, 6869660.305409273], [35073.77306177067, 6869852.550337197], [34779.37038343661, 6870085.246186614], [34544.232154660785, 6870147.646149317], [34339.36993875133, 6870271.572733378], [34163.527303906034, 6870489.697255617], [34290.14464071173, 6870632.679141743], [34322.40669667884, 6870720.061073006], [34227.41601821978, 6870820.335927121], [34255.0, 6870920.0], [34183.33333333333, 6870982.777777778], [34070.089429170665, 6870985.211041551], [33851.477619831916, 6871282.987484836], [33942.95168300779, 6871476.265714719], [34127.14613161227, 6871539.046326795], [34132.89100402497, 6871671.181991499], [33956.43065930497, 6871803.713868139], [33751.67570371796, 6871841.491909774], [33535.55702667426, 6871952.0498366365], [33448.117052035384, 6872113.56376318], [33537.747191401606, 6872133.456144022], [33685.0, 6872320.0], [33685.0, 6872380.0], [33748.82564140923, 6872379.865734161], [33882.39349231539, 6872511.74176794], [33873.331181292284, 6872638.331181292], [33919.794778257725, 6872684.794778258], [33722.28883329695, 6872926.091654832], [33645.40317694473, 6873187.2460177075], [33498.403274524666, 6873473.010324743], [33496.96705382205, 6873600.71619208], [33348.52345145078, 6873755.0], [33290.0, 6873755.0], [33181.2794363785, 6873812.262076213], [33212.33333333333, 6873887.333333333], [33115.0, 6873940.0], [33172.28268426391, 6873997.652294822], [33067.29105211406, 6874036.214355949], [33075.0, 6874110.0], [32988.18804208377, 6874254.564045678], [32599.384731129496, 6874545.727880656], [32434.538822303282, 6874710.815528921], [32370.0, 6874685.0], [32308.16031339088, 6874843.085688867], [32105.0, 6874980.0], [32109.684181106764, 6875033.868082728], [32060.7739455697, 6875034.580741851], [31829.29149357256, 6874870.121636918], [31825.0, 6874740.0], [31665.421881587754, 6874614.875725248], [31580.729955106457, 6874628.06027136], [31527.2168233128, 6874700.542058282], [31555.0, 6874740.0], [31439.53093812375, 6874760.725216234], [31416.830282920546, 6874815.470098826], [31320.0, 6874885.0], [31284.083526682138, 6874849.083526682], [31011.916473317862, 6874876.916473318], [30929.085053256604, 6874794.085053257], [30639.858188543058, 6874858.404508448], [30573.962749742182, 6874819.120850847], [30424.450368705926, 6874947.809983822], [30175.985622398788, 6875119.869466515], [30109.268099946352, 6875105.172825415], [29955.0, 6875259.299363057], [30009.137931034482, 6875400.689655173], [29967.43577545195, 6875466.175071361], [30023.504622512053, 6875538.082209268], [30037.8125, 6875734.0625], [29984.578146391163, 6875818.797251015], [29983.74293785311, 6875926.22881356], [29874.170370028492, 6875979.294675808], [29779.751363583615, 6875965.0], [29678.593146012667, 6876072.4850739], [29464.36974789916, 6876135.588235294], [29477.69230769231, 6876228.846153846], [29431.683746493385, 6876267.544226255], [29312.9061508502, 6876245.538419668], [29257.185128983307, 6876056.2215478], [29285.0, 6876000.0], [29218.451352499644, 6875869.3216258325], [29202.53565746091, 6875724.495544201], [29063.113031797147, 6875554.529552449], [29077.946219797348, 6875467.053780203], [28986.485148514854, 6875431.485148515], [29025.779575036286, 6875365.09445121], [28885.555555555555, 6875380.555555556], [28768.732067897527, 6875138.836540889], [28497.70198219286, 6874955.478112541], [28480.59470102951, 6874840.354497789], [28308.094179075615, 6874820.056081995], [28286.49493908535, 6874749.8585520275], [27987.760396648475, 6874435.0], [27930.88079833742, 6874467.857222106], [27856.05272569356, 6874409.703928881], [27738.0, 6874427.0], [27633.679511278195, 6874365.535714285], [27590.0, 6874275.0], [27480.513534245998, 6874238.4901620615], [27380.86369377178, 6874269.237849824], [27096.944014025594, 6874126.488225015], [26951.200181087057, 6874250.4623142695], [26847.777777777777, 6874240.555555556], [26565.070732344124, 6874421.429711615], [26300.920226431135, 6874337.119413704], [26142.2113225515, 6874376.322767927], [25976.38124942361, 6874321.381249424], [25760.0, 6874105.0], [25733.333333333336, 6874131.666666667], [25606.041529166876, 6874052.72471915], [25564.166666666664, 6874089.166666667], [25650.66114376409, 6874191.971674706], [25617.65252042849, 6874259.735656997], [25424.152163305076, 6874398.63986648], [25486.0234364044, 6874578.635296013], [25515.0, 6874580.0], [25459.435146443517, 6874682.635983263], [25483.984375, 6874718.515625], [25381.024346793347, 6874830.91152019], [25136.551439650513, 6874952.63508708], [25020.064984838373, 6874845.896358851], [24865.121951219513, 6874941.895787139], [24540.400159245597, 6875051.283988494], [24470.0, 6875015.0], [24360.0, 6875025.0], [24103.705519244733, 6875262.537521182], [24162.751977182816, 6875327.52576105], [23987.04427849831, 6875444.135971473], [23722.298107479663, 6875456.916898145], [23556.03105469791, 6875513.964706628], [23293.59444444468, 6875678.140256776], [23110.44007783781, 6875922.9119844325], [23050.0, 6875935.0], [22972.458410351202, 6876093.42883549], [22781.42857142857, 6876158.658536585], [22470.0, 6876405.0], [22427.925445705027, 6876367.755267423], [22100.291837865265, 6876666.706629362], [21783.584305142016, 6876687.048174367], [21601.144241695823, 6876799.685309428], [21395.040295174284, 6876762.980386445], [21272.68223945202, 6876851.154233312], [21146.063099811206, 6876861.063099811], [21110.0, 6876825.0], [21066.666666666668, 6876868.333333333], [20803.662888498475, 6876695.827195519], [20540.0, 6876895.0], [20499.565217391304, 6876841.0869565215], [20255.454173838774, 6877004.337166873], [20132.175572519085, 6876949.236641222], [19954.8697809012, 6876984.913187267], [19855.094210097814, 6876924.360492059], [19700.469354138673, 6876999.438848785], [19558.846153846152, 6876846.153846154], [19576.212806338408, 6876809.688889951], [19293.282764890082, 6876536.599683306], [19160.3073097558, 6876498.59960539], [19216.451675009626, 6876448.710050058], [19205.0, 6876390.0]]]}}]}