{"type": "FeatureCollection", "crs": {"type": "name", "properties": {"name": "EPSG:25833"}}, "features": [{"type": "Feature", "properties": {"station": "86.12.0", "name": "Skjerdalselv", "series": ["1001.1"], "nodes": 239286, "fine_vertices": 4018, "fine_area_m2": 23928550.0, "reduced_vertices": 168, "reduced_area_m2": 23928549.99999997, "outline_tolerance_m": 20.0, "windows": [[495, 452], [1282, 1146], [2544, 2135]], "placed_on": "number", "distance_m": 10.748659914289272, "uncertainty_m": 30.0, "elvid": "086-184-1", "objectid": 11710134, "lake": false, "confluence_near": false, "reach_up_m": 1000.0, "reach_down_m": 130.0, "reach_fork": false, "seeded_by": "river", "lake_rule": null, "lake_number": null, "lake_name": null, "lake_distance_m": null, "node_offset_m": 4.024899034630565, "chain_nodes": 103, "lowered_nodes": 19, "lowered_max_m": 0.7637939453125, "direction_ok": true, "end_extended_m": 0.0, "end_closed": true, "downstream_checked": "whole", "a0": 23.9286, "area_up": 23.808400000000002, "area_down": 23.93, "swing": 0.005023277584146042, "largest_step": 0.11839999999999762, "largest_step_at_m": -10.0, "checked_up_m": 24.142135623731065, "checked_down_m": 28.28427124746213, "drains": true, "monotone": true, "causes": []}, "geometry": {"type": "Polygon", "coordinates": [[[22330.0, 6890025.0], [22299.168713833948, 6890047.293391535], [22228.84652304354, 6889825.137844166], [22090.0, 6889635.0], [22050.391651636175, 6889632.495490853], [21960.0, 6889445.0], [21927.69024493441, 6889477.3097550655], [21779.93682923586, 6889487.012634153], [21682.777406016256, 6889363.0714579495], [21685.0, 6889244.421052632], [21527.20481980894, 6888972.856175303], [21481.057873566988, 6888636.971063216], [21515.0, 6888620.0], [21473.333333333332, 6888541.666666667], [21533.162454575366, 6888460.573186022], [21400.0, 6888365.0], [21352.03301483973, 6888095.784081716], [21147.672736840785, 6887889.592123893], [21090.25835680176, 6887913.944532876], [21082.818145720787, 6887972.732679587], [20934.298846636975, 6888048.211716341], [20913.75739664175, 6887975.92112331], [20880.57962172056, 6887978.904820012], [20885.0, 6888094.285714285], [20767.014821802917, 6888089.210905118], [20796.739560390164, 6887982.609340585], [20742.765901722516, 6887858.137139662], [20768.59507508118, 6887831.734174864], [20623.691424657685, 6887569.438023953], [20210.890410958906, 6887095.479452055], [20239.28833034382, 6887073.322680558], [20187.98867065045, 6886706.029100835], [19933.74751611813, 6886149.382487636], [19749.562284436168, 6885968.939434544], [19432.713587922997, 6885901.6506612655], [19385.0, 6885690.0], [19409.0, 6885587.2], [19379.313834495795, 6885441.264754558], [19449.887776444488, 6885284.765582033], [19407.527074742728, 6885243.463897875], [19428.035711703676, 6885153.180801043], [19349.520625742167, 6884953.561877226], [19223.808549680434, 6884835.957251598], [19227.373547969422, 6884669.572858988], [19348.400215763966, 6884507.005762704], [19196.272266794065, 6884372.499485714], [19238.087150532738, 6884166.1743010655], [19191.81818099671, 6884032.551073048], [19229.021574717248, 6883813.312651499], [19305.0, 6883700.0], [19270.096579490448, 6883667.949720131], [19327.704085502504, 6883499.363273271], [19457.687665841862, 6883377.395317147], [19343.937625486302, 6883014.274608942], [19549.864525172, 6882949.6674591405], [19720.0, 6883015.0], [19888.84156076378, 6883184.244523916], [20131.81951775202, 6883019.100965981], [20115.0, 6882946.666666667], [20265.0, 6882770.0], [20079.13957211591, 6882721.384131632], [19960.15900306187, 6882530.237977915], [20002.06549118388, 6882550.516372796], [20063.40211337998, 6882507.872816412], [20065.70904645477, 6882369.290953545], [20148.49548451932, 6882244.877184366], [20003.666666666668, 6882064.0], [20018.737201604243, 6882018.788395187], [19801.314237414055, 6881795.229943555], [19775.645161290322, 6881631.827956989], [19791.653298847697, 6881551.086767219], [19758.5696426358, 6881469.455728146], [19786.498567931594, 6881386.957223131], [19881.448411134108, 6881403.88733766], [20048.312794324844, 6881268.992551335], [20080.76391735017, 6881335.252155349], [20139.956363558715, 6881319.546990392], [20253.095238095237, 6881188.095238095], [20222.063178322212, 6881134.709957771], [20228.582097968763, 6881018.859627509], [20320.45184129013, 6880985.924824229], [20480.200422939448, 6881127.546271941], [20732.349274818727, 6881297.913119571], [20885.0, 6881514.666666667], [21051.980194042142, 6881626.528232529], [21167.167630057804, 6881528.926664608], [21304.106622576117, 6881635.023336518], [21350.087233453338, 6881635.067848242], [21418.784231025365, 6881746.117248199], [21218.191177711305, 6881992.588956046], [21224.267568146097, 6882061.262009804], [21404.2318396021, 6882182.415913292], [21543.99062138601, 6882190.570741098], [21730.228990051168, 6882314.052451719], [21635.344518018563, 6882415.483289672], [21700.014351555936, 6882512.80659157], [21638.181818181816, 6882578.636363637], [21686.893799877224, 6882646.8354818905], [21880.0, 6882705.0], [21960.0, 6882785.0], [22059.756097560974, 6882800.12195122], [22075.36922343973, 6882870.883754169], [22170.0, 6882955.0], [22254.346425828473, 6882894.958615711], [22280.532999308914, 6882796.761402902], [22347.567479454963, 6882805.98610092], [22354.07046383875, 6883021.885575427], [22293.3359851608, 6883071.014987562], [22495.5131186094, 6883250.262372188], [22552.114357042774, 6883546.978354557], [22832.887159379, 6883613.575905867], [22975.363697792345, 6883796.064835485], [23230.164835164836, 6883887.802197802], [23196.09393078784, 6883967.442936784], [23325.454545454544, 6884043.181818182], [23384.583333333336, 6884023.472222222], [23590.067619420064, 6884364.11295449], [23822.34727937857, 6884674.175951675], [23902.50761183366, 6884962.483688928], [23890.476331605307, 6884988.265003703], [24130.230049674454, 6885406.041930369], [24328.197236310454, 6885699.102937318], [24275.140845070422, 6885769.859154929], [24350.77485995173, 6885873.096782764], [24340.0, 6885965.0], [24306.0, 6885949.0], [24172.302230266425, 6886046.887980823], [24339.579496644474, 6886172.878796887], [24510.423260859385, 6886409.504789388], [24522.682119205296, 6886701.589403974], [24492.31998744393, 6886863.216885892], [24521.73890202259, 6886950.342132913], [24431.829268292684, 6887005.4878048785], [24229.44983590959, 6886904.681007106], [24072.30878887296, 6886892.691211127], [24035.384615384617, 6886929.615384615], [23890.0, 6886945.0], [23742.299253144352, 6887088.991912077], [23520.0, 6886955.0], [23409.138398726092, 6886982.160472445], [22855.363334371807, 6887526.879374505], [22766.115348687446, 6887664.026048209], [22741.0241441436, 6887849.454538913], [22795.0, 6887910.833333333], [22838.09511589194, 6888093.008570168], [22929.873382432823, 6888184.180273427], [22819.109589041094, 6888344.794520548], [22815.37656448022, 6888487.38614863], [22745.0, 6888550.0], [22745.0, 6888600.666666667], [22612.676854475358, 6888618.096846115], [22575.292156320957, 6888781.62653128], [22511.372853727764, 6888765.998914034], [22500.87610619469, 6888886.778761062], [22455.0, 6888910.0], [22480.97975305054, 6889013.443720124], [22549.449800843322, 6888996.1826225], [22614.55753203799, 6889347.909716845], [22491.02513933357, 6889639.11775169], [22539.759104221917, 6889728.77794063], [22526.4054469558, 6889887.807858981], [22629.930558893495, 6889943.310324961], [22621.22484855013, 6890020.702571742], [22718.893820081277, 6890153.324434136], [22703.326732673268, 6890205.950495049], [22652.666666666668, 6890191.476190476], [22410.925805552975, 6890434.1076237345], [22329.749590638887, 6890297.449456087], [22330.0, 6890025.0]]]}}]}