{"type": "FeatureCollection", "crs": {"type": "name", "properties": {"name": "EPSG:25833"}}, "features": [{"type": "Feature", "properties": {"station": "87.10.0", "name": "Gloppenelv v/Bergheim", "series": ["1001.0"], "nodes": 919, "fine_vertices": 248, "fine_area_m2": 91850.0, "reduced_vertices": 7, "reduced_area_m2": 91849.99999991915, "outline_tolerance_m": 20.0, "windows": [[451, 496], [851, 867]], "placed_on": "number", "distance_m": 92.70967291022616, "uncertainty_m": 92.70967291022616, "elvid": "087-1-509", "objectid": 11548454, "lake": false, "confluence_near": true, "reach_up_m": 1000.0, "reach_down_m": 73.35688507533314, "reach_fork": false, "seeded_by": "river", "lake_rule": null, "lake_number": null, "lake_name": null, "lake_distance_m": null, "node_offset_m": 6.400078123243466, "chain_nodes": 107, "lowered_nodes": 18, "lowered_max_m": 1.6451416015625, "direction_ok": true, "end_extended_m": 0.0, "end_closed": true, "downstream_checked": "partly", "a0": 0.09190000000000001, "area_up": 0.0021000000000000003, "area_down": 0.00030000000000000003, "swing": 0.9771490750816104, "largest_step": 0.0816, "largest_step_at_m": 0.0, "checked_up_m": 90.71067811865532, "checked_down_m": 86.56854249492426, "drains": false, "monotone": false, "causes": ["swing", "downstream_unread", "chain_not_draining"]}, "geometry": {"type": "Polygon", "coordinates": [[[52900.0, 6872095.0], [52877.708333333336, 6872117.291666667], [52697.52140390672, 6872022.15866305], [52768.50049993051, 6871845.948457028], [52930.82296835142, 6871954.7913661385], [53346.76153515731, 6872357.767306828], [53204.833333333336, 6872363.5121951215], [52900.0, 6872095.0]]]}}]}