{"type": "FeatureCollection", "crs": {"type": "name", "properties": {"name": "EPSG:25833"}}, "features": [{"type": "Feature", "properties": {"station": "88.11.0", "name": "Strynsvatn", "series": ["1001.0"], "nodes": 6769, "fine_vertices": 748, "fine_area_m2": 676850.0, "reduced_vertices": 29, "reduced_area_m2": 676849.9999998469, "outline_tolerance_m": 20.0, "windows": [[519, 442], [1005, 914]], "placed_on": "number", "distance_m": 222.40877223903232, "uncertainty_m": 222.40877223903232, "elvid": "088-25-481", "objectid": 11207485, "lake": false, "confluence_near": false, "reach_up_m": 1000.0, "reach_down_m": 260.52714062770235, "reach_fork": false, "seeded_by": "river", "lake_rule": null, "lake_number": null, "lake_name": null, "lake_distance_m": null, "node_offset_m": 6.798830781423646, "chain_nodes": 138, "lowered_nodes": 35, "lowered_max_m": 1.2324752807617188, "direction_ok": true, "end_extended_m": 164.8528137423857, "end_closed": false, "downstream_checked": "whole", "a0": 0.6769000000000001, "area_up": 0.6507000000000001, "area_down": 0.0005, "swing": 0.03870586497266952, "largest_step": 0.7263000000000001, "largest_step_at_m": 177.27922061357958, "checked_up_m": 221.42135623731065, "checked_down_m": 221.42135623731065, "drains": false, "monotone": false, "causes": ["chain_not_draining", "chain_end_open"]}, "geometry": {"type": "Polygon", "coordinates": [[[74700.0, 6893225.0], [74645.83333333333, 6893170.833333333], [74667.5, 6893132.5], [74621.0, 6893054.0], [74672.90804268802, 6892995.145029272], [74577.88148062279, 6892867.912725995], [74653.59086705369, 6892674.90120954], [74622.49829850165, 6892560.579771595], [74696.65251120177, 6892353.4327559685], [74569.58781718987, 6892206.955400372], [74560.32393416904, 6892070.986221075], [74128.10295064474, 6891585.447081547], [74025.0, 6891400.0], [74045.0, 6891380.0], [73976.03452127449, 6891280.682617189], [73960.07672901507, 6891185.020185698], [74338.95042693966, 6891401.9102261895], [74441.704828837, 6891416.704828837], [74665.0, 6891640.0], [74648.33333333333, 6891683.333333333], [74812.27228520148, 6891888.351162819], [74779.24209455772, 6892037.339663033], [75065.0, 6892350.0], [75050.163671949, 6892578.303386156], [75097.87094226546, 6892654.590849606], [74960.66666666667, 6892854.333333333], [74971.31622313551, 6892877.196367151], [74781.28770177043, 6893061.933366131], [74785.0, 6893156.470588235], [74700.0, 6893225.0]]]}}]}