{"type": "FeatureCollection", "crs": {"type": "name", "properties": {"name": "EPSG:25833"}}, "features": [{"type": "Feature", "properties": {"station": "88.30.0", "name": "Nordre Oldevatn", "series": ["1001.0"], "nodes": 1999236, "fine_vertices": 10726, "fine_area_m2": 199923550.0, "reduced_vertices": 315, "reduced_area_m2": 199923549.9999994, "outline_tolerance_m": 20.0, "windows": [[865, 565], [1550, 1363], [2782, 2798], [5181, 4744]], "placed_on": "number", "distance_m": 115.49247795616319, "uncertainty_m": 115.49247795616319, "elvid": "088-14-1", "objectid": 10753790, "lake": true, "confluence_near": false, "reach_up_m": 1000.0, "reach_down_m": 215.49247795616338, "reach_fork": false, "seeded_by": "lake", "lake_rule": "inside", "lake_number": 1805, "lake_name": "Oldevatnet", "lake_distance_m": 0.0, "node_offset_m": null, "chain_nodes": null, "lowered_nodes": null, "lowered_max_m": null, "direction_ok": null, "end_extended_m": null, "end_closed": null, "downstream_checked": null, "a0": null, "area_up": null, "area_down": null, "swing": null, "largest_step": null, "largest_step_at_m": null, "checked_up_m": null, "checked_down_m": null, "drains": null, "monotone": null, "causes": []}, "geometry": {"type": "Polygon", "coordinates": [[[73545.0, 6880280.0], [73585.63009636769, 6880239.369903632], [73405.57794939456, 6880044.712364387], [73300.0, 6880055.0], [72858.8858300467, 6879624.000387381], [72253.13423106246, 6879493.010796096], [71925.77581210528, 6879463.277004412], [71876.1052631579, 6879428.894736842], [71696.0, 6879419.0], [71662.95732999517, 6879449.141645421], [71518.82352941178, 6879475.830449827], [71420.0, 6879395.0], [71395.0, 6879425.0], [71289.56527414144, 6879334.627377835], [70919.36994320377, 6879564.968437858], [70606.01374570446, 6879317.749140893], [70568.57142857143, 6879343.571428572], [70448.70814272645, 6879331.532479415], [70420.0, 6879365.0], [70240.0, 6879185.0], [70154.45875600641, 6879245.449145756], [70023.19476080268, 6879216.075803128], [69931.58812663774, 6879135.227243438], [69863.72340733562, 6879127.511566034], [69718.63636363637, 6879024.545454546], [69680.33333333333, 6879082.0], [69694.33543564587, 6879128.314646111], [69410.4583382063, 6879072.667024155], [69277.4, 6879107.2], [69243.33333333333, 6879086.111111111], [69129.39024390244, 6879154.390243903], [69072.95454545454, 6879097.954545454], [68884.54545454546, 6879149.545454546], [68798.81720430107, 6879066.182795699], [68656.0, 6879209.0], [68624.0, 6879181.0], [68432.46793690753, 6879327.1312417565], [68201.55698897889, 6879427.947392586], [68125.12059399883, 6879398.718115145], [67846.0, 6879679.0], [67786.0, 6879639.0], [67706.54120040692, 6879718.458799593], [67667.20779220779, 6879693.961038961], [67514.61775878443, 6879798.694207028], [67470.0, 6879755.0], [67372.5261549563, 6879820.374088192], [67386.74067744275, 6879875.68383372], [67310.0, 6879905.0], [67277.5, 6879872.5], [67225.0, 6879908.571428572], [67225.0, 6879963.333333333], [67134.40769109108, 6879954.680341224], [67017.71126787367, 6879852.826813588], [67223.85064238003, 6879664.68481524], [67305.25990838479, 6879650.349531965], [67228.16624316838, 6879555.660086338], [67223.96327483145, 6879478.203658056], [67112.9389196082, 6879344.135840044], [67153.47826086957, 6879248.478260869], [67104.73684210527, 6879199.736842105], [66920.0, 6879205.0], [66814.0, 6879149.0], [66766.93467336684, 6879068.015075377], [66715.0, 6879080.0], [66591.25712933943, 6879029.767745573], [66538.66280794764, 6878867.837040837], [66569.31350300925, 6878784.946317009], [66507.41623868917, 6878702.956713133], [66535.3239901604, 6878640.548423608], [66394.13793103448, 6878609.827586207], [66228.76488331481, 6878443.663279885], [66153.33333333333, 6878468.333333333], [65918.65131578947, 6878196.34868421], [66000.99386471466, 6878114.006135285], [65986.959018467, 6877951.236529218], [66079.67837759454, 6877693.609227007], [66034.67390189927, 6877059.784472853], [66073.87536159763, 6876995.138022698], [65954.05693737578, 6876818.149719338], [65838.91061452514, 6876542.234636871], [65711.93718758851, 6876387.663419352], [65666.54315909142, 6876233.882014569], [65422.02351155321, 6876096.218560618], [64747.15932645809, 6875385.105429598], [64576.102130280124, 6875468.07109241], [64476.631881057554, 6875421.28007151], [64330.61855670103, 6875444.896907217], [64239.03939582608, 6875382.74156299], [64241.15009072842, 6875305.2091074055], [64075.71322596269, 6875280.713225963], [64016.95822449774, 6875219.451534142], [64048.97727272727, 6875151.25], [63964.741089365925, 6875040.058237963], [64003.656126482216, 6874951.343873518], [63392.5, 6874297.5], [63425.0, 6874250.0], [63359.395852407324, 6874113.512905134], [62574.78309944731, 6873356.677423767], [62433.184706680746, 6872978.404137553], [62318.531483724975, 6872534.93969378], [62436.14035087719, 6872541.140350877], [63141.99284814921, 6872224.675624062], [63335.0, 6872000.0], [63283.4375, 6871891.5625], [63190.0, 6871985.0], [62640.13513513513, 6871435.135135135], [62833.849733425785, 6871241.137328368], [62940.9719354259, 6870852.087101841], [63095.0, 6870640.0], [63012.71675490168, 6870510.922886707], [62943.374135028986, 6870471.725547036], [63031.768558206255, 6870383.244420158], [63114.209039548026, 6870050.847457627], [63302.83289646349, 6869848.750468075], [63277.189341833175, 6869698.349876656], [63171.941807834075, 6869396.363323848], [63357.41071428572, 6869176.785714285], [63261.67008921545, 6868912.830229475], [62988.77358490566, 6868814.528301887], [63777.40180640561, 6868009.283974092], [63755.0, 6867960.0], [63813.86114688028, 6867887.822164992], [63695.62216167121, 6867783.446866485], [63570.158602745796, 6867744.841397254], [63621.11111111111, 6867693.888888889], [63571.8085106383, 6867635.957446809], [63613.24466362459, 6867587.621405092], [63611.021348866365, 6867353.5248172], [63665.0, 6867190.0], [63744.89705580341, 6867150.769587872], [63706.72804532578, 6866776.232294617], [63741.0, 6866736.0], [63612.72139241052, 6866540.0272537265], [63456.4196372733, 6866350.112570357], [63427.41150269938, 6866244.717658487], [63351.0, 6866176.0], [63403.65708984501, 6866101.049816662], [63330.0860065086, 6865717.178056718], [63231.27450980392, 6865436.274509804], [63264.55332036454, 6865250.566538795], [63244.310058556766, 6865212.482128825], [63298.48451240028, 6865012.3798961155], [63261.93595192736, 6864891.809933525], [63512.124198161786, 6864705.378104774], [63534.36549117779, 6864552.530118395], [63616.26961702868, 6864476.753271166], [63817.91815645081, 6864536.522547661], [63887.12680577849, 6864467.937399679], [63935.882352941175, 6864492.2549019605], [64150.0, 6864295.0], [64303.87157097765, 6864261.450200819], [64658.620689655174, 6864026.379310345], [64801.16956046426, 6864066.337346861], [64910.93668899261, 6864034.956995328], [65034.61538461538, 6864110.384615385], [65225.921212073205, 6864097.308427177], [65344.97227637189, 6863967.67751811], [65479.839398072545, 6863880.444347735], [65414.291089100356, 6863567.611881199], [65507.55995807546, 6863443.253389233], [65290.457308025565, 6862812.750162876], [65418.133595284875, 6862666.650294695], [65255.04713920798, 6862476.514800923], [65255.0, 6862160.0], [65195.15537179137, 6861882.90115639], [65285.33096926714, 6861764.728132388], [65241.20954287621, 6861667.660994328], [65322.27272727273, 6861482.7272727275], [65465.33832453627, 6861351.095758935], [65543.98031810675, 6861351.150894515], [65555.0, 6861266.666666667], [65615.44776119402, 6861277.164179104], [65669.50704225352, 6861236.6197183095], [65655.0, 6861070.0], [65828.7168141593, 6860896.283185841], [65705.74218655883, 6860652.473866688], [65397.80701754386, 6860327.192982456], [65816.88434048083, 6860718.115659519], [66212.99790356394, 6860322.002096436], [66475.84783744015, 6860183.27976585], [66765.0, 6859910.0], [66796.42857142857, 6859808.571428572], [67031.89655172414, 6859573.1034482755], [67084.77011494253, 6859340.229885058], [68562.70270270269, 6857862.297297297], [68673.17991631798, 6857908.179916318], [68929.82823713537, 6858164.828237135], [68929.10317936413, 6858513.666466706], [69178.4001734062, 6858663.323691777], [69557.13893641722, 6858756.040506025], [69894.84994767496, 6859089.6331120515], [70125.48160351459, 6858850.473447764], [70656.55695290177, 6859381.972079918], [70625.05663933327, 6859544.393177953], [71028.37800627807, 6859910.94560574], [71736.95488133446, 6860368.605651061], [71713.57369162168, 6860587.769889697], [71689.13139546303, 6860604.390651085], [71663.36734693877, 6860788.1632653065], [71756.07727592894, 6860888.305327026], [71803.70972168527, 6861095.491823936], [72082.87157753395, 6861153.004787498], [72158.91627528756, 6861100.167860811], [72331.16759332803, 6861161.536934075], [73074.95593410358, 6861024.090965712], [73181.42857142857, 6860946.428571428], [73388.0, 6861153.0], [73460.0, 6861125.0], [73553.75, 6861191.25], [73730.0, 6861015.0], [73773.33333333333, 6861015.0], [73768.18181818182, 6861083.181818182], [74855.0, 6862170.0], [75245.15044514039, 6862608.549536549], [75502.2806815318, 6862740.709424813], [75799.34061611179, 6863057.904866664], [75850.56239015817, 6863075.0], [77278.32761043649, 6864503.329915313], [77408.41990374704, 6864410.611614551], [77740.10830471768, 6864474.687447992], [77289.37491061189, 6864906.600971044], [77199.52894438138, 6865106.75368899], [77213.38095238095, 6865221.619047619], [76937.81241806968, 6865497.18758193], [76978.60761003525, 6865844.36165331], [76893.58588227621, 6866255.366176423], [76912.24613581684, 6866380.906183357], [76889.45033926975, 6866431.822109351], [76910.46281096098, 6866484.901502715], [76823.22826832469, 6866890.944016227], [76774.44018179957, 6867384.199898954], [76582.35809347959, 6867712.159718162], [76620.09034507217, 6868002.085526913], [76174.7777032138, 6867876.281554417], [75639.22386861942, 6867635.77613138], [75130.6896551724, 6868144.310344827], [74829.30970079427, 6867845.081809858], [74443.52232814852, 6868211.146512795], [74340.0, 6868155.0], [74310.0, 6868185.0], [74107.17391304347, 6868207.536231884], [73870.14618597494, 6868444.96299553], [73778.51484270122, 6868783.9947862085], [73647.96230109694, 6868958.846599874], [73645.7819603853, 6869118.862302973], [73544.47121078688, 6869349.388642612], [73185.2894837079, 6869748.387582673], [73146.269035533, 6869876.192893401], [72751.0, 6870274.0], [72829.91882770795, 6870398.20755803], [72846.0530362459, 6870582.441383548], [73269.49638859718, 6871116.079967532], [73299.0035137622, 6871394.448764207], [73186.88509661474, 6871507.966562219], [73198.9512195122, 6871635.141463415], [73455.0, 6871870.0], [73394.43925233645, 6871947.102803738], [73415.89762611275, 6872023.182492581], [73371.82720894992, 6872169.335768541], [73538.04412443636, 6872362.901355574], [73831.27329990901, 6872578.720863376], [74051.91637154213, 6872675.150762931], [74065.96493836533, 6872761.107204919], [74425.34088983136, 6873157.125679747], [74571.17061874717, 6873228.318515106], [74576.97930723781, 6873323.7181876525], [74017.36817800679, 6873927.631821993], [74083.55890717516, 6874014.900927782], [73994.13043478261, 6874117.391304348], [74025.0, 6874170.0], [73975.0, 6874220.0], [73936.06918238994, 6874394.779874214], [73871.54175588865, 6874395.6638115635], [73770.0, 6874525.0], [73716.9895287958, 6874520.418848167], [73745.0, 6874570.0], [73671.58859470468, 6874610.417515275], [73479.64004908806, 6874591.230459989], [73365.40028577732, 6874634.241697098], [73375.0, 6874700.0], [73296.6913743535, 6874707.96379806], [73036.66666666667, 6875038.333333333], [73020.0, 6875025.0], [73002.85407272063, 6875182.099639067], [72795.01365427778, 6875389.576078552], [72671.76136363637, 6875353.3522727275], [72525.0, 6875500.0], [72605.15759312321, 6875486.862464183], [72662.17008797654, 6875531.480938416], [72928.58163108709, 6875538.005304693], [73133.94680187757, 6875754.096015624], [73131.14545454545, 6875927.8545454545], [73009.65171117074, 6875971.940722214], [73401.78607311242, 6876465.591552253], [73397.4368222692, 6876669.124345479], [73325.16233459327, 6876835.874639233], [73403.41688654353, 6876956.113744706], [73715.10417482842, 6877239.846300972], [73248.3923623024, 6877708.845636167], [73067.15287134174, 6877642.427860681], [72887.97057070484, 6877813.426547155], [72922.57575757576, 6877867.575757576], [72720.1188453661, 6878099.894607359], [72850.9551007764, 6878132.9292919515], [73593.19710786671, 6878880.206871332], [73611.84854318356, 6879167.734745042], [73683.21989528796, 6879352.55547245], [73581.21750947693, 6879485.205018932], [73611.42084472408, 6879605.896536335], [73766.73910431622, 6879644.699786742], [73744.51167728238, 6879712.4416135885], [73595.64516129032, 6879889.0322580645], [73614.36733510849, 6879950.174220611], [73770.05112732899, 6880112.344139822], [73572.0, 6880293.5], [73545.0, 6880280.0]]]}}]}