{"type": "FeatureCollection", "crs": {"type": "name", "properties": {"name": "EPSG:25833"}}, "features": [{"type": "Feature", "properties": {"station": "88.4.0", "name": "Lovatn", "series": ["1001.1"], "nodes": 2359964, "fine_vertices": 10802, "fine_area_m2": 235996350.0, "reduced_vertices": 290, "reduced_area_m2": 235996350.00000262, "outline_tolerance_m": 20.0, "windows": [[1395, 944], [2103, 1742], [3302, 2957]], "placed_on": "number", "distance_m": 54.00203488850509, "uncertainty_m": 54.00203488850509, "elvid": "088-18-1", "objectid": 10753781, "lake": true, "confluence_near": false, "reach_up_m": 1000.0, "reach_down_m": 154.00203488850502, "reach_fork": false, "seeded_by": "lake", "lake_rule": "lake_line", "lake_number": 1806, "lake_name": "Lovatnet", "lake_distance_m": 2.370324966757169, "node_offset_m": null, "chain_nodes": null, "lowered_nodes": null, "lowered_max_m": null, "direction_ok": null, "end_extended_m": null, "end_closed": null, "downstream_checked": null, "a0": null, "area_up": null, "area_down": null, "swing": null, "largest_step": null, "largest_step_at_m": null, "checked_up_m": null, "checked_down_m": null, "drains": null, "monotone": null, "causes": []}, "geometry": {"type": "Polygon", "coordinates": [[[77825.0, 6885130.0], [77883.7505101516, 6885067.749285787], [77596.90013595483, 6884827.556968058], [77630.0, 6884785.0], [77482.84485057299, 6884697.345921654], [77282.0, 6884723.0], [76990.42834253794, 6884893.695024798], [76687.81099215346, 6884961.7746305205], [76440.0, 6885175.0], [76273.63709983775, 6885193.01534041], [76077.44949159527, 6885352.941225105], [75918.17571930657, 6885580.626551452], [75859.75, 6885568.25], [75819.28669175504, 6885615.042764284], [75730.0, 6885555.0], [75647.02702702703, 6885589.594594595], [75353.54545445746, 6885416.285704937], [75166.70626115221, 6885265.429272175], [75033.55711710206, 6885378.8027525535], [74912.64705882352, 6885267.647058823], [74872.22222222222, 6885302.777777778], [74820.0, 6885265.0], [74725.81494154343, 6885330.091271807], [74625.92737904764, 6885495.240616745], [74475.36585365853, 6885478.414634147], [74417.65266856094, 6885513.013319278], [74259.04339456023, 6885473.738774954], [74056.01950183434, 6885277.553581772], [74061.66666666667, 6885246.666666667], [74001.66666666667, 6885216.666666667], [73932.8762541806, 6885263.060200669], [73738.95474607778, 6885191.369922628], [73767.9414693509, 6885062.909042269], [73637.17307692308, 6884945.942307692], [73598.0, 6884959.0], [73280.71852250748, 6884690.658645632], [73206.39134107692, 6884679.638688259], [72252.56619111549, 6883708.720975063], [72032.92165513696, 6883423.380737187], [71775.0, 6883170.0], [71815.80191385698, 6883053.746122203], [71907.00507991094, 6882954.926185047], [72230.42103087889, 6882696.97561629], [72311.52825847275, 6882692.037773836], [72411.66666666667, 6882631.666666667], [72415.0, 6882510.0], [72624.56175298804, 6882319.601593626], [72753.23802859959, 6882132.97124074], [73010.65607395602, 6881965.778318648], [73131.69198156393, 6881832.638820279], [73072.37138374937, 6881756.477644996], [73100.60801999828, 6881598.655212735], [73201.28382377206, 6881543.578156609], [73466.8479913388, 6881156.817124298], [73422.84211719612, 6881071.049210816], [73696.82807432633, 6880798.335152058], [73655.0, 6880730.0], [73723.57142857143, 6880658.571428572], [73620.55555555556, 6880555.555555556], [73605.0, 6880450.0], [73506.64157422082, 6880370.320919176], [73527.37854289253, 6880317.281928676], [73691.11221747872, 6880197.4637931185], [73755.72138543105, 6880097.417389563], [73614.36733510849, 6879950.174220611], [73595.64516129032, 6879889.0322580645], [73744.51167728238, 6879712.4416135885], [73766.73910431622, 6879644.699786742], [73612.30165997942, 6879606.242911692], [73579.0337651615, 6879488.25124322], [73684.80291624957, 6879353.773165988], [73613.30985915494, 6879178.169014084], [73593.11027768544, 6878880.116420432], [72850.9551007764, 6878132.9292919515], [72720.1188453661, 6878099.894607359], [72922.57575757576, 6877867.575757576], [72889.98363909079, 6877815.019443486], [73051.31500742942, 6877653.759286775], [73260.49386877756, 6877696.68481585], [73715.1041748284, 6877239.846300972], [73403.41688654353, 6876956.113744706], [73325.16233459327, 6876835.874639233], [73397.4368222692, 6876669.124345479], [73401.78607311242, 6876465.591552253], [73009.65171117074, 6875971.940722214], [73131.14545454545, 6875927.8545454545], [73132.21922117061, 6875758.416395592], [72930.12422071447, 6875533.468351394], [72666.66666666667, 6875535.0], [72605.15759312321, 6875486.862464183], [72525.0, 6875500.0], [72671.76136363637, 6875353.3522727275], [72795.01365427778, 6875389.576078552], [73002.85407272063, 6875182.099639067], [73020.0, 6875025.0], [73036.66666666667, 6875038.333333333], [73296.14973435573, 6874708.505438058], [73375.0, 6874700.0], [73365.31768571032, 6874634.439817819], [73479.46443775659, 6874591.2058791295], [73671.58859470468, 6874610.417515275], [73733.14387211368, 6874576.527531084], [73730.0, 6874515.0], [73766.66666666667, 6874531.666666667], [73869.71496437055, 6874395.688836104], [73936.06918238994, 6874394.779874214], [73975.0, 6874220.0], [74025.0, 6874170.0], [73994.13043478261, 6874117.391304348], [74083.55890717516, 6874014.900927782], [74017.36817800679, 6873927.631821993], [74576.97930723781, 6873323.7181876525], [74571.17061874717, 6873228.318515106], [74425.69230622108, 6873157.297238245], [74067.21887127587, 6872762.756963839], [74054.60507069722, 6872697.489029742], [73719.42979412977, 6872506.265814812], [73627.73013116802, 6872405.039936596], [73518.14079422383, 6872357.509025271], [73375.98711758683, 6872155.540022684], [73415.89762611275, 6872023.182492581], [73394.43925233645, 6871947.102803738], [73455.0, 6871870.0], [73198.9512195122, 6871635.141463415], [73186.88776273966, 6871508.02184496], [73297.5559604778, 6871397.000263087], [73269.15309679254, 6871111.47487126], [72850.1900147776, 6870592.214109709], [72825.45454545454, 6870384.968652038], [72751.0, 6870274.0], [73146.269035533, 6869876.192893401], [73185.28948370788, 6869748.387582673], [73544.47121078688, 6869349.388642612], [73645.7819603853, 6869118.862302973], [73647.96230109694, 6868958.846599874], [73778.51484270122, 6868783.9947862085], [73870.14618597494, 6868444.96299553], [74107.17391304347, 6868207.536231884], [74310.0, 6868185.0], [74340.0, 6868155.0], [74443.52232814852, 6868211.146512795], [74829.30970079427, 6867845.081809858], [75130.68965517242, 6868144.310344827], [75639.22386861942, 6867635.77613138], [76158.88128429097, 6867869.533867932], [76624.0, 6868005.0], [76579.8040702794, 6867707.511106044], [76773.19588162834, 6867390.834160028], [76824.14112029521, 6866889.524081103], [76910.46281096098, 6866484.901502715], [76889.45033926975, 6866431.822109351], [76915.06974661468, 6866374.599461058], [76889.9855469059, 6866261.5217239475], [76976.95238955166, 6865847.974921178], [76941.69982414407, 6865496.450371244], [77213.61797930002, 6865220.852551763], [77199.41441441441, 6865106.936936937], [77283.80645279805, 6864921.221214757], [77747.81153653158, 6864458.457116295], [78015.21601699751, 6864479.924956434], [78317.56312781663, 6864438.492106124], [78398.70967741935, 6864376.29032258], [78694.39224901551, 6864362.560782628], [79141.30745339165, 6864107.785747228], [79229.20554518796, 6864031.379632098], [79383.05387766687, 6864117.4455709895], [79448.93958090174, 6864512.913499125], [79386.19875712467, 6864804.430139288], [79553.93338858987, 6865346.949647179], [79565.47889473647, 6865478.3493513875], [80549.51389016154, 6866487.680188261], [80683.22110381347, 6866758.527297687], [80697.0, 6867242.0], [81551.47403685092, 6868096.474036851], [81594.93902439025, 6868212.743902439], [82460.8733387517, 6869126.857930956], [82486.42231369454, 6869190.572147634], [82692.090068286, 6868986.157668808], [83332.4432836962, 6869607.149331015], [83822.31126869383, 6869710.273069534], [84614.22639752465, 6870464.689448941], [84750.0748221198, 6870465.074822119], [86127.42183089603, 6871842.421830896], [86213.29127513724, 6871881.0672944505], [86196.79727734777, 6872195.242018757], [86526.71923802982, 6872164.792435388], [86936.98730685317, 6872328.719344908], [87375.66120415463, 6872330.661204155], [87975.0, 6872930.0], [87862.06293706293, 6872930.0], [87384.1252918752, 6873375.061563305], [87184.0860483156, 6873592.926085993], [88070.0, 6874415.0], [88175.9375, 6874469.0625], [88011.66666666667, 6874633.333333333], [88109.05446450377, 6874775.477962104], [88270.45628166194, 6874803.71450798], [88457.55525396022, 6874917.695190583], [88554.51263537907, 6874895.0], [88826.25, 6875010.416666667], [88966.77009557576, 6875204.886223972], [89205.15486734384, 6875257.205161245], [89301.16999836317, 6875376.226541474], [89332.97219082898, 6875357.641947404], [89507.0873084053, 6875495.919202424], [89675.18279256832, 6875516.351869968], [89863.3400968648, 6875685.866378487], [89832.43266833443, 6875725.616764142], [90088.93054309135, 6876182.30113363], [90089.80461456823, 6876395.195385432], [89979.12987460665, 6876503.295447068], [89938.49436708377, 6876962.268999733], [89855.94929972815, 6877288.758287681], [89771.88384693155, 6877463.953704898], [89631.13272467766, 6877562.267089802], [89160.29858372614, 6878020.4049161915], [89025.74333983484, 6878298.06908694], [88741.35065509568, 6878541.143717716], [88567.04918032787, 6878600.901639344], [88333.66628895237, 6878815.342638513], [88327.44955533504, 6878913.210437793], [87973.22176134985, 6879159.410991659], [87924.6745374821, 6879288.216070272], [87998.1597699991, 6879528.66805482], [88103.23129251701, 6879682.879818594], [88085.0, 6879850.0], [88040.55555555556, 6879892.222222222], [87973.64110495773, 6880227.247976455], [87676.42693237677, 6880528.023030094], [87418.17516974008, 6881017.913480989], [87171.0325575109, 6881149.162898554], [86807.90484326641, 6881050.9646408], [86541.45945129635, 6881349.367501072], [86438.70450751559, 6881419.1915731], [86252.46963562752, 6881451.437246963], [86136.0, 6881396.333333333], [85974.14917263412, 6881459.98748793], [85823.41065054889, 6881438.911861035], [85840.50770931532, 6881649.1124302875], [85764.46399284754, 6881703.854781212], [85722.73536998148, 6881837.238807544], [85589.83110246396, 6881863.457516888], [85084.0, 6881439.0], [84899.6, 6881378.6], [84668.98641874031, 6881162.199890621], [84508.14680076683, 6881074.954088586], [84066.07679107678, 6881198.855283855], [83835.0, 6881420.0], [83815.0, 6881530.0], [83649.16724257084, 6881695.832757429], [83556.06060606061, 6881672.01010101], [83350.2805521742, 6881863.206107577], [83285.0, 6881870.0], [83360.0, 6881945.0], [83325.0, 6881990.0], [83334.96317189204, 6882277.3001097385], [83394.46135831381, 6882332.037470726], [83422.59100416779, 6882440.6946993815], [83288.49809885932, 6882607.110266159], [83283.87172942217, 6882956.415573854], [83341.53404862902, 6883064.515585359], [83234.38392302685, 6883494.4553072415], [83234.74417339505, 6883767.076758436], [83083.32156495444, 6884047.63973677], [82792.25473043729, 6884352.745269563], [82688.77793832467, 6884712.153076033], [82430.0, 6884725.0], [82305.11755877938, 6884832.263631816], [82304.98342534092, 6884875.320465563], [82055.49539675246, 6885141.336402165], [81980.82967940377, 6885155.71282675], [81922.57351037944, 6885263.65673832], [81724.60190284484, 6885519.506760604], [81221.08132058787, 6885616.5130206095], [81148.2016111474, 6885663.288700196], [80832.51265468917, 6885348.446242584], [80374.58849557875, 6885390.411504421], [79547.42071881607, 6886217.579281184], [79352.30769230769, 6886339.923076923], [79185.0, 6886248.413793104], [79185.0, 6886200.0], [78968.11982471572, 6886094.509503568], [78895.03509809147, 6886100.05516604], [78871.64819944599, 6886063.296398892], [78922.33360069201, 6886013.448772873], [78606.61236874133, 6885699.195952269], [77900.88427062947, 6885658.211537384], [77748.36370224088, 6885500.5383428205], [77720.55555555556, 6885416.666666667], [77856.85627509523, 6885205.117883249], [77825.0, 6885130.0]]]}}]}