{"type": "FeatureCollection", "crs": {"type": "name", "properties": {"name": "EPSG:25833"}}, "features": [{"type": "Feature", "properties": {"station": "97.1.0", "name": "Fetvatn (Fitjavatnet)", "series": ["1001.1"], "nodes": 894542, "fine_vertices": 7480, "fine_area_m2": 89454250.0, "reduced_vertices": 261, "reduced_area_m2": 89454249.99999925, "outline_tolerance_m": 20.0, "windows": [[663, 530], [1278, 1314], [2477, 2577]], "placed_on": "number", "distance_m": 20.098528719617274, "uncertainty_m": 30.0, "elvid": "097-136-1", "objectid": 10777522, "lake": true, "confluence_near": false, "reach_up_m": 1000.0, "reach_down_m": 130.0, "reach_fork": false, "seeded_by": "lake", "lake_rule": "lake_line", "lake_number": 1955, "lake_name": "Fitjavatnet", "lake_distance_m": 5.036664563626549, "node_offset_m": null, "chain_nodes": null, "lowered_nodes": null, "lowered_max_m": null, "direction_ok": null, "end_extended_m": null, "end_closed": null, "downstream_checked": null, "a0": null, "area_up": null, "area_down": null, "swing": null, "largest_step": null, "largest_step_at_m": null, "checked_up_m": null, "checked_down_m": null, "drains": null, "monotone": null, "causes": []}, "geometry": {"type": "Polygon", "coordinates": [[[65320.0, 6939515.0], [65195.97145122918, 6939354.908802537], [65043.128548111614, 6939388.733741059], [64926.19025914127, 6939245.97990757], [64761.89688286882, 6939283.581986533], [64571.525012982514, 6939169.350008655], [64461.93873268989, 6939147.605958875], [64061.3945519517, 6938804.72108961], [64002.0, 6938816.6], [63870.05111708244, 6938743.638627734], [63739.121854958066, 6938636.5540207205], [63657.5, 6938648.214285715], [63272.749825030514, 6938417.909331862], [63124.35249413334, 6938180.6248440435], [62912.914755044236, 6938106.961926613], [62846.92307692308, 6938114.230769231], [62770.0, 6938065.0], [62609.446723325054, 6938050.165252798], [62327.49255833242, 6937829.881629916], [62585.7363782026, 6937382.5607796805], [62668.64764836542, 6937309.311124624], [62769.49303579452, 6937100.991463232], [62749.562357897084, 6937075.77283062], [62838.68485805279, 6936988.849959878], [62894.48035104421, 6936970.38106847], [63024.85553754602, 6936801.772700389], [63049.2923496499, 6936617.003844688], [62965.0, 6936400.0], [62942.59648067921, 6936022.601202478], [63241.130766872506, 6935824.297930505], [63391.66709578615, 6935651.396911475], [63504.57348546591, 6935576.297201848], [63629.71560782488, 6935400.51384832], [63593.853995041456, 6935281.969697861], [63664.16454705765, 6934947.002105242], [63802.44947217848, 6934835.0], [63893.20824356926, 6934677.221290021], [63709.167772895526, 6934248.038920513], [63779.478234386086, 6933906.332484201], [63805.0, 6933592.857142857], [63533.7467893809, 6933306.69597775], [63415.0, 6933260.0], [63505.0, 6933130.0], [63493.26312771211, 6932859.472207684], [63633.873146955266, 6932330.035176992], [63910.8582845655, 6932048.323286755], [64077.138146476915, 6931532.917968298], [64210.301583322376, 6931334.645342138], [64586.6054423379, 6931203.5972927725], [64605.16129032258, 6931088.225806451], [64751.13749509698, 6931007.166070789], [64896.40559548709, 6931065.576410615], [64999.32256936653, 6931034.898220036], [65276.666666666664, 6931211.666666667], [65423.47218818917, 6931244.294290615], [65527.389853026085, 6931329.715283717], [65946.05465888382, 6931447.177884558], [66012.20314744388, 6931252.46732827], [65979.54981353223, 6930982.940863079], [65985.0, 6930670.0], [66067.96423525292, 6930542.338880943], [66190.0, 6930545.0], [66270.62772824496, 6930463.989149659], [66182.0741482966, 6930408.036072144], [66274.12800247509, 6930216.994115353], [66346.49893955857, 6929877.930031268], [66531.99111203376, 6929643.077162385], [66475.58746215617, 6929409.502994533], [66554.50980392157, 6929350.490196078], [66710.55610071828, 6929340.07591147], [67090.60470626062, 6929141.568104244], [67501.9512195122, 6929073.292682927], [67574.53069178305, 6929000.453069178], [67913.7062308586, 6929072.557810036], [68074.60110935644, 6929032.9890934], [68245.82338693092, 6928905.137612], [68252.11192194319, 6928710.216546398], [68325.08461804231, 6928570.239040211], [68495.68970606585, 6928466.206974758], [68725.84025411111, 6928403.1474373825], [68887.7734035424, 6928291.091076187], [68909.86151239117, 6928101.990605177], [68846.86230248307, 6928086.241534988], [68759.9775484238, 6927965.684809683], [68885.88288682743, 6927779.17817216], [69045.00021143905, 6927747.866570799], [69485.90620147265, 6927900.573506192], [69674.24070194832, 6927766.6468482595], [69731.0, 6927776.0], [69770.0, 6927705.0], [70036.27295965707, 6927892.760852389], [70176.66666666667, 6927788.333333333], [70424.5529233854, 6927721.462703154], [70817.8299766499, 6927677.144832322], [71094.3352236925, 6927600.27410208], [71299.27685462777, 6927501.49086915], [71366.18909721111, 6927516.737708604], [71538.12925170068, 6927470.090702948], [71571.40043119255, 6927554.6809952995], [71681.16056852993, 6927525.5195057085], [72011.81236673774, 6927847.046908315], [72110.0, 6927795.0], [72167.04845814977, 6927817.81938326], [71992.21351783891, 6927992.796910174], [72019.96335078534, 6928054.041884817], [71631.1548215945, 6928454.251150014], [71836.55555555556, 6928762.222222222], [71780.3830767893, 6928892.654143838], [71825.0, 6928920.0], [71776.85499576846, 6929162.1851286255], [71622.40506329114, 6929245.0], [71549.39252881194, 6929325.778448446], [71715.0, 6929690.0], [71689.38655462184, 6929734.033613445], [71762.7243695468, 6929815.972885984], [71755.0, 6930100.0], [71827.64888288495, 6930174.763638279], [71632.14863752772, 6930569.371186219], [71686.93973657918, 6930740.812144733], [71790.17670836224, 6930725.918648855], [72234.7720745484, 6931120.702770143], [72221.73246146982, 6931230.173602673], [72287.04795621055, 6931373.526421826], [72325.91055536366, 6931637.2902510315], [72363.47826086957, 6931681.956521739], [72275.50116550116, 6931780.501165501], [72308.11395735214, 6931860.288873777], [72542.20725829317, 6931888.400907286], [72586.12903225806, 6931965.0], [72618.47188493528, 6931941.014614186], [72780.91748532433, 6932152.236473313], [72724.60784313726, 6932400.392156863], [72589.0, 6932536.0], [72603.22222222222, 6932611.777777778], [72301.25, 6932913.75], [72368.42084324909, 6933040.937280146], [72314.11485685245, 6933185.0], [72378.21079167174, 6933185.0], [72583.85948810873, 6933447.829665105], [72676.61437422245, 6933631.36019884], [72635.0, 6933700.0], [72845.61900573508, 6933932.96744392], [73045.0, 6934050.0], [73013.86232481452, 6934094.976641934], [73125.0, 6934141.794871795], [73125.0, 6934184.285714285], [73055.0, 6934200.0], [72970.84158415842, 6934284.158415842], [73001.25, 6934316.875], [73053.9077212806, 6934276.986817325], [73116.08695652174, 6934285.869565218], [73150.0, 6934225.0], [73261.50479917947, 6934211.787908321], [73317.56370010166, 6934129.539695671], [73346.31374818944, 6934139.666991827], [73817.66570605188, 6933724.567723343], [73899.4975540262, 6933715.799926521], [73949.24324324324, 6933745.486486486], [74080.0, 6933655.0], [74430.93049298797, 6934062.08827653], [74615.0, 6934127.825583494], [74615.0, 6934204.137931035], [74749.04727872458, 6934290.714678395], [74585.0, 6934480.0], [74619.28571428571, 6934515.714285715], [74569.18181818182, 6934565.818181818], [74535.58823529411, 6934664.117647059], [74608.83019390874, 6934608.141632535], [74862.5466026623, 6934597.131081755], [74873.59669464579, 6934649.072770508], [75214.07699575946, 6934874.258795437], [75555.53055114616, 6935282.778241367], [75677.79578468933, 6935547.985447152], [75867.14127979253, 6935568.582638533], [75995.29257521391, 6935740.950869445], [76055.0, 6935900.0], [76007.8, 6936136.0], [75880.0, 6936275.0], [75738.48686404963, 6936193.242763166], [75271.44406417277, 6936643.6817940315], [75089.2957746479, 6936655.704225352], [74921.0148331058, 6936719.34191585], [74425.15870364488, 6937180.3894598745], [74187.26388171331, 6937343.527388526], [74005.58283472995, 6937307.274867321], [74151.63703711945, 6937574.239222318], [73775.0, 6937880.0], [73791.01851851851, 6937960.092592592], [73742.07810937331, 6937949.15014239], [73367.13762089016, 6938240.064406377], [72862.13770726002, 6938761.954639992], [72810.53453252325, 6938890.043074025], [72506.93846709937, 6938642.294030565], [72245.99850427058, 6938612.004180266], [72199.72993270915, 6938570.90488203], [72044.46808510637, 6938575.0], [72002.35294117648, 6938602.647058823], [71945.71428571429, 6938562.142857143], [71850.07108612994, 6938631.182840139], [71776.46174821284, 6938613.147316071], [71673.49063513655, 6938524.716438212], [71479.747391657, 6938557.927998999], [71440.80645161291, 6938196.129032258], [71473.7027818448, 6938148.049780381], [71249.45262292707, 6937837.469037004], [71103.07145950543, 6937759.82975983], [70677.76862137766, 6938237.325964879], [70430.0, 6938255.0], [70400.78260869565, 6938221.608695652], [70100.4074004439, 6938216.672962375], [70052.5, 6938142.5], [69989.01675704475, 6938194.727665089], [69917.55972748215, 6938101.253118039], [69869.53752189189, 6938125.184172893], [69830.66306212246, 6938042.102915952], [69850.40349524505, 6937924.194943959], [69845.0, 6937325.0], [69780.67400711785, 6937217.253961923], [69790.82814917942, 6937105.828149179], [69697.75323711336, 6936917.246762887], [69731.42857142857, 6936883.571428572], [69695.0, 6936826.666666667], [69783.09416450853, 6936648.301151565], [69649.15690674262, 6936278.560811051], [69688.07692307692, 6936221.538461538], [69357.06199781469, 6935941.514436407], [69374.4, 6935897.0], [69196.99217648525, 6935749.160147071], [69084.99463400428, 6935770.862307181], [68901.3981762918, 6935720.866261398], [68761.41034147238, 6935733.081560744], [68556.16144975288, 6935911.161449753], [68456.42105263157, 6935875.315789473], [68058.00825254747, 6935890.049464077], [67855.0, 6936180.0], [67950.12949638143, 6936363.772890737], [67860.8808954481, 6936386.854733129], [67804.48712442248, 6936501.132620921], [67888.1330953391, 6936797.560329756], [67653.30844599417, 6936977.07276483], [67487.44376796903, 6937300.424201903], [67505.414453841, 6937450.617232192], [67441.44024840818, 6937581.271888457], [67433.36006320102, 6937720.327735057], [67228.33333333333, 6937936.666666667], [67167.3590364871, 6938190.590443521], [66917.81803757488, 6938850.13878915], [66859.06373664574, 6938956.456095593], [66834.22960148452, 6939148.960594725], [66717.67906881275, 6939236.454174915], [66624.48589695075, 6939574.641953943], [66463.93939393939, 6939579.848484849], [66409.58333333333, 6939623.333333333], [66355.71148346995, 6939578.525732882], [66234.43965264564, 6939598.263280603], [66118.54829015354, 6939678.8372624945], [65898.9051731406, 6939594.877647883], [65696.11610852965, 6939626.986161819], [65577.77777777778, 6939692.777777778], [65419.491186820116, 6939646.939623027], [65424.09419439563, 6939543.024048273], [65320.0, 6939515.0]]]}}]}