{"type": "FeatureCollection", "crs": {"type": "name", "properties": {"name": "EPSG:25833"}}, "features": [{"type": "Feature", "properties": {"station": "98.4.0", "name": "\u00d8ye ndf.", "series": ["1001.0"], "nodes": 1408380, "fine_vertices": 9070, "fine_area_m2": 140838150.0, "reduced_vertices": 326, "reduced_area_m2": 140838149.99999925, "outline_tolerance_m": 20.0, "windows": [[497, 470], [1271, 1268], [2470, 2598], [4678, 4988]], "placed_on": "number", "distance_m": 17.60840379408958, "uncertainty_m": 30.0, "elvid": "098-80-1", "objectid": 11468193, "lake": false, "confluence_near": false, "reach_up_m": 1000.0, "reach_down_m": 130.0, "reach_fork": false, "seeded_by": "river", "lake_rule": null, "lake_number": null, "lake_name": null, "lake_distance_m": null, "node_offset_m": 6.229713184038727, "chain_nodes": 100, "lowered_nodes": 66, "lowered_max_m": 1.658905029296875, "direction_ok": true, "end_extended_m": 0.0, "end_closed": true, "downstream_checked": "whole", "a0": 140.838, "area_up": 140.8184, "area_down": 140.83960000000002, "swing": 0.00013916698618268475, "largest_step": 0.019199999999983675, "largest_step_at_m": 0.0, "checked_up_m": 24.142135623731065, "checked_down_m": 28.28427124746213, "drains": true, "monotone": true, "causes": []}, "geometry": {"type": "Polygon", "coordinates": [[[79040.0, 6908025.0], [78989.5634686854, 6907852.235301674], [78878.57860594547, 6907777.945800447], [78853.07956233194, 6907674.321876633], [78669.6233645083, 6907465.933872743], [78676.75552937889, 6907330.834238909], [78302.57231475026, 6906977.221485575], [78236.66666666667, 6907028.333333333], [78194.28571428571, 6907002.142857143], [78109.43496127018, 6907056.950351209], [77915.0, 6906879.0], [77795.04601226994, 6906869.325153374], [77698.83720930232, 6906786.860465116], [77640.0, 6906847.0], [77158.06730979221, 6906949.522279134], [77071.22427253371, 6907034.3364088], [77095.91720936069, 6907074.337198067], [76986.86058706556, 6907143.370104019], [76816.49625935162, 6907040.174563591], [76821.25, 6906996.25], [76736.83006535948, 6906911.830065359], [76775.39215686274, 6906770.392156863], [76746.0328429187, 6906741.032842918], [76787.41280544328, 6906564.008761726], [76767.44515107569, 6906508.764917976], [76772.73770491804, 6906359.1213114755], [76711.66666666667, 6906306.666666667], [76745.63263584682, 6906252.1423477195], [76673.02084148792, 6906110.221970067], [76753.70196992593, 6906039.945108486], [76746.41284003464, 6905942.337327969], [76644.4268848679, 6905783.051093422], [76508.1508201839, 6905632.986233638], [76397.22869242985, 6905462.286924299], [76365.0, 6905250.0], [76183.2689195313, 6905003.738590018], [76185.18970514338, 6904810.960385882], [75892.63459138815, 6904633.048329461], [75786.48838247289, 6904653.052830162], [75853.02952085312, 6904405.934546959], [75827.86907461163, 6904140.0428924225], [75878.44928996843, 6904010.997755162], [75856.59028177154, 6903696.02173865], [75729.19847328245, 6903390.3053435115], [75815.0, 6903190.0], [75734.03382673349, 6903212.672473664], [75565.0, 6902950.0], [75572.03781593134, 6902697.213226637], [75524.69601574859, 6902500.4184519425], [75609.75634866163, 6902414.413177762], [75348.58895670465, 6902039.405363567], [75322.16263591599, 6901928.97023698], [75180.88759424264, 6901714.688142563], [75392.57199475699, 6901439.822527091], [75372.10715884292, 6901299.276431495], [75154.74496644296, 6901098.979865772], [75112.04151538218, 6900943.863362322], [75123.2365151874, 6900676.781979979], [75276.24610776108, 6900492.460636614], [75371.64404824043, 6900229.170535608], [75366.14295176422, 6900118.5759564405], [75421.68835080098, 6900046.262624026], [75313.98986058301, 6899999.420785805], [75255.52631578948, 6899905.7894736845], [75286.4705882353, 6899688.161764706], [75343.5294117647, 6899551.838235294], [75402.97313351001, 6899286.483596819], [75416.32186808798, 6899046.206374416], [75580.43394595727, 6898850.88069584], [75896.71863699832, 6898702.871862563], [75971.42857142857, 6898719.285714285], [76042.65426727837, 6898677.035544566], [76142.31157352624, 6898456.804515941], [76287.90627185824, 6898361.586616927], [76470.0, 6898105.0], [76486.66666666667, 6898123.888888889], [76786.76618501406, 6897974.890375999], [76758.42105263157, 6897867.631578947], [76831.83203165483, 6897935.057321824], [76995.58434431229, 6898000.586403353], [76979.37879847255, 6898067.11100952], [77138.30882463671, 6898150.064926473], [77462.87296682323, 6898441.714140896], [77650.0, 6898555.0], [77670.0, 6898535.0], [77760.03580934346, 6898619.907448949], [77816.38818135507, 6898609.039735099], [78027.4599473704, 6898704.6241359105], [78199.45905121005, 6898698.6344569335], [78240.0, 6898745.0], [78267.14285714286, 6898716.428571428], [78481.19195563186, 6898832.483941161], [78499.61629751236, 6898934.690551361], [78683.55450236966, 6898985.710900474], [78743.5294117647, 6899047.352941177], [78945.6603773585, 6899034.0566037735], [79022.20760087763, 6899085.699106058], [79125.60177131109, 6898998.700774949], [79405.84766576973, 6899101.619780579], [79592.91477559254, 6898892.1659102375], [79640.0, 6898915.0], [79795.37234042553, 6898781.64893617], [79860.0, 6898815.0], [80363.63636363637, 6898311.363636363], [80450.0, 6898335.0], [80612.1045854939, 6898149.350630413], [80636.3146083128, 6897954.634563011], [80599.7456533118, 6897881.812096891], [80710.1714623577, 6897690.288661166], [80627.94117647059, 6897602.94117647], [80635.8404098233, 6897420.6005399125], [80910.57129574944, 6897200.123105099], [80964.62808859533, 6897228.083394273], [81179.16226733627, 6897086.299229183], [81395.0, 6896970.0], [81309.62686567164, 6896846.268656717], [81379.13793103448, 6896765.172413793], [81441.3512062424, 6896785.042594316], [81628.5091443627, 6896678.96525353], [81560.0, 6896465.0], [81509.1541142786, 6896479.360139425], [81409.5031179384, 6896351.330140302], [81581.36736775702, 6896183.50772513], [81837.45020414819, 6896195.349279657], [81995.14851485149, 6896159.950495049], [81979.80508392335, 6896118.544437355], [82065.83333333333, 6895990.833333333], [82100.0, 6896025.0], [82177.21461187214, 6895978.287671233], [82335.29411764706, 6896019.705882353], [82426.25481599575, 6895999.286789779], [82460.125, 6896022.5], [82636.56194898505, 6895883.656335085], [82826.04277391941, 6896036.359416017], [82880.0, 6896025.0], [82945.38461538461, 6896089.615384615], [83041.42857142857, 6895993.571428572], [83185.03556844716, 6896019.524500322], [83385.06567494856, 6895849.706440893], [83385.3276252068, 6895768.7638110975], [83521.75747126437, 6895733.242528736], [83535.74252873563, 6895639.257471264], [83753.37135036496, 6895441.473540146], [83779.0545617554, 6895350.67563068], [84113.75, 6895138.75], [84326.62235974065, 6895276.119589285], [84487.20686944273, 6895214.664301263], [84740.0, 6895405.0], [84831.97191780822, 6895350.208219178], [85001.24099559104, 6895487.123088682], [85178.18948117444, 6895417.882376932], [85404.33019457538, 6895508.018403542], [85605.46641280898, 6895490.391520443], [86165.31943080231, 6895249.366348063], [86159.57552363048, 6895370.121278559], [86283.71499689252, 6895390.139200003], [86437.31707317074, 6895629.024390244], [86511.8407467868, 6895923.385712996], [87070.69474250427, 6896105.847639469], [87100.0, 6896075.0], [87313.89825285811, 6896166.980922411], [87420.0, 6896135.0], [87490.00130555607, 6896195.001119048], [87556.01476807806, 6896201.5282404665], [87773.23126510879, 6896429.206285254], [87940.83043447285, 6896714.64117656], [87877.66344709617, 6897119.352391492], [87338.0712946453, 6897673.481900143], [87315.0, 6897780.0], [87483.46015174627, 6897948.460151746], [87360.55650214604, 6898391.065529278], [87330.14851485149, 6898614.257425742], [87370.09184489095, 6898711.738262276], [87205.7502569373, 6898826.384191348], [87190.13899004002, 6899036.245845953], [87124.42602836227, 6899100.7476964025], [87042.15203068969, 6899365.708686276], [86935.60258595542, 6899553.529432025], [86946.68105151024, 6899618.417587417], [87371.26287660681, 6900016.017437949], [87449.89281623709, 6900384.393111489], [87873.33333333333, 6900458.333333333], [87900.0, 6900405.0], [88018.68766437919, 6900401.139288034], [88192.68319941119, 6900619.315710096], [88365.71428571429, 6900719.285714285], [88410.17403652455, 6900691.964520048], [88695.30086554191, 6900810.034255757], [88796.66666666667, 6900748.333333333], [88883.870176797, 6900604.25796877], [88995.30244879043, 6900641.445742815], [89113.11292711382, 6900621.649480838], [89295.63887581014, 6900670.250256848], [89362.76595744681, 6900640.744680851], [89431.04247104247, 6900680.907335907], [89508.77005237387, 6900576.332135027], [89689.60660728061, 6900635.755664568], [89842.41379310345, 6900569.482758621], [89986.91652978945, 6900647.790801852], [90030.0, 6900705.0], [90283.15578100854, 6900452.198498613], [90439.07482848564, 6900513.565922191], [90754.83936733523, 6900175.778855085], [90923.39607905595, 6900416.321797155], [91107.72469252601, 6900481.017029328], [91226.51830747088, 6900476.979718364], [91316.4403427818, 6900442.145682268], [91430.0, 6900555.0], [91496.61572504867, 6900432.626846766], [91675.97249864302, 6900461.985706531], [91812.54237288135, 6900592.796610169], [92074.70248615035, 6900573.148635942], [92339.38237125771, 6900944.912726283], [92553.99476096922, 6901112.498362803], [92656.03973122843, 6901359.568595166], [92715.16574585636, 6901629.723756906], [92379.42263888076, 6902017.960386494], [92303.55136099522, 6902168.610715798], [92386.73138456293, 6902240.786047732], [92636.29664324746, 6902313.004683841], [92990.07014562294, 6902687.081008037], [92823.73193004473, 6903185.027095876], [92415.02537109723, 6903417.901011065], [92280.71748878923, 6903685.0], [92176.09830491363, 6903767.232670689], [92141.1361323034, 6903936.003660837], [92062.90322580645, 6903934.677419355], [91841.32702026563, 6904098.547985959], [91741.4998322236, 6904104.425054473], [91463.42591939942, 6904526.489938035], [91452.72727272726, 6904616.818181818], [91317.5450095412, 6904720.824276114], [91176.22774697412, 6904735.778284977], [91094.07838812991, 6904795.388960125], [91037.9386247474, 6904731.144762273], [91060.16614495545, 6904664.164459427], [90966.63095886624, 6904457.558257243], [90865.8306188925, 6904539.169381107], [90603.84615384616, 6904328.846153846], [90434.9877933684, 6904307.497248988], [90021.40610835252, 6904436.373707298], [89857.78563140675, 6904584.2280103825], [89665.0, 6904851.538461538], [89648.71597332752, 6904970.18117702], [89496.93443755561, 6904985.101884881], [89339.13840041254, 6905085.0], [89041.2173874799, 6905065.408301483], [88649.9410197133, 6905103.721231374], [88343.5510377407, 6905405.411028612], [88277.36377091029, 6905416.36812662], [88111.29157411061, 6905681.9084746465], [88059.01254083676, 6905933.654231215], [87943.95181834392, 6905903.122857025], [87889.94327628362, 6905942.29388753], [87352.25056540228, 6905912.597220824], [87179.65278407026, 6906064.266672707], [87098.57142857143, 6905986.428571428], [86956.60670968614, 6906128.393290314], [86586.35840152773, 6906105.981684017], [86406.90296002381, 6906151.06446943], [86063.92595723907, 6906521.074042761], [85934.19731606897, 6906442.414524602], [85757.13178294574, 6906416.426356589], [85622.34505628096, 6906448.356581709], [85534.67532467532, 6906595.51948052], [85468.65650644783, 6906548.8264947245], [85280.7608034084, 6906702.559342666], [85088.5, 6906710.5], [85069.45226226577, 6906628.116317827], [84932.69546818944, 6906493.386480173], [84705.52650746127, 6906334.994379937], [84629.63629384697, 6906226.453226239], [84442.50963437413, 6906126.518201227], [84168.05151327503, 6906096.343590829], [84099.78448275862, 6906144.310344827], [83939.66635014799, 6906076.86837978], [83720.98968632621, 6906209.266178999], [83534.0, 6906039.0], [83162.61326258534, 6906345.680394589], [83118.06292207338, 6906522.025762392], [83132.5, 6906607.5], [83105.0, 6906660.0], [83187.50746346297, 6906708.192674128], [83215.0, 6906820.0], [83081.76656484406, 6906933.093497284], [83143.95910780669, 6906980.63197026], [83064.85936240907, 6907177.974701184], [82840.0, 6907245.0], [82809.68676574646, 6907212.287263831], [82584.8819650927, 6907306.912333255], [82576.63394150996, 6907396.733981339], [82634.23076923077, 6907416.153846154], [82530.10680531414, 6907627.685563506], [82373.45403149017, 6907612.228392846], [82270.25974025975, 6907475.64935065], [82216.0081007707, 6907500.688568875], [82029.56638115631, 6907324.566381156], [81854.30485762144, 6907274.4639866], [81783.54010453871, 6907431.957017952], [81737.43243243243, 6907427.567567567], [81722.55087885172, 6907482.723557809], [81610.35298312336, 6907597.39481816], [81665.0, 6907703.333333333], [81655.37223760514, 6907794.797293767], [81529.74421264716, 6907729.088729255], [81470.66274781006, 6907766.409635777], [81285.0, 6907780.0], [81361.4705882353, 6907873.529411765], [81317.5821596244, 6907984.194053208], [81391.45245329173, 6908044.553559101], [81348.50547167652, 6908327.869072351], [81472.13362068965, 6908523.318965517], [81424.54600213702, 6908756.855712756], [81478.92467810244, 6908852.874059382], [81536.00250626566, 6909023.50877193], [81382.50586742784, 6909137.814779575], [81339.66666666667, 6909393.333333333], [81145.74182126163, 6909564.961139157], [81109.90909090909, 6909565.090909091], [80976.17647058824, 6909731.176470588], [80992.05564142195, 6909797.766615147], [80837.24986283964, 6909843.1798661435], [80757.86019971469, 6909911.490727532], [80705.79808024046, 6909810.170542892], [80755.9876461988, 6909709.096223966], [79072.5, 6907992.5], [79040.0, 6908025.0]]]}}]}