{"type": "FeatureCollection", "crs": {"type": "name", "properties": {"name": "EPSG:25833"}}, "features": [{"type": "Feature", "properties": {"seed": [8.5425, 61.3512], "seed_crs": "EPSG:4326", "nodes": 3049095, "fine_vertices": 17812, "fine_area_m2": 304909550.0, "reduced_vertices": 740, "reduced_area_m2": 304909549.9999997, "outline_tolerance_m": 20.0, "windows": [[1438, 3024], [2236, 3646], [3520, 4813]]}, "geometry": {"type": "Polygon", "coordinates": [[[137640.0, 6832215.0], [137597.74193548388, 6832243.172043011], [137458.29391628047, 6832099.4653071035], [137272.3691336265, 6832052.957247976], [137184.90341039226, 6831980.659617026], [137201.01864562993, 6831903.119034275], [136903.35714285713, 6831628.214285715], [136951.62316462147, 6831459.250051314], [136817.0754716981, 6831303.773584906], [136830.00038878224, 6831200.698025623], [136684.96189964417, 6831184.071259593], [136435.6189184878, 6831273.199872388], [136395.8257108954, 6831332.053447732], [135865.0, 6831270.0], [135885.40185471406, 6831247.897990727], [135635.0, 6830980.0], [135645.86030125848, 6830903.977891191], [135592.49409990516, 6830828.017502136], [135632.2171388938, 6830610.685336256], [135633.68724762482, 6830376.88081057], [135589.39452549722, 6830304.652792333], [135964.71533574187, 6829950.284664258], [136513.89924577868, 6829517.547606546], [136530.10616212134, 6829406.420685099], [136610.09717929043, 6829289.689134087], [136572.75051124743, 6829053.128834356], [136676.59931295138, 6828870.89274336], [136835.26730887045, 6828688.502266878], [136877.84676395185, 6828693.759262805], [137088.33333333334, 6828465.0], [137057.04474659674, 6828423.815620678], [137186.22954293294, 6828252.867802737], [137245.515878252, 6828247.818994536], [137496.96684188143, 6827874.340167733], [137586.42857142858, 6827642.857142857], [137591.7123287671, 6827533.287671233], [137650.25901788575, 6827515.823043272], [137722.1739130435, 6827398.043478261], [137818.72049870715, 6827340.082686023], [138004.6911740526, 6827112.268315339], [138129.00346474705, 6827096.180873251], [138191.4623733689, 6826868.500055129], [138135.0, 6826840.0], [138257.3819876784, 6826602.968908627], [138238.62261836408, 6826547.302507902], [138328.53135983145, 6826454.936038019], [138303.061546746, 6826412.9448269205], [138419.98539481877, 6826358.102763013], [138385.0, 6826290.0], [138514.84023017494, 6826180.874040825], [138576.58487743896, 6825839.170865189], [138718.05190812348, 6825860.803012173], [138802.4414514038, 6825760.811100701], [138781.7282051282, 6825686.420512821], [138844.19485053458, 6825643.713724635], [138863.115942029, 6825468.115942029], [138808.125, 6825413.125], [138893.70368496655, 6825265.600430721], [138929.1959398952, 6825247.993253361], [138960.0, 6825125.0], [139175.0, 6824910.0], [139116.94111216627, 6824813.235186944], [138949.77487567315, 6824698.088308348], [139098.8443611255, 6824566.148784354], [139065.0, 6824470.0], [139120.51022533225, 6824410.39306786], [138917.7332545976, 6824214.83718576], [138941.75736597166, 6824169.45830872], [139011.99137029288, 6824182.391474895], [139117.5, 6824107.5], [139035.84347231753, 6823966.130352153], [139261.66666666666, 6823673.333333333], [139288.7288135593, 6823534.406779661], [139345.0, 6823450.0], [139371.095371097, 6823292.340466289], [139498.8679245283, 6823156.509433962], [139550.6470393466, 6823014.014679101], [139505.71212772815, 6822934.286085522], [139649.8381673627, 6822703.225457756], [139763.43880354054, 6822680.531590193], [139845.0, 6822563.895642195], [139845.0, 6822510.0], [139933.17778456188, 6822421.822215438], [140025.35194260805, 6822426.207276433], [140062.3109441052, 6822509.62188821], [140168.80157170922, 6822471.640471512], [140210.0, 6822525.0], [140505.9208167372, 6822229.079183263], [140604.20249812232, 6822247.359009317], [140804.2085916462, 6821961.682867177], [140899.38604496184, 6822003.772089924], [140936.32, 6822077.64], [141007.86755289164, 6822086.714784027], [141157.0, 6821912.0], [141098.07046615635, 6821872.320620127], [141142.49400479617, 6821822.482014389], [141112.51491139995, 6821701.06200086], [141355.0, 6821440.0], [141336.42857142858, 6821318.571428572], [141365.0, 6821290.0], [141224.0416141236, 6821147.389659521], [141408.40847831414, 6820937.04239157], [141395.0, 6820870.0], [141499.44444444444, 6820765.555555556], [141465.45526353584, 6820730.716645124], [141593.33333333334, 6820571.666666667], [141569.6974925791, 6820536.908077322], [141659.26065162907, 6820424.260651629], [141651.84448836243, 6820324.296281796], [141772.8260869565, 6820162.173913044], [141816.25, 6820061.25], [142002.6073224465, 6820199.636999488], [142075.57326495965, 6820154.970894979], [142145.0, 6820180.0], [142126.74311926606, 6820253.302752294], [142205.56356523783, 6820277.275755774], [142217.27272727274, 6820382.2727272725], [142326.66666666666, 6820308.333333333], [142388.09997058453, 6820353.3151237555], [142415.0, 6820220.0], [142562.42090701312, 6820072.579092987], [142496.78952869328, 6819997.666816089], [142545.0, 6819670.0], [142500.23076923078, 6819625.230769231], [142605.5162615763, 6819519.49576577], [142622.45828279847, 6819373.558505002], [142764.9480968858, 6819290.017301038], [142802.37950475726, 6819326.935949897], [142957.33098629283, 6819326.905978922], [143108.52788881605, 6819207.685083574], [143320.7669052955, 6819176.611933246], [143329.91124260356, 6819067.061143984], [143440.0, 6818955.0], [143500.0, 6818955.0], [143668.3153049157, 6818845.289064038], [143728.84615384616, 6818876.923076923], [143832.3291834707, 6818814.509030335], [143810.82940272454, 6818728.670749027], [143766.25954198473, 6818729.122137405], [143798.94779576827, 6818644.411090414], [143724.88005997002, 6818546.64167916], [143728.33333333334, 6818373.333333333], [143665.70455182076, 6818215.276290152], [143951.67372638808, 6818022.302804808], [144000.3285880899, 6817943.895927811], [144332.65235579392, 6817745.0], [144365.87257886506, 6817745.0], [144498.42865702798, 6817640.664382635], [144528.09024704012, 6817525.1893014405], [144490.5572646479, 6817377.004492921], [144252.18583446817, 6817108.268572732], [144020.63138396858, 6817064.226122432], [144103.0, 6816882.0], [144078.0923694779, 6816670.361445783], [144277.27753076606, 6816595.668464988], [144557.5, 6816682.5], [144680.52583922824, 6816643.4437025385], [144647.251725348, 6816502.276289624], [144749.5221573919, 6816395.708043541], [144745.86872586873, 6816358.281853282], [144850.0, 6816345.0], [145040.46826041545, 6816171.163978183], [145023.57142857142, 6816067.142857143], [145102.99888205703, 6815921.453325881], [145065.0, 6815880.0], [145013.74513079796, 6815591.887975379], [145075.07522179233, 6815561.809962153], [145124.17391542502, 6815188.856079254], [145175.52631578947, 6815144.736842105], [145195.0, 6815040.0], [145155.0, 6815000.0], [145172.14285714287, 6814947.142857143], [145111.0, 6814886.0], [145139.67534438922, 6814816.195210808], [145468.04373820877, 6814477.181769896], [145615.5698981443, 6814257.181863997], [145604.56123577632, 6814219.313332136], [145914.0, 6813891.8], [146001.37096774194, 6813903.629032258], [146144.44444444444, 6813760.555555556], [146350.0, 6813645.0], [146335.0, 6813620.0], [146401.43835616438, 6813606.712328767], [146405.0, 6813460.0], [146366.15659509707, 6813430.677432868], [146527.69600301265, 6813171.358123098], [146503.70486860673, 6813136.148679506], [146611.05376965224, 6813106.046539101], [146847.60120585765, 6813085.9007122805], [146966.527700098, 6812958.03581416], [147052.18302184745, 6812997.871228581], [147169.1780821918, 6812955.273972603], [147196.0, 6812995.0], [147346.35462052366, 6812939.574463671], [147421.92532942898, 6812993.97510981], [147479.09752825845, 6812965.4824469825], [147558.09108487266, 6813045.788113164], [147519.6041081912, 6813077.697945904], [147608.4982822893, 6813168.276441781], [147667.1334431631, 6813151.573311367], [147790.91385169327, 6813284.549521231], [147842.47737909516, 6813293.602184087], [148220.3207003201, 6813636.607356718], [148361.08580106302, 6813519.130599848], [148460.0, 6813485.0], [148493.6742456259, 6813531.714563435], [148606.3060144191, 6813516.527023941], [148728.69185386883, 6813553.855230316], [148879.0, 6813714.0], [148892.34732105123, 6813769.057699337], [149049.7259037944, 6813832.720556439], [149340.6027820711, 6813827.364760432], [149443.44871181578, 6813949.081502975], [149783.62941755238, 6814088.053182289], [149787.3673469388, 6814149.102040816], [149913.8162243507, 6814447.021466103], [150027.98398457805, 6814525.496019012], [150141.04797171257, 6814506.503744745], [150194.78260869565, 6814540.217391305], [150435.0, 6814530.0], [150360.75, 6814604.25], [150416.25, 6814698.75], [150445.8695652174, 6814670.869565218], [150597.77777777778, 6814822.777777778], [150799.40637330865, 6814738.635584262], [150994.22455816425, 6814787.81637211], [151012.97354325702, 6814963.590357457], [150951.63579225936, 6815083.9067151835], [150962.72727272726, 6815115.0], [151030.48751697718, 6815110.134990859], [151102.07909634485, 6815245.279159011], [151271.65451519756, 6815239.984295697], [151308.7682386734, 6815311.079564392], [151460.57106393375, 6815222.896297737], [151563.125, 6815341.875], [151684.30056524486, 6815324.256142117], [151834.57169459964, 6815543.575418995], [151893.27946552495, 6815707.847712303], [151880.50264550265, 6815858.783068783], [151990.6010042372, 6815986.497164915], [152060.12504789885, 6816209.749904202], [152035.0, 6816290.0], [152084.0909090909, 6816311.515151516], [152092.80805687205, 6816360.912322275], [152299.2829360342, 6816553.41516797], [152422.85714285713, 6816443.571428572], [152477.49710791605, 6816486.557593786], [152521.42857142858, 6816456.428571428], [152592.2393430768, 6816512.669524852], [152596.76479812863, 6816637.450847148], [152549.84938495586, 6816705.217555064], [152762.9001756771, 6816982.259353165], [152932.75378831074, 6816779.468768818], [153164.8737720111, 6816642.538832252], [153165.02191609266, 6816592.614276769], [153287.77621563748, 6816513.054280999], [153606.79801008, 6816526.356951625], [153739.00240476284, 6816450.161591488], [153688.694621263, 6816254.935961682], [153870.23303808243, 6816121.92212627], [153852.40340794573, 6816058.978151899], [154044.0, 6816041.0], [154143.77704498603, 6815941.222955014], [154418.8745345136, 6816050.63404243], [154483.23751478214, 6816023.997543892], [154682.17736722674, 6816036.966404154], [154750.1219986578, 6816065.8835090455], [154933.96544251748, 6816022.994869282], [155041.75461367719, 6816104.826975314], [155126.02943487625, 6816021.415705997], [155364.18056245425, 6815908.366837521], [155473.4518828452, 6815801.338912134], [155576.0787598512, 6815918.459955267], [155673.1800339771, 6815792.479119474], [155757.8260869565, 6815830.217391305], [155829.44544463628, 6815790.353100789], [155879.4713349174, 6815939.219827721], [156068.19036510444, 6815921.3572261715], [156182.09302325582, 6815835.930232558], [156202.26098923897, 6815726.969625716], [156260.625, 6815685.0], [156376.49083068728, 6815772.95243927], [156345.0, 6815850.0], [156415.0, 6815960.0], [156350.33945324935, 6816024.449926077], [156217.47260584292, 6816064.129555845], [156130.1851851852, 6816183.333333333], [156111.44192111958, 6816302.650209459], [156391.81677091605, 6816286.592340345], [156426.4556794017, 6816495.392917727], [156558.90990598194, 6816665.272419229], [156707.94926474956, 6816481.194127676], [157091.39304937274, 6816355.131812555], [157100.0, 6816425.0], [157305.47173560766, 6816362.353989709], [157390.1019995881, 6816381.039124564], [157273.75, 6816628.75], [157337.97297297296, 6816740.540540541], [157316.11111111112, 6816773.333333333], [157380.42857142858, 6816864.571428572], [157345.0, 6816900.0], [157474.2857142857, 6817029.285714285], [157510.0, 6816995.0], [157604.04255319148, 6817011.808510638], [157765.5383315261, 6816937.592302455], [157812.5, 6816973.0], [157925.68808132003, 6816903.948551952], [157895.0, 6816803.333333333], [157951.5116479476, 6816690.878120243], [157875.94978325407, 6816565.120443983], [157930.0, 6816505.0], [158094.7585828061, 6816526.831066811], [158441.32971239905, 6816305.462029215], [158484.7425422148, 6816089.556151916], [158755.6582352538, 6815868.595579216], [158717.7460571056, 6815769.164069157], [158766.58437423463, 6815731.4305657605], [159016.40058227236, 6815653.148119857], [158997.54284853733, 6815563.793145235], [159254.1424648113, 6815392.845778662], [159190.83333333334, 6815303.229166667], [159241.66666666666, 6815233.333333333], [159330.39325842698, 6815254.7191011235], [159444.41583315123, 6815179.457590648], [159518.08560806658, 6815001.26311421], [159610.0, 6814955.0], [159655.0, 6815000.0], [159669.50205278205, 6815115.172084419], [159871.07197186654, 6815149.299696093], [159952.22222222222, 6815107.222222222], [160069.10729420255, 6815179.692141028], [160134.23048735395, 6815139.763186853], [160204.5, 6815139.5], [160398.81895860942, 6815238.118430292], [160522.43506943982, 6815104.396783581], [160624.0604394343, 6815155.430899723], [160830.04368030006, 6814930.551773602], [161066.24030172775, 6814855.777698366], [161350.01393145724, 6814953.180551685], [161510.0, 6814915.0], [161598.26306397247, 6814975.643329668], [161780.19607843139, 6814952.647058823], [161840.0, 6814845.0], [161876.86315789475, 6814861.484210527], [161954.70612328488, 6814750.924636494], [162190.0934019556, 6814568.886670609], [162169.10988743644, 6814521.359502801], [162266.37049742692, 6814460.777893015], [162299.0909090909, 6814490.454545454], [162350.0, 6814465.0], [162403.04314329737, 6814538.998459168], [162378.6015243573, 6814574.734254772], [162522.26744186046, 6814651.220930233], [162516.74387723103, 6814616.8511016825], [162587.29036769632, 6814563.175514227], [162620.0, 6814415.0], [162751.02946044356, 6814479.826216484], [162840.0, 6814475.0], [162961.65952121164, 6814353.340478788], [163276.6738121217, 6814158.326187878], [163248.3261878783, 6814106.673812122], [163318.57142857142, 6814036.428571428], [163410.0, 6814085.0], [163484.88372093023, 6814020.813953488], [163609.2154664364, 6814065.748037321], [163892.62440494008, 6813782.779033474], [163741.62921348313, 6813622.471910113], [163552.71878099983, 6813603.240766249], [163471.222741433, 6813515.288161994], [163552.03058304757, 6813460.807038269], [163423.73463132296, 6813291.364642098], [163644.32819325296, 6813163.016771873], [163567.88869182774, 6812999.652704162], [163698.85066599218, 6812751.698001093], [163635.8378165902, 6812658.929392556], [163821.70311841829, 6812385.71047471], [163808.98071837446, 6812291.979156205], [163917.43243243243, 6812173.513513514], [163923.49914439756, 6812025.5785719445], [164084.99727816283, 6811926.5085076], [164173.68676790822, 6811790.963314203], [164263.90259560433, 6811485.964099594], [164428.94132231225, 6811306.58511767], [164441.15527007577, 6811201.8750435], [164543.2696481575, 6811027.505426047], [164525.81517928684, 6810915.243012267], [164687.76002290647, 6810745.419509138], [164648.83532978804, 6810678.5318045085], [164645.0, 6810520.0], [164790.76588878914, 6810427.424689603], [165041.0616470588, 6810353.613647059], [165255.01829893093, 6810409.439022539], [165355.3015424999, 6810379.725468889], [165807.77777777778, 6810492.777777778], [165862.34620659557, 6810453.302744165], [166164.88580153522, 6810652.314058491], [166357.33333333334, 6810733.222222222], [166504.79644088983, 6810702.478892937], [166738.2570838119, 6810924.066940101], [167062.79121971395, 6810825.960480761], [167499.8949211909, 6810833.021015761], [167622.72727272726, 6810912.2727272725], [167650.0, 6810885.0], [167833.04171334364, 6810991.066069858], [167898.69837386673, 6811139.245934667], [168105.2605042017, 6811334.478991597], [168024.4240491967, 6811467.551301144], [168059.70967741936, 6811663.548387097], [168036.46786122074, 6811744.73555327], [168048.9334216628, 6811997.866843326], [168105.70533241477, 6812299.294667585], [168046.04465184055, 6812358.955348159], [168134.59571527297, 6812469.595715273], [168120.12841631015, 6812599.02955548], [168305.32710050038, 6812698.043566311], [168440.4606585253, 6812940.626835678], [168455.73499161843, 6812932.546442499], [168521.4814814815, 6813123.518518519], [168216.6542235406, 6813511.0663074], [168345.10455040447, 6813676.958179838], [168406.41025641025, 6813652.435897436], [168454.5945945946, 6813719.594594595], [168498.42973970083, 6813714.518389612], [168563.73029364986, 6813866.044721538], [168520.9112981316, 6814040.718329472], [168533.679245283, 6814088.867924528], [168417.0148486697, 6814242.79852416], [168314.74741928652, 6814237.949877645], [168117.49437586972, 6814455.506079413], [168229.12993961514, 6814745.610354501], [168439.9903529381, 6814713.798655271], [168566.31719061558, 6814723.66341645], [168707.1066854023, 6814894.870021078], [168654.27544051432, 6814970.128122582], [168356.7192067656, 6815072.068766756], [168204.62177231206, 6815255.0], [168042.2355061998, 6815234.290297861], [167990.77338129497, 6815283.543165468], [167837.66177546134, 6815323.520864536], [167901.0237011057, 6815437.318948756], [167523.23344481905, 6815822.238529126], [167451.0630340981, 6815801.026141856], [167306.06762680024, 6815847.0788979335], [167190.0, 6815705.0], [167044.6100144439, 6815835.117958594], [167237.1842529126, 6816083.455123402], [167209.17775182932, 6816131.461973824], [167355.66460390794, 6816329.335396092], [167329.44444444444, 6816355.555555556], [167387.96205630354, 6816616.499388005], [167497.21773979685, 6816778.822526856], [167451.0272743894, 6816847.633378786], [167549.15078972108, 6817139.476878677], [167243.98866247002, 6817199.603574305], [167174.06875028307, 6817294.2011025585], [166996.3145335883, 6817359.908163894], [166971.0, 6817472.0], [166884.0909090909, 6817515.454545454], [166775.05378511976, 6817506.144659716], [166566.31215009288, 6817598.261576196], [166549.1625748903, 6817751.680748954], [166492.55927025742, 6817753.93929139], [166233.4210483845, 6818133.2116055], [166115.3551138529, 6818471.641239512], [166302.33333333334, 6818686.666666667], [166341.41249586048, 6818833.392177055], [166734.65753424657, 6819245.0], [166785.99877184516, 6819232.320050565], [167011.5880375926, 6819333.411962408], [166880.89496928419, 6819542.104949057], [166924.33247057255, 6819628.391934455], [167058.63821719208, 6819722.779751538], [167131.96713615023, 6819871.615023474], [167098.4764497793, 6819919.100137919], [167161.05042016806, 6820079.075630252], [167146.6634105652, 6820200.538060977], [167282.5, 6820387.5], [167248.75347801892, 6820436.769616026], [167256.65750346836, 6820618.65411646], [167206.68033090775, 6820686.246072778], [167267.62458181655, 6820786.998011628], [167215.5, 6820851.833333333], [167259.5918349431, 6820946.2756069675], [167216.78021978022, 6821043.472527472], [167354.9859947679, 6821224.385468366], [167282.85714285713, 6821420.238095238], [167235.0, 6821430.0], [167265.53796103233, 6821483.618292585], [166947.04765552984, 6821784.847523488], [166720.31987415714, 6821775.924246227], [166235.69674469688, 6822241.87931986], [165934.52915906822, 6822079.799817318], [165911.88442211057, 6821905.326633166], [165679.2638544093, 6822102.583799018], [165423.29185031544, 6822158.237403855], [165223.8708631178, 6822108.915472963], [165124.66666666666, 6822119.666666667], [165028.29268292684, 6822023.292682927], [164829.50572649855, 6822175.708886004], [164815.0, 6822247.133283693], [163998.30829096286, 6823129.58053719], [163792.85178620127, 6823026.627806563], [163805.71543846332, 6823001.367150615], [163419.6545146307, 6822556.426685418], [163341.53802613975, 6822599.542039724], [163180.67637670063, 6822569.993789102], [163078.72477212505, 6822603.932886762], [162872.4742136763, 6822509.121809682], [162653.07692307694, 6822468.076923077], [162592.44541484717, 6822515.305676856], [162393.33333333334, 6822501.666666667], [162248.53606027988, 6822609.230355221], [162144.63927978635, 6822637.4066103045], [161895.76822711964, 6822882.543396485], [161826.2174817898, 6823161.207075963], [161645.77714427325, 6823342.256978973], [161562.80898876404, 6823267.921348315], [161490.0, 6823285.0], [161266.79030192975, 6822970.667908133], [160971.81136296896, 6822883.205454997], [160959.26763371166, 6822774.73558198], [160806.80737806426, 6822591.108377964], [160412.43243243243, 6822545.810810811], [160232.1669561144, 6822688.572761424], [160162.72727272726, 6822677.337662337], [160116.66826003825, 6822705.004780115], [160145.0, 6822760.0], [159971.1759431634, 6822771.255124691], [159841.0655737705, 6822924.918032787], [159771.92534466315, 6822925.010838464], [159635.0, 6823080.0], [159650.36697247706, 6823161.758409786], [159531.98256241117, 6823235.420569002], [159420.0, 6823155.0], [159301.30434782608, 6823135.217391305], [159260.0, 6823205.0], [159084.67146380994, 6823195.956785547], [158756.73403076752, 6823385.953928209], [158718.37016574584, 6823475.46961326], [158601.9285083186, 6823496.844012202], [158573.4, 6823588.0], [158618.70986920333, 6823633.745541022], [158516.53957800812, 6823634.453374332], [158514.84711211777, 6823750.481313704], [158377.36809690003, 6823777.6319031], [158296.42857142858, 6823858.571428572], [158336.72951870546, 6824128.23415214], [158552.46797385416, 6824354.995921588], [158546.4730999146, 6824410.388556789], [158631.45851142038, 6824504.988622307], [158627.8440081232, 6824573.971657521], [158751.9642857143, 6824783.035714285], [158635.0, 6824900.0], [158610.74017743874, 6825026.858048174], [158528.06397840928, 6825124.598348944], [158584.43570265872, 6825242.722011213], [158517.10595515018, 6825372.10595515], [158679.34782608695, 6825534.347826087], [158626.98421610988, 6825650.749890815], [158247.49005137023, 6826057.537393148], [157917.51924390567, 6826093.847710612], [157786.67985941586, 6826008.639392729], [157378.7747430343, 6826299.240397112], [157280.0, 6826305.0], [156995.2896710623, 6826597.929300996], [156855.0, 6826887.580645162], [156855.0, 6826987.142857143], [156781.4229437834, 6827014.580683301], [156694.18284996282, 6826960.430362051], [156580.0, 6827035.0], [156427.22619874487, 6826978.528233891], [156322.20362574054, 6826978.105847667], [155696.28811047922, 6826444.645677502], [155698.97111913358, 6826325.956678701], [155648.69638047065, 6826220.796272789], [155678.87947168696, 6826174.505945391], [155347.17741730215, 6825877.605460952], [155324.0, 6825899.0], [155239.92119495236, 6825793.362526991], [155329.7510011255, 6825692.161659015], [155235.0, 6825520.0], [155273.1181127542, 6825469.420196538], [155244.836861259, 6825398.880280872], [155275.0, 6825185.998955788], [155144.2457153856, 6825030.026256759], [155146.80368488174, 6824888.237334569], [154966.50743680075, 6824752.349697339], [154940.0, 6824675.0], [154672.96470588236, 6824566.05882353], [154562.5179401709, 6824615.016627856], [154475.2427402175, 6824558.400979183], [154061.17947062736, 6824952.682466841], [153948.3932853717, 6824889.604316547], [153910.0, 6824925.0], [153633.8414655395, 6824675.296095573], [153471.88416499528, 6824573.500874762], [153426.8792042776, 6824646.075720117], [153309.49074264755, 6824577.633097253], [153247.0679408379, 6824447.49916059], [153120.6811731315, 6824334.545884579], [152990.0, 6824405.0], [152808.32406471862, 6824259.991821811], [152677.78021868292, 6824315.803335164], [152626.22609219502, 6824579.0548049705], [152384.7992433376, 6824779.837076458], [152278.09075573212, 6824846.237759655], [152213.0, 6824712.0], [152161.25, 6824706.25], [152091.3911917246, 6824766.539108512], [151782.18418519443, 6824750.416064381], [151575.3332200404, 6824670.751515386], [151482.09492582743, 6824535.961711694], [151237.8509637461, 6824588.767535829], [151048.6855839793, 6824570.609580332], [150772.67070690743, 6824635.934637659], [150647.1180714055, 6824694.774777073], [150517.2738001314, 6824882.720017374], [150490.57487511373, 6824992.36659076], [150368.1541865854, 6825058.422906707], [150143.10841580582, 6825308.745261659], [150059.24676187313, 6825284.784789107], [149914.90366404055, 6825339.163638309], [149866.64025356577, 6825380.546751189], [149803.0982650025, 6825359.3660883345], [149713.27636316314, 6825441.684162582], [149593.7657585323, 6825331.10442416], [149547.14285714287, 6825340.714285715], [149490.0, 6825295.0], [149274.90679094542, 6825546.364846871], [149305.0, 6825590.0], [149096.13636363635, 6825798.863636363], [149137.1672067933, 6825876.02289043], [148925.0, 6826050.0], [148928.31606217616, 6826129.481865285], [148692.09151447949, 6826397.939703955], [148622.70970824885, 6826338.784241047], [148560.55555555556, 6826383.333333333], [148590.88585017837, 6826421.236623067], [148546.1879647242, 6826482.32734796], [148627.16378508764, 6826627.871523432], [148499.26859107963, 6826755.395468691], [148682.25090291057, 6826952.749097089], [148666.00580270792, 6827060.038684719], [148705.0, 6827133.333333333], [148653.18181818182, 6827111.818181818], [148523.04537521815, 6827177.068062827], [148547.29508196723, 6827213.442622951], [148456.21325244984, 6827278.492767149], [148465.0, 6827340.0], [148325.0, 6827520.0], [148315.0, 6827586.0], [148135.7594936709, 6827449.24050633], [148000.12285927028, 6827414.87714073], [147905.08593415626, 6827465.951652011], [147724.3533032997, 6827485.0], [147546.80814456358, 6827709.264580327], [147618.99196179604, 6827783.092181444], [147447.1647981899, 6827912.16479819], [147353.0386189563, 6827864.118452933], [147237.3367831924, 6827982.47275187], [147137.62411810685, 6828023.250587929], [147043.8427676554, 6827940.959470064], [146646.2475308213, 6828237.569703922], [146510.6303528427, 6828282.464883227], [146480.02232370205, 6828326.315199159], [146243.46153846153, 6828433.269230769], [146166.36363636365, 6828385.909090909], [145892.8579279267, 6828449.293074313], [145698.8515359408, 6828273.418585753], [145603.37953091683, 6828313.336886994], [145625.0, 6828380.0], [145239.0185801349, 6828819.417609053], [145283.04689674792, 6828925.031260869], [145148.23529411765, 6829058.529411765], [145163.20202680613, 6829149.718862373], [144653.03129221033, 6829692.410361127], [144531.66666666666, 6829883.333333333], [144568.93858913428, 6829988.851458391], [144377.39666944387, 6830062.1077173175], [143979.65746991846, 6830084.060252395], [143870.0, 6830045.0], [143733.7129986326, 6830163.906018191], [143487.2764752713, 6830596.022720626], [143333.0561105112, 6830726.501611498], [143216.97162517396, 6830920.114947552], [142763.93285686092, 6831292.534366456], [142450.3096744802, 6831305.16582353], [142317.48989381708, 6831369.199303599], [142189.6591747816, 6831304.743607308], [142082.6455026455, 6831372.883597883], [142014.54293797343, 6831352.083016457], [141930.4563679374, 6831434.037702831], [141864.5673076923, 6831389.567307692], [141799.14123013322, 6831405.247070234], [141787.48680984325, 6831323.967080333], [141636.66666666666, 6831181.666666667], [141475.60008149847, 6831197.302349077], [141233.0548628429, 6830976.832917706], [141509.8184635631, 6830604.366053854], [141495.33898305084, 6830560.677966102], [141564.46000643945, 6830509.770019778], [141545.77362714784, 6830458.905365103], [141632.36842105264, 6830352.631578947], [141545.0, 6830250.0], [141623.8377763633, 6830200.622274657], [141686.23654181996, 6829929.228708523], [141649.55835962144, 6829859.681913775], [141715.0, 6829800.0], [141666.44749290444, 6829677.47398297], [141721.66666666666, 6829581.111111111], [141709.79804479572, 6829513.855587176], [141562.36967840735, 6829412.856355283], [141454.0950811691, 6829492.618725208], [141175.23841093152, 6829271.356306608], [141034.58521433573, 6829410.063663613], [140909.11902109734, 6829406.78201276], [140730.0, 6829515.0], [140600.0, 6829435.0], [140618.06886056298, 6829398.782824378], [140532.1081036239, 6829317.67283945], [140470.0, 6829355.0], [140373.125, 6829268.194444444], [140226.71247727206, 6829229.2699248735], [140045.26763457104, 6829090.899232198], [139907.9834137516, 6829228.536762], [139848.93116912674, 6829387.837838343], [139537.18753273966, 6829777.593713987], [139457.36522433392, 6830009.841604134], [139471.75458260515, 6830190.407476903], [139361.69032642775, 6830442.3604914965], [139385.76923076922, 6830663.846153846], [139297.1158099488, 6830979.101254613], [138957.26103517492, 6831621.836906897], [138742.14602379626, 6831882.475498062], [138744.0186756718, 6831907.097402352], [138398.62650113303, 6832267.215780782], [138303.2242100864, 6832205.139652085], [138029.34806321948, 6832279.209163358], [137863.5294117647, 6832232.647058823], [137825.43219565472, 6832281.692015447], [137640.0, 6832215.0]]]}}]}